{"type":"Topology","objects":{"foo":{"type":"GeometryCollection","geometries":[{"type":"Polygon","arcs":[[0]],"properties":{"name":"Chak","gaul_code":1000016,"targetarea":1.5569474,"totpop":88284.9263725,"country_id":"AFG","targetpop":1286.020813,"totalarea":819.6417202,"new_mean":0}},{"type":"MultiPolygon","arcs":[[[1]],[[2]]],"properties":{"name":"Rustaq","gaul_code":1000080,"targetarea":7.9377597,"totpop":189279.645943,"country_id":"AFG","targetpop":9075.369751,"totalarea":1830.9446804,"new_mean":0}},{"type":"MultiPolygon","arcs":[[[1]],[[2]]],"properties":{"name":"Rustaq","gaul_code":1000080,"targetarea":7.9377597,"totpop":189279.645943,"country_id":"AFG","targetpop":9075.369751,"totalarea":1830.9446804,"new_mean":0}},{"type":"Polygon","arcs":[[3]],"properties":{"name":"Baghlani Jadid","gaul_code":1000107,"targetarea":7.9192894,"totpop":184578.72506,"country_id":"AFG","targetpop":11575.9113159,"totalarea":2591.4512172,"new_mean":8.0105581e-10}},{"type":"MultiPolygon","arcs":[[[4,5,6]],[[7]]],"properties":{"name":"Arghandab","gaul_code":1000135,"targetarea":31.7226278,"totpop":108639.90029,"country_id":"AFG","targetpop":50140.9369202,"totalarea":652.6747257,"new_mean":0.0000062646594}},{"type":"MultiPolygon","arcs":[[[8]],[[9,10]]],"properties":{"name":"Paghman","gaul_code":1000042,"targetarea":66.1531912,"totpop":175431.74539,"country_id":"AFG","targetpop":107789.985931,"totalarea":356.098788,"new_mean":0}},{"type":"MultiPolygon","arcs":[[[11]],[[12]]],"properties":{"name":"Nijrab","gaul_code":1000136,"targetarea":8.7262466,"totpop":116242.377689,"country_id":"AFG","targetpop":10056.0741272,"totalarea":566.2741915,"new_mean":0}},{"type":"Polygon","arcs":[[13]],"properties":{"name":"Qaysar","gaul_code":1000228,"targetarea":9.8520156,"totpop":174086.287795,"country_id":"AFG","targetpop":11602.1403198,"totalarea":2539.7636446,"new_mean":0}},{"type":"Polygon","arcs":[[14]],"properties":{"name":"Pashtun Zarghun","gaul_code":1000318,"targetarea":4.388613,"totpop":125667.244171,"country_id":"AFG","targetpop":5558.8997803,"totalarea":1714.5581908,"new_mean":0}},{"type":"MultiPolygon","arcs":[[[15]],[[16,17,18]]],"properties":{"name":"Mando Zayi","gaul_code":1000241,"targetarea":42.8029153,"totpop":78031.9161682,"country_id":"AFG","targetpop":46438.6201782,"totalarea":103.4171532,"new_mean":0.0005501}},{"type":"MultiPolygon","arcs":[[[19]],[[20]]],"properties":{"name":"Puli Alam","gaul_code":1000275,"targetarea":10.6849818,"totpop":132363.473825,"country_id":"AFG","targetpop":11986.7481079,"totalarea":1122.3441267,"new_mean":0}},{"type":"MultiPolygon","arcs":[[[21,22]],[[23,-7,24]]],"properties":{"name":"Daman","gaul_code":1000267,"targetarea":30.0036977,"totpop":117989.205515,"country_id":"AFG","targetpop":42509.9855042,"totalarea":4441.6342289,"new_mean":0}},{"type":"Polygon","arcs":[[25]],"properties":{"name":"Farah","gaul_code":1000199,"targetarea":19.8273704,"totpop":137114.575686,"country_id":"AFG","targetpop":20258.3019409,"totalarea":3158.544675,"new_mean":0}},{"type":"Polygon","arcs":[[26]],"properties":{"name":"Bala Buluk","gaul_code":1000348,"targetarea":0.9861294,"totpop":90066.0861906,"country_id":"AFG","targetpop":1289.6144409,"totalarea":5256.9582835,"new_mean":0}},{"type":"Polygon","arcs":[[27]],"properties":{"name":"Shibirghan","gaul_code":1000480,"targetarea":33.5209024,"totpop":166323.381493,"country_id":"AFG","targetpop":51875.8553162,"totalarea":2190.5626947,"new_mean":0}},{"type":"MultiPolygon","arcs":[[[28,29,30]],[[31,32,33]],[[34,35,36]]],"properties":{"name":"Chaharikar","gaul_code":1000493,"targetarea":60.4931348,"totpop":155867.462317,"country_id":"AFG","targetpop":104798.946381,"totalarea":266.1865813,"new_mean":0}},{"type":"Polygon","arcs":[[37]],"properties":{"name":"Khan Abad","gaul_code":1000643,"targetarea":8.7417712,"totpop":127857.452528,"country_id":"AFG","targetpop":11208.2902832,"totalarea":716.8948153,"new_mean":0}},{"type":"MultiPolygon","arcs":[[[38]],[[39]]],"properties":{"name":"Khwaja Ghar","gaul_code":1000612,"targetarea":5.9625052,"totpop":84715.3528461,"country_id":"AFG","targetpop":6669.8560181,"totalarea":461.0647196,"new_mean":0}},{"type":"Polygon","arcs":[[40,41]],"properties":{"name":"Qala-I-Naw","gaul_code":1000745,"targetarea":16.7145112,"totpop":89013.0530162,"country_id":"AFG","targetpop":21305.0893555,"totalarea":801.8849038,"new_mean":0}},{"type":"Polygon","arcs":[[42,43,44,45,46]],"properties":{"name":"Hisa-i-Duwumi Kohist","gaul_code":1000711,"targetarea":26.995623,"totpop":36036.7998352,"country_id":"AFG","targetpop":29550.6174011,"totalarea":41.8964743,"new_mean":0}},{"type":"Polygon","arcs":[[47]],"properties":{"name":"Rukha","gaul_code":1000778,"targetarea":4.3713554,"totpop":27982.280798,"country_id":"AFG","targetpop":6599.2529907,"totalarea":201.3264189,"new_mean":0}},{"type":"Polygon","arcs":[[48,49]],"properties":{"name":"Nahri Shahi","gaul_code":1000758,"targetarea":15.9954742,"totpop":172034.870201,"country_id":"AFG","targetpop":127333.574646,"totalarea":1310.8894896,"new_mean":0}},{"type":"Polygon","arcs":[[50,51,52]],"properties":{"name":"Kalakan","gaul_code":1001039,"targetarea":16.3810201,"totpop":40697.0639648,"country_id":"AFG","targetpop":22199.8432617,"totalarea":84.5285745,"new_mean":0}},{"type":"Polygon","arcs":[[-53,53,54,55,56,57]],"properties":{"name":"Mir Bacha Kot","gaul_code":1000933,"targetarea":18.3127276,"totpop":35110.5304794,"country_id":"AFG","targetpop":27006.0464783,"totalarea":40.7566547,"new_mean":0}},{"type":"Polygon","arcs":[[58,59]],"properties":{"name":"Mihtarlam","gaul_code":1000947,"targetarea":41.2487097,"totpop":130995.87075,"country_id":"AFG","targetpop":71715.1345825,"totalarea":587.7050453,"new_mean":0}},{"type":"Polygon","arcs":[[60]],"properties":{"name":"Zhari","gaul_code":1000939,"targetarea":3.3384452,"totpop":105213.404064,"country_id":"AFG","targetpop":3767.1975708,"totalarea":698.6100046,"new_mean":0.0000523}},{"type":"Polygon","arcs":[[61]],"properties":{"name":"Kushk","gaul_code":1001178,"targetarea":4.7581583,"totpop":162325.727988,"country_id":"AFG","targetpop":8985.4986572,"totalarea":3075.4591771,"new_mean":0}},{"type":"Polygon","arcs":[[62]],"properties":{"name":"Aqcha","gaul_code":1001164,"targetarea":18.1877469,"totpop":58521.2493858,"country_id":"AFG","targetpop":25781.5024414,"totalarea":144.0990065,"new_mean":0}},{"type":"MultiPolygon","arcs":[[[63]],[[64]],[[65,66,67]]],"properties":{"name":"Chaparhar","gaul_code":1001055,"targetarea":4.4797843,"totpop":64929.2763977,"country_id":"AFG","targetpop":5066.8244629,"totalarea":189.4286014,"new_mean":0}},{"type":"MultiPolygon","arcs":[[[68,69,-56,70]],[[71,-54,-52,72]]],"properties":{"name":"Guldara","gaul_code":1001115,"targetarea":24.0451211,"totpop":52784.4629507,"country_id":"AFG","targetpop":30968.6190796,"totalarea":104.1908342,"new_mean":0}},{"type":"MultiPolygon","arcs":[[[73,74]],[[75,76,-31]]],"properties":{"name":"Qarabagh","gaul_code":1001086,"targetarea":37.7237312,"totpop":94703.7898445,"country_id":"AFG","targetpop":42717.4124451,"totalarea":200.3620123,"new_mean":0}},{"type":"Polygon","arcs":[[77]],"properties":{"name":"Darzab","gaul_code":1001053,"targetarea":4.0292352,"totpop":55418.7246485,"country_id":"AFG","targetpop":4598.9569092,"totalarea":592.6215569,"new_mean":0.0000757}},{"type":"Polygon","arcs":[[77]],"properties":{"name":"Darzab","gaul_code":1001053,"targetarea":4.0292352,"totpop":55418.7246485,"country_id":"AFG","targetpop":4598.9569092,"totalarea":592.6215569,"new_mean":1.5671853e-9}},{"type":"Polygon","arcs":[[78]],"properties":{"name":"Balkh","gaul_code":1001136,"targetarea":17.2355863,"totpop":142737.176535,"country_id":"AFG","targetpop":27115.8353882,"totalarea":610.1678148,"new_mean":0}},{"type":"MultiPolygon","arcs":[[[79]],[[80]]],"properties":{"name":"Achin","gaul_code":1001169,"targetarea":6.440761,"totpop":109355.415062,"country_id":"AFG","targetpop":7579.8117676,"totalarea":437.3367524,"new_mean":0.0023801}},{"type":"Polygon","arcs":[[81]],"properties":{"name":"Baharak","gaul_code":1001107,"targetarea":8.3383569,"totpop":47183.0332327,"country_id":"AFG","targetpop":7092.4904785,"totalarea":408.9895904,"new_mean":0}},{"type":"MultiPolygon","arcs":[[[82]],[[83]],[[84]]],"properties":{"name":"Imam Sahib","gaul_code":1001236,"targetarea":28.64622,"totpop":211666.235527,"country_id":"AFG","targetpop":42081.000061,"totalarea":1592.6176146,"new_mean":0}},{"type":"Polygon","arcs":[[85,86]],"properties":{"name":"Dahana-I-Ghori","gaul_code":1001233,"targetarea":3.313836,"totpop":107126.939853,"country_id":"AFG","targetpop":2979.1759033,"totalarea":1632.5531327,"new_mean":0}},{"type":"MultiPolygon","arcs":[[[87]],[[88]]],"properties":{"name":"Kishim","gaul_code":1001294,"targetarea":18.1547099,"totpop":111477.415197,"country_id":"AFG","targetpop":21167.6046753,"totalarea":815.5565177,"new_mean":0}},{"type":"Polygon","arcs":[[89,90,91,92],[93]],"properties":{"name":"Taluqan","gaul_code":1001477,"targetarea":72.8995328,"totpop":220594.352976,"country_id":"AFG","targetpop":133963.042938,"totalarea":598.2970518,"new_mean":0}},{"type":"MultiPolygon","arcs":[[[94]],[[95,-18]]],"properties":{"name":"Khost(Matun)","gaul_code":1001470,"targetarea":65.9979297,"totpop":209001.490379,"country_id":"AFG","targetpop":82375.4395752,"totalarea":489.7277174,"new_mean":0.0006537}},{"type":"Polygon","arcs":[[96]],"properties":{"name":"Khogyani","gaul_code":1001391,"targetarea":5.1665747,"totpop":142848.173424,"country_id":"AFG","targetpop":5766.2808227,"totalarea":669.0827284,"new_mean":0.0005641}},{"type":"MultiPolygon","arcs":[[[97]],[[98]]],"properties":{"name":"Kot","gaul_code":1001455,"targetarea":8.6965838,"totpop":53038.0655518,"country_id":"AFG","targetpop":9045.4502258,"totalarea":147.0328232,"new_mean":0.0001401}},{"type":"Polygon","arcs":[[99,100,101,-44]],"properties":{"name":"Hisa-i-Awali Kohista","gaul_code":1001473,"targetarea":38.5947673,"totpop":83330.111187,"country_id":"AFG","targetpop":68347.3983765,"totalarea":93.4736425,"new_mean":0}},{"type":"Polygon","arcs":[[102,-86,103,104]],"properties":{"name":"Puli Khumri","gaul_code":1001544,"targetarea":57.1415053,"totpop":177685.066046,"country_id":"AFG","targetpop":119757.958893,"totalarea":291.1962788,"new_mean":0}},{"type":"MultiPolygon","arcs":[[[105,106]],[[107,108]]],"properties":{"name":"Argo","gaul_code":1001451,"targetarea":9.6748447,"totpop":121292.575768,"country_id":"AFG","targetpop":12461.0314331,"totalarea":1046.5004135,"new_mean":0}},{"type":"Polygon","arcs":[[109,-105]],"properties":{"name":"Dushi","gaul_code":1001595,"targetarea":1.0080147,"totpop":76079.5541363,"country_id":"AFG","targetpop":662.5446167,"totalarea":1770.8908335,"new_mean":0}},{"type":"MultiPolygon","arcs":[[[110]],[[-23,111,-25,-6,112],[113]]],"properties":{"name":"Kandahar","gaul_code":1001564,"targetarea":219.1192381,"totpop":556857.417191,"country_id":"AFG","targetpop":441147.37851,"totalarea":532.8585374,"new_mean":0}},{"type":"Polygon","arcs":[[114]],"properties":{"name":"Yangi Qala","gaul_code":1001598,"targetarea":5.9525362,"totpop":55186.1276627,"country_id":"AFG","targetpop":6161.9555664,"totalarea":240.4949811,"new_mean":0}},{"type":"Polygon","arcs":[[115,-47,116,117,118]],"properties":{"name":"Mahmud Raqi","gaul_code":1001686,"targetarea":32.3565989,"totpop":88209.1132126,"country_id":"AFG","targetpop":47006.3919678,"totalarea":193.0714193,"new_mean":0}},{"type":"Polygon","arcs":[[119]],"properties":{"name":"Alishing","gaul_code":1001690,"targetarea":9.3840031,"totpop":93032.7135067,"country_id":"AFG","targetpop":13965.1661377,"totalarea":672.672204,"new_mean":0}},{"type":"Polygon","arcs":[[120]],"properties":{"name":"Sholgara","gaul_code":1001683,"targetarea":4.1426754,"totpop":118277.251528,"country_id":"AFG","targetpop":4664.800293,"totalarea":1767.4797026,"new_mean":0}},{"type":"Polygon","arcs":[[121]],"properties":{"name":"Kuz Kunar","gaul_code":1001615,"targetarea":5.7641388,"totpop":71720.098196,"country_id":"AFG","targetpop":6526.6473999,"totalarea":423.0809865,"new_mean":0.0000143}},{"type":"Polygon","arcs":[[122,123,124,125,126,127,-10,128,129,130,131,132,133,134,135,136,137,138]],"properties":{"name":"Kabul","gaul_code":1001753,"targetarea":314.484237,"totpop":3772805.91034,"country_id":"AFG","targetpop":3748090.44617,"totalarea":372.3086395,"new_mean":0}},{"type":"Polygon","arcs":[[139,140,141]],"properties":{"name":"Guzara","gaul_code":1001872,"targetarea":58.1388816,"totpop":189116.29632,"country_id":"AFG","targetpop":72119.9481812,"totalarea":1759.3225409,"new_mean":0}},{"type":"Polygon","arcs":[[142,143,-140],[144]],"properties":{"name":"Injil","gaul_code":1001794,"targetarea":135.764149,"totpop":410893.076625,"country_id":"AFG","targetpop":261492.022034,"totalarea":1148.6524179,"new_mean":0}},{"type":"Polygon","arcs":[[145,-143,-142]],"properties":{"name":"Hirat","gaul_code":1001941,"targetarea":194.6110449,"totpop":507222.932293,"country_id":"AFG","targetpop":460203.40152,"totalarea":401.0627166,"new_mean":0}},{"type":"MultiPolygon","arcs":[[[146]],[[147]]],"properties":{"name":"Qarghayi","gaul_code":1001919,"targetarea":39.2182254,"totpop":118308.436467,"country_id":"AFG","targetpop":46849.4282227,"totalarea":872.9249888,"new_mean":0}},{"type":"MultiPolygon","arcs":[[[146]],[[147]]],"properties":{"name":"Qarghayi","gaul_code":1001919,"targetarea":39.2182254,"totpop":118308.436467,"country_id":"AFG","targetpop":46849.4282227,"totalarea":872.9249888,"new_mean":0}},{"type":"Polygon","arcs":[[148]],"properties":{"name":"Dara-I-Nur","gaul_code":1002210,"targetarea":0.9635345,"totpop":48722.1922302,"country_id":"AFG","targetpop":1263.7279053,"totalarea":252.1618659,"new_mean":0.000648}},{"type":"Polygon","arcs":[[149]],"properties":{"name":"Khwaja Bahawuddin","gaul_code":1002345,"targetarea":2.0487181,"totpop":27690.280056,"country_id":"AFG","targetpop":2276.3792725,"totalarea":189.6392064,"new_mean":0}},{"type":"Polygon","arcs":[[150,151]],"properties":{"name":"Maymana","gaul_code":1002482,"targetarea":22.1155124,"totpop":154434.904459,"country_id":"AFG","targetpop":47231.7288208,"totalarea":969.6847303,"new_mean":9.2403954e-7}},{"type":"MultiPolygon","arcs":[[[152]],[[153]],[[154]]],"properties":{"name":"Kunduz","gaul_code":1002471,"targetarea":64.6270216,"totpop":281347.140374,"country_id":"AFG","targetpop":154118.649414,"totalarea":564.9540707,"new_mean":0}},{"type":"MultiPolygon","arcs":[[[155]],[[156,157]]],"properties":{"name":"Farza","gaul_code":1002536,"targetarea":4.3569255,"totpop":31623.9666328,"country_id":"AFG","targetpop":4746.7295532,"totalarea":108.1953867,"new_mean":0}},{"type":"MultiPolygon","arcs":[[[158,-59,159]],[[160]]],"properties":{"name":"Alingar","gaul_code":1002518,"targetarea":21.4519844,"totpop":151268.803848,"country_id":"AFG","targetpop":23579.0744629,"totalarea":934.0632212,"new_mean":0.0001216}},{"type":"MultiPolygon","arcs":[[[161]],[[162]]],"properties":{"name":"Sari Pul","gaul_code":1002460,"targetarea":32.5293533,"totpop":195277.751237,"country_id":"AFG","targetpop":48396.6316528,"totalarea":3050.1387001,"new_mean":0.000004838303}},{"type":"Polygon","arcs":[[163]],"properties":{"name":"Surobi","gaul_code":1002404,"targetarea":3.9192474,"totpop":68837.8040117,"country_id":"AFG","targetpop":3890.1862183,"totalarea":1223.3901615,"new_mean":0}},{"type":"MultiPolygon","arcs":[[[164,165]],[[166,167,168]],[[169,170,171]]],"properties":{"name":"Qurghan","gaul_code":1002443,"targetarea":11.7897134,"totpop":29370.9217944,"country_id":"AFG","targetpop":10736.6582031,"totalarea":379.1974797,"new_mean":0}},{"type":"Polygon","arcs":[[172]],"properties":{"name":"Dashti Qala","gaul_code":1002685,"targetarea":3.013394,"totpop":42550.4159088,"country_id":"AFG","targetpop":2967.3411255,"totalarea":271.9878347,"new_mean":0}},{"type":"Polygon","arcs":[[173,-101,174,-36,175,176]],"properties":{"name":"Jabalussaraj","gaul_code":1002709,"targetarea":45.0965511,"totpop":97537.9994583,"country_id":"AFG","targetpop":61550.0810547,"totalarea":169.6869121,"new_mean":0}},{"type":"Polygon","arcs":[[177,178,179]],"properties":{"name":"Nawa-i-Barakzayi","gaul_code":1002718,"targetarea":1.0317302,"totpop":106200.286517,"country_id":"AFG","targetpop":1723.9645386,"totalarea":2550.5313089,"new_mean":0.0005533}},{"type":"Polygon","arcs":[[180]],"properties":{"name":"Chah Ab","gaul_code":1002878,"targetarea":7.4763179,"totpop":94862.6301003,"country_id":"AFG","targetpop":9578.6141357,"totalarea":762.4517375,"new_mean":0}},{"type":"MultiPolygon","arcs":[[[181]],[[182]]],"properties":{"name":"Sabari","gaul_code":1002783,"targetarea":4.2149945,"totpop":115253.808767,"country_id":"AFG","targetpop":4253.1780395,"totalarea":483.1182693,"new_mean":0.0006384}},{"type":"Polygon","arcs":[[183,184,185]],"properties":{"name":"Shinwar","gaul_code":1003063,"targetarea":18.5436558,"totpop":73717.979248,"country_id":"AFG","targetpop":24123.8973694,"totalarea":166.6009416,"new_mean":0.0004561}},{"type":"MultiPolygon","arcs":[[[-93,186]],[[-91,187]]],"properties":{"name":"Baharak","gaul_code":1003192,"targetarea":6.6328501,"totpop":74910.995039,"country_id":"AFG","targetpop":5766.5010376,"totalarea":332.1777753,"new_mean":0}},{"type":"Polygon","arcs":[[-75,188,-158,189]],"properties":{"name":"Istalif","gaul_code":1003198,"targetarea":10.5062782,"totpop":25854.5605679,"country_id":"AFG","targetpop":15660.8869629,"totalarea":62.3327401,"new_mean":0}},{"type":"Polygon","arcs":[[-75,188,-158,189]],"properties":{"name":"Istalif","gaul_code":1003198,"targetarea":10.5062782,"totpop":25854.5605679,"country_id":"AFG","targetpop":15660.8869629,"totalarea":62.3327401,"new_mean":0}},{"type":"Polygon","arcs":[[190,191,-139,192]],"properties":{"name":"Dih Sabz","gaul_code":1003121,"targetarea":36.8101397,"totpop":244121.528615,"country_id":"AFG","targetpop":188211.301361,"totalarea":476.9585415,"new_mean":0}},{"type":"MultiPolygon","arcs":[[[193]],[[194,-130]]],"properties":{"name":"Chahar Asyab","gaul_code":1003113,"targetarea":4.4101697,"totpop":39017.7075806,"country_id":"AFG","targetpop":5482.2972107,"totalarea":216.8414612,"new_mean":0}},{"type":"MultiPolygon","arcs":[[[195,-132]],[[196,-134]],[[-136,197]],[[198,-193,-138]]],"properties":{"name":"Bagrami","gaul_code":1003087,"targetarea":14.9547666,"totpop":58725.4864311,"country_id":"AFG","targetpop":16180.930481,"totalarea":268.4396147,"new_mean":0}},{"type":"Polygon","arcs":[[199]],"properties":{"name":"Kohsan","gaul_code":1003125,"targetarea":2.7048933,"totpop":68411.501987,"country_id":"AFG","targetpop":3956.2037353,"totalarea":2141.8557592,"new_mean":0}},{"type":"MultiPolygon","arcs":[[[200,201]],[[202]]],"properties":{"name":"Kama","gaul_code":1003219,"targetarea":33.321026,"totpop":95839.2773132,"country_id":"AFG","targetpop":37208.8929749,"totalarea":259.094536,"new_mean":0.0007027}},{"type":"Polygon","arcs":[[203,-152]],"properties":{"name":"Pashtun Kot","gaul_code":1003354,"targetarea":32.0555597,"totpop":148323.736281,"country_id":"AFG","targetpop":46571.8652344,"totalarea":1199.7982399,"new_mean":0}},{"type":"Polygon","arcs":[[204]],"properties":{"name":"Sangin","gaul_code":1003332,"targetarea":6.0447019,"totpop":66566.5388484,"country_id":"AFG","targetpop":5336.3056641,"totalarea":514.3302988,"new_mean":0}},{"type":"MultiPolygon","arcs":[[[205,206,-66]],[[207,208,209]]],"properties":{"name":"Surkh Rod","gaul_code":1003547,"targetarea":45.0184247,"totpop":144008.493565,"country_id":"AFG","targetpop":58467.2249146,"totalarea":342.2801156,"new_mean":0}},{"type":"MultiPolygon","arcs":[[[210,-206,-68]],[[211,212,-208]]],"properties":{"name":"Bihsud","gaul_code":1003523,"targetarea":73.801265,"totpop":345248.62822,"country_id":"AFG","targetpop":315134.731079,"totalarea":184.3043198,"new_mean":0.0000499}},{"type":"MultiPolygon","arcs":[[[-127,213]],[[-192,214,-123]],[[215,-57,-70,216,-125]]],"properties":{"name":"Shakar Dara","gaul_code":1003661,"targetarea":37.7452782,"totpop":123545.773189,"country_id":"AFG","targetpop":69535.7302856,"totalarea":298.332915,"new_mean":0}},{"type":"Polygon","arcs":[[217,-179,218]],"properties":{"name":"Nad Ali","gaul_code":1003756,"targetarea":3.1389392,"totpop":138295.930359,"country_id":"AFG","targetpop":2854.0029297,"totalarea":4511.7634304,"new_mean":0.0000907}},{"type":"Polygon","arcs":[[-50,219]],"properties":{"name":"Mazari Shari","gaul_code":1003656,"targetarea":18.8024695,"totpop":263954.29216,"country_id":"AFG","targetpop":261847.651855,"totalarea":23.5268648,"new_mean":0}},{"type":"MultiPolygon","arcs":[[[220]],[[221]],[[222,223,-185]]],"properties":{"name":"Muhmand Dara","gaul_code":1003772,"targetarea":9.0677729,"totpop":58355.7666359,"country_id":"AFG","targetpop":10122.1697998,"totalarea":222.5080241,"new_mean":0.000249}},{"type":"Polygon","arcs":[[-41,224]],"properties":{"name":"Ab Kamari","gaul_code":1003886,"targetarea":2.2071963,"totpop":119944.704538,"country_id":"AFG","targetpop":2601.6040039,"totalarea":2350.1707999,"new_mean":0}},{"type":"Polygon","arcs":[[225]],"properties":{"name":"Baraki Barak","gaul_code":1003875,"targetarea":26.1773186,"totpop":101265.954884,"country_id":"AFG","targetpop":28674.7786255,"totalarea":318.099036,"new_mean":0}},{"type":"MultiPolygon","arcs":[[[226]],[[227]]],"properties":{"name":"Narang","gaul_code":1003893,"targetarea":6.9271772,"totpop":44990.0085831,"country_id":"AFG","targetpop":8361.8786011,"totalarea":211.1458133,"new_mean":0}},{"type":"MultiPolygon","arcs":[[[228]],[[229]]],"properties":{"name":"Bamyan","gaul_code":1001805,"targetarea":6.7462957,"totpop":97591.9506507,"country_id":"AFG","targetpop":7566.8857422,"totalarea":1855.7759124,"new_mean":0}},{"type":"MultiPolygon","arcs":[[[230,-176,-35,231]],[[232,-32,233,-118,234,-45,-102,-174,235]]],"properties":{"name":"Sayd Khel","gaul_code":1001734,"targetarea":31.3451723,"totpop":42910.5697327,"country_id":"AFG","targetpop":32131.2182007,"totalarea":43.6325207,"new_mean":0}},{"type":"Polygon","arcs":[[236]],"properties":{"name":"Ghazni","gaul_code":1003429,"targetarea":27.4434427,"totpop":117981.168682,"country_id":"AFG","targetpop":41923.7415466,"totalarea":387.7276372,"new_mean":0}},{"type":"Polygon","arcs":[[237]],"properties":{"name":"Nahrin","gaul_code":1002068,"targetarea":5.6754805,"totpop":80682.2202587,"country_id":"AFG","targetpop":5907.40271,"totalarea":1022.1906917,"new_mean":0}},{"type":"Polygon","arcs":[[238]],"properties":{"name":"Maydan Shahr","gaul_code":1000299,"targetarea":6.3889513,"totpop":70606.9933949,"country_id":"AFG","targetpop":6951.2513428,"totalarea":385.4933042,"new_mean":0}},{"type":"Polygon","arcs":[[239,240]],"properties":{"name":"Asadabad","gaul_code":1000396,"targetarea":5.3562038,"totpop":23726.533802,"country_id":"AFG","targetpop":8468.8272095,"totalarea":60.7440267,"new_mean":0.0000197}},{"type":"Polygon","arcs":[[241]],"properties":{"name":"Zaranj","gaul_code":1000508,"targetarea":19.7242042,"totpop":57603.3005364,"country_id":"AFG","targetpop":24976.3414612,"totalarea":694.3829888,"new_mean":0}},{"type":"Polygon","arcs":[[-209,-213,242,-202,243]],"properties":{"name":"Jalalabad","gaul_code":1000419,"targetarea":20.2417423,"totpop":47365.9471893,"country_id":"AFG","targetpop":26027.6542358,"totalarea":117.2785645,"new_mean":0}},{"type":"MultiPolygon","arcs":[[[244]],[[245,246]]],"properties":{"name":"Rodat","gaul_code":1000626,"targetarea":6.5088616,"totpop":96405.4425812,"country_id":"AFG","targetpop":8681.913208,"totalarea":447.6433567,"new_mean":0.0001601}},{"type":"Polygon","arcs":[[247]],"properties":{"name":"Musayi","gaul_code":1000685,"targetarea":2.8608278,"totpop":25951.9506149,"country_id":"AFG","targetpop":3514.7855835,"totalarea":96.0981209,"new_mean":0}},{"type":"Polygon","arcs":[[248]],"properties":{"name":"Khaniqa","gaul_code":1000631,"targetarea":1.6064645,"totpop":44319.1879563,"country_id":"AFG","targetpop":1124.1402588,"totalarea":764.4675739,"new_mean":0}},{"type":"Polygon","arcs":[[249]],"properties":{"name":"Murghab","gaul_code":1000648,"targetarea":4.1016827,"totpop":141388.262524,"country_id":"AFG","targetpop":4731.2664795,"totalarea":4916.9551006,"new_mean":0}},{"type":"Polygon","arcs":[[-168,250,-171,251]],"properties":{"name":"Andkhoy","gaul_code":1000576,"targetarea":28.000887,"totpop":81601.3321996,"country_id":"AFG","targetpop":34044.5282898,"totalarea":902.2093817,"new_mean":0}},{"type":"MultiPolygon","arcs":[[[252]],[[253]],[[254]]],"properties":{"name":"Shindand","gaul_code":1000608,"targetarea":31.8639987,"totpop":246841.119112,"country_id":"AFG","targetpop":36474.901001,"totalarea":7351.5149685,"new_mean":0}},{"type":"Polygon","arcs":[[255,-108,256,-106]],"properties":{"name":"Fayzabad","gaul_code":1002370,"targetarea":23.2030807,"totpop":88816.4673061,"country_id":"AFG","targetpop":33380.09375,"totalarea":610.3170096,"new_mean":0}},{"type":"MultiPolygon","arcs":[[[-77,257,-29]],[[258]],[[-119,-234,-34,259]]],"properties":{"name":"Bagram","gaul_code":1002998,"targetarea":43.7469373,"totpop":124872.042603,"country_id":"AFG","targetpop":53525.836731,"totalarea":303.3331789,"new_mean":0}},{"type":"MultiPolygon","arcs":[[[260]],[[261,-219,-178]]],"properties":{"name":"Lashkar Gah","gaul_code":1003074,"targetarea":18.8276193,"totpop":105149.176423,"country_id":"AFG","targetpop":25318.2921143,"totalarea":961.4833946,"new_mean":0.0000862}},{"type":"MultiPolygon","arcs":[[[262]],[[263]]],"properties":{"name":"Chimtal","gaul_code":1002978,"targetarea":3.4324455,"totpop":74993.9730463,"country_id":"AFG","targetpop":4475.468811,"totalarea":1014.9215016,"new_mean":0}},{"type":"Polygon","arcs":[[264]],"properties":{"name":"Dihdadi","gaul_code":1003268,"targetarea":17.2387205,"totpop":65206.7198639,"country_id":"AFG","targetpop":17572.2001343,"totalarea":250.7176177,"new_mean":0}},{"type":"Polygon","arcs":[[265,-240]],"properties":{"name":"Marawara","gaul_code":1003416,"targetarea":6.151046,"totpop":33433.6894569,"country_id":"AFG","targetpop":9795.2128906,"totalarea":157.3601953,"new_mean":0.000189}},{"type":"Polygon","arcs":[[266]],"properties":{"name":"Obe","gaul_code":1003348,"targetarea":8.0959467,"totpop":98301.8697388,"country_id":"AFG","targetpop":8596.9362793,"totalarea":2431.256589,"new_mean":0}},{"type":"Polygon","arcs":[[267]],"properties":{"name":"Tirin Kot","gaul_code":1003267,"targetarea":14.2502052,"totpop":107100.715011,"country_id":"AFG","targetpop":18256.5780029,"totalarea":1358.9669421,"new_mean":0}},{"type":"MultiPolygon","arcs":[[[-186,-224,268]],[[269,-246]],[[270]]],"properties":{"name":"Bati Kot","gaul_code":1003624,"targetarea":39.9942208,"totpop":103197.98671,"country_id":"AFG","targetpop":48991.1065674,"totalarea":163.8665232,"new_mean":0.0010247}}]}},"arcs":[[[68.5993317,34.1274358],[68.5797028,34.1171493],[68.5916657,34.1079167],[68.5993317,34.1274358]],[[69.8229157,37.1435979],[69.8137197,37.128803],[69.8333323,37.1245834],[69.8229157,37.1435979]],[[69.8078603,37.1403996],[69.7878408,37.1523829],[69.7805329,37.1285141],[69.799999,37.1245834],[69.8078603,37.1403996]],[[68.770458,36.1855331],[68.7460439,36.194428],[68.7301585,36.1699529],[68.774999,36.1662501],[68.770458,36.1855331]],[[65.7249865,31.6579316],[65.7168935,31.6644109],[65.6770335,31.649087],[65.6808096,31.6794744],[65.6597321,31.6768499],[65.6462881,31.644957],[65.62871,31.6375432],[65.5831244,31.6132733]],[[65.5831244,31.6132733],[65.61815,31.62097],[65.63434,31.6198],[65.67571,31.6341],[65.70116,31.63959],[65.72448,31.6507]],[[65.72448,31.6507],[65.7249865,31.6579316]],[[65.7110993,31.7271795],[65.6881175,31.7084254],[65.699999,31.6995834],[65.7110993,31.7271795]],[[68.9312002,34.4704045],[68.924348,34.4844467],[68.9055329,34.4677638],[68.924999,34.4579167],[68.9312002,34.4704045]],[[68.9878323,34.4787339],[69.01179,34.49528],[69.03855,34.50683],[69.05161,34.52247],[69.04772,34.53931],[69.0497766,34.5537211]],[[69.0497766,34.5537211],[69.0386546,34.5523381],[69.0196767,34.5634954],[68.9991689,34.5609441],[68.9851715,34.5941513],[68.9462881,34.5989893],[68.9556142,34.5834294],[68.9770661,34.5662501],[68.9546214,34.5482773],[68.9731435,34.5191513],[69.0037099,34.5229517],[68.9962881,34.5116236],[68.9703766,34.5042099],[68.9666657,34.4912501],[68.9878323,34.4787339]],[[69.6083323,35.0162501],[69.5808584,35.0092026],[69.6010407,34.9878484],[69.6083323,35.0162501]],[[69.6083323,35.0162501],[69.6234039,35.0194931],[69.6339345,35.0442001],[69.6124339,35.0353419],[69.6083323,35.0162501]],[[64.3166657,35.6829167],[64.3103831,35.7198796],[64.2726553,35.6815577],[64.3021312,35.6772039],[64.3166657,35.6829167]],[[62.5119394,34.314943],[62.5055329,34.3030909],[62.5333324,34.2995834],[62.5400869,34.3131739],[62.5154675,34.3187531],[62.5119394,34.314943]],[[69.749999,33.3079168],[69.7459951,33.3265121],[69.7303864,33.3186711],[69.749999,33.3079168]],[[69.749999,33.3079168],[69.7537099,33.3032903],[69.8211253,33.2948552],[69.8705394,33.3209742],[69.8848105,33.319563]],[[69.8848105,33.319563],[69.8682551,33.3440263]],[[69.8682551,33.3440263],[69.8377581,33.3459029],[69.8170031,33.3413805],[69.8046214,33.3366236],[69.7692536,33.3289698],[69.771402,33.311644],[69.749999,33.3079168]],[[69.0544098,33.9638005],[69.038264,33.9485377],[69.0666657,33.9412501],[69.0544098,33.9638005]],[[69.0260081,34.0198105],[68.9996735,34.0279851],[69.0063467,33.9981755],[69.0333323,33.9912501],[69.0260081,34.0198105]],[[65.854925,31.4642106],[65.8625316,31.4625432],[65.8870433,31.4832708],[65.8549307,31.537881],[65.8495163,31.5689881]],[[65.8495163,31.5689881],[65.83203,31.56271],[65.83165,31.55292],[65.86783,31.49745],[65.8627,31.47498],[65.854925,31.4642106]],[[65.8525576,31.6072414],[65.8629547,31.6116236],[65.8703766,31.6260605],[65.8207021,31.6198837],[65.7763499,31.6299545],[65.750943,31.6296697],[65.7342601,31.6505071],[65.7249865,31.6579316]],[[65.72448,31.6507],[65.73003,31.63543],[65.74383,31.63021],[65.78252,31.62098],[65.80378,31.61902],[65.82606,31.60709],[65.8525576,31.6072414]],[[62.1466787,32.3789006],[62.1370433,32.3866236],[62.127294,32.4097478],[62.0720693,32.3655787],[62.1333324,32.3579168],[62.1466787,32.3789006]],[[62.5133291,32.6351873],[62.5058421,32.6208847],[62.5166657,32.6162501],[62.5133291,32.6351873]],[[65.7916657,36.6579167],[65.7656891,36.6903468],[65.7227692,36.7068466],[65.7167471,36.6583521],[65.7656566,36.6295924],[65.7824046,36.6505071],[65.7916657,36.6579167]],[[69.16074,34.87604],[69.1604405,34.8854833]],[[69.1604405,34.8854833],[69.1509409,34.8745558]],[[69.1509409,34.8745558],[69.16074,34.87604]],[[69.27734,35.00929],[69.265681,35.0107956]],[[69.265681,35.0107956],[69.2764942,35.0074565]],[[69.2764942,35.0074565],[69.27734,35.00929]],[[69.2326202,35.039728],[69.21768,35.0548]],[[69.21768,35.0548],[69.19477,35.05783],[69.1872517,35.0621382]],[[69.1872517,35.0621382],[69.1869456,35.0569809],[69.161555,35.0453232],[69.1439443,34.9883245],[69.1543935,34.9789861],[69.1590065,34.9542686],[69.172293,34.9678265],[69.1858126,34.9727764],[69.2313669,34.988309],[69.2204905,35.0288925],[69.2326202,35.039728]],[[69.1203766,36.6708765],[69.1361318,36.6834945],[69.1124176,36.7032903],[69.0879547,36.6824814],[69.1166657,36.6662501],[69.1203766,36.6708765]],[[69.4411937,37.0653996],[69.4211741,37.0773829],[69.4138662,37.0535141],[69.4333323,37.0495834],[69.4411937,37.0653996]],[[69.382665,37.1524358],[69.3630361,37.1421493],[69.374999,37.1329167],[69.382665,37.1524358]],[[63.117525,34.9983081],[63.11018,34.98071],[63.0906985,34.9589775]],[[63.0906985,34.9589775],[63.1162751,34.9471339],[63.1112132,34.972732],[63.1451488,34.9794377],[63.149999,34.9829167],[63.1567048,35.0107569],[63.1380199,35.0144516],[63.1298493,35.0030624],[63.117525,34.9983081]],[[69.36245,35.0671186],[69.3617503,35.0787501],[69.3799144,35.0870834],[69.362452,35.0987605]],[[69.362452,35.0987605],[69.33956,35.09173],[69.27995,35.0678]],[[69.27995,35.0678],[69.2792881,35.0641766]],[[69.2792881,35.0641766],[69.3082184,35.0495427],[69.3053477,35.04367]],[[69.3053477,35.04367],[69.32147,35.04581],[69.34455,35.05343],[69.36245,35.0671186]],[[69.4817536,35.2631739],[69.4558258,35.2690496],[69.4471995,35.2530909],[69.474999,35.2495834],[69.4817536,35.2631739]],[[67.106132,36.6851183],[67.1416657,36.6829167],[67.1549307,36.7029851],[67.161734,36.7256291],[67.1091299,36.7391301],[67.087499,36.7342799],[67.0857767,36.7234615]],[[67.0857767,36.7234615],[67.11462,36.7232],[67.13652,36.71191],[67.14286,36.69377],[67.106132,36.6851183]],[[69.1475391,34.7486181],[69.1674632,34.7657903],[69.1609957,34.7957723],[69.1450502,34.7954662],[69.1237783,34.7835963],[69.1111154,34.7659611]],[[69.1111154,34.7659611],[69.12419,34.76137]],[[69.12419,34.76137],[69.1475391,34.7486181]],[[69.12419,34.76137],[69.11431,34.73043],[69.09199,34.71501],[69.0902869,34.6976302]],[[69.0902869,34.6976302],[69.089932,34.6931745]],[[69.089932,34.6931745],[69.08095,34.68342]],[[69.08095,34.68342],[69.0933825,34.6772102]],[[69.0933825,34.6772102],[69.1066722,34.6886581],[69.140331,34.7424057],[69.1475391,34.7486181]],[[70.2541569,34.6779082],[70.2205146,34.6981351]],[[70.2205146,34.6981351],[70.1863597,34.6837468],[70.190331,34.6518661],[70.2148265,34.6183171],[70.2089671,34.5712387],[70.2304026,34.5979965],[70.2276032,34.6204167],[70.249348,34.6295802],[70.2362783,34.6635971],[70.2541569,34.6779082]],[[65.4498363,31.5944809],[65.4215159,31.5798976],[65.4416657,31.5745834],[65.4498363,31.5944809]],[[62.2886544,35.2183301],[62.2830009,35.2553253],[62.279536,35.2634252],[62.263264,35.2551091],[62.2886544,35.2183301]],[[66.2163402,36.8910303],[66.2061839,36.91365],[66.1763825,36.9274602],[66.1637848,36.9015447],[66.1820465,36.8780014],[66.2083323,36.8745834],[66.2163402,36.8910303]],[[70.381249,34.3019312],[70.372053,34.2871363],[70.3916657,34.2829167],[70.381249,34.3019312]],[[70.3966624,34.3185206],[70.3891754,34.304218],[70.399999,34.2995834],[70.3966624,34.3185206]],[[70.45356,34.35802],[70.4276917,34.3554542]],[[70.4276917,34.3554542],[70.4294912,34.3491562],[70.4575588,34.353865]],[[70.4575588,34.353865],[70.45356,34.35802]],[[69.0833323,34.6995834],[69.0742693,34.6923232]],[[69.0742693,34.6923232],[69.08095,34.68342]],[[69.089932,34.6931745],[69.0833323,34.6995834]],[[69.0833323,34.6995834],[69.0902869,34.6976302]],[[69.1111154,34.7659611],[69.0961416,34.7451075],[69.0771637,34.7373927],[69.0615543,34.755521],[69.0534517,34.7531459],[69.03815,34.7188665],[69.074999,34.7245834],[69.0833323,34.6995834]],[[69.1132129,34.8082291],[69.128417,34.8148219],[69.1121084,34.8283635],[69.1045237,34.8458765],[69.0836579,34.8437525],[69.0738989,34.8329554]],[[69.0738989,34.8329554],[69.09735,34.84338],[69.10104,34.82582],[69.1132129,34.8082291]],[[69.1509409,34.8745558],[69.1339346,34.8134791],[69.1666657,34.8079167],[69.1805003,34.832636],[69.1987295,34.8466985],[69.1965159,34.8792587],[69.1775239,34.8825357]],[[69.1775239,34.8825357],[69.16074,34.87604]],[[65.3862783,35.9716334],[65.4010407,35.9797185],[65.3661774,35.9942001],[65.376057,35.9702377],[65.3862783,35.9716334]],[[66.9209463,36.7677068],[66.8718903,36.7780624],[66.8799958,36.7370183],[66.924999,36.7329167],[66.9209463,36.7677068]],[[70.6611481,34.0946436],[70.6465973,34.081871],[70.674999,34.0745834],[70.6611481,34.0946436]],[[70.7070234,34.1630197],[70.7051206,34.1704377],[70.7016754,34.1838689],[70.6799306,34.1775294],[70.7070234,34.1630197]],[[70.9110504,37.0086736],[70.8741201,37.0195785],[70.8822418,36.9873438],[70.899999,36.9829167],[70.9110504,37.0086736]],[[68.7661123,37.1671534],[68.7471995,37.1530909],[68.774999,37.1495834],[68.7661123,37.1671534]],[[68.8083323,37.1662501],[68.8083323,37.1829167],[68.7833323,37.1829167],[68.7833323,37.1662501],[68.8083323,37.1662501]],[[68.9202952,37.1626205],[68.9405101,37.1708928],[68.9357412,37.2031275],[68.891861,37.2115463],[68.8797028,37.1728052],[68.9166657,37.1579167],[68.9202952,37.1626205]],[[68.6750244,35.9496199],[68.6534617,35.9830264]],[[68.6534617,35.9830264],[68.6640778,35.9373682],[68.6750244,35.9496199]],[[70.1275218,36.8170883],[70.111734,36.8279851],[70.1049306,36.8378484],[70.0765289,36.8446518],[70.0835276,36.813475],[70.1166657,36.7912501],[70.1275218,36.8170883]],[[70.0881663,36.8873479],[70.0804515,36.903213],[70.0713694,36.8671493],[70.0833323,36.8579167],[70.0881663,36.8873479]],[[69.48982,36.70276],[69.5209463,36.703921],[69.5416657,36.6995834],[69.5514801,36.7101669],[69.6123362,36.721788],[69.592626,36.7392929],[69.5623362,36.7535914],[69.5209788,36.7872543],[69.5123525,36.7869125],[69.4988095,36.8015211]],[[69.4988095,36.8015211],[69.48282,36.78121],[69.4674399,36.7734829]],[[69.4674399,36.7734829],[69.4845293,36.719479]],[[69.4845293,36.719479],[69.49217,36.71079],[69.48982,36.70276]],[[69.499999,36.7662501],[69.4815094,36.7689438],[69.4973786,36.7842636],[69.499999,36.7662501]],[[70.0799957,33.3685206],[70.0725088,33.354218],[70.0833323,33.3495834],[70.0799957,33.3685206]],[[69.8848105,33.319563],[69.8959625,33.3209498],[69.9377106,33.3114731],[69.9537099,33.3208765],[70.0130687,33.3450017],[70.0133291,33.3645737],[70.0405589,33.3611842],[70.0537099,33.3812851],[70.0208323,33.3771957],[69.9832347,33.381871],[69.9629547,33.369957],[69.9287099,33.3625432],[69.8682551,33.3440263]],[[70.1833323,34.2495834],[70.2034821,34.2559636],[70.1864411,34.2702581],[70.174999,34.2579167],[70.1833323,34.2495834]],[[70.6666657,34.2162501],[70.636734,34.1961817],[70.6215973,34.1742498],[70.6579743,34.1824081],[70.6666657,34.2162501]],[[70.6666657,34.2162501],[70.6702197,34.2257047],[70.6689448,34.2243802],[70.6666657,34.2162501]],[[69.362452,35.0987605],[69.3629385,35.1068914],[69.3268707,35.1298243],[69.3068512,35.1522242],[69.2934072,35.1618474],[69.2867179,35.154364]],[[69.2867179,35.154364],[69.28796,35.12319]],[[69.28796,35.12319],[69.27995,35.0678]],[[68.7622121,35.8937374],[68.7651194,35.9018458],[68.7539378,35.9118474],[68.7446442,35.9419011],[68.718456,35.9830958],[68.6911937,36.0074488],[68.6791331,36.0209579],[68.6534617,35.9830264]],[[68.6750244,35.9496199],[68.6908325,35.9360117],[68.7002364,35.9258169],[68.7377269,35.9039861],[68.744594,35.8890459]],[[68.744594,35.8890459],[68.7622121,35.8937374]],[[70.6017789,37.0793196],[70.60294,37.08897],[70.58559,37.09851],[70.57417,37.11263],[70.56247,37.1111],[70.54503,37.09113],[70.5358961,37.0893675]],[[70.5358961,37.0893675],[70.5458812,37.0865748],[70.5773916,37.0984075],[70.5909007,37.0821477],[70.6017789,37.0793196]],[[70.5192358,37.0940273],[70.5162842,37.1210016]],[[70.5162842,37.1210016],[70.5050446,37.0979965],[70.5192358,37.0940273]],[[68.744594,35.8890459],[68.7583323,35.8829167],[68.7622121,35.8937374]],[[65.7075837,31.4676498],[65.7017731,31.4935857],[65.6830068,31.5029851],[65.6940583,31.4536891],[65.699999,31.4495834],[65.7075837,31.4676498]],[[65.8495163,31.5689881],[65.8435212,31.6034327],[65.8525576,31.6072414]],[[65.5831244,31.6132733],[65.6046214,31.6042099],[65.6120433,31.594957],[65.6462881,31.5875432],[65.6707998,31.5731349],[65.6839834,31.5122421],[65.7236969,31.5042099],[65.7333324,31.5162501],[65.7202627,31.5199895],[65.721402,31.5291285],[65.7046214,31.5425562],[65.7203766,31.5542099],[65.7379547,31.5616236],[65.7481598,31.585818],[65.7696768,31.5884954],[65.7870433,31.5782903],[65.8370433,31.5674708],[65.8196768,31.5518295],[65.7670238,31.5208766],[65.7619619,31.536884],[65.7639964,31.5532903],[65.7363271,31.5422796],[65.7380524,31.5285141],[65.7333324,31.5162501],[65.7416657,31.5162501],[65.7416657,31.4995834],[65.7642243,31.4944605],[65.77871,31.5125432],[65.7903636,31.519957],[65.8129547,31.4958766],[65.825608,31.4750601],[65.8341891,31.4687559],[65.854925,31.4642106]],[[65.8049307,31.5214015],[65.8364248,31.5434718],[65.824999,31.5162501],[65.8049307,31.5214015]],[[69.6416657,37.4662501],[69.6416657,37.4829167],[69.6166657,37.4829167],[69.6166657,37.4662501],[69.6416657,37.4662501]],[[69.3272891,35.0031373],[69.3784007,35.0154932],[69.3622386,35.0452296],[69.36245,35.0671186]],[[69.3053477,35.04367],[69.2944651,35.0273829],[69.2888662,35.0384506],[69.2782002,35.0438461]],[[69.2782002,35.0438461],[69.28221,35.02892],[69.29758,35.01377]],[[69.29758,35.01377],[69.30137,35.00595],[69.3272891,35.0031373]],[[70.124999,34.7329167],[70.1198883,34.7537135],[70.123583,34.7701767],[70.1081045,34.7779851],[70.0900869,34.7518905],[70.124999,34.7329167]],[[66.8956045,36.3271143],[66.8723786,36.3360173],[66.8805003,36.3123764],[66.899999,36.3079167],[66.8956045,36.3271143]],[[70.5994944,34.5823715],[70.57482,34.5768417],[70.563264,34.5630681],[70.5833323,34.5579167],[70.5994944,34.5823715]],[[69.14376,34.59424],[69.1137437,34.6058648]],[[69.1137437,34.6058648],[69.1004701,34.5904633]],[[69.1004701,34.5904633],[69.094631,34.5715796]],[[69.094631,34.5715796],[69.1037099,34.5677556],[69.0867593,34.5533249]],[[69.0867593,34.5533249],[69.07452,34.54694],[69.0543171,34.5542857]],[[69.0543171,34.5542857],[69.0497766,34.5537211]],[[68.9878323,34.4787339],[68.9870758,34.469371],[69.0884267,34.4463445],[69.1249665,34.4259628],[69.1366071,34.4124505]],[[69.1366071,34.4124505],[69.1552581,34.4225212]],[[69.1552581,34.4225212],[69.1763624,34.4494693]],[[69.1763624,34.4494693],[69.17108,34.46475],[69.178753,34.4713229]],[[69.178753,34.4713229],[69.178417,34.4754949],[69.2061676,34.4867742],[69.2168954,34.474311]],[[69.2168954,34.474311],[69.2417687,34.4839499]],[[69.2417687,34.4839499],[69.2619049,34.5119999],[69.2716413,34.5255628],[69.2732575,34.5278142],[69.3134756,34.5367742],[69.312691,34.5270103]],[[69.312691,34.5270103],[69.3366004,34.5358064]],[[69.3366004,34.5358064],[69.3619536,34.5448501]],[[69.3619536,34.5448501],[69.36297,34.54571]],[[69.36297,34.54571],[69.35262,34.55471],[69.34183,34.55525],[69.31269,34.56917],[69.30104,34.57079],[69.27201,34.55881],[69.25291,34.55611],[69.22064,34.57683],[69.17844,34.58978],[69.14376,34.59424]],[[62.19546,34.27999],[62.17769,34.28418],[62.1386631,34.282783]],[[62.1386631,34.282783],[62.1711416,34.2790593],[62.2055166,34.2664373],[62.2006338,34.2055486],[62.2333324,34.1995834],[62.2522777,34.2215723],[62.274999,34.2197454],[62.3165029,34.2230819],[62.3455231,34.2350693],[62.3121898,34.2451075],[62.3201327,34.2539898]],[[62.3201327,34.2539898],[62.2808,34.25955],[62.27227,34.25508],[62.248278,34.2557228],[62.2428836,34.2554766],[62.19546,34.27999]],[[62.19546,34.27999],[62.19867,34.29027],[62.19527,34.32979],[62.18677,34.34636],[62.1994373,34.3938873]],[[62.1994373,34.3938873],[62.1961416,34.395726],[62.1199209,34.4130396],[62.0955231,34.3873927],[62.0665192,34.3537216],[62.0905427,34.2883],[62.1386631,34.282783]],[[62.0891755,34.361294],[62.1038076,34.3684962],[62.1083324,34.3579167],[62.0891755,34.361294]],[[62.3201327,34.2539898],[62.3628083,34.2617742],[62.3871898,34.2724146],[62.3569977,34.2984278],[62.3325674,34.3374333],[62.3467764,34.3629013],[62.3454255,34.3797226],[62.2958324,34.3757349],[62.221223,34.3817327],[62.1994373,34.3938873]],[[70.2994456,34.5088201],[70.2805329,34.4947576],[70.3083323,34.4912501],[70.2994456,34.5088201]],[[70.3202952,34.5312362],[70.2644521,34.5540959],[70.2095042,34.5615463],[70.2138174,34.5156723],[70.2416657,34.5079167],[70.2452952,34.5126205],[70.2671702,34.5215723],[70.3100576,34.5152328],[70.3202952,34.5312362]],[[70.5966624,34.6685206],[70.5891754,34.654218],[70.599999,34.6495834],[70.5966624,34.6685206]],[[69.549999,37.3495834],[69.5314118,37.3455836],[69.5392405,37.3299667],[69.549999,37.3495834]],[[64.8224573,35.9199295],[64.816389,35.9287216],[64.7442536,35.946967],[64.7299307,35.9137069],[64.7587788,35.9035955]],[[64.7587788,35.9035955],[64.77733,35.91125],[64.8224573,35.9199295]],[[68.8333323,36.7079167],[68.8316295,36.7074385],[68.8296919,36.6985486],[68.8333323,36.7079167]],[[68.8333323,36.7079167],[68.8537099,36.6949569],[68.8712881,36.6875432],[68.8820465,36.6620224],[68.9287099,36.6582707],[68.911083,36.688239],[68.9141592,36.7129827],[68.8760081,36.7779078],[68.8629547,36.7616236],[68.8359202,36.7538925],[68.8380524,36.7201807],[68.8333323,36.7079167]],[[68.8666657,36.7995834],[68.8692861,36.7815699],[68.8851553,36.7968897],[68.8666657,36.7995834]],[[69.0666657,34.7912501],[69.0610342,34.8023829],[69.0388662,34.7948918],[69.0470368,34.7814967],[69.0666657,34.7912501]],[[69.0921327,34.8040755],[69.099999,34.7995834],[69.1092236,34.8064993]],[[69.1092236,34.8064993],[69.0921327,34.8040755]],[[70.2666657,34.7079167],[70.2490387,34.7146957],[70.2205146,34.6981351]],[[70.2541569,34.6779082],[70.2592601,34.6819931],[70.2666657,34.7079167]],[[70.2666657,34.7079167],[70.2902171,34.7119207],[70.3201976,34.7507634],[70.2982737,34.7615463],[70.287971,34.7363957],[70.2786937,34.7377711],[70.2666657,34.7079167]],[[65.924999,36.2495834],[65.9045075,36.2167587],[65.959846,36.170726],[65.9705231,36.1985662],[65.9455068,36.2434107],[65.924999,36.2495834]],[[65.924999,36.2495834],[65.9221995,36.2634506],[65.899999,36.2745834],[65.899999,36.2495834],[65.924999,36.2495834]],[[69.7588043,34.6111557],[69.7380361,34.5877792],[69.7666657,34.5829167],[69.7588043,34.6111557]],[[65.099999,36.8995834],[65.0944652,36.9023829],[65.0833324,36.9245834]],[[65.0833324,36.9245834],[65.074999,36.9245834],[65.074999,36.8897451],[65.082685,36.8829167],[65.099999,36.8829167],[65.099999,36.8995834]],[[65.0833324,36.9245834],[65.0876658,36.9279272]],[[65.0876658,36.9279272],[65.082608,36.9275686]],[[65.082608,36.9275686],[65.0833324,36.9245834]],[[65.099999,36.8995834],[65.1169587,36.9036972],[65.1249164,36.916119]],[[65.1249164,36.916119],[65.104745,36.9284748]],[[65.104745,36.9284748],[65.099999,36.8995834]],[[69.4650218,37.1547185],[69.4476227,37.1607162],[69.4388662,37.1451807],[69.4583323,37.1412501],[69.4650218,37.1547185]],[[69.2228266,35.065666],[69.24497,35.07781],[69.26258,35.10375],[69.27543,35.11708],[69.28796,35.12319]],[[69.2867179,35.154364],[69.2710602,35.1368474],[69.2278636,35.1287867],[69.2059072,35.1042058],[69.1862783,35.0951929],[69.1872517,35.0621382]],[[69.21768,35.0548],[69.2183948,35.0597715]],[[69.2183948,35.0597715],[69.2228266,35.065666]],[[64.359461,31.5508071],[64.35165,31.56333]],[[64.35165,31.56333],[64.3443716,31.5554703]],[[64.3443716,31.5554703],[64.359461,31.5508071]],[[69.835497,37.4040491],[69.8044749,37.4107162],[69.7971995,37.3864222],[69.824999,37.3829167],[69.835497,37.4040491]],[[70.0026357,33.4695338],[69.9879547,33.4554062],[70.0083323,33.4495834],[70.0026357,33.4695338]],[[70.0052562,33.4989649],[69.9888662,33.4844304],[70.0083323,33.4745834],[70.0052562,33.4989649]],[[70.7955989,34.2445637],[70.8056305,34.227505],[70.7850413,34.1924667],[70.8166657,34.1745834],[70.8302073,34.1870834],[70.8200023,34.1952499],[70.8298981,34.2120834],[70.8194163,34.2299057],[70.8202703,34.2367787]],[[70.8202703,34.2367787],[70.81385,34.25056]],[[70.81385,34.25056],[70.7955989,34.2445637]],[[69.4845293,36.719479],[69.48982,36.70276]],[[69.4988095,36.8015211],[69.4792145,36.7868108],[69.4475088,36.8035914],[69.4540029,36.7869247],[69.4674399,36.7734829]],[[69.0738989,34.8329554],[69.0628896,34.8207748],[69.0921327,34.8040755]],[[69.1092236,34.8064993],[69.1132129,34.8082291]],[[69.3778621,34.5546971],[69.3871898,34.5606389],[69.3455231,34.5701075],[69.3135569,34.5818466],[69.2666657,34.5780787],[69.2455882,34.5783961],[69.2211416,34.595726],[69.1521212,34.606778]],[[69.1521212,34.606778],[69.14376,34.59424]],[[69.36297,34.54571],[69.3778621,34.5546971]],[[69.1748362,34.4028142],[69.1465159,34.3882309],[69.1666657,34.3829167],[69.1748362,34.4028142]],[[69.1366071,34.4124505],[69.1551422,34.4040593],[69.1552581,34.4225212]],[[69.1763624,34.4494693],[69.180126,34.454275],[69.178753,34.4713229]],[[69.2168954,34.474311],[69.232486,34.471019],[69.2417687,34.4839499]],[[69.312691,34.5270103],[69.3101715,34.4956568],[69.3404938,34.4873927],[69.3366004,34.5358064]],[[69.3619536,34.5448501],[69.3778621,34.5546971]],[[61.2038565,34.6691431],[61.1802236,34.6535629],[61.2083324,34.6495834],[61.2038565,34.6691431]],[[70.5246658,34.4420184],[70.5358388,34.448912],[70.5276002,34.455759]],[[70.5276002,34.455759],[70.5246658,34.4420184]],[[70.5876455,34.4272893],[70.5769684,34.4618474],[70.5460602,34.440123],[70.5560862,34.4146998],[70.5873362,34.4034937],[70.5958486,34.4039983],[70.6583323,34.3995834],[70.6872711,34.4154566],[70.6680003,34.4281723],[70.6470856,34.4294215],[70.6293773,34.411823],[70.6054189,34.411412],[70.5876455,34.4272893]],[[64.7587788,35.9035955],[64.7799307,35.8961817],[64.7950674,35.8863184],[64.8365876,35.8756658],[64.8478669,35.8455266],[64.874999,35.8412501],[64.8699534,35.8608993],[64.8442536,35.9003809],[64.8284007,35.9113184],[64.8224573,35.9199295]],[[64.8548656,32.0792017],[64.8407217,32.0865463],[64.8297028,32.0652491],[64.849999,32.0495834],[64.8548656,32.0792017]],[[70.45356,34.35802],[70.4566765,34.3689192]],[[70.4566765,34.3689192],[70.4215973,34.3767847],[70.4276917,34.3554542]],[[70.4205098,34.3974145],[70.40491,34.40957],[70.39491,34.43051],[70.40348,34.44859],[70.40185,34.45624]],[[70.40185,34.45624],[70.3955564,34.4584484]],[[70.3955564,34.4584484],[70.3790192,34.4605046],[70.3762299,34.4702598],[70.3712433,34.4875735],[70.3628868,34.4932294],[70.3578041,34.4889526],[70.3462881,34.4616236],[70.3365713,34.4450872],[70.349999,34.4412501],[70.3471995,34.4357162],[70.3065257,34.4294011],[70.2971995,34.4103175],[70.3388662,34.4107162],[70.3666168,34.4245102],[70.3791657,34.4183822],[70.3883291,34.4228541],[70.3944651,34.4107162],[70.4083323,34.3995834],[70.4205098,34.3974145]],[[70.4575588,34.353865],[70.474999,34.3495834],[70.4708486,34.3657415],[70.4566765,34.3689192]],[[70.4205098,34.3974145],[70.4295563,34.3958033],[70.4541657,34.3817042],[70.4840648,34.3988266],[70.5215485,34.3691594],[70.553775,34.3811874],[70.5295563,34.4041366],[70.5013011,34.4276026],[70.5058645,34.4304182]],[[70.5058645,34.4304182],[70.44464,34.45097],[70.40185,34.45624]],[[69.0867593,34.5533249],[69.0543171,34.5542857]],[[69.1521212,34.606778],[69.1196116,34.6126734],[69.1137437,34.6058648]],[[69.1004701,34.5904633],[69.0857412,34.6276189],[69.0881663,34.6579167],[69.0870596,34.6717636],[69.0933825,34.6772102]],[[69.0742693,34.6923232],[69.0636546,34.6838201],[69.0619782,34.6704167],[69.0657217,34.640359],[69.0486969,34.6616236],[69.0435374,34.6371485],[69.0721344,34.6289698],[69.0574697,34.6172266],[69.0728343,34.5807602],[69.094631,34.5715796]],[[64.3348421,31.5868589],[64.3132965,31.5900416],[64.3380361,31.5709539],[64.3443716,31.5554703]],[[64.35165,31.56333],[64.33884,31.57614],[64.3348421,31.5868589]],[[67.0857767,36.7234615],[67.0799307,36.6867416],[67.106132,36.6851183]],[[71.0431891,34.2299607],[71.0384425,34.2311935],[71.0293935,34.2142766],[71.049999,34.2079167],[71.0431891,34.2299607]],[[70.898469,34.2466049],[70.8570628,34.2523829],[70.8649241,34.23629],[70.8916657,34.2329167],[70.898469,34.2466049]],[[70.8202703,34.2367787],[70.8197055,34.253306]],[[70.8197055,34.253306],[70.81385,34.25056]],[[63.117525,34.9983081],[63.1107575,34.9956975],[63.0881826,34.9601425],[63.0906985,34.9589775]],[[68.980538,33.9517964],[68.9763499,33.9704737],[68.9257314,33.9779851],[68.908902,33.9329941],[68.9416657,33.9245834],[68.9456045,33.9399358],[68.9666657,33.9352157],[68.978402,33.9378476],[68.980538,33.9517964]],[[71.0562164,34.7641301],[71.0314931,34.76837],[71.0145498,34.7519312],[71.0583323,34.7495834],[71.0562164,34.7641301]],[[71.1238502,34.8241474],[71.1231783,34.8287661],[71.1183153,34.830341],[71.1189858,34.8171261],[71.1238502,34.8241474]],[[67.8390778,34.8365666],[67.8128083,34.8172673],[67.8333323,34.7995834],[67.8390778,34.8365666]],[[67.7861481,34.8446436],[67.7715973,34.831871],[67.799999,34.8245834],[67.7861481,34.8446436]],[[69.224999,35.0579167],[69.2183948,35.0597715]],[[69.2326202,35.039728],[69.2384918,35.0449732],[69.224999,35.0579167]],[[69.224999,35.0579167],[69.2522125,35.0637314],[69.2706045,35.0321233],[69.2441211,35.0199748],[69.2472322,35.0164924],[69.265681,35.0107956]],[[69.27734,35.00929],[69.29758,35.01377]],[[69.2782002,35.0438461],[69.2721995,35.0468816],[69.2792881,35.0641766]],[[69.2228266,35.065666],[69.224999,35.0579167]],[[68.4618317,33.5606308],[68.4230784,33.5714259],[68.4126618,33.5968612],[68.4027659,33.5840398],[68.4054027,33.5662501],[68.398876,33.5221054],[68.4333323,33.5162501],[68.4618317,33.5606308]],[[69.1162099,36.0679469],[69.0824534,36.0779119],[69.0883454,36.054572],[69.1083323,36.0495834],[69.1162099,36.0679469]],[[68.8805166,34.3952377],[68.8768707,34.406932],[68.8452952,34.3970932],[68.8384918,34.386762],[68.874999,34.3829167],[68.8805166,34.3952377]],[[71.1327609,34.8471762],[71.1671491,34.8914062]],[[71.1671491,34.8914062],[71.1406891,34.8847397],[71.130012,34.8490056],[71.1327609,34.8471762]],[[61.8786286,30.9376205],[61.8941722,30.9496119],[61.9036286,30.9650782],[61.8501292,30.978213],[61.8380361,30.9391952],[61.874999,30.9329168],[61.8786286,30.9376205]],[[70.5058645,34.4304182],[70.5246658,34.4420184]],[[70.5276002,34.455759],[70.517219,34.4643865],[70.499999,34.4579167],[70.4868154,34.47438],[70.4377594,34.4532008],[70.3955564,34.4584484]],[[70.5871898,34.2691431],[70.5635569,34.2535629],[70.5916657,34.2495834],[70.5871898,34.2691431]],[[70.6842392,34.2793479],[70.6908245,34.3031463]],[[70.6908245,34.3031463],[70.6628082,34.305398],[70.6842392,34.2793479]],[[69.2276357,34.3945338],[69.2129547,34.3804062],[69.2333323,34.3745834],[69.2276357,34.3945338]],[[66.2171078,36.8526788],[66.2025262,36.853742],[66.1965973,36.8485377],[66.224999,36.8412501],[66.2171078,36.8526788]],[[63.3492992,35.5816025],[63.3303376,35.5940496],[63.3221995,35.5760971],[63.3416657,35.5662501],[63.3492992,35.5816025]],[[65.0876658,36.9279272],[65.0982738,36.953213],[65.1071605,36.9431788],[65.104745,36.9284748]],[[65.1249164,36.916119],[65.1315094,36.9264104],[65.1531403,36.9402613],[65.1451772,36.9686029],[65.1353831,36.9733353],[65.112499,36.9669052],[65.095637,36.9716456],[65.0659495,36.9586288],[65.0800771,36.9379989],[65.082608,36.9275686]],[[62.1784821,33.2961044],[62.200585,33.3119532],[62.1410309,33.3238958],[62.1465648,33.295844],[62.174999,33.2912501],[62.1784821,33.2961044]],[[62.274999,33.3662501],[62.2717927,33.3806829],[62.262499,33.3771794],[62.2398428,33.3857203],[62.230305,33.3697494],[62.274999,33.3662501]],[[62.274999,33.3662501],[62.2922028,33.3469996],[62.3289378,33.3552922],[62.3122386,33.3702052],[62.3138174,33.3967392],[62.2867666,33.3951238],[62.2882477,33.3703394],[62.274999,33.3662501]],[[70.6017789,37.0793196],[70.6117829,37.1059392],[70.5745758,37.1327133],[70.5300771,37.1072291],[70.5287425,37.1204167],[70.5320954,37.1533635],[70.5162842,37.1210016]],[[70.5192358,37.0940273],[70.5358961,37.0893675]],[[69.1775239,34.8825357],[69.1604405,34.8854833]],[[69.2801911,34.9283717],[69.2781403,34.9374537],[69.2950674,34.9634425],[69.2621572,34.9714503],[69.2465973,34.9613184],[69.2254222,34.9534001],[69.2186351,34.9231104],[69.2371247,34.9110662],[69.2458649,34.9130234],[69.2666657,34.9079167],[69.2801911,34.9283717]],[[69.2764942,35.0074565],[69.2877594,35.0039779],[69.2871247,34.9934351],[69.3057119,34.9789861],[69.3272891,35.0031373]],[[64.4162913,31.6173324],[64.3884919,31.6118108],[64.4083324,31.5995834],[64.4162913,31.6173324]],[[64.359461,31.5508071],[64.3666657,31.5495834],[64.3774079,31.5769272],[64.3637686,31.6198796],[64.3379222,31.5864039],[64.3348421,31.5868589]],[[66.928035,36.6338165],[66.9306828,36.6363504],[66.9282494,36.639504],[66.912329,36.6463634],[66.9047028,36.6377792],[66.928035,36.6338165]],[[66.8851715,36.6521998],[66.8552236,36.6449895],[66.8916657,36.6412501],[66.8851715,36.6521998]],[[67.0080068,36.6499008],[67.0256663,36.6662501],[67.0071279,36.6834172],[66.9459951,36.6554997],[66.999999,36.6412501],[67.0080068,36.6499008]],[[71.1327609,34.8471762],[71.1685374,34.8702458],[71.1783193,34.8942205],[71.1671491,34.8914062]],[[63.2384919,34.3714055],[63.2061676,34.389004],[63.1754548,34.3794377],[63.1913076,34.369668],[63.2416657,34.3662501],[63.2384919,34.3714055]],[[65.8871898,32.6123927],[65.9113434,32.6332057],[65.8681468,32.6451075],[65.8544749,32.6082708],[65.8833323,32.5995834],[65.8871898,32.6123927]],[[70.8197055,34.253306],[70.7879547,34.2575627],[70.7955989,34.2445637]],[[70.6842392,34.2793479],[70.7120921,34.2797226],[70.7128571,34.2701482],[70.6961416,34.255748],[70.7060862,34.2420354],[70.7333323,34.2162501],[70.7461904,34.2284815],[70.7444651,34.2498723],[70.7780101,34.2648381],[70.7201162,34.2906723],[70.7213043,34.3054631],[70.6908245,34.3031463]],[[70.782665,34.3274358],[70.7630361,34.3171493],[70.774999,34.3079167],[70.782665,34.3274358]]],"bbox":[61.1802236,30.9329168,71.1783193,37.4829167]}