{"type":"Topology","objects":{"foo":{"type":"GeometryCollection","geometries":[{"type":"Polygon","arcs":[[0]],"properties":{"name":"Administrative unit not available","gaul_code":4197,"targetarea":8.4750061,"totpop":49561.4646044,"country_id":"ASM","targetpop":13897.3200073,"new_mean":0.0837985,"totalarea":211.0162904}}]}},"arcs":[[[-170.723938,-14.3425102],[-170.7198742,-14.3357105],[-170.7281698,-14.3187269],[-170.7516409,-14.3301934],[-170.7435974,-14.3466648],[-170.723938,-14.3425102]]],"bbox":[-170.7516409,-14.3466648,-170.7198742,-14.3187269]}