{"type":"Topology","objects":{"foo":{"type":"GeometryCollection","geometries":[{"type":"MultiPolygon","arcs":[[[0,1]],[[2]]],"properties":{"name":"Administrative unit not available","gaul_code":40217,"targetarea":16.9150168,"totpop":53519.0822678,"country_id":"ATG","targetpop":27269.4364929,"new_mean":0.0802743,"totalarea":69.3202842}},{"type":"Polygon","arcs":[[3,-2]],"properties":{"name":"Administrative unit not available","gaul_code":40216,"targetarea":0.3576776,"totpop":12452.5345154,"country_id":"ATG","targetpop":1694.8717041,"new_mean":0.0763559,"totalarea":28.010036}}]}},"arcs":[[[-61.8146835,17.1305827],[-61.8534347,17.1446518],[-61.8563843,17.125782],[-61.8500137,17.1232986],[-61.8482666,17.1181984],[-61.8587761,17.1203409],[-61.8617355,17.1068711],[-61.8333338,17.0995835],[-61.8299321,17.1045151],[-61.8116513,17.1124777]],[[-61.8116513,17.1124777],[-61.8144582,17.1173127],[-61.8146835,17.1305827]],[[-61.8237733,17.1721561],[-61.8268234,17.1691025],[-61.8166671,17.1662501],[-61.8179469,17.1708024],[-61.8237733,17.1721561]],[[-61.8116513,17.1124777],[-61.8134363,17.1204168],[-61.8114181,17.1293971],[-61.8146835,17.1305827]]],"bbox":[-61.8617355,17.0995835,-61.8114181,17.1721561]}