{"type":"Topology","objects":{"foo":{"type":"GeometryCollection","geometries":[{"type":"Polygon","arcs":[[0]],"properties":{"name":"Passore","gaul_code":12141,"targetarea":4.6228326,"totpop":413900.301955,"country_id":"BFA","targetpop":5901.2785644,"totalarea":3992.1003327,"new_mean":0.0119467}},{"type":"Polygon","arcs":[[1]],"properties":{"name":"Bam","gaul_code":12111,"targetarea":4.8886091,"totpop":400439.317362,"country_id":"BFA","targetpop":6027.6380615,"totalarea":4022.294952,"new_mean":0.0119478}},{"type":"Polygon","arcs":[[2]],"properties":{"name":"Houet","gaul_code":12121,"targetarea":207.3255333,"totpop":1620380.19509,"country_id":"BFA","targetpop":456968.094177,"totalarea":11577.4695359,"new_mean":0.0131738}},{"type":"Polygon","arcs":[[3]],"properties":{"name":"Yatenga","gaul_code":12152,"targetarea":26.9206275,"totpop":732803.620017,"country_id":"BFA","targetpop":45663.5785522,"totalarea":6742.9294987,"new_mean":0.012307}},{"type":"Polygon","arcs":[[4]],"properties":{"name":"Zondoma","gaul_code":12154,"targetarea":7.5461098,"totpop":241380.612026,"country_id":"BFA","targetpop":11629.5932007,"totalarea":1987.4451152,"new_mean":0.0118908}},{"type":"Polygon","arcs":[[5]],"properties":{"name":"Boulkiemde","gaul_code":12116,"targetarea":37.346124,"totpop":680062.749298,"country_id":"BFA","targetpop":52431.3334961,"totalarea":4289.4383057,"new_mean":0.0121411}},{"type":"Polygon","arcs":[[6]],"properties":{"name":"Kouritenga","gaul_code":12129,"targetarea":39.0996564,"totpop":493612.953873,"country_id":"BFA","targetpop":69232.1580811,"totalarea":2802.8513909,"new_mean":0.010948}},{"type":"Polygon","arcs":[[7]],"properties":{"name":"Kadiogo","gaul_code":12123,"targetarea":542.2940735,"totpop":4217731.09639,"country_id":"BFA","targetpop":3841802.87463,"totalarea":2877.282844,"new_mean":0.0168845}},{"type":"Polygon","arcs":[[7]],"properties":{"name":"Kadiogo","gaul_code":12123,"targetarea":542.2940735,"totpop":4217731.09639,"country_id":"BFA","targetpop":3841802.87463,"totalarea":2877.282844,"new_mean":0.0123256}},{"type":"Polygon","arcs":[[8]],"properties":{"name":"Sanmatenga","gaul_code":12144,"targetarea":22.2253758,"totpop":859071.980171,"country_id":"BFA","targetpop":31635.3577881,"totalarea":9300.0616335,"new_mean":0.0117145}},{"type":"Polygon","arcs":[[9]],"properties":{"name":"Comoe","gaul_code":12117,"targetarea":20.7821158,"totpop":945289.868976,"country_id":"BFA","targetpop":29488.1343994,"totalarea":15431.7578247,"new_mean":0.0203817}},{"type":"Polygon","arcs":[[10]],"properties":{"name":"Seno","gaul_code":12145,"targetarea":4.979639,"totpop":392233.046608,"country_id":"BFA","targetpop":7075.0623779,"totalarea":7013.3084054,"new_mean":0.0106612}},{"type":"Polygon","arcs":[[11]],"properties":{"name":"Boulgou","gaul_code":12115,"targetarea":16.2880307,"totpop":822459.29401,"country_id":"BFA","targetpop":21350.3959961,"totalarea":6534.2268244,"new_mean":0.0126988}}]}},"arcs":[[[-2.257862,12.9778224],[-2.2786303,12.954446],[-2.2500007,12.9495835],[-2.257862,12.9778224]],[[-1.5173673,13.3316025],[-1.5363288,13.3440496],[-1.5444669,13.3260972],[-1.5250007,13.3162502],[-1.5173673,13.3316025]],[[-4.3059089,11.1204006],[-4.2644701,11.1298163],[-4.2211433,11.1457261],[-4.1780932,11.1535793],[-4.2069831,11.1716782],[-4.2378099,11.2034409],[-4.2455248,11.2207261],[-4.2769864,11.2448919],[-4.3258471,11.270014],[-4.3395189,11.2098374],[-4.3711433,11.1957261],[-4.3788581,11.1356024],[-4.3166674,11.1079168],[-4.3059089,11.1204006]],[[-2.4043301,13.5539089],[-2.3870124,13.569953],[-2.3966478,13.5881699],[-2.4381518,13.6077581],[-2.4373379,13.5869452],[-2.4538093,13.5557969],[-2.4043301,13.5539089]],[[-2.3397631,13.2118597],[-2.3610359,13.2190496],[-2.3694669,13.202383],[-2.3500007,13.1912502],[-2.3397631,13.2118597]],[[-2.328614,12.2534206],[-2.3484057,12.2799831],[-2.3934903,12.274376],[-2.4037116,12.2313014],[-2.3500007,12.2245835],[-2.328614,12.2534206]],[[-0.420948,12.2251491],[-0.4031745,12.2360947],[-0.3940925,12.2627549],[-0.4243008,12.2777614],[-0.4531745,12.264826],[-0.4432462,12.2329168],[-0.4499031,12.2115423],[-0.4250007,12.2079168],[-0.420948,12.2251491]],[[-1.4580696,12.4787302],[-1.4813809,12.4687038],[-1.564226,12.4867743],[-1.65114,12.4133408],[-1.6633471,12.3687526],[-1.6531745,12.3129339],[-1.6227221,12.2775946],[-1.5995287,12.2794582],[-1.5628262,12.2684067],[-1.5800463,12.2535711],[-1.5455248,12.2457261],[-1.5166674,12.2329168],[-1.5080736,12.2614325],[-1.4335456,12.2580837],[-1.4201179,12.3822536],[-1.420476,12.4040391],[-1.43781,12.4117743],[-1.4476706,12.4658351],[-1.4580696,12.4787302]],[[-1.0502449,13.0953721],[-1.0908699,13.1057969],[-1.1101895,13.1014634],[-1.1019864,13.0648423],[-1.0750007,13.0579168],[-1.0502449,13.0953721]],[[-4.721599,10.6684515],[-4.7541674,10.6611476],[-4.7702806,10.6647609],[-4.7819831,10.6478054],[-4.7697435,10.6290065],[-4.7416674,10.6245835],[-4.721599,10.6684515]],[[-0.0166674,14.0245835],[-0.0166674,14.0412502],[-0.0416674,14.0412502],[-0.0416674,14.0245835],[-0.0166674,14.0245835]],[[-0.7500007,11.8079168],[-0.7429206,11.7662827],[-0.7143236,11.7835394],[-0.7500007,11.8079168]]],"bbox":[-4.7819831,10.6245835,-0.0166674,14.0412502]}