{"type":"Topology","objects":{"foo":{"type":"GeometryCollection","geometries":[{"type":"Polygon","arcs":[[0]],"properties":{"name":"Administrative unit not available","gaul_code":5855,"targetarea":16.8153209,"totpop":134593.36344,"country_id":"BLZ","targetpop":22016.9645081,"new_mean":0.0871189,"totalarea":3695.0736999}}]}},"arcs":[[[-88.2126083,17.5176563],[-88.2213464,17.5214666],[-88.2284021,17.5134425],[-88.2087314,17.4832304],[-88.1972198,17.4801998],[-88.1849213,17.485508],[-88.1755905,17.499361],[-88.1769603,17.5060932],[-88.1968444,17.5198226],[-88.2126083,17.5176563]]],"bbox":[-88.2284021,17.4801998,-88.1755905,17.5214666]}