{"type":"Topology","objects":{"foo":{"type":"GeometryCollection","geometries":[{"type":"Polygon","arcs":[[0,1,2]],"properties":{"name":"Administrative unit not available","gaul_code":5828,"targetarea":19.7977302,"totpop":38285.8930206,"country_id":"BRB","targetpop":30892.6546631,"totalarea":36.8877325,"new_mean":0.018168}},{"type":"Polygon","arcs":[[3,-3,4]],"properties":{"name":"Administrative unit not available","gaul_code":5835,"targetarea":5.8103526,"totpop":16539.8961182,"country_id":"BRB","targetpop":7628.8578491,"totalarea":32.6051918,"new_mean":0.017742}},{"type":"Polygon","arcs":[[5]],"properties":{"name":"Administrative unit not available","gaul_code":5834,"targetarea":1.6945559,"totpop":35766.565464,"country_id":"BRB","targetpop":2632.1454468,"totalarea":60.5639824,"new_mean":0.017803}},{"type":"Polygon","arcs":[[6,7,8]],"properties":{"name":"Administrative unit not available","gaul_code":5827,"targetarea":0.0210244,"totpop":20560.5410614,"country_id":"BRB","targetpop":0,"totalarea":42.5333142,"new_mean":0.0180259}},{"type":"MultiPolygon","arcs":[[[9]],[[10,-9,11]]],"properties":{"name":"Administrative unit not available","gaul_code":5825,"targetarea":26.8173488,"totpop":45392.9445271,"country_id":"BRB","targetpop":29247.9816437,"totalarea":58.0791552,"new_mean":0.0181766}},{"type":"Polygon","arcs":[[12,-5,-2,13,-12,-8]],"properties":{"name":"Administrative unit not available","gaul_code":5832,"targetarea":38.7502424,"totpop":79448.0892334,"country_id":"BRB","targetpop":78885.6636353,"totalarea":41.0181697,"new_mean":0.0182114}}]}},"arcs":[[[-59.6114699,13.1694894],[-59.6299484,13.1882554],[-59.6289962,13.2122259],[-59.6332488,13.2177362],[-59.6411249,13.2159458],[-59.6384354,13.1659927],[-59.6383307,13.1455024],[-59.6336,13.1288648]],[[-59.6336,13.1288648],[-59.6095886,13.1377277]],[[-59.6095886,13.1377277],[-59.6114699,13.1694894]],[[-59.5797534,13.1490069],[-59.6114699,13.1694894]],[[-59.6095886,13.1377277],[-59.5797534,13.1490069]],[[-59.4378586,13.1351629],[-59.4524989,13.1279608],[-59.4333338,13.1245835],[-59.4378586,13.1351629]],[[-59.5637296,13.0902961],[-59.5657623,13.0967226]],[[-59.5657623,13.0967226],[-59.5642052,13.0900755]],[[-59.5642052,13.0900755],[-59.5637296,13.0902961]],[[-59.4878586,13.0851629],[-59.5024989,13.0779608],[-59.4833338,13.0745835],[-59.4878586,13.0851629]],[[-59.6018949,13.071706],[-59.5772095,13.0644541],[-59.5428429,13.0573101],[-59.53225,13.0445184],[-59.5112587,13.0416499],[-59.5123377,13.0539089],[-59.5211675,13.0620835],[-59.5043706,13.0776393],[-59.5626632,13.0869248],[-59.5637296,13.0902961]],[[-59.5642052,13.0900755],[-59.6018949,13.071706]],[[-59.5657623,13.0967226],[-59.5706711,13.1122422],[-59.579338,13.1202703],[-59.5797534,13.1490069]],[[-59.6336,13.1288648],[-59.6244926,13.1046486],[-59.623024,13.091753],[-59.6090393,13.0858145],[-59.6112061,13.0770202],[-59.6018949,13.071706]]],"bbox":[-59.6411249,13.0416499,-59.4333338,13.2177362]}