{"type":"Topology","objects":{"foo":{"type":"GeometryCollection","geometries":[{"type":"Polygon","arcs":[[0,1]],"properties":{"name":"Kota Batu","gaul_code":61109,"targetarea":3.4702028,"totpop":22165.5850906,"country_id":"BRN","targetpop":5953.5250244,"totalarea":57.0403818,"new_mean":0.0193611}},{"type":"MultiPolygon","arcs":[[[2,3]],[[4]]],"properties":{"name":"Sengkurong","gaul_code":61115,"targetarea":3.535621,"totpop":35313.414875,"country_id":"BRN","targetpop":6789.0923462,"totalarea":77.4495462,"new_mean":0.0185579}},{"type":"Polygon","arcs":[[5,6,7,8]],"properties":{"name":"Berakas B","gaul_code":61104,"targetarea":22.1534058,"totpop":44414.2514648,"country_id":"BRN","targetpop":38619.5924072,"totalarea":31.6319452,"new_mean":0.0193947}},{"type":"Polygon","arcs":[[-2,9,10,11,12,13,14,15,16,17]],"properties":{"name":"Kianggeh","gaul_code":61107,"targetarea":8.6519848,"totpop":18542.4220428,"country_id":"BRN","targetpop":12009.8831787,"totalarea":18.1009856,"new_mean":0.0191315}},{"type":"MultiPolygon","arcs":[[[18]],[[19,-4,20]]],"properties":{"name":"Kilanas","gaul_code":61108,"targetarea":13.2907595,"totpop":28764.6701202,"country_id":"BRN","targetpop":16467.7862549,"totalarea":34.7292704,"new_mean":0.018604}},{"type":"Polygon","arcs":[[21,22,23,-6]],"properties":{"name":"Mentiri","gaul_code":61111,"targetarea":5.5780548,"totpop":24286.7071571,"country_id":"BRN","targetpop":8873.6314697,"totalarea":43.963049,"new_mean":0.0194865}},{"type":"MultiPolygon","arcs":[[[24]],[[25]]],"properties":{"name":"Kuala Belait","gaul_code":61097,"targetarea":6.3603226,"totpop":34820.4036473,"country_id":"BRN","targetpop":9329.3681641,"totalarea":93.4688391,"new_mean":0.0189367}},{"type":"MultiPolygon","arcs":[[[26,-11,27,-8,28]],[[29,30]],[[-23,31]]],"properties":{"name":"Berakas A","gaul_code":61103,"targetarea":14.7146637,"totpop":41787.3059692,"country_id":"BRN","targetpop":20568.3354187,"totalarea":56.6088256,"new_mean":0.0196132}},{"type":"MultiPolygon","arcs":[[[32]],[[33,-12,-27,34]],[[-31,35]]],"properties":{"name":"Gadong","gaul_code":61106,"targetarea":23.1558194,"totpop":64971.8184433,"country_id":"BRN","targetpop":32077.6112671,"totalarea":72.7130422,"new_mean":0.0195164}},{"type":"Polygon","arcs":[[36,37,38]],"properties":{"name":"Lumapas","gaul_code":61110,"targetarea":0.754125,"totpop":10901.2563257,"country_id":"BRN","targetpop":1632.6088867,"totalarea":43.5645698,"new_mean":0.0192341}},{"type":"Polygon","arcs":[[-15,39,40]],"properties":{"name":"Sungai Kedayan","gaul_code":61118,"targetarea":0.2916469,"totpop":2049.4631348,"country_id":"BRN","targetpop":2049.4631348,"totalarea":0.2916469,"new_mean":0}},{"type":"Polygon","arcs":[[-17,41,42]],"properties":{"name":"Saba","gaul_code":61114,"targetarea":0.1886355,"totpop":0,"country_id":"BRN","targetpop":0,"totalarea":0.1886355,"new_mean":0}},{"type":"Polygon","arcs":[[-43,43,44,-39,45]],"properties":{"name":"Sungai Kebun","gaul_code":61117,"targetarea":0.4805111,"totpop":8114.597168,"country_id":"BRN","targetpop":8114.597168,"totalarea":0.8208671,"new_mean":0}},{"type":"Polygon","arcs":[[-41,46,47,-37,-45,48]],"properties":{"name":"Burong Pingai Ayer","gaul_code":61105,"targetarea":0.5126205,"totpop":4036.6655273,"country_id":"BRN","targetpop":4036.6655273,"totalarea":0.646434,"new_mean":0}},{"type":"Polygon","arcs":[[-42,-16,-49,-44]],"properties":{"name":"Peramu","gaul_code":61113,"targetarea":0.2594198,"totpop":0,"country_id":"BRN","targetpop":0,"totalarea":0.2594199,"new_mean":0}},{"type":"Polygon","arcs":[[-40,-14,49,-47]],"properties":{"name":"Tamoi","gaul_code":61119,"targetarea":0.3102819,"totpop":0,"country_id":"BRN","targetpop":0,"totalarea":0.3102872,"new_mean":0}}]}},"arcs":[[[114.9437489,4.8749634],[114.9628243,4.878441],[114.9705066,4.8839504],[114.9491149,4.8934981]],[[114.9491149,4.8934981],[114.9461517,4.8888731],[114.9437489,4.8749634]],[[114.8486264,4.8916395],[114.8454415,4.9022976],[114.8388009,4.8615383],[114.8455082,4.8606666]],[[114.8455082,4.8606666],[114.8469086,4.877027],[114.8433533,4.878819],[114.8457794,4.891695],[114.8486264,4.8916395]],[[114.8376616,4.9598456],[114.8255693,4.9500691],[114.8416655,4.9412502],[114.8376616,4.9598456]],[[114.9919982,4.9582111],[114.9896698,4.9690108],[114.9790344,4.973527],[114.9736328,4.980525],[114.9656038,4.9872053]],[[114.9656038,4.9872053],[114.9612186,4.9796009],[114.9606136,4.9785517],[114.9411447,4.9447902],[114.9399299,4.944888]],[[114.9399299,4.944888],[114.9347382,4.9390669],[114.9479599,4.9379482],[114.9490592,4.929494]],[[114.9490592,4.929494],[114.9800138,4.9270076],[114.9802805,4.9272859],[114.9787098,4.9467637],[114.9919982,4.9582111]],[[114.9491149,4.8934981],[114.9354806,4.8995835],[114.9361113,4.9074365]],[[114.9361113,4.9074365],[114.9272842,4.911643],[114.9212418,4.9048681],[114.9150772,4.9049878]],[[114.9150772,4.9049878],[114.919548,4.9005928],[114.9169846,4.8963351],[114.9237619,4.8854275]],[[114.9237619,4.8854275],[114.9194975,4.8697821],[114.923055,4.8675005]],[[114.923055,4.8675005],[114.9271622,4.8765898],[114.9264603,4.8823652]],[[114.9264603,4.8823652],[114.9294281,4.8824148],[114.931221,4.8740869]],[[114.931221,4.8740869],[114.9361572,4.8750682]],[[114.9361572,4.8750682],[114.9405282,4.8699108]],[[114.9405282,4.8699108],[114.9416655,4.8745835],[114.9315092,4.8774359],[114.9388009,4.8847439],[114.9416655,4.8745835],[114.9437489,4.8749634]],[[114.8666655,4.8579169],[114.8713855,4.8456529],[114.8695301,4.8306789],[114.897184,4.8469356],[114.8984246,4.8476649],[114.9021798,4.8498724],[114.9082986,4.8583792],[114.9049322,4.8626968],[114.8666655,4.8579169]],[[114.8666655,4.8579169],[114.8638009,4.8717067],[114.8528634,4.8774603],[114.8486264,4.8916395]],[[114.8455082,4.8606666],[114.8666655,4.8579169]],[[114.9919982,4.9582111],[114.998241,4.9635891],[114.9756161,5.0023283]],[[114.9756161,5.0023283],[114.9742203,4.997745],[114.969203,4.9934468]],[[114.969203,4.9934468],[114.9656038,4.9872053]],[[114.2454741,4.585163],[114.2308256,4.5779608],[114.2499988,4.5745835],[114.2454741,4.585163]],[[114.1965809,4.5878485],[114.1922116,4.5908674],[114.1777598,4.5891977],[114.1813465,4.5731757],[114.2083322,4.5662502],[114.1965809,4.5878485]],[[114.9131922,4.9498395],[114.9066391,4.935308],[114.8996582,4.9319978],[114.9006805,4.9233632],[114.9069366,4.9180708],[114.9070358,4.9120378],[114.9140625,4.9127622],[114.9176407,4.909246],[114.9150772,4.9049878]],[[114.9361113,4.9074365],[114.9379545,4.9303859],[114.9490592,4.929494]],[[114.9399299,4.944888],[114.9289051,4.9457749],[114.9112293,4.9252508],[114.9131922,4.9498395]],[[114.8848781,4.970015],[114.890859,4.9845801],[114.8763837,4.9772964]],[[114.8763837,4.9772964],[114.8848781,4.970015]],[[114.9756161,5.0023283],[114.969203,4.9934468]],[[114.8833322,4.8912502],[114.8804676,4.9014105],[114.8731759,4.8941026],[114.8833322,4.8912502]],[[114.8833322,4.8912502],[114.8872384,4.8751613],[114.9237619,4.8854275]],[[114.9131922,4.9498395],[114.9105131,4.9617743],[114.8860991,4.9334703],[114.8890939,4.8962266],[114.8833322,4.8912502]],[[114.8763837,4.9772964],[114.8643697,4.9712512],[114.8833322,4.9662502],[114.8848781,4.970015]],[[114.9304352,4.8687181],[114.9265219,4.865277]],[[114.9265219,4.865277],[114.9378571,4.8589359]],[[114.9378571,4.8589359],[114.9368591,4.8657918],[114.9304352,4.8687181]],[[114.9264603,4.8823652],[114.9286423,4.8736529]],[[114.9286423,4.8736529],[114.931221,4.8740869]],[[114.9361572,4.8750682],[114.937439,4.8707891]],[[114.937439,4.8707891],[114.9405282,4.8699108]],[[114.937439,4.8707891],[114.9328842,4.8701239]],[[114.9328842,4.8701239],[114.9304352,4.8687181]],[[114.9378571,4.8589359],[114.9405282,4.8699108]],[[114.9286423,4.8736529],[114.9230928,4.8674763]],[[114.9230928,4.8674763],[114.9265219,4.865277]],[[114.9328842,4.8701239],[114.931221,4.8740869]],[[114.923055,4.8675005],[114.9230928,4.8674763]]],"bbox":[114.1777598,4.5662502,114.998241,5.0023283]}