{"type":"Topology","objects":{"foo":{"type":"GeometryCollection","geometries":[{"type":"MultiPolygon","arcs":[[[0]],[[1,2,3,4,5]],[[6]]],"properties":{"name":"Chang","gaul_code":6068,"targetarea":36.1740716,"totpop":111641.68726,"country_id":"BTN","targetpop":57688.2984009,"totalarea":185.5350864,"new_mean":0.0111621}},{"type":"MultiPolygon","arcs":[[[0]],[[1,2,3,4,5]],[[6]]],"properties":{"name":"Chang","gaul_code":6068,"targetarea":36.1740716,"totpop":111641.68726,"country_id":"BTN","targetpop":57688.2984009,"totalarea":185.5350864,"new_mean":0.0089255}},{"type":"Polygon","arcs":[[-5,7]],"properties":{"name":"Mewang","gaul_code":6073,"targetarea":0.1155718,"totpop":9056.7010888,"country_id":"BTN","targetpop":0,"totalarea":211.3475051,"new_mean":0.0114234}},{"type":"Polygon","arcs":[[8,9]],"properties":{"name":"Phuentsholing","gaul_code":5953,"targetarea":1.9078597,"totpop":34442.521101,"country_id":"BTN","targetpop":5640.0109863,"totalarea":138.2593826,"new_mean":0.0195733}},{"type":"Polygon","arcs":[[8,9]],"properties":{"name":"Phuentsholing","gaul_code":5953,"targetarea":1.9078597,"totpop":34442.521101,"country_id":"BTN","targetpop":5640.0109863,"totalarea":138.2593826,"new_mean":0.0208313}},{"type":"Polygon","arcs":[[10,-3]],"properties":{"name":"Kawang","gaul_code":6071,"targetarea":0.1817259,"totpop":6953.4424017,"country_id":"BTN","targetpop":0,"totalarea":290.0433077,"new_mean":0.0120323}},{"type":"Polygon","arcs":[[-10,11]],"properties":{"name":"Tadhing","gaul_code":6050,"targetarea":1.2149723,"totpop":20134.3464785,"country_id":"BTN","targetpop":9644.3771973,"totalarea":105.0907938,"new_mean":0.0195135}}]}},"arcs":[[[89.6971506,27.4180771],[89.6898427,27.4107692],[89.6999989,27.4079168],[89.6971506,27.4180771]],[[89.6999989,27.4495834],[89.6871083,27.4517012]],[[89.6871083,27.4517012],[89.6791,27.4516335],[89.6694489,27.4545746],[89.6587194,27.4538088]],[[89.6587194,27.4538088],[89.6236155,27.4486191],[89.6144437,27.4182325]],[[89.6144437,27.4182325],[89.6165474,27.4125908]],[[89.6165474,27.4125908],[89.6607737,27.4002752],[89.6739247,27.4173243],[89.695702,27.4341253],[89.6999989,27.4495834]],[[89.6999989,27.4495834],[89.7190093,27.4600082],[89.7059287,27.4681351],[89.7038914,27.4676971],[89.6999989,27.4495834]],[[89.6144437,27.4182325],[89.613036,27.4135686],[89.6165474,27.4125908]],[[89.380806,26.8562527],[89.3967265,26.8383681],[89.3873362,26.8685206],[89.3843414,26.8675878]],[[89.3843414,26.8675878],[89.380806,26.8562527]],[[89.6871083,27.4517012],[89.6669097,27.4550196],[89.6587194,27.4538088]],[[89.3843414,26.8675878],[89.3592112,26.85976],[89.3602991,26.8564499],[89.3709793,26.8606205],[89.3758774,26.8601265],[89.380806,26.8562527]]],"bbox":[89.3592112,26.8383681,89.7190093,27.4681351]}