{"type":"Topology","objects":{"foo":{"type":"GeometryCollection","geometries":[{"type":"MultiPolygon","arcs":[[[0,1]],[[2,3]]],"properties":{"name":"Sanaga-Maritime","gaul_code":12489,"targetarea":2.4234222,"totpop":198431.795474,"country_id":"CMR","targetpop":3485.2753296,"new_mean":0.0374412,"totalarea":8982.2820408}},{"type":"Polygon","arcs":[[4]],"properties":{"name":"Bui","gaul_code":12492,"targetarea":22.6225054,"totpop":446144.13456,"country_id":"CMR","targetpop":33376.3515625,"new_mean":0.0692335,"totalarea":2107.3412488}},{"type":"Polygon","arcs":[[5]],"properties":{"name":"Meme","gaul_code":12514,"targetarea":24.4649816,"totpop":485305.427248,"country_id":"CMR","targetpop":39392.6828613,"new_mean":0.0345515,"totalarea":2715.8277157}},{"type":"MultiPolygon","arcs":[[[6,7]],[[8,9,10]]],"properties":{"name":"Mefou-et-Afamba","gaul_code":12471,"targetarea":19.3899593,"totpop":204409.406059,"country_id":"CMR","targetpop":48704.189209,"new_mean":0.0245043,"totalarea":3185.9581039}},{"type":"Polygon","arcs":[[11,12]],"properties":{"name":"Mefou-et-Akono","gaul_code":12472,"targetarea":2.804204,"totpop":69554.4369345,"country_id":"CMR","targetpop":6541.3464356,"new_mean":0.0309618,"totalarea":1201.7283295}},{"type":"Polygon","arcs":[[13]],"properties":{"name":"Vina","gaul_code":12466,"targetarea":14.3467781,"totpop":537516.926697,"country_id":"CMR","targetpop":19360.6116333,"new_mean":0.0721567,"totalarea":17387.358392}},{"type":"MultiPolygon","arcs":[[[14,15,16]],[[17,18]]],"properties":{"name":"Moungo","gaul_code":12487,"targetarea":4.4603344,"totpop":438957.569597,"country_id":"CMR","targetpop":16785.3707886,"new_mean":0.0379921,"totalarea":3980.8679207}},{"type":"MultiPolygon","arcs":[[[19]],[[20]],[[-18,21,-17,22,23,24,25,-2,26,-4,27,28],[29],[30]]],"properties":{"name":"Wouri","gaul_code":12490,"targetarea":677.7562735,"totpop":3766264.87553,"country_id":"CMR","targetpop":3415185.96491,"new_mean":0.0367754,"totalarea":1342.158585}},{"type":"Polygon","arcs":[[31]],"properties":{"name":"Nyong-et-So","gaul_code":12476,"targetarea":5.5971135,"totpop":135463.532104,"country_id":"CMR","targetpop":5961.2762451,"new_mean":0.032809,"totalarea":3416.2050175}},{"type":"Polygon","arcs":[[32]],"properties":{"name":"Ngo-Ketunjia","gaul_code":12497,"targetarea":7.7043555,"totpop":277023.881953,"country_id":"CMR","targetpop":11891.4661865,"new_mean":0.0712409,"totalarea":1054.5701819}},{"type":"Polygon","arcs":[[33,34,-10]],"properties":{"name":"Lekie","gaul_code":12468,"targetarea":46.1858844,"totpop":356825.256068,"country_id":"CMR","targetpop":83805.3113403,"new_mean":0.0204522,"totalarea":3361.1559917}},{"type":"Polygon","arcs":[[35]],"properties":{"name":"Noun","gaul_code":12509,"targetarea":5.8750601,"totpop":656620.510051,"country_id":"CMR","targetpop":7548.8084717,"new_mean":0.0712816,"totalarea":7799.8465953}},{"type":"Polygon","arcs":[[36,-28]],"properties":{"name":"Nkam","gaul_code":12488,"targetarea":0.9497599,"totpop":36284.0806854,"country_id":"CMR","targetpop":0,"new_mean":0.0378478,"totalarea":6039.380823}},{"type":"MultiPolygon","arcs":[[[37]],[[38]],[[39]],[[40]]],"properties":{"name":"Mifi","gaul_code":12507,"targetarea":144.3305917,"totpop":414213.15712,"country_id":"CMR","targetpop":271746.86969,"new_mean":0.0635421,"totalarea":334.6777645}},{"type":"MultiPolygon","arcs":[[[41]],[[42]],[[43]],[[44,-23,-16]],[[-25,45]],[[46]],[[47]]],"properties":{"name":"Fako","gaul_code":12510,"targetarea":135.0555884,"totpop":774736.264656,"country_id":"CMR","targetpop":233501.900146,"new_mean":0.0407256,"totalarea":2056.2356437}},{"type":"Polygon","arcs":[[-11,-35,48,-12,49,-8,50]],"properties":{"name":"Mfoundi","gaul_code":12473,"targetarea":256.4901183,"totpop":4205263.16791,"country_id":"CMR","targetpop":4196524.42279,"new_mean":0.0144474,"totalarea":263.2914209}},{"type":"Polygon","arcs":[[51]],"properties":{"name":"Ocean","gaul_code":12518,"targetarea":8.39841,"totpop":305466.455281,"country_id":"CMR","targetpop":10486.758728,"new_mean":0.0376625,"totalarea":11454.1342993}},{"type":"Polygon","arcs":[[52]],"properties":{"name":"Bamboutos","gaul_code":12502,"targetarea":6.0366689,"totpop":378208.048737,"country_id":"CMR","targetpop":8255.0864868,"new_mean":0.0677644,"totalarea":1152.0864195}},{"type":"MultiPolygon","arcs":[[[53]],[[54]]],"properties":{"name":"Mezam","gaul_code":12495,"targetarea":119.6517294,"totpop":802261.272776,"country_id":"CMR","targetpop":236623.772278,"new_mean":0.0643411,"totalarea":1998.5487555}},{"type":"Polygon","arcs":[[55]],"properties":{"name":"Menoua","gaul_code":12506,"targetarea":7.2416875,"totpop":316444.124226,"country_id":"CMR","targetpop":9901.0516968,"new_mean":0.0620624,"totalarea":1314.5469554}},{"type":"MultiPolygon","arcs":[[[56]],[[57]],[[58]]],"properties":{"name":"Mayo-Danay","gaul_code":12483,"targetarea":20.4148989,"totpop":734206.132399,"country_id":"CMR","targetpop":33360.3654175,"new_mean":0.0255973,"totalarea":5692.1166876}},{"type":"MultiPolygon","arcs":[[[59]],[[60]]],"properties":{"name":"Mayo-Sava","gaul_code":12485,"targetarea":20.3048617,"totpop":525013.64757,"country_id":"CMR","targetpop":28853.6834717,"new_mean":0.0260297,"totalarea":2909.9114179}},{"type":"Polygon","arcs":[[61]],"properties":{"name":"Mayo-Kani","gaul_code":12484,"targetarea":17.5337708,"totpop":644735.259571,"country_id":"CMR","targetpop":26898.6948242,"new_mean":0.0266729,"totalarea":4637.0920367}},{"type":"MultiPolygon","arcs":[[[62]],[[63]],[[64,65]],[[66,-66]],[[67]]],"properties":{"name":"Benoue","gaul_code":12498,"targetarea":91.0371513,"totpop":1646274.05306,"country_id":"CMR","targetpop":181995.459045,"new_mean":0.0222998,"totalarea":13554.640606}},{"type":"MultiPolygon","arcs":[[[68]],[[69]]],"properties":{"name":"Logone-Et-Chari","gaul_code":12482,"targetarea":32.741905,"totpop":789521.58657,"country_id":"CMR","targetpop":53543.2953491,"new_mean":0.0255647,"totalarea":12680.9934598}},{"type":"MultiPolygon","arcs":[[[70]],[[71]],[[72]],[[73]],[[74]],[[75]],[[76]],[[77]]],"properties":{"name":"Mayo-Tsanaga","gaul_code":12486,"targetarea":60.0424515,"totpop":1135463.76779,"country_id":"CMR","targetpop":88766.9436646,"new_mean":0.0256978,"totalarea":4227.4832104}},{"type":"MultiPolygon","arcs":[[[78]],[[79]],[[80]],[[81]]],"properties":{"name":"Mayo-Louti","gaul_code":12500,"targetarea":13.3949186,"totpop":617211.089428,"country_id":"CMR","targetpop":19518.2615356,"new_mean":0.0262735,"totalarea":3855.2438627}},{"type":"MultiPolygon","arcs":[[[82]],[[83]],[[84]],[[85]],[[86]]],"properties":{"name":"Diamare","gaul_code":12481,"targetarea":110.2350969,"totpop":983198.427519,"country_id":"CMR","targetpop":189057.673828,"new_mean":0.0281544,"totalarea":4582.3423987}}]}},"arcs":[[[9.8684641,3.9668916],[9.8703768,3.9773993],[9.8494068,4.0061069]],[[9.8494068,4.0061069],[9.8608131,3.9870141],[9.8684641,3.9668916]],[[9.8354093,4.0352679],[9.8276848,4.0535915],[9.8551216,4.0708804]],[[9.8551216,4.0708804],[9.8231726,4.0512171],[9.8354093,4.0352679]],[[10.7026848,6.2395534],[10.6786125,6.2381415],[10.6613274,6.2131211],[10.6669589,6.1880113],[10.6916659,6.1745835],[10.6948723,6.1955389],[10.7051262,6.2286281],[10.7026848,6.2395534]],[[9.4145826,4.6566799],[9.4339185,4.6125922],[9.4583326,4.5995835],[9.4615878,4.6129991],[9.4780103,4.6369859],[9.4487297,4.6557359],[9.4333326,4.6514064],[9.4145826,4.6566799]],[[11.5120173,3.7208217],[11.5499992,3.7162502],[11.5695601,3.7481625]],[[11.5695601,3.7481625],[11.5447655,3.7214906],[11.5120173,3.7208217]],[[11.5959216,3.7937606],[11.6021802,3.7991522],[11.5774569,3.9079331],[11.5406568,3.8873928],[11.5382966,3.9095281]],[[11.5382966,3.9095281],[11.5295401,3.8884752]],[[11.5295401,3.8884752],[11.5595446,3.8811667],[11.5858002,3.856885],[11.5926485,3.82306],[11.5959216,3.7937606]],[[11.4737961,3.7448434],[11.4639311,3.7679238],[11.4497042,3.7883854],[11.4224209,3.8160704]],[[11.4224209,3.8160704],[11.4502922,3.7823757],[11.4737961,3.7448434]],[[13.6052727,7.3398098],[13.5753247,7.3521511],[13.5637688,7.3241237],[13.5799471,7.3307928],[13.5946119,7.3025336],[13.6083326,7.2995835],[13.6052727,7.3398098]],[[9.5189575,4.0956758],[9.5017748,4.1047695]],[[9.5017748,4.1047695],[9.5006447,4.1047444]],[[9.5006447,4.1047444],[9.5189575,4.0956758]],[[9.5550713,4.1023881],[9.6000023,4.1035552],[9.6053772,4.1152024],[9.620575,4.12397],[9.6252867,4.1332243]],[[9.6252867,4.1332243],[9.6141594,4.1212103],[9.5684074,4.1051784],[9.5550713,4.1023881]],[[9.4083326,3.9079169],[9.395914,3.8953314],[9.3704687,3.8922574],[9.4073038,3.881639],[9.4222306,3.8817452],[9.453729,3.8925287],[9.4696929,3.9009038],[9.4686434,3.9153766],[9.4230624,3.8925808],[9.4083326,3.9079169]],[[9.4083326,3.9079169],[9.427343,3.9183417],[9.4125481,3.9275336],[9.4083326,3.9079169]],[[9.5550713,4.1023881],[9.5189575,4.0956758]],[[9.5006447,4.1047444],[9.4980851,4.1067222]],[[9.4980851,4.1067222],[9.4845486,4.1138863]],[[9.4845486,4.1138863],[9.4714458,4.105961]],[[9.4714458,4.105961],[9.4701815,4.0889593],[9.4790194,4.070246],[9.4876457,4.0705878],[9.5034335,4.0535549],[9.5194003,4.0541897],[9.5456698,4.0417914],[9.5376457,4.0369126],[9.5209953,4.0375718],[9.54043,4.0203696],[9.562011,4.0199408],[9.5770175,4.0483221],[9.5543287,4.0693508],[9.5672844,4.0713324],[9.6215813,4.0541408],[9.5959953,4.0304266],[9.608553,4.0144989],[9.6366348,4.0283499],[9.6553402,4.0525727],[9.6917429,4.0655861],[9.6853877,4.0878502],[9.6909332,4.098021],[9.7035675,4.0916243],[9.7177839,4.0907531],[9.7118912,4.0725579],[9.6906395,4.0540791],[9.674674,4.0323973],[9.6751966,4.0153742],[9.6584597,4.016005],[9.6438761,3.9929469],[9.6359215,3.9749739],[9.6261148,3.962055],[9.6370272,3.936892],[9.6466189,3.9371821],[9.6602531,3.9535874],[9.7181145,3.9730577],[9.7249992,3.9495835],[9.7443677,3.9389675],[9.7249992,3.9245835],[9.7382642,3.9211818],[9.7748528,3.8973537],[9.8117343,3.9128485],[9.8249992,3.9162502],[9.8249992,3.9329169],[9.8333326,3.9329169],[9.8255526,3.9531765],[9.8620598,3.9317084],[9.8684641,3.9668916]],[[9.8494068,4.0061069],[9.8354093,4.0352679]],[[9.8551216,4.0708804],[9.8534264,4.090169]],[[9.8534264,4.090169],[9.8416659,4.0995835],[9.846386,4.1118475],[9.8439283,4.1315171],[9.8032382,4.1486599],[9.7768384,4.1641831],[9.7821607,4.2069729],[9.7582761,4.1878738],[9.7455415,4.1776907],[9.7323235,4.167121],[9.7637199,4.1538926],[9.7280591,4.1253363],[9.7083326,4.1329169],[9.6870598,4.1453925],[9.7206698,4.1671006],[9.68094,4.1593776],[9.6364739,4.1453029],[9.6252867,4.1332243]],[[9.815022,4.1297186],[9.8083326,4.1162502],[9.7888664,4.1201809],[9.7976229,4.1357163],[9.815022,4.1297186]],[[9.7481763,3.9356106],[9.7640455,3.9509304],[9.7666659,3.9329169],[9.7481763,3.9356106]],[[11.5224602,3.5209703],[11.4931958,3.5279852],[11.4979647,3.5067409],[11.5083326,3.4995835],[11.5224602,3.5209703]],[[10.4602369,6.0035264],[10.4389641,6.0107163],[10.4305331,5.9940497],[10.4148918,5.9861354],[10.4499992,5.9829169],[10.4602369,6.0035264]],[[11.5382966,3.9095281],[11.540494,3.9367743],[11.5038567,3.9290594],[11.4769198,3.8915391],[11.4519361,3.9054795],[11.4294751,3.8617743],[11.4205623,3.8492021]],[[11.4205623,3.8492021],[11.448947,3.8670416],[11.4967871,3.8774767],[11.5295401,3.8884752]],[[10.9066399,5.7379299],[10.8936679,5.7440497],[10.8721998,5.728091],[10.8999992,5.7245835],[10.9066399,5.7379299]],[[9.8551216,4.0708804],[9.8620435,4.0832709],[9.8534264,4.090169]],[[10.5419263,5.5608303],[10.5125806,5.5448472],[10.5249992,5.5329169],[10.5419263,5.5608303]],[[10.5532493,5.4876286],[10.5680418,5.4933252],[10.5802487,5.5042926],[10.5665357,5.51376],[10.5724423,5.540085],[10.5719052,5.5540591],[10.5672209,5.5610394],[10.5600443,5.5670199],[10.5465975,5.5416856],[10.5552401,5.5031073],[10.5367343,5.4961818],[10.537897,5.4860234],[10.5532493,5.4876286]],[[10.4916659,5.5245835],[10.4856112,5.5321438],[10.4399895,5.5264675],[10.3660311,5.5383938],[10.3462883,5.5708767],[10.3386386,5.5782904],[10.3332828,5.5535419],[10.3296924,5.5369507],[10.3160149,5.5134589],[10.3404615,5.5031561],[10.3537102,5.4866237],[10.3770434,5.4758301],[10.3824929,5.4726296],[10.4213341,5.4637268],[10.4373677,5.4681404],[10.4644279,5.4840496],[10.4834089,5.4952088],[10.4950025,5.5020249],[10.5120435,5.5187608],[10.4916659,5.5245835],[10.4833326,5.5162502],[10.4916659,5.5245835]],[[10.4043287,5.5931789],[10.3887199,5.5853379],[10.4083326,5.5745835],[10.4043287,5.5931789]],[[9.2249992,3.9912502],[9.2180819,3.9630723],[9.2277987,3.9545152],[9.2367343,3.9831447],[9.2249992,3.9912502]],[[9.2249992,3.9912502],[9.2333163,4.01105],[9.2102369,4.0514878],[9.1632642,4.0190578],[9.1738644,4.0113792],[9.2121601,4.0085459],[9.2110548,3.999109],[9.2249992,3.9912502]],[[9.3611483,4.1029852],[9.3117343,4.0961818],[9.2962069,4.0860663],[9.2799309,4.0897162],[9.2868482,4.069306],[9.3358879,4.0813503],[9.3617343,4.0613186],[9.3999992,4.0579169],[9.393912,4.0816514],[9.3611483,4.1029852]],[[9.5017748,4.1047695],[9.4980851,4.1067222]],[[9.4845486,4.1138863],[9.472509,4.1202582],[9.4714458,4.105961]],[[9.2700513,4.2009873],[9.2716952,4.1804307],[9.2628085,4.1701076],[9.2211418,4.1575629],[9.2293612,4.1354234],[9.2762199,4.1391913],[9.3166659,4.1329169],[9.3221672,4.1888658],[9.2956047,4.1867295],[9.2700513,4.2009873]],[[9.4083326,4.3079169],[9.4046216,4.2949571],[9.3894361,4.2827907],[9.3836906,4.25421],[9.4273593,4.2798855],[9.4346347,4.3282904],[9.4212883,4.3116237],[9.4083326,4.3079169]],[[11.4205623,3.8492021],[11.408772,3.832571],[11.4224209,3.8160704]],[[11.4737961,3.7448434],[11.4817778,3.7320978],[11.4938361,3.7199216],[11.5120173,3.7208217]],[[11.5695601,3.7481625],[11.5788567,3.7790594],[11.5959216,3.7937606]],[[9.919677,2.9372463],[9.9327304,2.9572902],[9.911626,2.9678216],[9.9065971,2.938143],[9.9027326,2.9303001],[9.9249992,2.9245835],[9.919677,2.9372463]],[[10.3645826,5.7019313],[10.3553866,5.6871364],[10.3749992,5.6829169],[10.3645826,5.7019313]],[[10.362662,6.0098456],[10.3470533,6.0020046],[10.3666659,5.9912502],[10.362662,6.0098456]],[[10.1916659,5.9912502],[10.1547193,5.9975246],[10.1278475,6.0137355],[10.110774,6.0112128],[10.1137362,5.9912502],[10.1096021,5.9633653],[10.1213697,5.9542873],[10.1286288,5.9365464],[10.1517896,5.9270697],[10.1789218,5.9377346],[10.196744,5.9351019],[10.195149,5.9459092],[10.221744,5.9533189],[10.2117017,5.9788641],[10.2253899,6.0015448],[10.2369621,5.9865464],[10.2507968,5.9758612],[10.2736158,5.9896226],[10.2869621,6.01942],[10.2452955,6.0282131],[10.2210767,6.0377346],[10.210774,6.0362128],[10.2131828,6.0199896],[10.1959628,6.0067084],[10.1916659,5.9912502]],[[10.0489738,5.4694037],[10.0299309,5.4373928],[10.0583326,5.4329169],[10.0489738,5.4694037]],[[14.9633781,10.85987],[14.9306145,10.8542588],[14.940201,10.8361517],[14.9666659,10.8329168],[14.9633781,10.85987]],[[14.8944816,10.8696437],[14.8799309,10.8568711],[14.9083326,10.8495835],[14.8944816,10.8696437]],[[14.8471997,10.896784],[14.8306307,10.902383],[14.8180494,10.8775132],[14.8499992,10.8745835],[14.8471997,10.896784]],[[14.1456047,11.0521144],[14.1223788,11.0610174],[14.1305005,11.0373765],[14.1499992,11.0329168],[14.1456047,11.0521144]],[[14.1811353,11.257925],[14.1634516,11.2627917],[14.1339264,11.2521409],[14.1299309,11.2369248],[14.1749992,11.2329168],[14.1811353,11.257925]],[[14.4453768,10.0875433],[14.4769198,10.1067043],[14.442968,10.1282904],[14.4131665,10.0910671],[14.4416659,10.0829168],[14.4453768,10.0875433]],[[13.7023104,9.0710109],[13.6601066,9.077383],[13.6471997,9.0527858],[13.6916659,9.0495835],[13.7023104,9.0710109]],[[12.9659986,9.1024359],[12.9463697,9.0921494],[12.9583326,9.0829168],[12.9659986,9.1024359]],[[13.4249992,9.2912502],[13.4388664,9.2940497],[13.4444654,9.3092596],[13.4249992,9.2995835]],[[13.4249992,9.2995835],[13.4249992,9.2912502]],[[13.4249992,9.2995835],[13.4287102,9.3125433],[13.4552401,9.3576727],[13.4530266,9.375381],[13.4178052,9.3546738],[13.3827303,9.3446478],[13.3628736,9.3198513],[13.3436027,9.3222479],[13.3296216,9.3015895],[13.3856112,9.2779974],[13.4175774,9.2819728],[13.4249992,9.2912502]],[[13.3693026,9.4362005],[13.3546216,9.4220729],[13.3749992,9.4162502],[13.3693026,9.4362005]],[[15.0543985,12.0591688],[15.0347719,12.0690985],[15.0380859,12.0962439],[15.009346,12.112401],[14.994606,12.1073637],[14.9811723,12.0911717],[15.012662,12.0789089],[15.0592254,12.0465151],[15.0543985,12.0591688]],[[14.2311096,12.359889],[14.229524,12.3790472],[14.2038566,12.3867743],[14.2203541,12.3620234],[14.2311096,12.359889]],[[13.4283195,10.1495835],[13.4171209,10.1321726],[13.4304029,10.1291367],[13.4283195,10.1495835]],[[13.5474113,10.3680527],[13.5374992,10.3577582],[13.5281405,10.3674749],[13.5229484,10.3519924],[13.5499992,10.3495835],[13.5474113,10.3680527]],[[13.5666659,10.3912502],[13.5666659,10.4079168],[13.5416659,10.4079168],[13.5416659,10.3912502],[13.5666659,10.3912502]],[[13.8833326,10.3995835],[13.8894198,10.4366156],[13.8868319,10.4540757],[13.8963697,10.4698797],[13.9096672,10.5023586],[13.8916659,10.5162502],[13.8783358,10.4958848],[13.8700025,10.4537502],[13.8746412,10.4303005],[13.8666659,10.4245835],[13.8600415,10.4112616],[13.8833326,10.3995835]],[[13.9083326,10.5912502],[13.9123365,10.5726548],[13.9279452,10.5804958],[13.9083326,10.5912502]],[[13.8793287,10.5931789],[13.8637199,10.5853379],[13.8833326,10.5745835],[13.8793287,10.5931789]],[[13.9112948,10.644363],[13.8797844,10.6312933],[13.8999992,10.6162502],[13.9112948,10.644363]],[[13.8087883,10.753152],[13.7796216,10.737348],[13.8249992,10.7329168],[13.8087883,10.753152]],[[13.9464348,9.9437079],[13.938785,9.9221543],[13.9499992,9.9162502],[13.9464348,9.9437079]],[[13.9749992,9.9079168],[13.9805331,9.9190497],[13.9806307,9.9440497],[13.9649244,9.9130112],[13.9749992,9.9079168]],[[13.9812492,9.968598],[13.9720533,9.9538031],[13.9916659,9.9495835],[13.9812492,9.968598]],[[13.5312004,9.9870713],[13.5243482,10.0011135],[13.5055331,9.9844305],[13.5249992,9.9745835],[13.5312004,9.9870713]],[[14.2459953,10.4598456],[14.2303866,10.4520046],[14.2499992,10.4412502],[14.2459953,10.4598456]],[[14.615966,10.5316026],[14.5970044,10.5440497],[14.5888664,10.5260972],[14.6083326,10.5162502],[14.615966,10.5316026]],[[14.1537102,10.52921],[14.1775708,10.5392645],[14.112955,10.5500514],[14.1499992,10.5245835],[14.1537102,10.52921]],[[14.3924309,10.6392157],[14.3543449,10.6281073],[14.3229647,10.6327459],[14.3129224,10.6197373],[14.2992831,10.6217555],[14.260953,10.5933416],[14.2631665,10.5783921],[14.2329745,10.5376613],[14.2499992,10.5329168],[14.2669914,10.5549343],[14.2794914,10.5530869],[14.2952954,10.5626206],[14.3380363,10.5782131],[14.3536288,10.5876206],[14.3986646,10.5971218],[14.3924309,10.6392157]],[[14.6112785,10.7299668],[14.6236483,10.7367498],[14.6339348,10.7608669],[14.5999341,10.7468532],[14.5887199,10.7288031],[14.6083326,10.7245835],[14.6112785,10.7299668]]],"bbox":[9.1632642,2.9245835,15.0592254,12.3867743]}