{"type":"Topology","objects":{"foo":{"type":"GeometryCollection","geometries":[{"type":"Polygon","arcs":[[0]],"properties":{"name":"Sao Vicente","gaul_code":12833,"targetarea":19.2116167,"totpop":77006.2461674,"country_id":"CPV","targetpop":23795.5984192,"totalarea":233.1247843,"new_mean":0.0234629}},{"type":"Polygon","arcs":[[1,2]],"properties":{"name":"Sao Domingos","gaul_code":12826,"targetarea":1.5476366,"totpop":16555.8360271,"country_id":"CPV","targetpop":3295.6965942,"totalarea":147.0692055,"new_mean":0.022452}},{"type":"Polygon","arcs":[[3,4,5,-2]],"properties":{"name":"Santa Cruz","gaul_code":12825,"targetarea":38.5301876,"totpop":151503.555294,"country_id":"CPV","targetpop":139857.680367,"totalarea":154.1761067,"new_mean":0.0222543}},{"type":"MultiPolygon","arcs":[[[-5,6]],[[7]]],"properties":{"name":"Santa Catarina","gaul_code":12824,"targetarea":2.5837325,"totpop":52029.8181765,"country_id":"CPV","targetpop":5132.1060181,"totalarea":256.3914252,"new_mean":0.0230131}},{"type":"MultiPolygon","arcs":[[[8]],[[9]]],"properties":{"name":"Tarrafal","gaul_code":12828,"targetarea":5.6076124,"totpop":41196.5148602,"country_id":"CPV","targetpop":7538.7511063,"totalarea":112.3746192,"new_mean":0.0226111}}]}},"arcs":[[[-24.9615241,16.8891872],[-24.986638,16.9085638],[-25,16.8912501],[-25,16.8833523],[-25.0078125,16.8772945],[-25.0181642,16.8738421],[-25.0033372,16.8624009],[-24.9666673,16.8579168],[-24.9615241,16.8891872]],[[-23.5660731,15.0610076],[-23.5706425,15.0629549],[-23.5767498,15.0587378],[-23.5819855,15.0532112],[-23.5825672,15.0492849],[-23.5910015,15.04245],[-23.5982742,15.0388145],[-23.6115016,15.0348701]],[[-23.6115016,15.0348701],[-23.6000006,15.0329168],[-23.5963711,15.0376206],[-23.5660731,15.0610076]],[[-23.5660731,15.0610076],[-23.5610683,15.0648708],[-23.5642422,15.0863429],[-23.6112362,15.0962622],[-23.6152145,15.0955885],[-23.6285943,15.0782621]],[[-23.6285943,15.0782621],[-23.6261044,15.0716095],[-23.6393271,15.0619036]],[[-23.6393271,15.0619036],[-23.6359381,15.0390203],[-23.6115016,15.0348701]],[[-23.6285943,15.0782621],[-23.6396328,15.0639674],[-23.6393271,15.0619036]],[[-23.6535651,15.1020412],[-23.6612148,15.0804876],[-23.6500006,15.0745835],[-23.6535651,15.1020412]],[[-23.7416673,15.2662502],[-23.7383307,15.247313],[-23.7308437,15.2616156],[-23.7416673,15.2662502]],[[-23.7416673,15.2662502],[-23.7348802,15.2798976],[-23.7679368,15.2857163],[-23.7602708,15.2700059],[-23.7416673,15.2662502]]],"bbox":[-25.0181642,15.0329168,-23.5610683,16.9085638]}