{"type":"Topology","objects":{"foo":{"type":"GeometryCollection","geometries":[{"type":"Polygon","arcs":[[0]],"properties":{"name":"Los Chiles","gaul_code":14475,"targetarea":1.1462477,"totpop":28687.0012244,"country_id":"CRI","targetpop":2049.9036865,"new_mean":0.0728399,"totalarea":1304.4102732}},{"type":"Polygon","arcs":[[1,2,3,4,5,6,7]],"properties":{"name":"Santa Ana","gaul_code":14546,"targetarea":35.395435,"totpop":71983.0274124,"country_id":"CRI","targetpop":65075.1759033,"new_mean":0.0868027,"totalarea":57.4949442}},{"type":"Polygon","arcs":[[8,9,10,11,12]],"properties":{"name":"Montes De Oca","gaul_code":14540,"targetarea":12.3393423,"totpop":60726.2528381,"country_id":"CRI","targetpop":59154.0634766,"new_mean":0,"totalarea":17.5166325}},{"type":"Polygon","arcs":[[13]],"properties":{"name":"Tarrazu","gaul_code":14547,"targetarea":1.7398187,"totpop":17312.7459559,"country_id":"CRI","targetpop":3974.2053223,"new_mean":0.071589,"totalarea":275.0622256}},{"type":"Polygon","arcs":[[14,15,16,17,18,19,20]],"properties":{"name":"Heredia","gaul_code":14507,"targetarea":25.9687457,"totpop":158651.836798,"country_id":"CRI","targetpop":157612.606689,"new_mean":0.0948704,"totalarea":292.1038784}},{"type":"MultiPolygon","arcs":[[[21]],[[22]]],"properties":{"name":"Pococi","gaul_code":14517,"targetarea":13.7621481,"totpop":147558.377229,"country_id":"CRI","targetpop":29955.2507324,"new_mean":0.0781232,"totalarea":2357.6084718}},{"type":"Polygon","arcs":[[23,24,25,26,27]],"properties":{"name":"Santa Barbara","gaul_code":14511,"targetarea":12.926914,"totpop":30347.0481997,"country_id":"CRI","targetpop":24475.0006714,"new_mean":0.0724477,"totalarea":45.8178308}},{"type":"Polygon","arcs":[[28,-2,29,-25,30,31,32]],"properties":{"name":"Alajuela","gaul_code":14470,"targetarea":93.7229956,"totpop":291648.874454,"country_id":"CRI","targetpop":227273.134277,"new_mean":0.0875963,"totalarea":386.4366946}},{"type":"Polygon","arcs":[[33]],"properties":{"name":"Canas","gaul_code":14495,"targetarea":4.6945055,"totpop":28731.2541058,"country_id":"CRI","targetpop":8951.7967529,"new_mean":0.1003807,"totalarea":689.1777984}},{"type":"Polygon","arcs":[[34,35,36]],"properties":{"name":"Aserri","gaul_code":14533,"targetarea":16.3705458,"totpop":78253.8661008,"country_id":"CRI","targetpop":56270.94104,"new_mean":0.0740532,"totalarea":173.5380982}},{"type":"Polygon","arcs":[[37]],"properties":{"name":"Upala","gaul_code":14483,"targetarea":1.1467513,"totpop":49497.8195901,"country_id":"CRI","targetpop":1859.4884033,"new_mean":0.0733895,"totalarea":1490.5388154}},{"type":"Polygon","arcs":[[38]],"properties":{"name":"Nicoya","gaul_code":14501,"targetarea":5.2547496,"totpop":61074.6353843,"country_id":"CRI","targetpop":11976.4133911,"new_mean":0.1011719,"totalarea":1329.2075179}},{"type":"MultiPolygon","arcs":[[[39,40]],[[41]]],"properties":{"name":"Esparza","gaul_code":14524,"targetarea":15.1270882,"totpop":55522.8340614,"country_id":"CRI","targetpop":32163.496521,"new_mean":0.0987035,"totalarea":244.6746786}},{"type":"Polygon","arcs":[[42,43,44]],"properties":{"name":"Vasquez De Coronado","gaul_code":14550,"targetarea":5.6128496,"totpop":32457.4659774,"country_id":"CRI","targetpop":21077.710083,"new_mean":0.048532,"totalarea":210.0010329}},{"type":"MultiPolygon","arcs":[[[45]],[[46]]],"properties":{"name":"Liberia","gaul_code":14499,"targetarea":16.5866312,"totpop":83619.3724794,"country_id":"CRI","targetpop":35657.3184814,"new_mean":0.1004914,"totalarea":1543.0080947}},{"type":"Polygon","arcs":[[47,-7,48,49,50]],"properties":{"name":"Escazu","gaul_code":14537,"targetarea":24.5900069,"totpop":96648.3190384,"country_id":"CRI","targetpop":93118.894104,"new_mean":0.0873681,"totalarea":31.1566609}},{"type":"Polygon","arcs":[[51]],"properties":{"name":"Montes De Oro","gaul_code":14527,"targetarea":1.7376323,"totpop":14489.8594556,"country_id":"CRI","targetpop":3693.5823364,"new_mean":0.0920313,"totalarea":253.6990877}},{"type":"Polygon","arcs":[[52]],"properties":{"name":"Limon","gaul_code":14515,"targetarea":19.9053054,"totpop":82940.5566993,"country_id":"CRI","targetpop":41342.9693604,"new_mean":0.0872847,"totalarea":1739.8578108}},{"type":"Polygon","arcs":[[53,54,55,56,-44]],"properties":{"name":"Moravia","gaul_code":14542,"targetarea":9.3084755,"totpop":37527.4239273,"country_id":"CRI","targetpop":34233.9605103,"new_mean":0.0493971,"totalarea":33.9928203}},{"type":"MultiPolygon","arcs":[[[57]],[[58,-32,59]],[[60]]],"properties":{"name":"Poas","gaul_code":14479,"targetarea":6.230136,"totpop":30445.2641191,"country_id":"CRI","targetpop":10138.4654541,"new_mean":0.080716,"totalarea":76.2721841}},{"type":"MultiPolygon","arcs":[[[61,62,63]],[[64]]],"properties":{"name":"Palmares","gaul_code":14478,"targetarea":16.0010708,"totpop":43321.3943481,"country_id":"CRI","targetpop":28845.8754272,"new_mean":0.0896932,"totalarea":41.0502643}},{"type":"Polygon","arcs":[[65]],"properties":{"name":"Puriscal","gaul_code":14544,"targetarea":4.6838211,"totpop":37528.2486057,"country_id":"CRI","targetpop":7267.3528442,"new_mean":0.0858433,"totalarea":570.3418544}},{"type":"Polygon","arcs":[[66]],"properties":{"name":"Alvarado","gaul_code":14485,"targetarea":0.9914545,"totpop":12922.6948342,"country_id":"CRI","targetpop":1149.5180664,"new_mean":0.0649441,"totalarea":80.3578411}},{"type":"Polygon","arcs":[[67,-28,68,-16,69]],"properties":{"name":"Barva","gaul_code":14504,"targetarea":14.6101744,"totpop":42526.3899837,"country_id":"CRI","targetpop":34821.9292603,"new_mean":0.0673331,"totalarea":61.3238018}},{"type":"MultiPolygon","arcs":[[[70,71,72]],[[73]]],"properties":{"name":"Oreamuno","gaul_code":14490,"targetarea":9.4903716,"totpop":45567.8758249,"country_id":"CRI","targetpop":29015.1124268,"new_mean":0.055998,"totalarea":200.0768915}},{"type":"Polygon","arcs":[[74]],"properties":{"name":"Santa Cruz","gaul_code":14502,"targetarea":5.0488809,"totpop":70272.1690085,"country_id":"CRI","targetpop":8863.4147339,"new_mean":0.1012755,"totalarea":1331.80739}},{"type":"Polygon","arcs":[[75]],"properties":{"name":"Matina","gaul_code":14516,"targetarea":2.2620873,"totpop":42010.3829744,"country_id":"CRI","targetpop":3961.3771973,"new_mean":0.0880486,"totalarea":750.8975984}},{"type":"Polygon","arcs":[[76,77]],"properties":{"name":"El Guarco","gaul_code":14487,"targetarea":17.1334279,"totpop":74670.4394426,"country_id":"CRI","targetpop":61336.0820312,"new_mean":0.0796373,"totalarea":194.1017841}},{"type":"Polygon","arcs":[[78]],"properties":{"name":"Carrillo","gaul_code":14496,"targetarea":3.0150859,"totpop":43538.6233702,"country_id":"CRI","targetpop":3526.1027222,"new_mean":0.1006328,"totalarea":585.0608274}},{"type":"MultiPolygon","arcs":[[[79,80,81,82,-20,83,84,-55,85]],[[86]]],"properties":{"name":"Santo Domingo","gaul_code":14512,"targetarea":27.0353216,"totpop":52851.0057373,"country_id":"CRI","targetpop":49113.0841675,"new_mean":0.0908322,"totalarea":30.7608648}},{"type":"Polygon","arcs":[[87,-70,-15,88]],"properties":{"name":"San Rafael","gaul_code":14510,"targetarea":9.0009073,"totpop":33744.455066,"country_id":"CRI","targetpop":22435.5065308,"new_mean":0.0580587,"totalarea":52.3472297}},{"type":"Polygon","arcs":[[89]],"properties":{"name":"Garabito","gaul_code":14525,"targetarea":3.0507298,"totpop":25800.9787487,"country_id":"CRI","targetpop":3959.0270996,"new_mean":0.089321,"totalarea":313.0826474}},{"type":"MultiPolygon","arcs":[[[90,91,92]],[[93,94,95,-77,96,97,-73]]],"properties":{"name":"Cartago","gaul_code":14486,"targetarea":41.4135672,"totpop":158434.203436,"country_id":"CRI","targetpop":118519.872009,"new_mean":0.0687993,"totalarea":238.6539859}},{"type":"Polygon","arcs":[[98,-71,-98]],"properties":{"name":"Paraiso","gaul_code":14491,"targetarea":8.7843479,"totpop":54338.2089963,"country_id":"CRI","targetpop":22788.2904053,"new_mean":0.0697067,"totalarea":453.7558928}},{"type":"Polygon","arcs":[[99]],"properties":{"name":"Atenas","gaul_code":14472,"targetarea":2.7727798,"totpop":30667.6342716,"country_id":"CRI","targetpop":5088.640625,"new_mean":0.0892705,"totalarea":134.564035}},{"type":"Polygon","arcs":[[-45,-57,100,101,-10,102]],"properties":{"name":"Goicoechea","gaul_code":14538,"targetarea":19.0317612,"totpop":127439.882603,"country_id":"CRI","targetpop":123179.926697,"new_mean":0.0756109,"totalarea":38.3380546}},{"type":"Polygon","arcs":[[103]],"properties":{"name":"Turrialba","gaul_code":14492,"targetarea":13.525675,"totpop":68692.9130467,"country_id":"CRI","targetpop":23079.4700928,"new_mean":0.0753947,"totalarea":1535.6668887}},{"type":"MultiPolygon","arcs":[[[104,-63,105]],[[106]]],"properties":{"name":"San Ramon","gaul_code":14482,"targetarea":15.9573659,"totpop":97177.6801403,"country_id":"CRI","targetpop":39041.2662354,"new_mean":0.0862981,"totalarea":1085.7042139}},{"type":"Polygon","arcs":[[107,108]],"properties":{"name":"Valverde Vega","gaul_code":14484,"targetarea":6.6660854,"totpop":20136.1437311,"country_id":"CRI","targetpop":7595.3431397,"new_mean":0.0830994,"totalarea":128.4925468}},{"type":"Polygon","arcs":[[109,-84,-19,110,-51,111,112,113,-11,-102]],"properties":{"name":"San Jose","gaul_code":14545,"targetarea":38.3680857,"totpop":198976.409912,"country_id":"CRI","targetpop":198976.409912,"new_mean":0.1091832,"totalarea":38.3680857}},{"type":"Polygon","arcs":[[114]],"properties":{"name":"Orotina","gaul_code":14477,"targetarea":4.1417663,"totpop":26548.3193741,"country_id":"CRI","targetpop":6366.229187,"new_mean":0.0964832,"totalarea":165.0147483}},{"type":"Polygon","arcs":[[115,-12,-114,116]],"properties":{"name":"Curridabat","gaul_code":14534,"targetarea":17.2736323,"totpop":72098.381897,"country_id":"CRI","targetpop":72098.381897,"new_mean":0.0929693,"totalarea":17.2736322}},{"type":"Polygon","arcs":[[117]],"properties":{"name":"Buenos Aires","gaul_code":14521,"targetarea":5.0654734,"totpop":50128.7930578,"country_id":"CRI","targetpop":7147.5189209,"new_mean":0.0882654,"totalarea":2396.126702}},{"type":"MultiPolygon","arcs":[[[118]],[[119]]],"properties":{"name":"Corredores","gaul_code":14522,"targetarea":4.3081277,"totpop":45778.8428187,"country_id":"CRI","targetpop":9678.9580078,"new_mean":0.0864776,"totalarea":543.1886336}},{"type":"Polygon","arcs":[[-112,-50,120,-36,121]],"properties":{"name":"Alajuelita","gaul_code":14532,"targetarea":19.0149323,"totpop":114178.036465,"country_id":"CRI","targetpop":111990.625183,"new_mean":0.0938055,"totalarea":27.2037915}},{"type":"Polygon","arcs":[[122]],"properties":{"name":"Tilaran","gaul_code":14503,"targetarea":1.9484056,"totpop":19798.8802033,"country_id":"CRI","targetpop":4053.6941528,"new_mean":0.0809579,"totalarea":594.3020892}},{"type":"Polygon","arcs":[[123]],"properties":{"name":"Acosta","gaul_code":14531,"targetarea":1.1506744,"totpop":20700.0448198,"country_id":"CRI","targetpop":2388.1658325,"new_mean":0.0857478,"totalarea":335.7412733}},{"type":"Polygon","arcs":[[-89,-21,-83,124]],"properties":{"name":"San Pablo","gaul_code":14509,"targetarea":10.5224936,"totpop":44707.9275513,"country_id":"CRI","targetpop":43409.946106,"new_mean":0.0947595,"totalarea":11.3232601}},{"type":"MultiPolygon","arcs":[[[125,-109,126]],[[127]]],"properties":{"name":"Grecia","gaul_code":14473,"targetarea":19.5325358,"totpop":85840.5544596,"country_id":"CRI","targetpop":32688.7246704,"new_mean":0.0866899,"totalarea":399.4849592}},{"type":"Polygon","arcs":[[128]],"properties":{"name":"Naranjo","gaul_code":14476,"targetarea":9.1403558,"totpop":43699.0530338,"country_id":"CRI","targetpop":12885.0471802,"new_mean":0.0858343,"totalarea":118.3024936}},{"type":"Polygon","arcs":[[129,-13,-116,130,-91,131,-95]],"properties":{"name":"La Union","gaul_code":14489,"targetarea":30.4463489,"totpop":110195.311077,"country_id":"CRI","targetpop":106815.382446,"new_mean":0.0625405,"totalarea":43.3383996}},{"type":"MultiPolygon","arcs":[[[132]],[[133]]],"properties":{"name":"Aguirre","gaul_code":14520,"targetarea":3.1505712,"totpop":34409.0603567,"country_id":"CRI","targetpop":6514.755188,"new_mean":0.0823236,"totalarea":602.0242659}},{"type":"Polygon","arcs":[[-117,-113,-122,-35,134,-92,-131]],"properties":{"name":"Desamparados","gaul_code":14535,"targetarea":47.9898724,"totpop":294485.792286,"country_id":"CRI","targetpop":273541.160278,"new_mean":0.0944796,"totalarea":129.5127126}},{"type":"MultiPolygon","arcs":[[[135]],[[136]]],"properties":{"name":"San Carlos","gaul_code":14480,"targetarea":13.9857623,"totpop":197683.141798,"country_id":"CRI","targetpop":32888.1412354,"new_mean":0.0789703,"totalarea":3291.4401519}},{"type":"Polygon","arcs":[[-69,-27,137,-17]],"properties":{"name":"Flores","gaul_code":14506,"targetarea":8.3999645,"totpop":21607.1627197,"country_id":"CRI","targetpop":21607.1627197,"new_mean":0.0904093,"totalarea":8.3999646}},{"type":"MultiPolygon","arcs":[[[-5,138]],[[-3,-29,139]]],"properties":{"name":"Mora","gaul_code":14541,"targetarea":7.4326046,"totpop":34668.2862816,"country_id":"CRI","targetpop":10070.2380981,"new_mean":0.0822694,"totalarea":154.3286879}},{"type":"Polygon","arcs":[[140]],"properties":{"name":"Perez Zeledon","gaul_code":14543,"targetarea":25.6319663,"totpop":146615.962303,"country_id":"CRI","targetpop":51009.4202881,"new_mean":0.0852214,"totalarea":1949.5134444}},{"type":"Polygon","arcs":[[141]],"properties":{"name":"Siquirres","gaul_code":14518,"targetarea":5.1139073,"totpop":64060.9686813,"country_id":"CRI","targetpop":9967.2738647,"new_mean":0.081468,"totalarea":884.866519}},{"type":"Polygon","arcs":[[-26,-30,-8,-48,-111,-18,-138]],"properties":{"name":"Belen","gaul_code":14505,"targetarea":17.7172601,"totpop":36409.7077637,"country_id":"CRI","targetpop":36409.7077637,"new_mean":0,"totalarea":17.7172599}},{"type":"Polygon","arcs":[[-81,142]],"properties":{"name":"San Isidro","gaul_code":14508,"targetarea":5.4239273,"totpop":18035.9803085,"country_id":"CRI","targetpop":12699.7056885,"new_mean":0,"totalarea":19.9370438}},{"type":"Polygon","arcs":[[-85,-110,-101,-56]],"properties":{"name":"Tibas","gaul_code":14548,"targetarea":5.6564595,"totpop":27693.5622559,"country_id":"CRI","targetpop":27693.5622559,"new_mean":0,"totalarea":5.6564597}},{"type":"MultiPolygon","arcs":[[[143]],[[-41,144]]],"properties":{"name":"Puntarenas","gaul_code":14530,"targetarea":20.7388143,"totpop":101410.263696,"country_id":"CRI","targetpop":42102.2331247,"new_mean":0.0946821,"totalarea":1906.7073239}}]}},"arcs":[[[-84.7116703,11.0435207],[-84.7191654,11.0292181],[-84.7083337,11.0245835],[-84.7116703,11.0435207]],[[-84.1884003,9.9705772],[-84.2001724,9.971159],[-84.2150726,9.9644566],[-84.2327118,9.9471846]],[[-84.2327118,9.9471846],[-84.2325519,9.9469838]],[[-84.2325519,9.9469838],[-84.2313289,9.945448]],[[-84.2313289,9.945448],[-84.2140487,9.9228366]],[[-84.2140487,9.9228366],[-84.1833337,9.9175482],[-84.1599578,9.9215731]],[[-84.1599578,9.9215731],[-84.1585999,9.9377947],[-84.1701584,9.9647741]],[[-84.1701584,9.9647741],[-84.1884003,9.9705772]],[[-83.982493,9.9516397],[-83.9883993,9.9665023]],[[-83.9883993,9.9665023],[-84.0166855,9.9533319],[-84.0396423,9.9545107],[-84.0560684,9.9486675]],[[-84.0560684,9.9486675],[-84.0565491,9.9324598],[-84.047493,9.9318047]],[[-84.047493,9.9318047],[-84.0311356,9.9406443],[-83.9975281,9.9469528]],[[-83.9975281,9.9469528],[-83.982493,9.9516397]],[[-84.0202315,9.6770412],[-84.0278731,9.6554876],[-84.0166671,9.6495835],[-84.0202315,9.6770412]],[[-84.1089325,10.0099211],[-84.118187,10.0180607]],[[-84.118187,10.0180607],[-84.1247864,10.0166807]],[[-84.1247864,10.0166807],[-84.140686,10.0141506],[-84.159996,9.9911394]],[[-84.159996,9.9911394],[-84.1556625,9.9753618],[-84.1448517,9.9651585]],[[-84.1448517,9.9651585],[-84.1343918,9.9687405],[-84.1146622,9.9638758]],[[-84.1146622,9.9638758],[-84.1090317,9.9790239]],[[-84.1090317,9.9790239],[-84.1066055,9.9904852],[-84.1089325,10.0099211]],[[-83.7700443,10.2121974],[-83.7832035,10.2340155],[-83.8119633,10.205862],[-83.7750004,10.1995835],[-83.7700443,10.2121974]],[[-83.7228845,10.3706122],[-83.7512699,10.377383],[-83.739128,10.3525132],[-83.7333337,10.3495835],[-83.7228845,10.3706122]],[[-84.1340279,10.0589269],[-84.1467615,10.0773708],[-84.1617354,10.0660223],[-84.1436365,10.0535223],[-84.1676801,10.0445266]],[[-84.1676801,10.0445266],[-84.1745758,10.0186405]],[[-84.1745758,10.0186405],[-84.1669617,10.0155411]],[[-84.1669617,10.0155411],[-84.1558228,10.0272398],[-84.1399155,10.0306702]],[[-84.1399155,10.0306702],[-84.1399918,10.0558586],[-84.1340279,10.0589269]],[[-84.2330919,9.9468909],[-84.2327118,9.9471846]],[[-84.1884003,9.9705772],[-84.1956329,9.993474],[-84.1803055,10.0067806],[-84.1745758,10.0186405]],[[-84.1676801,10.0445266],[-84.1958337,10.044481],[-84.2198165,10.0498602],[-84.25446,10.0273016],[-84.2648256,10.0395084]],[[-84.2648256,10.0395084],[-84.2702179,10.0322399],[-84.2879243,10.0255229]],[[-84.2879243,10.0255229],[-84.2853519,10.0204413],[-84.2593672,10.0129421],[-84.2777999,9.9897365],[-84.2722009,9.9690497],[-84.2611332,9.9634507],[-84.2583337,9.9495835],[-84.2460779,9.9446559],[-84.2330919,9.9468909]],[[-85.0881596,10.4446722],[-85.1119633,10.4242214],[-85.0833337,10.4162502],[-85.0881596,10.4446722]],[[-84.0684908,9.8438029],[-84.0644913,9.8557682],[-84.076828,9.8779278],[-84.098053,9.8821516]],[[-84.098053,9.8821516],[-84.113823,9.871585]],[[-84.113823,9.871585],[-84.1072107,9.8549424],[-84.0892745,9.8416001],[-84.0791671,9.8551865],[-84.0684908,9.8438029]],[[-85.0116703,10.9101873],[-85.0191654,10.8958848],[-85.0083337,10.8912502],[-85.0116703,10.9101873]],[[-85.4437829,10.1557969],[-85.4556319,10.1680609],[-85.4604496,10.1356553],[-85.441667,10.1329168],[-85.4437829,10.1557969]],[[-84.7483839,9.9694855],[-84.716667,9.9662502],[-84.6929203,9.9986639],[-84.715223,9.9968718]],[[-84.715223,9.9968718],[-84.7216263,9.9912443],[-84.7221832,9.9783258],[-84.7483839,9.9694855]],[[-84.6547774,9.9876939],[-84.6381107,10.0000921],[-84.657056,10.0114732],[-84.6785567,9.9883978],[-84.6583337,9.9829168],[-84.6547774,9.9876939]],[[-83.9814762,9.9810805],[-84.0107087,9.9987999]],[[-84.0107087,9.9987999],[-84.025116,9.9758959]],[[-84.025116,9.9758959],[-84.007782,9.9811649],[-83.9814762,9.9810805]],[[-85.5354252,10.6102647],[-85.5446211,10.5954697],[-85.5250004,10.5912502],[-85.5354252,10.6102647]],[[-85.4175541,10.6465643],[-85.4376957,10.6613185],[-85.4617354,10.620429],[-85.4250004,10.6162502],[-85.4175541,10.6465643]],[[-84.1526108,9.9625483],[-84.1701584,9.9647741]],[[-84.1599578,9.9215731],[-84.1464441,9.8948065],[-84.1328698,9.8911243]],[[-84.1328698,9.8911243],[-84.1227722,9.9051743],[-84.1221313,9.9381828]],[[-84.1221313,9.9381828],[-84.1526108,9.9625483]],[[-84.7285648,10.1020412],[-84.7362064,10.0804876],[-84.7250004,10.0745835],[-84.7285648,10.1020412]],[[-83.0514908,10.0068903],[-83.0625004,9.9937689],[-83.0718235,10.0067761],[-83.1032963,9.9912502],[-83.0863611,9.9791164],[-83.0342865,9.9707155],[-83.0317535,9.9952679],[-83.0514908,10.0068903]],[[-84.0107087,9.9987999],[-84.0165897,10.0094098]],[[-84.0165897,10.0094098],[-84.0312195,9.9898272],[-84.0624695,9.9742851]],[[-84.0624695,9.9742851],[-84.0616455,9.9659109]],[[-84.0616455,9.9659109],[-84.036972,9.9674788],[-84.025116,9.9758959]],[[-84.291667,10.0329168],[-84.2927741,10.0368545],[-84.2941725,10.0336205],[-84.291667,10.0329168]],[[-84.291667,10.0329168],[-84.2879243,10.0255229]],[[-84.2648256,10.0395084],[-84.291667,10.0329168]],[[-84.2427575,10.0726714],[-84.2464034,10.0941392],[-84.2619633,10.0819159],[-84.245119,10.0689146],[-84.2427575,10.0726714]],[[-84.4500004,10.0662502],[-84.4547594,10.0745835]],[[-84.4547594,10.0745835],[-84.455628,10.0662502]],[[-84.455628,10.0662502],[-84.4500004,10.0662502]],[[-84.4500004,10.0662502],[-84.4447839,10.0289089],[-84.4111576,10.0462347],[-84.4137211,10.0786688],[-84.4500004,10.0662502]],[[-84.3019535,9.8457586],[-84.3143477,9.8607163],[-84.3277999,9.8368475],[-84.3083337,9.8329168],[-84.3019535,9.8457586]],[[-83.8003345,9.8836982],[-83.8045251,9.8934963],[-83.8145039,9.8885873],[-83.8121554,9.8850588],[-83.8030214,9.8834492],[-83.8003345,9.8836982]],[[-84.1062371,10.0465513],[-84.1119389,10.0548081],[-84.1286055,10.0510728],[-84.1340279,10.0589269]],[[-84.1399155,10.0306702],[-84.1339111,10.0197411],[-84.1247864,10.0166807]],[[-84.118187,10.0180607],[-84.0988617,10.0281801],[-84.1062371,10.0465513]],[[-83.889595,9.8551044],[-83.8848036,9.8657884]],[[-83.8848036,9.8657884],[-83.8933028,9.8871771],[-83.9034112,9.8899176]],[[-83.9034112,9.8899176],[-83.9092484,9.8803644],[-83.9071808,9.8705225],[-83.889595,9.8551044]],[[-83.8723718,9.9028672],[-83.8870365,9.8887396],[-83.8666671,9.8829168],[-83.8723718,9.9028672]],[[-85.5750004,10.2495835],[-85.5750004,10.2745835],[-85.591667,10.2745835],[-85.591667,10.2495835],[-85.5750004,10.2495835]],[[-83.3390385,10.0945339],[-83.3537032,10.0804063],[-83.3333337,10.0745835],[-83.3390385,10.0945339]],[[-83.941162,9.828837],[-83.9205704,9.8521671],[-83.9295807,9.8624191],[-83.961891,9.8572002]],[[-83.961891,9.8572002],[-83.9893152,9.8367987],[-83.9526534,9.8268581],[-83.941162,9.828837]],[[-85.6839929,10.5607692],[-85.7036299,10.5504828],[-85.691667,10.5412502],[-85.6839929,10.5607692]],[[-84.0250004,10.0245835],[-84.0255447,10.0247172]],[[-84.0255447,10.0247172],[-84.0444565,10.011961],[-84.0660485,10.008813]],[[-84.0660485,10.008813],[-84.0666671,10.0079168],[-84.0470463,9.9971624],[-84.0626631,9.9893215],[-84.0666671,10.0079168],[-84.0677707,10.0082001]],[[-84.0677707,10.0082001],[-84.0823517,9.9965401],[-84.0961075,9.9808731],[-84.1090317,9.9790239]],[[-84.1146622,9.9638758],[-84.0958099,9.9694853]],[[-84.0958099,9.9694853],[-84.0775528,9.9744768],[-84.0624695,9.9742851]],[[-84.0165897,10.0094098],[-84.0250004,10.0245835]],[[-84.0250004,10.0245835],[-84.0163188,10.0289122],[-84.0249102,10.0249043],[-84.0250004,10.0245835]],[[-84.0833373,10.0143277],[-84.0781986,10.0372422],[-84.0835616,10.0529852],[-84.0971195,10.0333482],[-84.1062371,10.0465513]],[[-84.1089325,10.0099211],[-84.0940018,10.0154209],[-84.0833373,10.0143277]],[[-84.6228275,9.627855],[-84.6379139,9.6144792],[-84.616667,9.6079168],[-84.6228275,9.627855]],[[-83.9791872,9.8915764],[-83.9959869,9.8879128]],[[-83.9959869,9.8879128],[-83.9960118,9.8855176]],[[-83.9960118,9.8855176],[-83.9791872,9.8915764]],[[-83.9034112,9.8899176],[-83.9214441,9.8948065],[-83.9547266,9.9085354]],[[-83.9547266,9.9085354],[-83.959284,9.8987439]],[[-83.959284,9.8987439],[-83.9478682,9.902855],[-83.9548181,9.8624619],[-83.961891,9.8572002]],[[-83.941162,9.828837],[-83.9291671,9.8309027],[-83.9046391,9.8266791],[-83.8960616,9.8382147],[-83.8703454,9.8222967],[-83.8644829,9.8263469]],[[-83.8644829,9.8263469],[-83.889595,9.8551044]],[[-83.8644829,9.8263469],[-83.8381107,9.8445664],[-83.8797774,9.8531398],[-83.8848036,9.8657884]],[[-84.3755538,9.9921535],[-84.3944665,9.978091],[-84.366667,9.9745835],[-84.3755538,9.9921535]],[[-84.0616455,9.9659109],[-84.0778427,9.950778]],[[-84.0778427,9.950778],[-84.0560684,9.9486675]],[[-83.9883993,9.9665023],[-83.9814762,9.9810805]],[[-83.6602217,9.9174953],[-83.7014408,9.9329168],[-83.6930261,9.8954046],[-83.6666671,9.8912502],[-83.6602217,9.9174953]],[[-84.4583337,10.0745835],[-84.455628,10.0662502]],[[-84.4547594,10.0745835],[-84.4583337,10.0745835]],[[-84.4583337,10.0745835],[-84.4508956,10.1198797],[-84.485059,10.1077663],[-84.4890792,10.0805609],[-84.4709476,10.0696234],[-84.4583337,10.0745835]],[[-84.322854,10.0938373],[-84.3295495,10.0950303],[-84.341667,10.1096136],[-84.3581954,10.0897202],[-84.3405709,10.0750852]],[[-84.3405709,10.0750852],[-84.3355255,10.0853567],[-84.322854,10.0938373]],[[-84.0778427,9.950778],[-84.0958099,9.9694853]],[[-84.1448517,9.9651585],[-84.1526108,9.9625483]],[[-84.1221313,9.9381828],[-84.1043167,9.9260674],[-84.0891418,9.9105835]],[[-84.0891418,9.9105835],[-84.0664063,9.9174976],[-84.049942,9.9104452]],[[-84.049942,9.9104452],[-84.047493,9.9318047]],[[-84.5104577,9.9120713],[-84.5173181,9.9261135],[-84.5361332,9.9094305],[-84.516667,9.8995835],[-84.5104577,9.9120713]],[[-84.0260162,9.9062939],[-84.0112076,9.9165926],[-83.9986267,9.9313278],[-83.9975281,9.9469528]],[[-84.049942,9.9104452],[-84.0260162,9.9062939]],[[-83.3198897,9.1703802],[-83.322323,9.1812201],[-83.3399662,9.1772609],[-83.3353682,9.1567409],[-83.3250004,9.1495835],[-83.3198897,9.1703802]],[[-82.8383942,8.5459881],[-82.8534021,8.5318711],[-82.8348381,8.5271078],[-82.8383942,8.5459881]],[[-82.9390385,8.6612005],[-82.9537032,8.6470729],[-82.9333337,8.6412502],[-82.9390385,8.6612005]],[[-84.1328698,9.8911243],[-84.1202234,9.8876939],[-84.113823,9.871585]],[[-84.098053,9.8821516],[-84.0918503,9.8874178],[-84.0891418,9.9105835]],[[-84.9623376,10.4765122],[-84.9779545,10.4686712],[-84.9583337,10.4579168],[-84.9623376,10.4765122]],[[-84.1616703,9.8101874],[-84.1691654,9.7958848],[-84.1583337,9.7912502],[-84.1616703,9.8101874]],[[-84.0677707,10.0082001],[-84.0833373,10.0143277]],[[-84.3083337,10.0912502],[-84.322854,10.0938373]],[[-84.3405709,10.0750852],[-84.3361251,10.0713934],[-84.337948,10.0535305],[-84.3211592,10.0625433],[-84.2966068,10.0600368],[-84.3083337,10.0912502]],[[-84.3083337,10.0912502],[-84.2952234,10.0876939],[-84.277191,10.0765356],[-84.2752644,10.0949105],[-84.2994877,10.1031398],[-84.3083337,10.0912502]],[[-84.3606856,10.1087347],[-84.4119633,10.1163153],[-84.4046228,10.1030666],[-84.3954756,10.1044175],[-84.366667,10.0829168],[-84.3606856,10.1087347]],[[-83.9547266,9.9085354],[-83.9775639,9.939236],[-83.982493,9.9516397]],[[-84.0260162,9.9062939],[-84.0274429,9.8915606],[-84.000946,9.8934765],[-83.9959869,9.8879128]],[[-83.9791872,9.8915764],[-83.959284,9.8987439]],[[-84.1604252,9.443598],[-84.1696212,9.4288031],[-84.1500004,9.4245835],[-84.1604252,9.443598]],[[-84.1366703,9.4601874],[-84.1441654,9.4458848],[-84.1333337,9.4412502],[-84.1366703,9.4601874]],[[-84.0684908,9.8438029],[-84.0505131,9.8376939],[-84.0381107,9.8543605],[-84.0285567,9.8614732],[-84.0160241,9.8783107],[-83.9960118,9.8855176]],[[-84.4225346,10.3424749],[-84.4366703,10.3698797],[-84.4452966,10.3239447],[-84.416667,10.3079168],[-84.4225346,10.3424749]],[[-84.3390385,10.3862005],[-84.3537032,10.3720729],[-84.3333337,10.3662502],[-84.3390385,10.3862005]],[[-84.1669617,10.0155411],[-84.159996,9.9911394]],[[-84.2313289,9.945448],[-84.2464441,9.9210272],[-84.2483728,9.9043605],[-84.2175541,9.9234401],[-84.2140487,9.9228366]],[[-84.2330919,9.9468909],[-84.2325519,9.9469838]],[[-83.6717777,9.3632757],[-83.7082361,9.4032904],[-83.7203699,9.3628526],[-83.6785974,9.3374782],[-83.6804529,9.3225734],[-83.6583337,9.3162502],[-83.6717777,9.3632757]],[[-83.4916671,10.0912502],[-83.4916671,10.1079168],[-83.5166671,10.1079168],[-83.5166671,10.0912502],[-83.4916671,10.0912502]],[[-84.0255447,10.0247172],[-84.0507898,10.030919],[-84.0660485,10.008813]],[[-84.805876,9.9796128],[-84.8361053,9.9787731],[-84.8430098,9.9696519],[-84.8250004,9.9662502],[-84.805876,9.9796128]],[[-84.715223,9.9968718],[-84.7769779,9.9919094],[-84.7871911,9.9734442],[-84.7483839,9.9694855]]],"bbox":[-85.7036299,8.5271078,-82.8348381,11.0435207]}