{"type":"Topology","objects":{"foo":{"type":"GeometryCollection","geometries":[{"type":"Polygon","arcs":[[0]],"properties":{"name":"Cauto Cristo","gaul_code":14620,"targetarea":1.0947341,"totpop":17961.6649199,"country_id":"CUB","targetpop":2071.3618774,"totalarea":403.0661378,"new_mean":0.0167249}},{"type":"Polygon","arcs":[[1]],"properties":{"name":"Buey Arriba","gaul_code":14618,"targetarea":2.1591578,"totpop":32924.3675356,"country_id":"CUB","targetpop":3886.2387085,"totalarea":532.9082582,"new_mean":0.0167669}},{"type":"Polygon","arcs":[[2]],"properties":{"name":"Sagua De Tanamo","gaul_code":14651,"targetarea":6.0841692,"totpop":49873.2814293,"country_id":"CUB","targetpop":8259.5987549,"totalarea":772.7980477,"new_mean":0.0169444}},{"type":"Polygon","arcs":[[3,4,5,6,7,8]],"properties":{"name":"Boyeros","gaul_code":14603,"targetarea":113.2783554,"totpop":380495.866516,"country_id":"CUB","targetpop":359707.770874,"totalarea":149.6728854,"new_mean":0.0145333}},{"type":"Polygon","arcs":[[9]],"properties":{"name":"Fomento","gaul_code":14777,"targetarea":4.7529976,"totpop":44359.9933968,"country_id":"CUB","targetpop":8168.9602661,"totalarea":586.66322,"new_mean":0.0159263}},{"type":"MultiPolygon","arcs":[[[10]],[[11]]],"properties":{"name":"Consolacion Del Sur","gaul_code":14765,"targetarea":3.6117587,"totpop":91754.2228166,"country_id":"CUB","targetpop":5623.6665649,"totalarea":1137.2492232,"new_mean":0.0140572}},{"type":"MultiPolygon","arcs":[[[12]],[[13]]],"properties":{"name":"Cabaiguan","gaul_code":14776,"targetarea":9.2751926,"totpop":70369.4471312,"country_id":"CUB","targetpop":12788.4375,"totalarea":642.850028,"new_mean":0.0160318}},{"type":"Polygon","arcs":[[14]],"properties":{"name":"Los Palacios","gaul_code":14768,"targetarea":2.5298629,"totpop":41224.1886797,"country_id":"CUB","targetpop":3553.2832642,"totalarea":788.8002273,"new_mean":0.0144016}},{"type":"MultiPolygon","arcs":[[[15]],[[16]],[[17,18]]],"properties":{"name":"Cardenas","gaul_code":14750,"targetarea":21.5246107,"totpop":103044.51667,"country_id":"CUB","targetpop":28782.4415131,"totalarea":829.0481215,"new_mean":0.0145433}},{"type":"Polygon","arcs":[[19]],"properties":{"name":"San Antonio De Los Baios","gaul_code":14737,"targetarea":10.1405725,"totpop":45753.7372494,"country_id":"CUB","targetpop":21542.3634033,"totalarea":98.2510905,"new_mean":0.013385}},{"type":"Polygon","arcs":[[20,21]],"properties":{"name":"Moron","gaul_code":14591,"targetarea":8.8311602,"totpop":58101.0715394,"country_id":"CUB","targetpop":13520.8862915,"totalarea":1063.9776429,"new_mean":0.015346}},{"type":"MultiPolygon","arcs":[[[22]],[[23]],[[24]],[[25]],[[26]]],"properties":{"name":"Santiago De Cuba","gaul_code":14789,"targetarea":154.7650597,"totpop":490942.073855,"country_id":"CUB","targetpop":345755.890106,"totalarea":1115.939082,"new_mean":0.0153727}},{"type":"MultiPolygon","arcs":[[[27]],[[28]]],"properties":{"name":"Media Luna","gaul_code":14624,"targetarea":12.1292774,"totpop":74353.2484317,"country_id":"CUB","targetpop":21489.4834595,"totalarea":922.6401661,"new_mean":0.0167521}},{"type":"Polygon","arcs":[[29]],"properties":{"name":"Guanajay","gaul_code":14728,"targetarea":8.18544,"totpop":26490.1843338,"country_id":"CUB","targetpop":12006.0102539,"totalarea":83.2075165,"new_mean":0.0135276}},{"type":"Polygon","arcs":[[30]],"properties":{"name":"Tercer Frente","gaul_code":14792,"targetarea":2.4119772,"totpop":32465.0048733,"country_id":"CUB","targetpop":4209.3708496,"totalarea":423.7514001,"new_mean":0.0168649}},{"type":"Polygon","arcs":[[31]],"properties":{"name":"San Cristobal","gaul_code":14772,"targetarea":11.1915839,"totpop":70471.0845251,"country_id":"CUB","targetpop":15072.9733276,"totalarea":781.8292237,"new_mean":0.0142524}},{"type":"Polygon","arcs":[[32]],"properties":{"name":"Amancio","gaul_code":14741,"targetarea":5.8484036,"totpop":36203.130448,"country_id":"CUB","targetpop":9445.348938,"totalarea":734.418355,"new_mean":0.016625}},{"type":"Polygon","arcs":[[33]],"properties":{"name":"La Palma","gaul_code":14767,"targetarea":1.0786117,"totpop":31646.8313391,"country_id":"CUB","targetpop":1966.0232544,"totalarea":700.9923698,"new_mean":0.0146744}},{"type":"Polygon","arcs":[[34]],"properties":{"name":"Colombia","gaul_code":14742,"targetarea":3.7800435,"totpop":32390.5734032,"country_id":"CUB","targetpop":4762.9415894,"totalarea":509.4981758,"new_mean":0.0167423}},{"type":"MultiPolygon","arcs":[[[35]],[[36,37]]],"properties":{"name":"Placetas","gaul_code":14799,"targetarea":9.5984087,"totpop":61547.0621405,"country_id":"CUB","targetpop":12190.6428223,"totalarea":570.2861826,"new_mean":0.0157043}},{"type":"Polygon","arcs":[[38,39,40,41],[42]],"properties":{"name":"Cotorro","gaul_code":14606,"targetarea":34.8650732,"totpop":95242.9901161,"country_id":"CUB","targetpop":86448.8488007,"totalarea":62.8199109,"new_mean":0.0139656}},{"type":"Polygon","arcs":[[43]],"properties":{"name":"Holguin","gaul_code":14645,"targetarea":99.9704425,"totpop":363010.345963,"country_id":"CUB","targetpop":264870.224274,"totalarea":590.1249593,"new_mean":0.0169456}},{"type":"Polygon","arcs":[[44]],"properties":{"name":"Bartolome Maso","gaul_code":14616,"targetarea":4.344488,"totpop":49759.6763773,"country_id":"CUB","targetpop":7492.1690674,"totalarea":805.6029899,"new_mean":0.0165398}},{"type":"Polygon","arcs":[[45]],"properties":{"name":"Frank Pais","gaul_code":14644,"targetarea":1.8803188,"totpop":22790.1812073,"country_id":"CUB","targetpop":2960.9216309,"totalarea":467.8978431,"new_mean":0.0167716}},{"type":"Polygon","arcs":[[46]],"properties":{"name":"Sagua La Grande","gaul_code":14803,"targetarea":6.3229185,"totpop":46910.7959032,"country_id":"CUB","targetpop":7352.7666016,"totalarea":953.4560484,"new_mean":0.0147018}},{"type":"MultiPolygon","arcs":[[[47,48]],[[49]],[[50]]],"properties":{"name":"Ciego De Avila","gaul_code":14587,"targetarea":48.4624116,"totpop":152388.623039,"country_id":"CUB","targetpop":103431.649506,"totalarea":362.4902138,"new_mean":0.016184}},{"type":"Polygon","arcs":[[51,52,53,54]],"properties":{"name":"Diez De Octubre","gaul_code":14607,"targetarea":18.9681943,"totpop":109226.490112,"country_id":"CUB","targetpop":109226.490112,"totalarea":18.9681943,"new_mean":0.0143645}},{"type":"Polygon","arcs":[[55]],"properties":{"name":"Jobabo","gaul_code":14744,"targetarea":5.6978631,"totpop":39365.352859,"country_id":"CUB","targetpop":8343.5178223,"totalarea":819.0215455,"new_mean":0.0167852}},{"type":"Polygon","arcs":[[56]],"properties":{"name":"Jaruco","gaul_code":14731,"targetarea":2.1174759,"totpop":23911.0535469,"country_id":"CUB","targetpop":2483.2515869,"totalarea":249.3064809,"new_mean":0.0148716}},{"type":"Polygon","arcs":[[57]],"properties":{"name":"Pilon","gaul_code":14625,"targetarea":2.0401711,"totpop":30545.839047,"country_id":"CUB","targetpop":2631.2290039,"totalarea":472.2986135,"new_mean":0.0168911}},{"type":"MultiPolygon","arcs":[[[58]],[[59,60,61]]],"properties":{"name":"Habana Del Este","gaul_code":14609,"targetarea":92.7276839,"totpop":229921.905813,"country_id":"CUB","targetpop":181307.678314,"totalarea":298.9682596,"new_mean":0.0145074}},{"type":"Polygon","arcs":[[62]],"properties":{"name":"Florida","gaul_code":14575,"targetarea":9.757932,"totpop":71283.9559398,"country_id":"CUB","targetpop":11158.8634644,"totalarea":1514.1247665,"new_mean":0.0163638}},{"type":"Polygon","arcs":[[63,64,65,-6]],"properties":{"name":"La Lisa","gaul_code":14610,"targetarea":26.6785096,"totpop":116382.120117,"country_id":"CUB","targetpop":116382.120117,"totalarea":26.6785094,"new_mean":0.0147942}},{"type":"MultiPolygon","arcs":[[[66]],[[67]]],"properties":{"name":"Camajuani","gaul_code":14794,"targetarea":5.0344519,"totpop":54587.0260741,"country_id":"CUB","targetpop":6624.1243897,"totalarea":615.2307897,"new_mean":0.0150663}},{"type":"MultiPolygon","arcs":[[[68]],[[69]],[[70]],[[71]]],"properties":{"name":"Contramaestre","gaul_code":14784,"targetarea":22.1217527,"totpop":112594.275235,"country_id":"CUB","targetpop":43878.0405273,"totalarea":497.1637638,"new_mean":0.0168223}},{"type":"Polygon","arcs":[[72]],"properties":{"name":"Vertientes","gaul_code":14583,"targetarea":8.8085703,"totpop":58083.2833023,"country_id":"CUB","targetpop":12445.9364624,"totalarea":1499.6081972,"new_mean":0.0165615}},{"type":"MultiPolygon","arcs":[[[73]],[[74]]],"properties":{"name":"Artemisa","gaul_code":14723,"targetarea":10.8270236,"totpop":79597.1683335,"country_id":"CUB","targetpop":14939.0435181,"totalarea":510.8300526,"new_mean":0.0128692}},{"type":"Polygon","arcs":[[75]],"properties":{"name":"Batabano","gaul_code":14724,"targetarea":2.5811377,"totpop":25446.5713711,"country_id":"CUB","targetpop":4655.9098511,"totalarea":177.3108685,"new_mean":0.0134027}},{"type":"Polygon","arcs":[[76]],"properties":{"name":"Manicaragua","gaul_code":14798,"targetarea":3.5500829,"totpop":66772.8148477,"country_id":"CUB","targetpop":3525.3997803,"totalarea":950.8682486,"new_mean":0.0156977}},{"type":"MultiPolygon","arcs":[[[77]],[[78]]],"properties":{"name":"San Luis","gaul_code":14788,"targetarea":12.62983,"totpop":77041.9183788,"country_id":"CUB","targetpop":17732.6326904,"totalarea":625.2957891,"new_mean":0.0168696}},{"type":"MultiPolygon","arcs":[[[79]],[[80]],[[81]]],"properties":{"name":"Puerto Padre","gaul_code":14748,"targetarea":14.6364234,"totpop":87098.165392,"country_id":"CUB","targetpop":22795.6969604,"totalarea":1247.6994759,"new_mean":0.0162172}},{"type":"Polygon","arcs":[[82,83,84,85]],"properties":{"name":"Plaza De La Revolucion","gaul_code":14613,"targetarea":16.7238694,"totpop":129813.537231,"country_id":"CUB","targetpop":129813.537231,"totalarea":17.6627303,"new_mean":0.0154381}},{"type":"Polygon","arcs":[[86]],"properties":{"name":"Caibarien","gaul_code":14793,"targetarea":4.9960049,"totpop":32524.053673,"country_id":"CUB","targetpop":4475.2390213,"totalarea":541.427861,"new_mean":0.0153749}},{"type":"MultiPolygon","arcs":[[[87]],[[88]],[[89]]],"properties":{"name":"Las Tunas","gaul_code":14745,"targetarea":52.2995282,"totpop":221113.095877,"country_id":"CUB","targetpop":128630.118744,"totalarea":1163.4469519,"new_mean":0.0170017}},{"type":"Polygon","arcs":[[90]],"properties":{"name":"Nueva Paz","gaul_code":14735,"targetarea":2.1443153,"totpop":27853.851795,"country_id":"CUB","targetpop":3511.0992432,"totalarea":469.2401633,"new_mean":0.0146172}},{"type":"Polygon","arcs":[[91]],"properties":{"name":"Colon","gaul_code":14752,"targetarea":11.8193259,"totpop":64437.8403368,"country_id":"CUB","targetpop":18483.7358398,"totalarea":502.8938997,"new_mean":0.0153292}},{"type":"Polygon","arcs":[[-61,92,93,94,-52,95,96]],"properties":{"name":"Regla","gaul_code":14614,"targetarea":26.1677617,"totpop":55440.5554199,"country_id":"CUB","targetpop":55440.5554199,"totalarea":26.1677615,"new_mean":0.0151407}},{"type":"MultiPolygon","arcs":[[[97]],[[98]]],"properties":{"name":"Jiguani","gaul_code":14622,"targetarea":3.2528548,"totpop":53525.6790571,"country_id":"CUB","targetpop":5261.5132446,"totalarea":753.0805697,"new_mean":0.0169879}},{"type":"MultiPolygon","arcs":[[[97]],[[98]]],"properties":{"name":"Jiguani","gaul_code":14622,"targetarea":3.2528548,"totpop":53525.6790571,"country_id":"CUB","targetpop":5261.5132446,"totalarea":753.0805697,"new_mean":0.0168292}},{"type":"Polygon","arcs":[[99,-86,-94]],"properties":{"name":"Centro Habana","gaul_code":14604,"targetarea":5.3319078,"totpop":38123.3302002,"country_id":"CUB","targetpop":38123.3302002,"totalarea":5.3319078,"new_mean":0.0154397}},{"type":"Polygon","arcs":[[100]],"properties":{"name":"Camaguey","gaul_code":14572,"targetarea":97.0180855,"totpop":312332.707621,"country_id":"CUB","targetpop":184600.664337,"totalarea":1563.9363199,"new_mean":0.0167804}},{"type":"Polygon","arcs":[[101]],"properties":{"name":"Santa Clara","gaul_code":14804,"targetarea":67.8001533,"totpop":242629.145113,"country_id":"CUB","targetpop":168169.186951,"totalarea":507.8982081,"new_mean":0.0154758}},{"type":"MultiPolygon","arcs":[[[102]],[[103]]],"properties":{"name":"Guines","gaul_code":14729,"targetarea":10.452822,"totpop":59799.7307978,"country_id":"CUB","targetpop":14823.8643799,"totalarea":370.3854616,"new_mean":0.0143387}},{"type":"MultiPolygon","arcs":[[[104]],[[105]]],"properties":{"name":"Jibara","gaul_code":14646,"targetarea":9.083867,"totpop":65674.5597119,"country_id":"CUB","targetpop":17956.6126709,"totalarea":562.4906694,"new_mean":0.016634}},{"type":"Polygon","arcs":[[106]],"properties":{"name":"Name Unknown","gaul_code":14689,"targetarea":5.4537272,"totpop":80718.0622035,"country_id":"CUB","targetpop":6997.8432007,"totalarea":2242.6684495,"new_mean":0.015683}},{"type":"Polygon","arcs":[[107]],"properties":{"name":"Mariel","gaul_code":14733,"targetarea":2.4384895,"totpop":47538.3057411,"country_id":"CUB","targetpop":3841.0393677,"totalarea":325.9424462,"new_mean":0.0143141}},{"type":"MultiPolygon","arcs":[[[108]],[[109]]],"properties":{"name":"Matanzas","gaul_code":14758,"targetarea":54.4033845,"totpop":146858.018215,"country_id":"CUB","targetpop":95099.3258057,"totalarea":314.141315,"new_mean":0.0148636}},{"type":"MultiPolygon","arcs":[[[110]],[[111]]],"properties":{"name":"Rafael Freyre","gaul_code":14650,"targetarea":8.516943,"totpop":59635.88672,"country_id":"CUB","targetpop":15147.6235352,"totalarea":496.1016644,"new_mean":0.0165325}},{"type":"Polygon","arcs":[[112]],"properties":{"name":"Ranchuelo","gaul_code":14801,"targetarea":5.1660257,"totpop":54997.8502436,"country_id":"CUB","targetpop":9313.3071289,"totalarea":547.5977101,"new_mean":0.0151128}},{"type":"Polygon","arcs":[[113]],"properties":{"name":"Mella","gaul_code":14786,"targetarea":2.1565545,"totpop":29970.7556971,"country_id":"CUB","targetpop":3252.1663208,"totalarea":354.7580207,"new_mean":0.0169326}},{"type":"Polygon","arcs":[[114]],"properties":{"name":"Baguanos","gaul_code":14639,"targetarea":2.151277,"totpop":49366.5144691,"country_id":"CUB","targetpop":2908.3095093,"totalarea":807.7411117,"new_mean":0.0168225}},{"type":"Polygon","arcs":[[115]],"properties":{"name":"Nuevitas","gaul_code":14579,"targetarea":28.1452657,"totpop":104745.062918,"country_id":"CUB","targetpop":47910.1565208,"totalarea":3023.1320703,"new_mean":0.0164199}},{"type":"Polygon","arcs":[[116]],"properties":{"name":"Jagiey Grande","gaul_code":14753,"targetarea":10.5481969,"totpop":65196.3166957,"country_id":"CUB","targetpop":14193.5616455,"totalarea":784.2546235,"new_mean":0.0154688}},{"type":"Polygon","arcs":[[117,-38]],"properties":{"name":"Remedios","gaul_code":14802,"targetarea":1.473213,"totpop":35927.6572275,"country_id":"CUB","targetpop":2916.0650635,"totalarea":428.9430075,"new_mean":0.016102}},{"type":"MultiPolygon","arcs":[[[118]],[[119,-18]],[[120]]],"properties":{"name":"Varadero","gaul_code":14762,"targetarea":27.0420808,"totpop":35613.8483362,"country_id":"CUB","targetpop":26650.5823107,"totalarea":65.4784488,"new_mean":0.0157425}},{"type":"MultiPolygon","arcs":[[[121]],[[122]]],"properties":{"name":"Sancti Spiritus","gaul_code":14779,"targetarea":32.3964102,"totpop":143234.379998,"country_id":"CUB","targetpop":55034.4551697,"totalarea":1034.5282205,"new_mean":0.0162008}},{"type":"Polygon","arcs":[[123]],"properties":{"name":"Santo Domingo","gaul_code":14805,"targetarea":3.4477839,"totpop":47491.9992833,"country_id":"CUB","targetpop":5100.0409546,"totalarea":817.0880183,"new_mean":0.0145623}},{"type":"Polygon","arcs":[[-22,124]],"properties":{"name":"Ciro Redondo","gaul_code":14588,"targetarea":3.0926448,"totpop":37122.9730508,"country_id":"CUB","targetpop":3995.8352051,"totalarea":659.0778505,"new_mean":0.0151236}},{"type":"Polygon","arcs":[[-62,-97,125,-39,126]],"properties":{"name":"Guanabacoa","gaul_code":14608,"targetarea":39.1949849,"totpop":113048.386101,"country_id":"CUB","targetpop":101432.574982,"totalarea":71.8524015,"new_mean":0.0145701}},{"type":"Polygon","arcs":[[127]],"properties":{"name":"Majagua","gaul_code":14590,"targetarea":2.6534642,"totpop":28819.2459474,"country_id":"CUB","targetpop":3364.5974121,"totalarea":480.4730047,"new_mean":0.0158759}},{"type":"Polygon","arcs":[[128]],"properties":{"name":"Moa","gaul_code":14648,"targetarea":22.0556028,"totpop":79335.1792283,"country_id":"CUB","targetpop":31885.421524,"totalarea":553.8067989,"new_mean":0.0166128}},{"type":"Polygon","arcs":[[-84,129,130,-65,131,132]],"properties":{"name":"Playa","gaul_code":14612,"targetarea":58.2197164,"totpop":144906.560778,"country_id":"CUB","targetpop":144348.20038,"totalarea":60.8844486,"new_mean":0.0150267}},{"type":"MultiPolygon","arcs":[[[133]],[[134]]],"properties":{"name":"Pinar Del Rio","gaul_code":14771,"targetarea":46.8613264,"totpop":186058.113464,"country_id":"CUB","targetpop":113395.029663,"totalarea":508.68197,"new_mean":0.0144713}},{"type":"Polygon","arcs":[[135]],"properties":{"name":"Palma Soriano","gaul_code":14787,"targetarea":18.4090109,"totpop":124564.888113,"country_id":"CUB","targetpop":38321.2572021,"totalarea":930.3949356,"new_mean":0.0168585}},{"type":"Polygon","arcs":[[136]],"properties":{"name":"Segundo Frente","gaul_code":14790,"targetarea":5.154554,"totpop":34290.565918,"country_id":"CUB","targetpop":6931.2366333,"totalarea":443.2996597,"new_mean":0.0171241}},{"type":"Polygon","arcs":[[137]],"properties":{"name":"Yara","gaul_code":14627,"targetarea":7.4183194,"totpop":58156.9486923,"country_id":"CUB","targetpop":14902.885376,"totalarea":552.4536995,"new_mean":0.016296}},{"type":"Polygon","arcs":[[138]],"properties":{"name":"Jesus Menendez","gaul_code":14743,"targetarea":6.5321608,"totpop":49380.5662649,"country_id":"CUB","targetpop":8944.5480347,"totalarea":764.1129767,"new_mean":0.0164501}},{"type":"MultiPolygon","arcs":[[[139]],[[140]],[[141]],[[142]],[[143]]],"properties":{"name":"Cienfuegos","gaul_code":14596,"targetarea":68.7813608,"totpop":181700.429238,"country_id":"CUB","targetpop":107342.139442,"totalarea":498.9536457,"new_mean":0.0158186}},{"type":"MultiPolygon","arcs":[[[144]],[[145]]],"properties":{"name":"Songo - La Maya","gaul_code":14791,"targetarea":7.5789768,"totpop":83349.5599871,"country_id":"CUB","targetpop":10198.4065552,"totalarea":916.5680278,"new_mean":0.0167139}},{"type":"MultiPolygon","arcs":[[[146]],[[147]],[[148]],[[149]],[[150]]],"properties":{"name":"Guantanamo","gaul_code":40773,"targetarea":58.9212107,"totpop":235973.961658,"country_id":"CUB","targetpop":140127.607086,"totalarea":888.7681653,"new_mean":0.0167119}},{"type":"Polygon","arcs":[[151]],"properties":{"name":"Urbano Noris","gaul_code":14652,"targetarea":1.6419143,"totpop":48525.0839796,"country_id":"CUB","targetpop":2538.1351929,"totalarea":958.2926668,"new_mean":0.0167529}},{"type":"Polygon","arcs":[[152]],"properties":{"name":"Guisa","gaul_code":14621,"targetarea":4.5447889,"totpop":46900.5164351,"country_id":"CUB","targetpop":5982.7050171,"totalarea":603.7189302,"new_mean":0.0168766}},{"type":"Polygon","arcs":[[153]],"properties":{"name":"Pedro Betancourt","gaul_code":14759,"targetarea":1.8303997,"totpop":29286.3507776,"country_id":"CUB","targetpop":3079.1534424,"totalarea":334.8393465,"new_mean":0.0154039}},{"type":"MultiPolygon","arcs":[[[154]],[[155]]],"properties":{"name":"Calixto Garcia","gaul_code":14642,"targetarea":4.4866173,"totpop":58160.9522209,"country_id":"CUB","targetpop":8208.4049072,"totalarea":710.155517,"new_mean":0.0165678}},{"type":"MultiPolygon","arcs":[[[156]],[[157]]],"properties":{"name":"Banes","gaul_code":14640,"targetarea":14.1552544,"totpop":78497.0815823,"country_id":"CUB","targetpop":19568.6614685,"totalarea":795.3360435,"new_mean":0.0165215}},{"type":"Polygon","arcs":[[158]],"properties":{"name":"Jovellanos","gaul_code":14754,"targetarea":9.4960595,"totpop":58341.2102251,"country_id":"CUB","targetpop":12713.4308472,"totalarea":463.5718063,"new_mean":0.0147865}},{"type":"Polygon","arcs":[[-96,-55,159,-40,-126]],"properties":{"name":"San Miguel Del Padron","gaul_code":14615,"targetarea":25.8733599,"totpop":76973.965332,"country_id":"CUB","targetpop":76973.965332,"totalarea":25.8733598,"new_mean":0.014494}},{"type":"Polygon","arcs":[[160]],"properties":{"name":"Baracoa","gaul_code":14628,"targetarea":9.530455,"totpop":78637.7765172,"country_id":"CUB","targetpop":21082.0784912,"totalarea":682.3509579,"new_mean":0.0162248}},{"type":"Polygon","arcs":[[161]],"properties":{"name":"Guira De Melena","gaul_code":14730,"targetarea":7.5050242,"totpop":39537.9839573,"country_id":"CUB","targetpop":11636.0460815,"totalarea":168.2084715,"new_mean":0.0135512}},{"type":"MultiPolygon","arcs":[[[162]],[[163]],[[164]]],"properties":{"name":"Bayamo","gaul_code":14617,"targetarea":55.721557,"totpop":237266.495538,"country_id":"CUB","targetpop":131333.651306,"totalarea":859.797735,"new_mean":0.0169633}},{"type":"Polygon","arcs":[[165]],"properties":{"name":"Alquizar","gaul_code":14722,"targetarea":3.8139257,"totpop":40218.6624561,"country_id":"CUB","targetpop":5430.8303833,"totalarea":222.9933394,"new_mean":0.0134746}},{"type":"MultiPolygon","arcs":[[[166]],[[167]],[[168]]],"properties":{"name":"Trinidad","gaul_code":14781,"targetarea":12.8090292,"totpop":80712.7545782,"country_id":"CUB","targetpop":20102.7009583,"totalarea":972.0032607,"new_mean":0.0160389}},{"type":"MultiPolygon","arcs":[[[169]],[[170]],[[171]],[[172]]],"properties":{"name":"Mayari","gaul_code":14647,"targetarea":13.0900546,"totpop":107241.474834,"country_id":"CUB","targetpop":17940.1376953,"totalarea":1696.2563145,"new_mean":0.0167043}},{"type":"MultiPolygon","arcs":[[[173]],[[174]]],"properties":{"name":"Campechuela","gaul_code":14619,"targetarea":7.2019084,"totpop":42746.7455244,"country_id":"CUB","targetpop":13051.8810425,"totalarea":485.3795723,"new_mean":0.0167099}},{"type":"Polygon","arcs":[[175]],"properties":{"name":"Quemado De Gines","gaul_code":14800,"targetarea":1.8533622,"totpop":21134.1848625,"country_id":"CUB","targetpop":3091.048584,"totalarea":311.977955,"new_mean":0.0154323}},{"type":"Polygon","arcs":[[-54,-9,176,-41,-160],[177]],"properties":{"name":"Arroyo Naranjo","gaul_code":14602,"targetarea":65.6640913,"totpop":259726.911541,"country_id":"CUB","targetpop":254747.429626,"totalarea":76.2698801,"new_mean":0.0146338}},{"type":"MultiPolygon","arcs":[[[178]],[[179]]],"properties":{"name":"Manzanillo","gaul_code":14623,"targetarea":35.7405701,"totpop":128543.565723,"country_id":"CUB","targetpop":77091.1104126,"totalarea":538.021067,"new_mean":0.0169866}},{"type":"Polygon","arcs":[[-131,180,-7,-66]],"properties":{"name":"Bauta","gaul_code":14725,"targetarea":41.6322537,"totpop":154643.980621,"country_id":"CUB","targetpop":104928.80426,"totalarea":194.4488284,"new_mean":0.0137851}},{"type":"Polygon","arcs":[[181]],"properties":{"name":"Florencia","gaul_code":14589,"targetarea":2.1316893,"totpop":33689.0868635,"country_id":"CUB","targetpop":4101.5958862,"totalarea":353.5556126,"new_mean":0.0157585}},{"type":"Polygon","arcs":[[-49,182]],"properties":{"name":"Venezuela","gaul_code":14593,"targetarea":1.2330321,"totpop":34997.7083836,"country_id":"CUB","targetpop":3733.0682373,"totalarea":515.9395432,"new_mean":0.0155769}},{"type":"Polygon","arcs":[[-95,-85,-133,183,-4,-53]],"properties":{"name":"Cerro","gaul_code":14605,"targetarea":13.6371321,"totpop":79825.4584961,"country_id":"CUB","targetpop":79825.4584961,"totalarea":13.6371321,"new_mean":0}},{"type":"Polygon","arcs":[[-132,-64,-5,-184]],"properties":{"name":"Marianao","gaul_code":14611,"targetarea":10.6905032,"totpop":80612.6608887,"country_id":"CUB","targetpop":80612.6608887,"totalarea":10.6905032,"new_mean":0}}]}},"arcs":[[[-76.4700037,20.5685206],[-76.4774988,20.5542181],[-76.4666671,20.5495835],[-76.4700037,20.5685206]],[[-76.7557052,20.1862005],[-76.7703699,20.1720729],[-76.7500004,20.1662501],[-76.7557052,20.1862005]],[[-75.2367354,20.5878484],[-75.2586674,20.6029852],[-75.2519861,20.5731756],[-75.2250004,20.5662501],[-75.2367354,20.5878484]],[[-82.3512192,23.066927],[-82.3815689,23.063345]],[[-82.3815689,23.063345],[-82.3923492,23.0541191],[-82.4056778,23.0518589],[-82.4129868,23.0380802]],[[-82.4129868,23.0380802],[-82.4345551,23.0066795]],[[-82.4345551,23.0066795],[-82.4344177,22.9914093],[-82.4255091,22.9763942]],[[-82.4255091,22.9763942],[-82.4166671,22.9745835],[-82.4110111,22.9455918],[-82.3621016,22.9623317],[-82.3415043,22.9619085],[-82.3252852,22.9953354],[-82.312419,22.9871648],[-82.3000818,22.9617417],[-82.2583647,22.9617435]],[[-82.2583647,22.9617435],[-82.2600403,22.9674511],[-82.3072968,22.9966393],[-82.3266907,23.000885],[-82.3246241,23.0184848],[-82.3254041,23.0205232],[-82.3384399,23.0401936],[-82.3512192,23.066927]],[[-79.7127201,22.1104477],[-79.7359542,22.1193507],[-79.7278406,22.0957098],[-79.7083337,22.0912501],[-79.7127201,22.1104477]],[[-83.5114099,22.5156316],[-83.5277999,22.5010971],[-83.5083337,22.4912501],[-83.5114099,22.5156316]],[[-83.4116703,22.526854],[-83.4191654,22.5125514],[-83.4083337,22.5079168],[-83.4116703,22.526854]],[[-79.4557052,22.0612005],[-79.4703699,22.0470729],[-79.4500004,22.0412501],[-79.4557052,22.0612005]],[[-79.4833337,22.0662501],[-79.4833337,22.0912501],[-79.5083337,22.0912501],[-79.5083337,22.0662501],[-79.4833337,22.0662501]],[[-83.2447432,22.598965],[-83.2611332,22.5844305],[-83.2416671,22.5745835],[-83.2447432,22.598965]],[[-81.4037922,22.9584491],[-81.4175243,22.9537681],[-81.413627,22.9519848],[-81.4100418,22.951353],[-81.4037922,22.9584491]],[[-81.1941946,23.0555095],[-81.221265,23.0543239],[-81.2287032,23.0220729],[-81.1833337,23.0079168],[-81.1879064,23.044461],[-81.1941946,23.0555095]],[[-81.2690761,23.1020726],[-81.3015219,23.0986323]],[[-81.3015219,23.0986323],[-81.2666671,23.0912501],[-81.2690761,23.1020726]],[[-82.4833337,22.8995835],[-82.5269617,22.8963486],[-82.5156742,22.8717067],[-82.4864018,22.8848577],[-82.4833337,22.8995835]],[[-78.6212728,22.0883752],[-78.6000004,22.0829168],[-78.6135177,22.1033717],[-78.6084477,22.1259954],[-78.639799,22.1189655]],[[-78.639799,22.1189655],[-78.630249,22.1085491],[-78.6212728,22.0883752]],[[-75.6916671,19.9662501],[-75.6984461,19.9776841],[-75.7156061,19.9619977],[-75.6916671,19.9662501]],[[-75.7144942,20.002855],[-75.7372644,19.9918524],[-75.7083338,19.9829168],[-75.7144942,20.002855]],[[-75.9280685,20.0626898],[-75.943197,20.0696518],[-75.9617354,20.045726],[-75.9333337,20.0412501],[-75.9280685,20.0626898]],[[-75.7618168,20.0627711],[-75.7889327,20.0699285],[-75.7757898,20.0906316],[-75.806755,20.0967514],[-75.8201502,20.0780625],[-75.9034835,20.0704697],[-75.8958093,20.0512843],[-75.8715173,20.0560857],[-75.8903487,20.0215805],[-75.9201502,20.0100856],[-75.9115971,20.0014593],[-75.8807703,20.0075506],[-75.8690186,19.9965782],[-75.8629456,20.0199299],[-75.8422699,20.0310497],[-75.8368912,20.0201378],[-75.8624802,19.9948463],[-75.8666306,19.9700794],[-75.8254776,19.9711552],[-75.8214929,19.996373],[-75.8122563,19.994546],[-75.7873539,20.0047796],[-75.7681157,19.9925685],[-75.7517989,20.0042669],[-75.7531254,20.0298488],[-75.7618168,20.0627711]],[[-75.733407,20.1162013],[-75.7421554,20.1341212],[-75.7686202,20.1131007],[-75.7416671,20.0995835],[-75.733407,20.1162013]],[[-77.5585616,20.0506373],[-77.5843033,20.0602294],[-77.5947677,20.0368963],[-77.5666671,20.0329168],[-77.5585616,20.0506373]],[[-77.4166671,20.1329168],[-77.4166671,20.1495835],[-77.4416671,20.1495835],[-77.4416671,20.1329168],[-77.4166671,20.1329168]],[[-82.6890222,22.9136012],[-82.6693119,22.9188991],[-82.6640222,22.9291692],[-82.6948816,22.9355657],[-82.7026452,22.9188991],[-82.7192143,22.9111801],[-82.6916671,22.9079168],[-82.6890222,22.9136012]],[[-76.2540043,20.1598455],[-76.2696212,20.1520045],[-76.2500004,20.1412501],[-76.2540043,20.1598455]],[[-83.063713,22.6966334],[-83.0362878,22.7025335],[-83.0303796,22.7197088],[-83.0543705,22.7275335],[-83.0779545,22.697435],[-83.063713,22.6966334]],[[-77.5698409,20.8464056],[-77.5779952,20.8527614],[-77.5893071,20.819546],[-77.5666671,20.8162501],[-77.5698409,20.8464056]],[[-83.553337,22.7601873],[-83.5608321,22.7458847],[-83.5500004,22.7412501],[-83.553337,22.7601873]],[[-77.4100509,20.9879013],[-77.429989,20.9979884],[-77.4361332,20.9844305],[-77.4166671,20.9745835],[-77.4100509,20.9879013]],[[-79.753337,22.226854],[-79.7608321,22.2125514],[-79.7500004,22.2079168],[-79.753337,22.226854]],[[-79.6484261,22.3171701],[-79.6679529,22.3286687],[-79.6790857,22.2979843],[-79.6583337,22.2912501],[-79.648302,22.3012131]],[[-79.648302,22.3012131],[-79.6484261,22.3171701]],[[-82.2067866,23.0427383],[-82.2334747,23.0581303]],[[-82.2334747,23.0581303],[-82.2560806,23.0345154],[-82.2637482,23.0326271]],[[-82.2637482,23.0326271],[-82.2608109,23.0156555],[-82.2395554,22.9838047],[-82.2338717,22.9785902]],[[-82.2338717,22.9785902],[-82.1959151,22.9783269],[-82.2040857,23.0038315],[-82.2183842,23.0315944],[-82.2067866,23.0427383]],[[-82.2452966,23.0004827],[-82.2256596,23.0107692],[-82.2333337,22.9912501],[-82.2452966,23.0004827]],[[-76.2382491,20.8454168],[-76.2205977,20.8535141],[-76.1960698,20.8706528],[-76.1776778,20.8790919],[-76.2127364,20.8951808],[-76.2205977,20.9039861],[-76.251156,20.9180079],[-76.2651371,20.963292],[-76.2872644,20.9596543],[-76.2631433,20.9152695],[-76.2877364,20.9039861],[-76.302865,20.8870468],[-76.3460698,20.8789861],[-76.3539311,20.8716497],[-76.2869308,20.8591456],[-76.2882491,20.8120062],[-76.2750004,20.8079168],[-76.2710616,20.8290106],[-76.2371505,20.8269923],[-76.2382491,20.8454168]],[[-76.9468998,20.1548162],[-76.9303471,20.1646266],[-76.9419438,20.1776841],[-76.9614343,20.1563624],[-76.9468998,20.1548162]],[[-75.2609623,20.6759303],[-75.2768233,20.6606105],[-75.2583338,20.6579168],[-75.2609623,20.6759303]],[[-80.0560307,22.8195501],[-80.0954512,22.8076808],[-80.0666671,22.7912501],[-80.0560307,22.8195501]],[[-78.7854102,21.7420046],[-78.7877201,21.7521144],[-78.8109542,21.7610174],[-78.8045709,21.7424181]],[[-78.8045709,21.7424181],[-78.7854102,21.7420046]],[[-78.7236902,21.8605983],[-78.7463708,21.8698797],[-78.7626957,21.8797267],[-78.7702966,21.8698797],[-78.8048588,21.862588],[-78.7992436,21.824616],[-78.7500004,21.8162501],[-78.7396326,21.8296819],[-78.7191166,21.8296209],[-78.7236902,21.8605983]],[[-78.8734272,21.8779011],[-78.8500004,21.8745835],[-78.8544763,21.8941432],[-78.8655547,21.8868371],[-78.8734272,21.8779011]],[[-82.3091431,23.101572],[-82.3466492,23.1055832]],[[-82.3466492,23.1055832],[-82.3583069,23.0825291],[-82.3512192,23.066927]],[[-82.3512192,23.066927],[-82.3116913,23.0723534],[-82.3050461,23.0635567],[-82.2915649,23.0665684]],[[-82.2915649,23.0665684],[-82.3102188,23.0832977],[-82.3091431,23.101572]],[[-77.264364,20.9195501],[-77.3037846,20.9076808],[-77.2750004,20.8912501],[-77.264364,20.9195501]],[[-82.020088,23.038659],[-82.0000004,23.0329168],[-82.0057051,23.0528672],[-82.0202321,23.0388723],[-82.020088,23.038659]],[[-77.3182326,19.9050582],[-77.3223718,19.9195338],[-77.3370365,19.9054062],[-77.3182326,19.9050582]],[[-82.1223555,23.1136012],[-82.1091313,23.1197617],[-82.1225753,23.1355657],[-82.1359786,23.1130315],[-82.1223555,23.1136012]],[[-82.2242394,23.1209125],[-82.1875818,23.1201645],[-82.2092696,23.1418198],[-82.1755782,23.1646551],[-82.1539229,23.1535019],[-82.1292484,23.1540024],[-82.120671,23.145075],[-82.0875818,23.1781805],[-82.1375004,23.178156],[-82.2127771,23.1796901],[-82.2122563,23.1541774],[-82.2366052,23.1288315],[-82.2574141,23.1384669],[-82.2459151,23.1621648],[-82.2209151,23.1742946],[-82.2419732,23.1859964],[-82.2633678,23.1828119],[-82.336003,23.1672714],[-82.3584774,23.1556984],[-82.3515472,23.150423],[-82.3294807,23.1439508]],[[-82.3294807,23.1439508],[-82.3054047,23.1390915],[-82.2940292,23.145504],[-82.2816391,23.1289368],[-82.2894974,23.1199417]],[[-82.2894974,23.1199417],[-82.2622528,23.1256771],[-82.2497177,23.1317558],[-82.2390594,23.1224461],[-82.2242394,23.1209125]],[[-78.210059,21.5226303],[-78.2250167,21.5448064],[-78.2452234,21.5146266],[-78.2250004,21.4995835],[-78.210059,21.5226303]],[[-82.4129868,23.0380802],[-82.4210052,23.0528393],[-82.4194717,23.0676651],[-82.4301376,23.0709076]],[[-82.4301376,23.0709076],[-82.4405975,23.0669231],[-82.4600372,23.0486832]],[[-82.4600372,23.0486832],[-82.4569244,23.0341072],[-82.4644699,23.0185528],[-82.4608078,23.0032444],[-82.4345551,23.0066795]],[[-79.7236495,22.4777654],[-79.7369633,22.4627793],[-79.7083337,22.4579168],[-79.7236495,22.4777654]],[[-79.6973718,22.5278672],[-79.7120365,22.5137395],[-79.6916671,22.5079168],[-79.6973718,22.5278672]],[[-76.1866703,20.2935206],[-76.1941655,20.2792181],[-76.1833337,20.2745835],[-76.1866703,20.2935206]],[[-76.321672,20.3045884],[-76.3088546,20.3131129],[-76.3449955,20.3128769],[-76.3250004,20.2995835],[-76.321672,20.3045884]],[[-76.2286462,20.3187363],[-76.2626713,20.3081365],[-76.2698409,20.2782863],[-76.2250004,20.2745835],[-76.2286462,20.3187363]],[[-76.1366703,20.4101873],[-76.1441655,20.3958847],[-76.1333337,20.3912501],[-76.1366703,20.4101873]],[[-78.1314962,21.2597673],[-78.1450932,21.2768825],[-78.1666264,21.2663681],[-78.1557458,21.2440944],[-78.1416671,21.2412501],[-78.1360918,21.2481889],[-78.1314962,21.2597673]],[[-82.7116703,22.8185206],[-82.7191654,22.8042181],[-82.7083337,22.7995835],[-82.7116703,22.8185206]],[[-82.7419356,22.8324285],[-82.7808353,22.8237046],[-82.7763594,22.8037379],[-82.7500004,22.7995835],[-82.7419356,22.8324285]],[[-82.2890385,22.7278672],[-82.3037032,22.7137395],[-82.2833337,22.7079168],[-82.2890385,22.7278672]],[[-79.9736414,22.1694524],[-79.9873376,22.1520737],[-79.9666671,22.1329168],[-79.9736414,22.1694524]],[[-75.7754643,20.203091],[-75.7955977,20.177208],[-75.7833337,20.1662501],[-75.7754643,20.203091]],[[-75.8377364,20.1789861],[-75.821322,20.1936468],[-75.8587895,20.2035141],[-75.8705977,20.179983],[-75.8416671,20.1745835],[-75.8377364,20.1789861]],[[-76.7255538,21.1504868],[-76.7444666,21.1364243],[-76.7166671,21.1329168],[-76.7255538,21.1504868]],[[-76.5442957,21.179157],[-76.5598311,21.1863185],[-76.5700688,21.1660223],[-76.5583337,21.1579168],[-76.5442957,21.179157]],[[-76.5877446,21.2022039],[-76.6114506,21.2110174],[-76.6197677,21.1866562],[-76.5833337,21.1829168],[-76.5877446,21.2022039]],[[-82.3752595,23.1488745],[-82.4005047,23.1462298]],[[-82.4005047,23.1462298],[-82.3893356,23.1131382],[-82.3825684,23.102747],[-82.3824463,23.0915985]],[[-82.3824463,23.0915985],[-82.372467,23.0954571],[-82.3605499,23.1088619],[-82.36026,23.1188126]],[[-82.36026,23.1188126],[-82.3752595,23.1488745]],[[-79.4638676,22.5134506],[-79.4500312,22.5233423],[-79.4703129,22.5357163],[-79.4777999,22.5135483],[-79.4638676,22.5134506]],[[-76.8770919,20.993598],[-76.8862878,20.978803],[-76.8666671,20.9745835],[-76.8770919,20.993598]],[[-76.9374434,20.996312],[-76.9571212,20.9844427],[-77.0119633,20.9900823],[-77.000155,20.9572129],[-76.963477,20.9350937],[-76.9457117,20.9377182],[-76.9250004,20.9329168],[-76.9213709,20.9459539],[-76.9029789,20.9707586],[-76.9374434,20.996312]],[[-77.1200037,21.0601873],[-77.1274988,21.0458847],[-77.1166671,21.0412501],[-77.1200037,21.0601873]],[[-81.753337,22.776854],[-81.7608321,22.7625514],[-81.7500004,22.7579168],[-81.753337,22.776854]],[[-80.8833337,22.7079168],[-80.8953536,22.7377711],[-80.9103357,22.7355576],[-80.9165488,22.721134],[-80.9150363,22.7117906],[-80.8833337,22.7079168]],[[-82.3294807,23.1439508],[-82.3461914,23.1319199],[-82.3445507,23.1196344]],[[-82.3445507,23.1196344],[-82.36026,23.1188126]],[[-82.36026,23.1188126],[-82.3466492,23.1055832]],[[-82.3091431,23.101572],[-82.2975006,23.0937519]],[[-82.2975006,23.0937519],[-82.2894974,23.1199417]],[[-76.478337,20.3435206],[-76.4858321,20.3292181],[-76.4750004,20.3245835],[-76.478337,20.3435206]],[[-76.4223718,20.3778672],[-76.4370365,20.3637396],[-76.4166671,20.3579168],[-76.4223718,20.3778672]],[[-82.3445507,23.1196344],[-82.3497696,23.1251984],[-82.3483963,23.1422138],[-82.3615036,23.1513939],[-82.3752595,23.1488745]],[[-77.8284428,21.4287013],[-77.8415206,21.4399725],[-77.8899662,21.412942],[-77.9038985,21.4291082],[-77.9382166,21.4263494],[-77.977629,21.3983994],[-77.9580977,21.3633896],[-77.9353194,21.3532252],[-77.921143,21.3367742],[-77.9083337,21.3329168],[-77.8934412,21.3468979],[-77.8607345,21.3442693],[-77.8656498,21.4053981],[-77.8284428,21.4287013]],[[-79.8903059,22.4456734],[-79.8935477,22.4474621],[-79.9205977,22.4360988],[-79.9458337,22.4342799],[-79.9708337,22.439887],[-80.0112471,22.4308253],[-80.0448409,22.4089503],[-79.9950688,22.3961818],[-79.9882654,22.3863185],[-79.9700688,22.3795151],[-79.954932,22.3696518],[-79.9416671,22.3662501],[-79.9276859,22.3919744],[-79.909823,22.4043076],[-79.9135583,22.4209742],[-79.8970951,22.432339],[-79.8903059,22.4456734]],[[-82.028337,22.8185206],[-82.0358321,22.8042181],[-82.0250004,22.7995835],[-82.028337,22.8185206]],[[-82.008407,22.8412013],[-82.0165531,22.8578761],[-82.0388025,22.8470118],[-82.0444665,22.8280909],[-82.0166671,22.8245835],[-82.008407,22.8412013]],[[-76.3086699,21.0011449],[-76.3123377,21.0181788],[-76.3279545,21.0103379],[-76.3110336,21.0010633],[-76.3086699,21.0011449]],[[-76.3338058,21.0903997],[-76.3538171,21.1023829],[-76.3611332,21.0785141],[-76.3416671,21.0745835],[-76.3338058,21.0903997]],[[-82.7937911,21.8787379],[-82.8026046,21.8967799],[-82.8194665,21.8971827],[-82.8057947,21.8691798],[-82.7937911,21.8787379]],[[-82.7450036,23.026854],[-82.7524988,23.0125514],[-82.7416671,23.0079168],[-82.7450036,23.026854]],[[-81.5087895,23.003034],[-81.5205977,22.9809433],[-81.5000004,22.9745835],[-81.5087895,23.003034]],[[-81.5567426,23.049528],[-81.5583038,23.0610847],[-81.5306789,23.0795216],[-81.6017989,23.0600571],[-81.6138513,23.0330551],[-81.6120609,23.0107407],[-81.5750004,22.9995835],[-81.5676925,23.023847],[-81.5133142,23.0194769],[-81.489893,23.0325465],[-81.5065596,23.0468979],[-81.5689457,23.0418849],[-81.5567426,23.049528]],[[-75.9903813,21.04372],[-76.0117354,21.0235377],[-75.9833337,21.0162501],[-75.9903813,21.04372]],[[-76.1413945,21.1044093],[-76.1311264,21.1036491],[-76.1250458,21.1141262],[-76.1371006,21.1214035],[-76.1413945,21.1044093]],[[-80.1455815,22.3938868],[-80.1614343,22.3707708],[-80.1416671,22.3662501],[-80.1455815,22.3938868]],[[-75.9057052,20.3778672],[-75.9203699,20.3637396],[-75.9000004,20.3579168],[-75.9057052,20.3778672]],[[-76.0223718,20.7612005],[-76.0370365,20.7470729],[-76.0166671,20.7412501],[-76.0223718,20.7612005]],[[-77.2250004,21.5495835],[-77.2377608,21.5728338],[-77.2583337,21.5687688],[-77.2859216,21.5742213],[-77.2891443,21.5579168],[-77.2865727,21.5449],[-77.3034835,21.5327825],[-77.2962081,21.5278509],[-77.2796879,21.5311183],[-77.2666671,21.5129583],[-77.2440108,21.5445664],[-77.2250004,21.5495835]],[[-81.1271244,22.5037379],[-81.1316085,22.5129095],[-81.1194665,22.5190496],[-81.1138676,22.5367701],[-81.1381107,22.5440496],[-81.1444665,22.4968816],[-81.1333337,22.4912501],[-81.1271244,22.5037379]],[[-79.648302,22.3012131],[-79.6380538,22.3110621],[-79.6484261,22.3171701]],[[-81.3505965,23.1033646],[-81.3543624,23.1272527],[-81.3846667,23.110177],[-81.3505965,23.1033646]],[[-81.2690761,23.1020726],[-81.2783966,23.136261],[-81.2845688,23.1398106],[-81.3055017,23.137645],[-81.3015219,23.0986323]],[[-81.1847798,23.1746577],[-81.1741304,23.1792761],[-81.1753311,23.1900291],[-81.1923676,23.1824875],[-81.1847798,23.1746577]],[[-79.5589929,21.8357692],[-79.57863,21.8254827],[-79.5666671,21.8162501],[-79.5589929,21.8357692]],[[-79.4141768,21.9280869],[-79.4477218,21.9803167],[-79.4675623,21.977387],[-79.4534184,21.9539373],[-79.4631433,21.9205918],[-79.4595382,21.8962265],[-79.4416671,21.8912501],[-79.4141768,21.9280869]],[[-80.2353601,22.5872747],[-80.2453129,22.6023829],[-80.2527999,22.580215],[-80.2416671,22.5745835],[-80.2353601,22.5872747]],[[-78.639799,22.1189655],[-78.6532882,22.1159409],[-78.6367354,22.1045151],[-78.6212728,22.0883752]],[[-82.2975006,23.0937519],[-82.2720718,23.0862408],[-82.2588654,23.0763474],[-82.2473679,23.0734005],[-82.2334747,23.0581303]],[[-82.2067866,23.0427383],[-82.2001794,23.049087],[-82.2293054,23.0787216],[-82.2206954,23.0954453],[-82.2470056,23.1213771],[-82.2242394,23.1209125]],[[-78.995671,21.9265122],[-79.0112878,21.9186712],[-78.9916671,21.9079168],[-78.995671,21.9265122]],[[-74.9335327,20.6659145],[-74.9495528,20.6782334],[-74.9703699,20.6480779],[-74.9453699,20.6375433],[-74.9379643,20.6282903],[-74.9166671,20.6245835],[-74.9215987,20.6374171],[-74.8962976,20.651089],[-74.9335327,20.6659145]],[[-82.4005047,23.1462298],[-82.4083337,23.1447006],[-82.4689026,23.0991592],[-82.500824,23.0942039],[-82.5209598,23.076836]],[[-82.5209598,23.076836],[-82.4894485,23.0884857],[-82.4769669,23.0889854],[-82.4600372,23.0486832]],[[-82.4301376,23.0709076],[-82.415657,23.0734539],[-82.4055328,23.0838032],[-82.3958511,23.0791397],[-82.3867722,23.0648479]],[[-82.3867722,23.0648479],[-82.3875351,23.086216],[-82.3824463,23.0915985]],[[-83.595671,22.4431788],[-83.6112878,22.4353379],[-83.5916671,22.4245835],[-83.595671,22.4431788]],[[-83.6416671,22.4662501],[-83.6878096,22.445726],[-83.7038578,22.4367742],[-83.7296797,22.4289983],[-83.7161789,22.3922213],[-83.706106,22.3817501],[-83.6993042,22.3766547],[-83.6796428,22.3658067],[-83.671143,22.4123927],[-83.6621911,22.4201075],[-83.6544763,22.445726],[-83.6455245,22.4534409],[-83.6416671,22.4662501]],[[-75.9776453,20.2219345],[-75.9941655,20.229629],[-75.9845626,20.246373],[-75.9993331,20.2522324],[-76.0253829,20.2305039],[-75.9920333,20.1944687],[-75.9750004,20.1912501],[-75.9776453,20.2219345]],[[-75.5297042,20.4042872],[-75.5131352,20.4170721],[-75.5336918,20.428213],[-75.5452966,20.4088161],[-75.5297042,20.4042872]],[[-76.9416671,20.2662501],[-76.9416671,20.2829168],[-76.9666671,20.2829168],[-76.9666671,20.2662501],[-76.9416671,20.2662501]],[[-76.4634933,21.1547389],[-76.4511072,21.1623683],[-76.4933761,21.1767726],[-76.4863448,21.1542181],[-76.4666671,21.1495835],[-76.4634933,21.1547389]],[[-80.553337,22.1101873],[-80.5608321,22.0958847],[-80.5500004,22.0912501],[-80.553337,22.1101873]],[[-80.3191519,22.1526235],[-80.3221314,22.155253],[-80.331877,22.1359889],[-80.3166671,22.1329168],[-80.3191519,22.1526235]],[[-80.4454268,22.1963201],[-80.4881352,22.187881],[-80.4951501,22.1723577],[-80.469906,22.1542669],[-80.4717289,22.1450547],[-80.4557377,22.1198715],[-80.4333337,22.1162501],[-80.4130701,22.1331325],[-80.4048507,22.1544378],[-80.3868168,22.1613958],[-80.3798507,22.1827296],[-80.4178145,22.1752304],[-80.4454268,22.1963201]],[[-80.5060958,22.2115057],[-80.5371912,22.1961167],[-80.5000004,22.1912501],[-80.5060958,22.2115057]],[[-80.4666671,22.2245835],[-80.4689107,22.232564],[-80.4718961,22.2323685],[-80.4666671,22.2245835]],[[-75.6936935,20.170608],[-75.7036463,20.1857163],[-75.7111332,20.1635483],[-75.7000004,20.1579168],[-75.6936935,20.170608]],[[-75.6385584,20.1865667],[-75.6621912,20.1631821],[-75.6333338,20.1579168],[-75.6385584,20.1865667]],[[-75.0386967,20.1943629],[-75.0702234,20.1812933],[-75.0500004,20.1662501],[-75.0386967,20.1943629]],[[-75.1666671,20.1745835],[-75.2130375,20.178213],[-75.2270349,20.1963486],[-75.2441736,20.1938136],[-75.2283777,20.1536362],[-75.2383956,20.1370265],[-75.2166671,20.1079168],[-75.1705733,20.1426092],[-75.1666671,20.1745835]],[[-75.1666671,20.1745835],[-75.1309737,20.1853297],[-75.1418054,20.2034409],[-75.1666671,20.1745835]],[[-75.1692957,20.217597],[-75.1851567,20.2022772],[-75.1666671,20.1995835],[-75.1692957,20.217597]],[[-75.230518,20.227977],[-75.2450688,20.2152044],[-75.2166671,20.2079168],[-75.230518,20.227977]],[[-76.328337,20.751854],[-76.3358321,20.7375514],[-76.3250004,20.7329168],[-76.328337,20.751854]],[[-76.5229659,20.2701401],[-76.5539311,20.2596543],[-76.5333337,20.2412501],[-76.5229659,20.2701401]],[[-81.2873376,22.7348455],[-81.3029545,22.7270045],[-81.2833337,22.7162501],[-81.2873376,22.7348455]],[[-76.6338871,20.8754868],[-76.6527999,20.8614243],[-76.6250004,20.8579168],[-76.6338871,20.8754868]],[[-76.4373377,20.9848455],[-76.4529545,20.9770045],[-76.4333337,20.9662501],[-76.4373377,20.9848455]],[[-75.7003422,20.9686142],[-75.7420007,20.9779852],[-75.7366296,20.9540431],[-75.7083338,20.9495835],[-75.7003422,20.9686142]],[[-75.8150313,21.1279689],[-75.8351017,21.128464],[-75.8444666,21.1118475],[-75.8250004,21.1079168],[-75.8150313,21.1279689]],[[-81.179932,22.7961818],[-81.1651534,22.8063787],[-81.2094568,22.8196518],[-81.2200688,22.800678],[-81.1833337,22.7912501],[-81.179932,22.7961818]],[[-82.2915649,23.0665684],[-82.2731171,23.0472221],[-82.2637482,23.0326271]],[[-74.5051193,20.3550529],[-74.5200688,20.3493556],[-74.493547,20.331041],[-74.4799321,20.3113185],[-74.4792078,20.3346176],[-74.4929733,20.3531246],[-74.5051193,20.3550529]],[[-82.5255063,22.7894614],[-82.5000004,22.7829168],[-82.4912927,22.8036565],[-82.4978722,22.8196479],[-82.5243252,22.7941362],[-82.5255063,22.7894614]],[[-76.7839604,20.3340473],[-76.7750004,20.3329168],[-76.7682459,20.3465073],[-76.7941736,20.3523829],[-76.8007521,20.3402126],[-76.7839604,20.3340473]],[[-76.5833337,20.3412501],[-76.5871912,20.3623927],[-76.6128585,20.3701198],[-76.6103031,20.4018987],[-76.6702641,20.4067164],[-76.6729252,20.3735174],[-76.6409998,20.3364568],[-76.5833337,20.3412501]],[[-76.6589929,20.4441025],[-76.67863,20.4338161],[-76.6666671,20.4245835],[-76.6589929,20.4441025]],[[-82.5750411,22.8161321],[-82.6022465,22.8028468],[-82.5666671,22.7995835],[-82.5750411,22.8161321]],[[-79.9864099,21.773965],[-80.0027999,21.7594305],[-79.9835573,21.7513556],[-79.9864099,21.773965]],[[-80.0293857,21.806586],[-80.0413712,21.7959298],[-80.0250004,21.7912501],[-80.0293857,21.806586]],[[-79.9802331,21.7881495],[-79.9554529,21.7963283],[-79.9896977,21.8166285],[-80.003101,21.7946355],[-79.9833337,21.7829168],[-79.9802331,21.7881495]],[[-75.5364099,20.673965],[-75.5527999,20.6594305],[-75.5333338,20.6495835],[-75.5364099,20.673965]],[[-75.6635991,20.6678126],[-75.6823572,20.6779119],[-75.6949955,20.6462387],[-75.6750004,20.6412501],[-75.6635991,20.6678126]],[[-75.5950037,20.7435206],[-75.6024988,20.7292181],[-75.5916671,20.7245835],[-75.5950037,20.7435206]],[[-75.727629,20.842597],[-75.74349,20.8272772],[-75.7250004,20.8245835],[-75.727629,20.842597]],[[-77.3185426,20.2291027],[-77.3351567,20.2189438],[-77.3166671,20.2162501],[-77.3185426,20.2291027]],[[-77.273292,20.2483811],[-77.2952966,20.2294459],[-77.2666671,20.2245835],[-77.273292,20.2483811]],[[-80.2442956,22.8009303],[-80.2601566,22.7856105],[-80.2416671,22.7829168],[-80.2442956,22.8009303]],[[-82.2583647,22.9617435],[-82.2457361,22.9614853],[-82.2460941,22.9788396],[-82.2338717,22.9785902]],[[-82.2779545,23.0020045],[-82.2623376,23.0098455],[-82.2583337,22.9912501],[-82.2779545,23.0020045]],[[-77.2027999,20.271784],[-77.2174254,20.2763364],[-77.2057459,20.2524277],[-77.1916671,20.2495835],[-77.2027999,20.271784]],[[-77.0685877,20.3497747],[-77.1191178,20.3584769],[-77.1294861,20.3492756],[-77.1456757,20.3416367],[-77.1583584,20.3267031],[-77.1510909,20.3126938],[-77.0997888,20.3219996],[-77.0876713,20.3382879],[-77.0631108,20.3198065],[-77.0500004,20.3162501],[-77.0685877,20.3497747]],[[-82.5209598,23.076836],[-82.5213546,23.057396],[-82.4912439,23.072907],[-82.478044,22.9783473],[-82.4389408,22.9791448],[-82.4255091,22.9763942]],[[-78.9057052,22.1278672],[-78.9203699,22.1137395],[-78.9000004,22.1079168],[-78.9057052,22.1278672]],[[-78.8045709,21.7424181],[-78.8028406,21.7373764],[-78.7833337,21.7329168],[-78.7854102,21.7420046]],[[-82.3867722,23.0648479],[-82.3815689,23.063345]]],"bbox":[-83.7296797,19.9050582,-74.4792078,23.1900291]}