{"type":"Topology","objects":{"foo":{"type":"GeometryCollection","geometries":[{"type":"MultiPolygon","arcs":[[[0,1]],[[2,3]]],"properties":{"name":"Komo-Mondah","gaul_code":16358,"targetarea":1.6279133,"totpop":203325.015972,"country_id":"GAB","targetpop":3246.4794311,"new_mean":0.047118,"totalarea":5648.0933132}},{"type":"Polygon","arcs":[[4,-2,5,-4]],"properties":{"name":"Libreville","gaul_code":16359,"targetarea":255.8258719,"totpop":861753.229767,"country_id":"GAB","targetpop":843406.761047,"new_mean":0.0535875,"totalarea":271.76208}}]}},"arcs":[[[9.58034,0.388654],[9.5766594,0.4138007],[9.5623728,0.4292175]],[[9.5623728,0.4292175],[9.5723581,0.411344],[9.58034,0.388654]],[[9.5321178,0.4618658],[9.5253248,0.4691962],[9.5175246,0.4709708]],[[9.5175246,0.4709708],[9.5321178,0.4618658]],[[9.5175246,0.4709708],[9.4435076,0.4878105],[9.4338454,0.4857185],[9.3979918,0.4743691],[9.4149189,0.4531409],[9.42346,0.4297519],[9.4331274,0.409812],[9.4439096,0.396075],[9.4526482,0.379806],[9.4730434,0.359218],[9.4792566,0.346613],[9.4843636,0.325279],[9.4933205,0.3113071],[9.4977055,0.298696],[9.5096418,0.2853284],[9.5186996,0.299004],[9.5314388,0.3091539],[9.5456698,0.2955796],[9.5756503,0.3097235],[9.562662,0.3372463],[9.5504061,0.3603908],[9.5873365,0.3408515],[9.5838735,0.3645117],[9.5835582,0.3666661],[9.58034,0.388654]],[[9.5623728,0.4292175],[9.5321178,0.4618658]]],"bbox":[9.3979918,0.2853284,9.5873365,0.4878105]}