{"type":"Topology","objects":{"foo":{"type":"GeometryCollection","geometries":[{"type":"MultiPolygon","arcs":[[[0]],[[1]]],"properties":{"name":"Asikuma/Odoben/Brakwa","gaul_code":16598,"targetarea":8.0352015,"totpop":138340.593006,"country_id":"GHA","targetpop":12865.1456299,"new_mean":0.0585163,"totalarea":745.5269106}},{"type":"Polygon","arcs":[[2,3]],"properties":{"name":"Yilo Krobo","gaul_code":16620,"targetarea":6.5431493,"totpop":110770.854244,"country_id":"GHA","targetpop":7445.9095459,"new_mean":0.0587365,"totalarea":671.6225421}},{"type":"Polygon","arcs":[[4]],"properties":{"name":"Birim North","gaul_code":16610,"targetarea":1.7409633,"totpop":252393.279663,"country_id":"GHA","targetpop":2923.3282471,"new_mean":0.0486025,"totalarea":1245.0946416}},{"type":"Polygon","arcs":[[5,6]],"properties":{"name":"Upper Denkyira","gaul_code":16605,"targetarea":9.6840066,"totpop":169026.748679,"country_id":"GHA","targetpop":18768.9077148,"new_mean":0.0469288,"totalarea":1163.9426472}},{"type":"MultiPolygon","arcs":[[[7]],[[8]],[[9,10]],[[11,12]]],"properties":{"name":"Komenda/Edina Aguafo","gaul_code":16602,"targetarea":26.3404316,"totpop":179466.181919,"country_id":"GHA","targetpop":34291.3748779,"new_mean":0.0641142,"totalarea":412.9803741}},{"type":"Polygon","arcs":[[13]],"properties":{"name":"Afram Plains","gaul_code":16606,"targetarea":1.991641,"totpop":349098.341929,"country_id":"GHA","targetpop":3253.6098023,"new_mean":0.0659044,"totalarea":5285.8561814}},{"type":"Polygon","arcs":[[14]],"properties":{"name":"Nkoranza","gaul_code":16589,"targetarea":1.1435181,"totpop":235475.714378,"country_id":"GHA","targetpop":2064.899353,"new_mean":0.0570962,"totalarea":2516.5921202}},{"type":"MultiPolygon","arcs":[[[-7,15]],[[16]]],"properties":{"name":"Adansi West","gaul_code":16565,"targetarea":38.5043516,"totpop":251826.480684,"country_id":"GHA","targetpop":74064.3939819,"new_mean":0.0367551,"totalarea":949.3166062}},{"type":"MultiPolygon","arcs":[[[17]],[[18]],[[19]]],"properties":{"name":"Keta","gaul_code":33108,"targetarea":8.3914645,"totpop":187425.305107,"country_id":"GHA","targetpop":11884.9776611,"new_mean":0.0617253,"totalarea":895.8044381}},{"type":"Polygon","arcs":[[20]],"properties":{"name":"Fanteakwa","gaul_code":16613,"targetarea":1.9676227,"totpop":123360.054833,"country_id":"GHA","targetpop":3832.6954346,"new_mean":0.0565378,"totalarea":1146.6311426}},{"type":"MultiPolygon","arcs":[[[21]],[[22,23]]],"properties":{"name":"Dangbe West","gaul_code":16623,"targetarea":2.8237931,"totpop":138548.334716,"country_id":"GHA","targetpop":3186.1257324,"new_mean":0.0572609,"totalarea":1493.7164734}},{"type":"Polygon","arcs":[[24]],"properties":{"name":"Kwahu South","gaul_code":16615,"targetarea":7.8198104,"totpop":274773.88214,"country_id":"GHA","targetpop":13934.8886719,"new_mean":0.0542808,"totalarea":1986.4586632}},{"type":"MultiPolygon","arcs":[[[25]],[[26]],[[27]],[[28]]],"properties":{"name":"Dangbe East","gaul_code":16622,"targetarea":14.9470988,"totpop":192797.262758,"country_id":"GHA","targetpop":23027.3212051,"new_mean":0.0635044,"totalarea":692.7486597}},{"type":"MultiPolygon","arcs":[[[29,30,31,32,33,34]],[[35,-24,36]]],"properties":{"name":"Tema","gaul_code":16625,"targetarea":276.8250671,"totpop":909158.294685,"country_id":"GHA","targetpop":798754.098572,"new_mean":0.0553253,"totalarea":469.0230601}},{"type":"MultiPolygon","arcs":[[[37,38]],[[39]]],"properties":{"name":"Asuogyaman","gaul_code":16609,"targetarea":11.8314808,"totpop":129754.023378,"country_id":"GHA","targetpop":19440.7056885,"new_mean":0.0519664,"totalarea":786.2875416}},{"type":"Polygon","arcs":[[40]],"properties":{"name":"North Tongu","gaul_code":16659,"targetarea":2.0531417,"totpop":169439.954248,"country_id":"GHA","targetpop":3305.7062378,"new_mean":0.0571368,"totalarea":1865.9225722}},{"type":"Polygon","arcs":[[41,42,43,44]],"properties":{"name":"Bosomtwi Kwanwoma","gaul_code":16574,"targetarea":67.4664459,"totpop":569626.876449,"country_id":"GHA","targetpop":373533.392212,"new_mean":0.0355878,"totalarea":715.9892888}},{"type":"Polygon","arcs":[[45]],"properties":{"name":"Bibiani Anhwiaso-Bekwai","gaul_code":16664,"targetarea":5.3899822,"totpop":162203.107237,"country_id":"GHA","targetpop":7184.7202759,"new_mean":0.0452086,"totalarea":957.570907}},{"type":"Polygon","arcs":[[46,47,48,49,-42,50,51,52]],"properties":{"name":"Kumasi","gaul_code":16577,"targetarea":183.9853469,"totpop":3001274.32922,"country_id":"GHA","targetpop":3000759.98743,"new_mean":0.0154427,"totalarea":184.8236404}},{"type":"Polygon","arcs":[[53]],"properties":{"name":"Nzema East","gaul_code":16668,"targetarea":2.0170377,"totpop":154569.682613,"country_id":"GHA","targetpop":3090.7811279,"new_mean":0.0565577,"totalarea":2142.9410296}},{"type":"MultiPolygon","arcs":[[[54]],[[55]],[[56]]],"properties":{"name":"Kwaebibirem","gaul_code":16614,"targetarea":5.0464764,"totpop":215124.236935,"country_id":"GHA","targetpop":8835.9001465,"new_mean":0.0501825,"totalarea":1289.2965862}},{"type":"Polygon","arcs":[[57]],"properties":{"name":"Berekum","gaul_code":16585,"targetarea":15.7449779,"totpop":196442.961372,"country_id":"GHA","targetpop":31703.9064941,"new_mean":0.0525039,"totalarea":1068.6214737}},{"type":"MultiPolygon","arcs":[[[58,59,60,61]],[[62]]],"properties":{"name":"Abura/Asebu/Kwamankese","gaul_code":16595,"targetarea":14.1022527,"totpop":161970.343513,"country_id":"GHA","targetpop":23364.2723389,"new_mean":0.0600993,"totalarea":394.0719767}},{"type":"Polygon","arcs":[[63]],"properties":{"name":"Sekyere West","gaul_code":16581,"targetarea":3.0632075,"totpop":171150.602538,"country_id":"GHA","targetpop":3584.407959,"new_mean":0.0580566,"totalarea":2384.2810125}},{"type":"Polygon","arcs":[[64]],"properties":{"name":"Akatsi","gaul_code":16650,"targetarea":11.548653,"totpop":161703.281681,"country_id":"GHA","targetpop":21432.4702759,"new_mean":0.0549705,"totalarea":820.8737742}},{"type":"MultiPolygon","arcs":[[[65,66,-52]],[[67,68,-47]],[[69,70]],[[71]]],"properties":{"name":"Kwabere","gaul_code":16578,"targetarea":37.7980005,"totpop":183000.097549,"country_id":"GHA","targetpop":86469.335083,"new_mean":0.0345969,"totalarea":336.9507442}},{"type":"MultiPolygon","arcs":[[[72]],[[73]]],"properties":{"name":"Sunyani","gaul_code":16591,"targetarea":26.5395705,"totpop":225919.762205,"country_id":"GHA","targetpop":38860.8358765,"new_mean":0.0531592,"totalarea":1346.1485781}},{"type":"MultiPolygon","arcs":[[[74,75]],[[76]],[[77]]],"properties":{"name":"West Akim","gaul_code":16619,"targetarea":13.5772311,"totpop":248288.281956,"country_id":"GHA","targetpop":25213.6934814,"new_mean":0.0492028,"totalarea":835.1442181}},{"type":"MultiPolygon","arcs":[[[78,79,80]],[[81,82]],[[83,84,-33,85,-31,86,87,88,89,90,91,92]],[[-75,93]]],"properties":{"name":"Ga","gaul_code":16624,"targetarea":395.3409623,"totpop":1322266.76098,"country_id":"GHA","targetpop":1132191.41699,"new_mean":0.0535656,"totalarea":779.3662752}},{"type":"Polygon","arcs":[[94,95]],"properties":{"name":"Ahanta West","gaul_code":16662,"targetarea":4.7362514,"totpop":87114.8424416,"country_id":"GHA","targetpop":5675.5603027,"new_mean":0.0562613,"totalarea":499.8070516}},{"type":"MultiPolygon","arcs":[[[96,97]],[[98]]],"properties":{"name":"Offinso","gaul_code":16579,"targetarea":5.4876896,"totpop":140680.041676,"country_id":"GHA","targetpop":6508.8796997,"new_mean":0.0535968,"totalarea":1454.0971149}},{"type":"MultiPolygon","arcs":[[[99]],[[100]],[[101,102]],[[103]],[[104]],[[105]]],"properties":{"name":"Agona","gaul_code":16596,"targetarea":37.4465251,"totpop":271314.630989,"country_id":"GHA","targetpop":78496.0734863,"new_mean":0.0595131,"totalarea":647.6470061}},{"type":"MultiPolygon","arcs":[[[-39,106,-3,107]],[[108]]],"properties":{"name":"Manya Krobo","gaul_code":16616,"targetarea":19.9920908,"totpop":134699.236062,"country_id":"GHA","targetpop":30817.8513794,"new_mean":0.055092,"totalarea":934.5191677}},{"type":"Polygon","arcs":[[109]],"properties":{"name":"Kpandu","gaul_code":16657,"targetarea":11.3608737,"totpop":165960.894569,"country_id":"GHA","targetpop":17114.8110352,"new_mean":0.0531012,"totalarea":1105.0067328}},{"type":"MultiPolygon","arcs":[[[110]],[[111]]],"properties":{"name":"Wassa West","gaul_code":16672,"targetarea":6.1868157,"totpop":260536.798816,"country_id":"GHA","targetpop":10070.1357422,"new_mean":0.0503915,"totalarea":2618.9509171}},{"type":"Polygon","arcs":[[112,-66,-51,-45]],"properties":{"name":"Ejusu/Juaben","gaul_code":16576,"targetarea":38.7793494,"totpop":220406.893191,"country_id":"GHA","targetpop":91404.315979,"new_mean":0.0447575,"totalarea":629.1213327}},{"type":"MultiPolygon","arcs":[[[113]],[[114]]],"properties":{"name":"Jomoro","gaul_code":16665,"targetarea":3.8532324,"totpop":196302.647553,"country_id":"GHA","targetpop":8354.5792847,"new_mean":0.0601295,"totalarea":1386.4331458}},{"type":"Polygon","arcs":[[115]],"properties":{"name":"Asunafo","gaul_code":16582,"targetarea":1.7254167,"totpop":271089.410788,"country_id":"GHA","targetpop":3578.6428833,"new_mean":0.0505864,"totalarea":2285.3864843}},{"type":"MultiPolygon","arcs":[[[-88,116]],[[-90,117,-82,118]]],"properties":{"name":"Akwapim South","gaul_code":16608,"targetarea":28.876377,"totpop":160334.666382,"country_id":"GHA","targetpop":40858.4616699,"new_mean":0.0495165,"totalarea":385.3009937}},{"type":"Polygon","arcs":[[119]],"properties":{"name":"Sefwi-Wiawso","gaul_code":16669,"targetarea":5.7550011,"totpop":264969.946651,"country_id":"GHA","targetpop":9941.6662598,"new_mean":0.047037,"totalarea":2396.5033741}},{"type":"Polygon","arcs":[[120]],"properties":{"name":"Suhum/Kraboa/Coaltar","gaul_code":16618,"targetarea":6.3642359,"totpop":177733.610203,"country_id":"GHA","targetpop":11615.3063965,"new_mean":0.0444092,"totalarea":863.2756118}},{"type":"Polygon","arcs":[[121]],"properties":{"name":"Ahafo Ano North","gaul_code":16567,"targetarea":1.1449057,"totpop":131357.253141,"country_id":"GHA","targetpop":2597.0535889,"new_mean":0.0545524,"totalarea":701.5476803}},{"type":"MultiPolygon","arcs":[[[122]],[[123]],[[124]],[[125]],[[126]],[[127]],[[128]],[[129]]],"properties":{"name":"Hohoe","gaul_code":16652,"targetarea":49.5713299,"totpop":439760.430241,"country_id":"GHA","targetpop":106747.458679,"new_mean":0.0561035,"totalarea":1207.8462835}},{"type":"MultiPolygon","arcs":[[[130,131]],[[132]],[[-92,133]],[[134]],[[135]]],"properties":{"name":"Awutu/Efutu/Senya","gaul_code":16600,"targetarea":160.5686663,"totpop":596025.252792,"country_id":"GHA","targetpop":371641.763916,"new_mean":0.05773,"totalarea":696.1143928}},{"type":"Polygon","arcs":[[136]],"properties":{"name":"Techiman","gaul_code":16593,"targetarea":19.1880797,"totpop":238159.919165,"country_id":"GHA","targetpop":28917.8003235,"new_mean":0.0532318,"totalarea":1191.3764316}},{"type":"MultiPolygon","arcs":[[[137]],[[138,139]]],"properties":{"name":"New Juaben","gaul_code":16617,"targetarea":66.4792485,"totpop":225392.446999,"country_id":"GHA","targetpop":173886.638306,"new_mean":0.0431533,"totalarea":168.8765891}},{"type":"MultiPolygon","arcs":[[[140,-80,141]],[[142,-34,-85,143]]],"properties":{"name":"Accra","gaul_code":16621,"targetarea":234.1768724,"totpop":2991388.19934,"country_id":"GHA","targetpop":2990477.74683,"new_mean":0.0408875,"totalarea":235.8502922}},{"type":"MultiPolygon","arcs":[[[144]],[[145]],[[146]],[[147,-139]]],"properties":{"name":"Akwapim North","gaul_code":16607,"targetarea":18.342554,"totpop":204524.31205,"country_id":"GHA","targetpop":38423.4993286,"new_mean":0.0567494,"totalarea":642.0336955}},{"type":"MultiPolygon","arcs":[[[148,-43,-50]],[[-48,-69,149]]],"properties":{"name":"Atwima","gaul_code":16573,"targetarea":27.7836747,"totpop":419479.181571,"country_id":"GHA","targetpop":146627.950867,"new_mean":0.0460529,"totalarea":2510.3366247}},{"type":"MultiPolygon","arcs":[[[150]],[[151]]],"properties":{"name":"Ho","gaul_code":16651,"targetarea":56.3817824,"totpop":482776.806484,"country_id":"GHA","targetpop":122591.888,"new_mean":0.0483587,"totalarea":2567.731046}},{"type":"MultiPolygon","arcs":[[[152]],[[153]],[[154]],[[155]],[[156]]],"properties":{"name":"Ajumako Enyan","gaul_code":16597,"targetarea":18.8548051,"totpop":202735.695038,"country_id":"GHA","targetpop":30883.7354126,"new_mean":0.0607314,"totalarea":508.0062141}},{"type":"MultiPolygon","arcs":[[[157,-10,158,-12,159,-62]],[[160]]],"properties":{"name":"Cape Coast","gaul_code":16601,"targetarea":78.7044847,"totpop":256224.013313,"country_id":"GHA","targetpop":226256.232849,"new_mean":0.0611644,"totalarea":121.8007263}},{"type":"MultiPolygon","arcs":[[[161,-60]],[[162]],[[163]],[[164]],[[165]]],"properties":{"name":"Mfantsiman","gaul_code":16603,"targetarea":22.6032597,"totpop":228248.310749,"country_id":"GHA","targetpop":36300.5503235,"new_mean":0.0628748,"totalarea":526.5464913}},{"type":"Polygon","arcs":[[166]],"properties":{"name":"South Tongu","gaul_code":16661,"targetarea":9.092766,"totpop":106053.597315,"country_id":"GHA","targetpop":12601.7045288,"new_mean":0.0612285,"totalarea":554.9340278}},{"type":"Polygon","arcs":[[167]],"properties":{"name":"Asante Akim North","gaul_code":16571,"targetarea":2.3344601,"totpop":161092.066935,"country_id":"GHA","targetpop":3917.3743897,"new_mean":0.051889,"totalarea":1488.3014643}},{"type":"MultiPolygon","arcs":[[[168]],[[169]],[[170]]],"properties":{"name":"Ketu","gaul_code":16656,"targetarea":43.9469561,"totpop":293166.440283,"country_id":"GHA","targetpop":81019.1629486,"new_mean":0.0558432,"totalarea":695.4307789}},{"type":"MultiPolygon","arcs":[[[171]],[[172]]],"properties":{"name":"Amansie East","gaul_code":16569,"targetarea":9.7805998,"totpop":338213.057338,"country_id":"GHA","targetpop":16394.2647705,"new_mean":0.0500627,"totalarea":2064.1403061}},{"type":"MultiPolygon","arcs":[[[173]],[[174]],[[175]],[[176]]],"properties":{"name":"Assin","gaul_code":16599,"targetarea":14.3494336,"totpop":368117.578928,"country_id":"GHA","targetpop":24426.588501,"new_mean":0.0380977,"totalarea":2261.4289113}},{"type":"MultiPolygon","arcs":[[[177,178]],[[179]]],"properties":{"name":"Mpohor Wassa","gaul_code":16667,"targetarea":5.784935,"totpop":167700.585501,"country_id":"GHA","targetpop":8169.4291382,"new_mean":0.0523433,"totalarea":2164.8847695}},{"type":"MultiPolygon","arcs":[[[180]],[[181]],[[182]],[[183]]],"properties":{"name":"East Akim","gaul_code":16612,"targetarea":32.2690991,"totpop":388816.618433,"country_id":"GHA","targetpop":54652.8253174,"new_mean":0.0537784,"totalarea":1475.485253}},{"type":"MultiPolygon","arcs":[[[184]],[[185]],[[186]],[[187]],[[188]],[[189]]],"properties":{"name":"Birim South","gaul_code":16611,"targetarea":42.3626915,"totpop":391491.315147,"country_id":"GHA","targetpop":80078.7481079,"new_mean":0.0522667,"totalarea":1264.5421696}},{"type":"Polygon","arcs":[[190]],"properties":{"name":"Dormaa","gaul_code":16586,"targetarea":2.2799137,"totpop":293717.350409,"country_id":"GHA","targetpop":3399.1721191,"new_mean":0.056075,"totalarea":2230.7836582}},{"type":"Polygon","arcs":[[191,-178,192,-95]],"properties":{"name":"Shama Ahanta East","gaul_code":16670,"targetarea":199.8962732,"totpop":1069918.53292,"country_id":"GHA","targetpop":995566.680176,"new_mean":0.0568131,"totalarea":362.3857722}},{"type":"MultiPolygon","arcs":[[[193]],[[194]]],"properties":{"name":"Tano","gaul_code":16592,"targetarea":3.1222813,"totpop":180897.276392,"country_id":"GHA","targetpop":5911.3237305,"new_mean":0.0565191,"totalarea":1224.7216935}},{"type":"MultiPolygon","arcs":[[[195]],[[196,-132,197]],[[198]],[[-103,199]]],"properties":{"name":"Gomoa","gaul_code":33109,"targetarea":24.4766866,"totpop":293911.035999,"country_id":"GHA","targetpop":39023.7203979,"new_mean":0.0603508,"totalarea":819.3032429}},{"type":"MultiPolygon","arcs":[[[200,-97,201,-70]],[[202]],[[203],[204]],[[205]],[[206]]],"properties":{"name":"Afigya Sekyere","gaul_code":16566,"targetarea":88.6602107,"totpop":391492.52688,"country_id":"GHA","targetpop":145788.253357,"new_mean":0.0534256,"totalarea":722.1524931}},{"type":"Polygon","arcs":[[207]],"properties":{"name":"Bawku West","gaul_code":16640,"targetarea":2.7173462,"totpop":111795.840823,"country_id":"GHA","targetpop":4743.9846191,"new_mean":0.0487008,"totalarea":1063.5077365}},{"type":"MultiPolygon","arcs":[[[208]],[[209]]],"properties":{"name":"Nanumba","gaul_code":16630,"targetarea":4.5437086,"totpop":384462.696607,"country_id":"GHA","targetpop":6710.9799805,"new_mean":0.0776204,"totalarea":4066.5946981}},{"type":"Polygon","arcs":[[210]],"properties":{"name":"Gushiegu/Karaga","gaul_code":16629,"targetarea":1.1364905,"totpop":288341.247773,"country_id":"GHA","targetpop":2286.2017822,"new_mean":0.0622622,"totalarea":5790.2338902}},{"type":"Polygon","arcs":[[211]],"properties":{"name":"Yendi","gaul_code":16637,"targetarea":9.0732814,"totpop":309844.801204,"country_id":"GHA","targetpop":16133.5058594,"new_mean":0.0741134,"totalarea":4318.0842568}},{"type":"Polygon","arcs":[[212]],"properties":{"name":"Wa","gaul_code":16649,"targetarea":14.2612006,"totpop":292998.398499,"country_id":"GHA","targetpop":20481.4042358,"new_mean":0.0685258,"totalarea":5968.6050188}},{"type":"Polygon","arcs":[[213]],"properties":{"name":"West Mamprusi","gaul_code":16636,"targetarea":3.202894,"totpop":245079.164063,"country_id":"GHA","targetpop":5889.4038086,"new_mean":0.0663157,"totalarea":4736.6296456}},{"type":"MultiPolygon","arcs":[[[214]],[[215]]],"properties":{"name":"Jirapa/Lambussie","gaul_code":16645,"targetarea":5.5215782,"totpop":198939.463236,"country_id":"GHA","targetpop":10259.8713989,"new_mean":0.0526944,"totalarea":1944.6308771}},{"type":"MultiPolygon","arcs":[[[216]],[[217]]],"properties":{"name":"East Mamprusi","gaul_code":16628,"targetarea":8.4559608,"totpop":338122.757723,"country_id":"GHA","targetpop":13971.2327271,"new_mean":0.0603276,"totalarea":2910.7761033}},{"type":"MultiPolygon","arcs":[[[218]],[[219]]],"properties":{"name":"Kasena/Nankani","gaul_code":16644,"targetarea":9.6910083,"totpop":216144.707046,"country_id":"GHA","targetpop":13553.059021,"new_mean":0.0505268,"totalarea":1646.1837927}},{"type":"Polygon","arcs":[[220]],"properties":{"name":"Bolgatanga","gaul_code":16641,"targetarea":31.5767778,"totpop":248783.355507,"country_id":"GHA","targetpop":57157.3572388,"new_mean":0.0531161,"totalarea":1407.9504792}},{"type":"MultiPolygon","arcs":[[[221]],[[222]],[[223]]],"properties":{"name":"Bawku East","gaul_code":16639,"targetarea":19.40509,"totpop":393362.939775,"country_id":"GHA","targetpop":33921.9284668,"new_mean":0.049262,"totalarea":1941.4882892}},{"type":"Polygon","arcs":[[224]],"properties":{"name":"Zabzugu/Tatale","gaul_code":16638,"targetarea":6.2182732,"totpop":194434.801709,"country_id":"GHA","targetpop":9340.4665527,"new_mean":0.0792896,"totalarea":2157.1854958}},{"type":"Polygon","arcs":[[225]],"properties":{"name":"Bongo","gaul_code":16642,"targetarea":2.257485,"totpop":99562.9878387,"country_id":"GHA","targetpop":4031.2707519,"new_mean":0.0513761,"totalarea":462.4019281}},{"type":"MultiPolygon","arcs":[[[226]],[[227]]],"properties":{"name":"Lawra","gaul_code":16646,"targetarea":5.5393128,"totpop":114272.68968,"country_id":"GHA","targetpop":8910.3359375,"new_mean":0.0487047,"totalarea":910.7742961}},{"type":"MultiPolygon","arcs":[[[228]],[[229]]],"properties":{"name":"Savelgu/Nanton","gaul_code":16632,"targetarea":7.0060754,"totpop":228052.422215,"country_id":"GHA","targetpop":12155.3537598,"new_mean":0.0579267,"totalarea":2147.4986287}},{"type":"MultiPolygon","arcs":[[[230]],[[231]]],"properties":{"name":"Tamale","gaul_code":16633,"targetarea":104.9996058,"totpop":446800.305239,"country_id":"GHA","targetpop":289155.172668,"new_mean":0.0475327,"totalarea":700.5335523}},{"type":"Polygon","arcs":[[232]],"properties":{"name":"Saboba/Chereponi","gaul_code":16631,"targetarea":1.1357504,"totpop":160235.491929,"country_id":"GHA","targetpop":1923.0684204,"new_mean":0.0724114,"totalarea":3187.3579906}},{"type":"Polygon","arcs":[[233]],"properties":{"name":"Wenchi","gaul_code":16594,"targetarea":2.0066978,"totpop":227313.96752,"country_id":"GHA","targetpop":3500.97052,"new_mean":0.0610711,"totalarea":5102.4721535}},{"type":"MultiPolygon","arcs":[[[234]],[[235]]],"properties":{"name":"Atebubu","gaul_code":16584,"targetarea":4.3766662,"totpop":313840.784941,"country_id":"GHA","targetpop":5879.5240478,"new_mean":0.0696146,"totalarea":5293.9325764}},{"type":"Polygon","arcs":[[236]],"properties":{"name":"Kintampo","gaul_code":16588,"targetarea":1.1551226,"totpop":216090.634141,"country_id":"GHA","targetpop":1836.0678711,"new_mean":0.0663216,"totalarea":6497.3946989}},{"type":"Polygon","arcs":[[237]],"properties":{"name":"Nkwanta","gaul_code":16658,"targetarea":3.1161558,"totpop":231728.246098,"country_id":"GHA","targetpop":5193.4319458,"new_mean":0.0787093,"totalarea":3587.0828474}}]}},"arcs":[[[-0.9867357,5.5878485],[-0.9977221,5.6029852],[-1.0117357,5.5735378],[-0.983334,5.5662502],[-0.9867357,5.5878485]],[[-0.9878588,5.710163],[-1.0024909,5.7029608],[-0.983334,5.6995835],[-0.9878588,5.710163]],[[0.0008482,6.114095],[-0.0111343,6.1221173]],[[-0.0111343,6.1221173],[-0.028321,6.0922512],[-0.0166674,6.0829169],[-0.0037117,6.1032904],[0.0008482,6.114095]],[[-0.995004,6.351854],[-1.0024909,6.3375515],[-0.9916674,6.3329169],[-0.995004,6.351854]],[[-1.774384,5.9779377],[-1.7916348,5.9860948],[-1.8031745,5.9534287],[-1.7666674,5.9495835],[-1.7684149,5.9616096]],[[-1.7684149,5.9616096],[-1.7776434,5.9716368],[-1.774384,5.9779377]],[[-1.5033373,5.101854],[-1.5108243,5.0875515],[-1.5000007,5.0829169],[-1.5033373,5.101854]],[[-1.3878588,5.110163],[-1.4024909,5.1029608],[-1.383334,5.0995835],[-1.3878588,5.110163]],[[-1.3041293,5.1265593],[-1.29684,5.1353002],[-1.307441,5.1436806]],[[-1.307441,5.1436806],[-1.3041293,5.1265593]],[[-1.321146,5.0949498],[-1.3171343,5.1053553],[-1.3109485,5.1117971]],[[-1.3109485,5.1117971],[-1.3294278,5.112173],[-1.329086,5.1454982],[-1.3460945,5.1536688],[-1.3459317,5.119835],[-1.3625821,5.1038316],[-1.3624193,5.0953355],[-1.3786465,5.0797471],[-1.3605897,5.0772257],[-1.35184,5.079864],[-1.3477379,5.0872459],[-1.321146,5.0949498]],[[-0.0776212,7.0592637],[-0.0934903,7.0439439],[-0.0750007,7.0412502],[-0.0776212,7.0592637]],[[-1.6961921,7.5684963],[-1.7108243,7.5612941],[-1.6916674,7.5579169],[-1.6961921,7.5684963]],[[-1.7684149,5.9616096],[-1.7705248,5.9761298],[-1.774384,5.9779377]],[[-1.6225106,6.2034027],[-1.6551602,6.2110948],[-1.6787279,6.2301866],[-1.6924486,6.22591],[-1.7056485,6.1871853],[-1.6945971,6.1625352],[-1.6750007,6.1579169],[-1.6704109,6.1773789],[-1.6307136,6.1909084],[-1.6225593,6.202225],[-1.6225106,6.2034027]],[[0.8294701,5.7685242],[0.8523593,5.7793565],[0.8217441,5.7854885],[0.8140943,5.7697618],[0.8294701,5.7685242]],[[0.9110182,5.801972],[0.8887851,5.7948716],[0.9166659,5.7912502],[0.9110182,5.801972]],[[0.9881015,5.9020412],[0.9804518,5.8804877],[0.9916659,5.8745835],[0.9881015,5.9020412]],[[-0.3706713,6.3931789],[-0.38628,6.3853379],[-0.3666674,6.3745835],[-0.3706713,6.3931789]],[[0.0499993,5.7579169],[0.0443349,5.756326],[0.0486435,5.7530807],[0.0499993,5.7579169]],[[-0.1045747,5.8463167],[-0.1036303,5.8539414],[-0.1084643,5.8699571],[-0.1177669,5.8546422]],[[-0.1177669,5.8546422],[-0.1045747,5.8463167]],[[-0.7549161,6.5609279],[-0.784213,6.5695786],[-0.7781583,6.5455756],[-0.7500007,6.5412502],[-0.7549161,6.5609279]],[[0.6382643,5.7878485],[0.6220533,5.7990423],[0.6070143,5.7772813],[0.6499993,5.7662502],[0.6382643,5.7878485]],[[0.6133294,5.8351874],[0.6058424,5.8208848],[0.6166659,5.8162502],[0.6133294,5.8351874]],[[0.374332,5.8857692],[0.3547031,5.8754828],[0.3666659,5.8662502],[0.374332,5.8857692]],[[0.5288567,5.9108099],[0.5052239,5.8952297],[0.5333326,5.8912502],[0.5288567,5.9108099]],[[-0.1333341,5.7912502],[-0.1393491,5.7926436]],[[-0.1393491,5.7926436],[-0.1516646,5.7720775]],[[-0.1516646,5.7720775],[-0.1539739,5.7673855]],[[-0.1539739,5.7673855],[-0.1624208,5.7488399],[-0.1629129,5.7102137],[-0.1599527,5.6982064],[-0.1631659,5.6858444],[-0.1536523,5.686049],[-0.1509287,5.66153]],[[-0.1509287,5.66153],[-0.1311874,5.658112],[-0.1264346,5.6398945],[-0.1234704,5.6366253],[-0.0918467,5.6212687],[-0.085509,5.616343],[-0.0762886,5.6176777],[-0.0744956,5.6067953],[-0.0677354,5.5985011]],[[-0.0677354,5.5985011],[-0.0574361,5.6052241],[-0.039759,5.611022],[-0.0252839,5.6117482],[0.002717,5.6237841],[0.023362,5.637641],[0.0299961,5.649394],[0.0387121,5.6556277],[0.042817,5.667604],[0.0507113,5.6720025],[0.0582675,5.688939],[0.0454745,5.7118516],[0.0468417,5.7289007],[0.0092766,5.7374375],[-0.037045,5.7632798],[-0.0559903,5.741299],[-0.0794115,5.7543687],[-0.0871915,5.7201076],[-0.1000007,5.7162502],[-0.0881843,5.6672268],[-0.102491,5.6552476],[-0.1135098,5.6838202],[-0.1562507,5.6950995],[-0.1409024,5.706098],[-0.1552091,5.7286322],[-0.1368171,5.7697292],[-0.1333341,5.7912502]],[[-0.1333341,5.7912502],[-0.1017423,5.7967474],[-0.1062344,5.8329169],[-0.1045747,5.8463167]],[[-0.1177669,5.8546422],[-0.1287117,5.8366237],[-0.1380704,5.8291286],[-0.1333341,5.7912502]],[[0.0707327,6.1604264],[0.0787102,6.1772853],[0.0599254,6.1700666]],[[0.0599254,6.1700666],[0.0707327,6.1604264]],[[0.1057773,6.238349],[0.0881991,6.2530625],[0.0767571,6.1959621],[0.0833326,6.1912502],[0.1057773,6.238349]],[[0.1291572,6.2514059],[0.1416659,6.2495835],[0.1366492,6.2652837],[0.1291572,6.2514059]],[[-1.5244334,6.6651373],[-1.5501288,6.6508255],[-1.5824436,6.6301994],[-1.6361452,6.6413884],[-1.6608185,6.654799],[-1.6845145,6.6711574],[-1.6942652,6.680522]],[[-1.6942652,6.680522],[-1.71193,6.6719177]],[[-1.71193,6.6719177],[-1.71364,6.6551377],[-1.6875007,6.6524766],[-1.6638842,6.6548814],[-1.6620613,6.6202744],[-1.673129,6.5705878],[-1.658334,6.5662502],[-1.6487475,6.6200303],[-1.6340502,6.6104763],[-1.620834,6.5945664],[-1.6083992,6.6095282],[-1.5750007,6.6129339],[-1.5540534,6.6107977],[-1.5462247,6.6374701],[-1.5132115,6.6447874]],[[-1.5132115,6.6447874],[-1.5192438,6.6514111],[-1.5244334,6.6651373]],[[-2.2979662,6.4701402],[-2.3289395,6.4596543],[-2.308334,6.4412502],[-2.2979662,6.4701402]],[[-1.5876806,6.7513803],[-1.6182623,6.7542524],[-1.6411854,6.7551742],[-1.6635916,6.754046],[-1.6718689,6.7590137]],[[-1.6718689,6.7590137],[-1.6715666,6.7406669],[-1.6637931,6.740633],[-1.6636857,6.7197405]],[[-1.6636857,6.7197405],[-1.6636832,6.7192623]],[[-1.6636832,6.7192623],[-1.6835943,6.7161317],[-1.6964409,6.7027602],[-1.6942652,6.680522]],[[-1.5244334,6.6651373],[-1.5358895,6.7007375],[-1.5324737,6.7097125],[-1.5486032,6.7239976]],[[-1.5486032,6.7239976],[-1.5739759,6.7421225]],[[-1.5739759,6.7421225],[-1.5866055,6.7408352],[-1.5876806,6.7513803]],[[-2.4604174,5.0519313],[-2.4696133,5.0371364],[-2.4500007,5.0329169],[-2.4604174,5.0519313]],[[-0.7961921,6.0518296],[-0.8108243,6.0446275],[-0.7916674,6.0412502],[-0.7961921,6.0518296]],[[-0.8378262,6.1085028],[-0.8444669,6.0868475],[-0.8250007,6.0829169],[-0.8378262,6.1085028]],[[-0.870004,6.276854],[-0.877491,6.2625515],[-0.8666674,6.2579169],[-0.870004,6.276854]],[[-2.5666674,7.4662502],[-2.6048672,7.4626044],[-2.6021329,7.4441799],[-2.5592292,7.420954],[-2.5666674,7.4662502]],[[-1.2159375,5.117723],[-1.200936,5.127656],[-1.1958893,5.144192]],[[-1.1958893,5.144192],[-1.2084947,5.1640212]],[[-1.2084947,5.1640212],[-1.2353567,5.1501839]],[[-1.2353567,5.1501839],[-1.2185479,5.1397958],[-1.2159375,5.117723]],[[-1.1640307,5.3528672],[-1.1787117,5.3387396],[-1.158334,5.3329169],[-1.1640307,5.3528672]],[[-1.3947761,7.0625311],[-1.4014981,7.0696519],[-1.4117357,7.0493557],[-1.4000007,7.0412502],[-1.3947761,7.0625311]],[[0.8130364,6.1376206],[0.7952467,6.1448798],[0.7797031,6.1156114],[0.8249993,6.1079169],[0.8130364,6.1376206]],[[-1.5486032,6.7239976],[-1.522933,6.7376763]],[[-1.522933,6.7376763],[-1.537224,6.7458685],[-1.5739759,6.7421225]],[[-1.5876806,6.7513803],[-1.5862637,6.7783636],[-1.604558,6.7708034],[-1.6230801,6.7601874],[-1.6500007,6.7629339],[-1.6628262,6.7616237],[-1.676726,6.7783636],[-1.6908419,6.7574817]],[[-1.6908419,6.7574817],[-1.6718689,6.7590137]],[[-1.6355725,6.840247],[-1.6440229,6.840909],[-1.6765305,6.8267568]],[[-1.6765305,6.8267568],[-1.6789395,6.8110907],[-1.6416674,6.7995835],[-1.6377286,6.8039862],[-1.6355725,6.840247]],[[-1.5116706,6.8601874],[-1.5191576,6.8458848],[-1.508334,6.8412502],[-1.5116706,6.8601874]],[[-2.2952644,7.345836],[-2.3419278,7.3630886],[-2.3591316,7.3609483],[-2.3452807,7.3373846],[-2.3465827,7.3268459],[-2.3000007,7.3079169],[-2.2952644,7.345836]],[[-2.1795255,7.4018296],[-2.1941576,7.3946275],[-2.1750007,7.3912502],[-2.1795255,7.4018296]],[[-0.4936457,5.7909798],[-0.4749264,5.7998409]],[[-0.4749264,5.7998409],[-0.4869799,5.8107163],[-0.4936457,5.7909798]],[[-0.6528002,5.871784],[-0.6731452,5.877383],[-0.6861335,5.8528957],[-0.6500007,5.8495835],[-0.6528002,5.871784]],[[-0.7520841,5.968598],[-0.76128,5.9538031],[-0.7416674,5.9495835],[-0.7520841,5.968598]],[[-0.3000007,5.5162502],[-0.2958333,5.5129337]],[[-0.2958333,5.5129337],[-0.2957569,5.5162502]],[[-0.2957569,5.5162502],[-0.3000007,5.5162502]],[[-0.346471,5.7408681],[-0.3643179,5.7421506]],[[-0.3643179,5.7421506],[-0.3656745,5.7292873],[-0.346471,5.7408681]],[[-0.3000007,5.5162502],[-0.2955596,5.5224457]],[[-0.2955596,5.5224457],[-0.2950226,5.5393095],[-0.2910807,5.5609179],[-0.2776438,5.5896878],[-0.2659976,5.6048484],[-0.2491504,5.6185918],[-0.2298596,5.6233468],[-0.2310218,5.631989],[-0.2068113,5.6480632],[-0.2041871,5.6604657],[-0.1919455,5.6618276],[-0.1873034,5.6666093],[-0.1693441,5.6653504],[-0.1595823,5.6592288],[-0.1509287,5.66153]],[[-0.1539739,5.7673855],[-0.1703783,5.7720729],[-0.1556973,5.7862006],[-0.1516646,5.7720775]],[[-0.1393491,5.7926436],[-0.1572924,5.7968003],[-0.1767389,5.7939296]],[[-0.1767389,5.7939296],[-0.1889658,5.7807245]],[[-0.1889658,5.7807245],[-0.2083341,5.7333889],[-0.2416674,5.7383164],[-0.2583341,5.7358506],[-0.2810066,5.7392035],[-0.3068055,5.7600509]],[[-0.3068055,5.7600509],[-0.3087804,5.7474279],[-0.3136753,5.7402806],[-0.3294753,5.7395777]],[[-0.3294753,5.7395777],[-0.3213712,5.7207302],[-0.3465014,5.6790757],[-0.3439949,5.6620835],[-0.3472989,5.6397121],[-0.3338549,5.5936387],[-0.3645841,5.552208],[-0.3890469,5.5558254],[-0.3868171,5.5708441],[-0.4028327,5.5831976],[-0.405456,5.5878848]],[[-0.405456,5.5878848],[-0.4044472,5.5030308],[-0.401702,5.4758677]],[[-0.401702,5.4758677],[-0.3849511,5.4825921],[-0.3691359,5.4948349],[-0.3349359,5.50529],[-0.3240834,5.5059077],[-0.3131192,5.5126939],[-0.3000007,5.5162502]],[[-0.4936457,5.7909798],[-0.4833341,5.7829169],[-0.4749264,5.7998409]],[[-1.8153638,4.8842274],[-1.8137908,4.8938899],[-1.8350216,4.905799]],[[-1.8350216,4.905799],[-1.8455248,4.8933091],[-1.8153638,4.8842274]],[[-1.6560751,6.8844107],[-1.641096,6.896884],[-1.6354866,6.9154859],[-1.6340677,6.9349388]],[[-1.6340677,6.9349388],[-1.6560751,6.8844107]],[[-1.6673347,6.9441026],[-1.6869636,6.9338161],[-1.6750007,6.9245835],[-1.6673347,6.9441026]],[[-0.8187507,5.543598],[-0.8279467,5.5288031],[-0.808334,5.5245835],[-0.8187507,5.543598]],[[-0.8461921,5.560163],[-0.8608243,5.5529608],[-0.8416674,5.5495835],[-0.8461921,5.560163]],[[-0.6818899,5.5026996],[-0.6799324,5.5295152],[-0.6549324,5.5467759],[-0.6633633,5.5563584],[-0.6857429,5.5513413],[-0.7118497,5.5683457],[-0.7235389,5.522785]],[[-0.7235389,5.522785],[-0.6958366,5.5050521],[-0.6818899,5.5026996]],[[-0.7811531,5.6195217],[-0.8039395,5.6085191],[-0.7750007,5.5995835],[-0.7811531,5.6195217]],[[-0.7211921,5.6434963],[-0.7358243,5.6362941],[-0.7166674,5.6329169],[-0.7211921,5.6434963]],[[-0.7461921,5.6518296],[-0.7608243,5.6446275],[-0.7416674,5.6412502],[-0.7461921,5.6518296]],[[0.0599254,6.1700666],[0.037955,6.1616237],[0.0010735,6.1510769],[-0.0111343,6.1221173]],[[0.0008482,6.114095],[0.0037102,6.1208767],[0.0239902,6.1486517],[0.0628736,6.1438177],[0.0707327,6.1604264]],[[-0.1378588,6.4018296],[-0.152491,6.3946275],[-0.1333341,6.3912502],[-0.1378588,6.4018296]],[[0.3135898,7.0042914],[0.2924472,7.0188828],[0.2799309,6.9873928],[0.3083326,6.9829169],[0.3135898,7.0042914]],[[-2.1281094,5.4458238],[-2.1338874,5.4529852],[-2.1534024,5.4297349],[-2.133334,5.4245835],[-2.1281094,5.4458238]],[[-2.0045255,5.5768296],[-2.0191576,5.5696275],[-2.0000007,5.5662502],[-2.0045255,5.5768296]],[[-1.5132115,6.6447874],[-1.505323,6.6465358],[-1.5030443,6.6688584],[-1.5182787,6.7093695],[-1.4875007,6.7125067],[-1.4581062,6.7095119],[-1.4378913,6.7263129],[-1.4527676,6.7318671],[-1.4991706,6.7271348],[-1.522933,6.7376763]],[[-2.6878588,5.060163],[-2.7024909,5.0529608],[-2.683334,5.0495835],[-2.6878588,5.060163]],[[-2.7648119,5.2957342],[-2.7730189,5.2975875],[-2.7756729,5.2909789],[-2.7866706,5.2849576],[-2.758334,5.2829169],[-2.7648119,5.2957342]],[[-2.5086847,6.7996453],[-2.5085206,6.8000198],[-2.5128588,6.810163],[-2.5274909,6.8029608],[-2.5086847,6.7996453]],[[-0.1767389,5.7939296],[-0.1840014,5.7928575],[-0.1889658,5.7807245]],[[-0.3068055,5.7600509],[-0.32767,5.776911],[-0.3369636,5.820954],[-0.3505216,5.8314195],[-0.3702969,5.8213405],[-0.3299649,5.766946],[-0.3488777,5.7523545],[-0.3630216,5.7544419],[-0.3643179,5.7421506]],[[-0.346471,5.7408681],[-0.3334154,5.7487412],[-0.3294753,5.7395777]],[[-2.4882657,6.1961818],[-2.4784024,6.2029852],[-2.4752286,6.2363186],[-2.501612,6.1981146],[-2.4916674,6.1912502],[-2.4882657,6.1961818]],[[-0.4363939,6.0377142],[-0.4520515,6.0529852],[-0.4617357,6.0301092],[-0.4416674,6.0162502],[-0.4363939,6.0377142]],[[-2.1628588,7.010163],[-2.1774909,7.0029608],[-2.158334,6.9995835],[-2.1628588,7.010163]],[[0.3467216,6.6893439],[0.3357577,6.7022325],[0.3223463,6.6796983],[0.3333326,6.6745835],[0.34256,6.6833325],[0.3467216,6.6893439]],[[0.368082,6.760875],[0.3546868,6.7690497],[0.3471998,6.7468817],[0.3583326,6.7412502],[0.368082,6.760875]],[[0.4999993,6.9745835],[0.4888014,6.9479071],[0.516231,6.9657745],[0.5215608,6.9711852],[0.4999993,6.9745835]],[[0.4999993,6.9745835],[0.4959954,6.9931789],[0.4803866,6.9853379],[0.4999993,6.9745835]],[[0.4555331,6.996784],[0.4368808,7.0062201],[0.4305331,6.9968573],[0.4583326,6.9829169],[0.4555331,6.996784]],[[0.5954745,7.1268296],[0.5808424,7.1196275],[0.5999993,7.1162502],[0.5954745,7.1268296]],[[0.4749505,7.1317165],[0.5071282,7.1500637],[0.4995924,7.1700669],[0.4797031,7.1814032],[0.4469719,7.1520005],[0.4557284,7.1287502],[0.447151,7.1059597],[0.4583326,7.0995835],[0.4749505,7.1317165]],[[0.5307122,7.217597],[0.514843,7.2022772],[0.5333326,7.1995835],[0.5307122,7.217597]],[[-0.6555212,5.3730865],[-0.6433275,5.33039],[-0.6344163,5.3269013],[-0.62314,5.3295021],[-0.620641,5.3377962],[-0.6087499,5.353714],[-0.600333,5.351728],[-0.5962898,5.3566107],[-0.6130704,5.3700384],[-0.6119799,5.3788112],[-0.6149974,5.3975479]],[[-0.6149974,5.3975479],[-0.6410096,5.3830905],[-0.6555212,5.3730865]],[[-0.4884572,5.3922686],[-0.4937507,5.4019313],[-0.5029467,5.3871364],[-0.4916105,5.3846975],[-0.4884572,5.3922686]],[[-0.405456,5.5878848],[-0.4166674,5.6079169],[-0.4343432,5.6008083],[-0.4644864,5.6194606],[-0.4614916,5.6020249],[-0.4736661,5.5571234],[-0.4952156,5.5281398],[-0.5214525,5.5210272],[-0.5285489,5.5114732],[-0.5452156,5.4990749],[-0.5377937,5.4859117],[-0.515642,5.4996242],[-0.4786303,5.5059922],[-0.4444669,5.492418],[-0.41811,5.4569788],[-0.401702,5.4758677]],[[-0.4937507,5.6602647],[-0.5029467,5.6454698],[-0.4833341,5.6412502],[-0.4937507,5.6602647]],[[-0.5416674,5.6745835],[-0.5416674,5.6912502],[-0.5666674,5.6912502],[-0.5666674,5.6745835],[-0.5416674,5.6745835]],[[-1.9132657,7.5775295],[-1.9225593,7.6029852],[-1.947071,7.5960476],[-1.966114,7.5668036],[-1.945183,7.5714951],[-1.9382657,7.5529852],[-1.9250007,7.5495835],[-1.9132657,7.5775295]],[[-0.3464289,6.1115562],[-0.3250007,6.1079169],[-0.3403165,6.1277655],[-0.350409,6.1164052],[-0.3464289,6.1115562]],[[-0.2683188,6.0382919],[-0.2597509,6.0512757],[-0.249821,6.0616531],[-0.2289704,6.0794605]],[[-0.2289704,6.0794605],[-0.2379564,6.0951483],[-0.2359382,6.1149359],[-0.2712247,6.136697],[-0.2908699,6.1603461],[-0.3204434,6.1749009],[-0.2944831,6.1295559],[-0.2966804,6.1079169],[-0.2962735,6.0868638],[-0.2792325,6.0414943],[-0.2683188,6.0382919]],[[-0.2833341,5.5162502],[-0.2957569,5.5162502]],[[-0.2958333,5.5129337],[-0.2833341,5.5162502]],[[-0.2833341,5.5162502],[-0.269263,5.5174422],[-0.2391889,5.5255799],[-0.2127819,5.5309448],[-0.2070639,5.5397062],[-0.1813509,5.5469089],[-0.1703261,5.5483198],[-0.1499041,5.5578089],[-0.1313019,5.56108],[-0.108583,5.571034],[-0.085182,5.5842118],[-0.0677354,5.5985011]],[[-0.2955596,5.5224457],[-0.2916674,5.5278754],[-0.2833341,5.5162502]],[[-0.1250007,5.9329169],[-0.1379402,5.9263698],[-0.1416674,5.9079169],[-0.1287279,5.9144639],[-0.1250007,5.9329169]],[[-0.1250007,5.9329169],[-0.1083341,5.9329169],[-0.1083341,5.9412502],[-0.1250007,5.9412502],[-0.1250007,5.9329169]],[[-0.0747403,5.9858303],[-0.104086,5.9698472],[-0.0916674,5.9579169],[-0.0747403,5.9858303]],[[-0.2683188,6.0382919],[-0.2500007,6.0329169],[-0.2462247,6.0458034],[-0.2214688,6.0663641],[-0.2289704,6.0794605]],[[-1.6636832,6.7192623],[-1.683334,6.7212673],[-1.7102546,6.7185207],[-1.7349779,6.7326849],[-1.7384284,6.6988267],[-1.7292813,6.6777533],[-1.7149421,6.6950303],[-1.7107266,6.6837266],[-1.71193,6.6719177]],[[-1.6908419,6.7574817],[-1.6636857,6.7197405]],[[0.4214837,6.5701727],[0.4195468,6.5832668],[0.3797031,6.5682115],[0.4166659,6.5579169],[0.4214837,6.5701727]],[[0.4954745,6.636815],[0.4964674,6.6491319],[0.4626946,6.6367336],[0.4461093,6.6380682],[0.4366366,6.6270697],[0.4378411,6.6120835],[0.4352857,6.580333],[0.4916659,6.5745835],[0.4955234,6.5873928],[0.5051425,6.5956854],[0.5038241,6.6120835],[0.5051425,6.6284816],[0.4954745,6.636815]],[[-1.0140307,5.3278672],[-1.0287117,5.3137396],[-1.008334,5.3079169],[-1.0140307,5.3278672]],[[-0.9666674,5.4162502],[-0.9916511,5.4120062],[-0.9746426,5.3876206],[-0.9666674,5.4162502]],[[-0.9666674,5.4162502],[-0.9357592,5.4200262],[-0.9463712,5.4282131],[-0.9588386,5.4443671],[-0.9666674,5.4162502]],[[-0.9604499,5.4641302],[-0.9937833,5.4644273],[-0.9815274,5.451732],[-0.958334,5.4495835],[-0.9604499,5.4641302]],[[-0.933334,5.4745835],[-0.9450365,5.4655544],[-0.9253588,5.4542873],[-0.933334,5.4745835]],[[-1.2353567,5.1501839],[-1.2442553,5.1456],[-1.2986661,5.1895168],[-1.3204271,5.2121771],[-1.3334968,5.2119086],[-1.3122566,5.1696682],[-1.3125821,5.1536729],[-1.307441,5.1436806]],[[-1.3041293,5.1265593],[-1.3044278,5.1116644],[-1.3109485,5.1117971]],[[-1.321146,5.0949498],[-1.301618,5.0961809],[-1.278211,5.0997281],[-1.2469829,5.100543],[-1.2295771,5.1118908],[-1.2159375,5.117723]],[[-1.3305183,5.2446438],[-1.3450691,5.2318711],[-1.3166674,5.2245835],[-1.3305183,5.2446438]],[[-1.1958893,5.144192],[-1.1955736,5.1706773],[-1.2084947,5.1640212]],[[-1.0500007,5.2162502],[-1.0638679,5.2134507],[-1.0778002,5.202383],[-1.0972012,5.1967841],[-1.1111335,5.1857163],[-1.1353523,5.1787258],[-1.1416674,5.1662502],[-1.1272707,5.168518],[-1.101264,5.1842031],[-1.092569,5.192522],[-1.0528551,5.1981267],[-1.0500007,5.2162502]],[[-1.0500007,5.2162502],[-1.0398445,5.2191026],[-1.0471524,5.2264105],[-1.0500007,5.2162502]],[[-1.0111335,5.2801174],[-1.0361335,5.2805161],[-1.0224128,5.2524278],[-1.008334,5.2495835],[-1.0111335,5.2801174]],[[-0.8864311,5.3171613],[-0.887205,5.3174998],[-0.8941576,5.3042181],[-0.883334,5.2995835],[-0.8864311,5.3171613]],[[0.5867343,5.9878485],[0.6195956,6.000141],[0.5982252,6.0148993],[0.5667148,5.9943874],[0.5833326,5.9829169],[0.5867343,5.9878485]],[[-1.208334,6.6245835],[-1.2357917,6.621015],[-1.2142423,6.6133734],[-1.208334,6.6245835]],[[1.1658961,6.1566529],[1.1737297,6.15303],[1.1700676,6.1170437],[1.127457,6.1330552],[1.1128899,6.1249009],[1.1383752,6.0804063],[1.1563529,6.0898938],[1.191781,6.1044168],[1.191649,6.1550188],[1.171183,6.154808],[1.1658961,6.1566529]],[[1.004996,6.1601874],[0.997509,6.1458848],[1.0083326,6.1412502],[1.004996,6.1601874]],[[1.0021803,6.2445217],[0.9793938,6.2335191],[1.0083326,6.2245835],[1.0021803,6.2445217]],[[-1.6295255,6.4684963],[-1.6441576,6.4612941],[-1.6250007,6.4579169],[-1.6295255,6.4684963]],[[-1.5712247,6.4458034],[-1.5550788,6.4592149],[-1.5784675,6.4700303],[-1.6037768,6.4496975],[-1.5750007,6.4412502],[-1.5712247,6.4458034]],[[-1.1533373,5.4685207],[-1.1608243,5.4542181],[-1.1500007,5.4495835],[-1.1533373,5.4685207]],[[-1.2621426,5.701496],[-1.2865893,5.7193508],[-1.2947761,5.6936102],[-1.258334,5.6745835],[-1.2621426,5.701496]],[[-1.3378588,5.8684963],[-1.3524909,5.8612941],[-1.333334,5.8579169],[-1.3378588,5.8684963]],[[-1.3613672,5.9334649],[-1.3626601,5.9332972],[-1.3691576,5.9208848],[-1.358334,5.9162502],[-1.3613672,5.9334649]],[[-1.6688718,5.0672592],[-1.6646541,5.0695415],[-1.6569365,5.0932788]],[[-1.6569365,5.0932788],[-1.6604825,5.0951076],[-1.6688718,5.0672592]],[[-1.6145515,5.1141302],[-1.5991544,5.1193833],[-1.6123054,5.1330105],[-1.6349942,5.1105861],[-1.6166674,5.1079169],[-1.6145515,5.1141302]],[[-0.5397143,6.1702785],[-0.5621589,6.177383],[-0.5694669,6.1535142],[-0.5500007,6.1495835],[-0.5397143,6.1702785]],[[-0.4628588,6.185163],[-0.477491,6.1779608],[-0.4583341,6.1745835],[-0.4628588,6.185163]],[[-0.4083341,6.2412502],[-0.4027351,6.2301825],[-0.3787279,6.2180365],[-0.3722012,6.1857163],[-0.3472012,6.1853176],[-0.3582364,6.2079169],[-0.3521329,6.2204169],[-0.3609382,6.2384385],[-0.4083341,6.2412502]],[[-0.4083341,6.2412502],[-0.4161954,6.2694891],[-0.4369636,6.2461127],[-0.4083341,6.2412502]],[[-0.7656257,5.7863063],[-0.7784024,5.7717759],[-0.758334,5.7579169],[-0.7656257,5.7863063]],[[-1.095004,5.7935207],[-1.1024909,5.7792181],[-1.0916674,5.7745835],[-1.095004,5.7935207]],[[-0.9628588,5.8518296],[-0.977491,5.8446275],[-0.958334,5.8412502],[-0.9628588,5.8518296]],[[-0.9817064,5.8446356],[-0.9976895,5.852383],[-1.0111335,5.8285142],[-0.9916674,5.8245835],[-0.9817064,5.8446356]],[[-0.8795255,5.910163],[-0.8941576,5.9029608],[-0.8750007,5.8995835],[-0.8795255,5.910163]],[[-1.0001798,5.8948391],[-0.9749193,5.9042873],[-0.9521003,5.9373562],[-0.9928067,5.9525905],[-1.0034024,5.9113186],[-1.0253588,5.9031073],[-1.0199714,5.8790432],[-0.9916674,5.8745835],[-1.0001798,5.8948391]],[[-2.8640307,7.2862005],[-2.8787116,7.2720729],[-2.858334,7.2662502],[-2.8640307,7.2862005]],[[-1.8153638,4.8842274],[-1.7809264,4.8738581],[-1.7596109,4.8743701],[-1.7483891,4.880177],[-1.747313,4.8953753],[-1.7423201,4.907598],[-1.741448,4.9175],[-1.7338959,4.9225988],[-1.709605,4.9323778],[-1.705557,4.9503508],[-1.692052,4.9593902],[-1.672109,4.9661551],[-1.65283,4.9678531],[-1.646413,4.9704142],[-1.6311319,4.9928098],[-1.6326081,5.0142112],[-1.62712,5.0193],[-1.6467781,5.0545681],[-1.6441902,5.0867051],[-1.6569365,5.0932788]],[[-1.6688718,5.0672592],[-1.6779304,5.0371893],[-1.7121915,5.0201076],[-1.7352383,5.0098212],[-1.7485196,4.9800441],[-1.7794766,4.9707261],[-1.7871915,4.9617743],[-1.81281,4.9457261],[-1.8216967,4.935403],[-1.820476,4.9201483],[-1.8350216,4.905799]],[[-2.0206713,7.0931789],[-2.03628,7.0853379],[-2.0166674,7.0745835],[-2.0206713,7.0931789]],[[-2.095004,7.1851874],[-2.1024909,7.1708848],[-2.0916674,7.1662502],[-2.095004,7.1851874]],[[-0.7545255,5.3434963],[-0.7691576,5.3362941],[-0.7500007,5.3329169],[-0.7545255,5.3434963]],[[-0.6166674,5.4079169],[-0.6617846,5.3950181],[-0.6555212,5.3730865]],[[-0.6149974,5.3975479],[-0.6166674,5.4079169]],[[-0.6166674,5.4079169],[-0.598796,5.4117627],[-0.5984269,5.4126084],[-0.6059089,5.4275336],[-0.6166674,5.4079169]],[[-0.7235389,5.522785],[-0.7240567,5.5207668],[-0.7617357,5.5110988],[-0.7520515,5.499555],[-0.7069669,5.5096625],[-0.6931973,5.4897243],[-0.6833341,5.4829169],[-0.6818899,5.5026996]],[[-1.6355725,6.840247],[-1.634864,6.8521633],[-1.5952481,6.8703395],[-1.6044278,6.8785386],[-1.6036465,6.8916937],[-1.636573,6.906806],[-1.5970548,6.9421128],[-1.6223477,6.9618475],[-1.6340677,6.9349388]],[[-1.6560751,6.8844107],[-1.6622728,6.8701809],[-1.6710619,6.8623195],[-1.6765305,6.8267568]],[[-1.6088874,6.9838202],[-1.6278002,6.9697577],[-1.6000007,6.9662502],[-1.6088874,6.9838202]],[[-1.4549161,6.9825913],[-1.4732755,6.9950303],[-1.4871101,6.9783636],[-1.5016934,6.9662543],[-1.5121101,6.9220648],[-1.4666674,6.9162502],[-1.4740079,6.9492539],[-1.4549161,6.9825913]],[[-1.4941576,6.9542181],[-1.4866706,6.9685207],[-1.483334,6.9495835],[-1.4941576,6.9542181]],[[-1.6294766,7.0524766],[-1.6531094,7.0368963],[-1.6250007,7.0329169],[-1.6294766,7.0524766]],[[-1.6403165,7.1527655],[-1.6536303,7.1377793],[-1.6250007,7.1329169],[-1.6403165,7.1527655]],[[-0.4753751,10.9423325],[-0.5031745,10.9368109],[-0.4833341,10.9245835],[-0.4753751,10.9423325]],[[0.002636,8.6612005],[-0.012045,8.6470729],[0.0083326,8.6412502],[0.002636,8.6612005]],[[0.0609693,8.8695339],[0.0462883,8.8554063],[0.0666659,8.8495835],[0.0609693,8.8695339]],[[-0.2128588,9.9268296],[-0.227491,9.9196275],[-0.2083341,9.9162502],[-0.2128588,9.9268296]],[[0.0137525,9.445836],[-0.0125821,9.4640204],[-0.0284024,9.4370957],[0.0083326,9.4329168],[0.0137525,9.445836]],[[-2.487045,10.0708766],[-2.5051765,10.0782904],[-2.537045,10.0479681],[-2.483334,10.0412502],[-2.487045,10.0708766]],[[-0.7955899,10.3688869],[-0.8114428,10.3457708],[-0.7916674,10.3412502],[-0.7955899,10.3688869]],[[-2.685043,10.5379014],[-2.7051439,10.5480658],[-2.7111335,10.5285142],[-2.6916674,10.5245835],[-2.685043,10.5379014]],[[-2.744112,10.9966907],[-2.7524909,10.9875514],[-2.7416674,10.9829168],[-2.744112,10.9966907]],[[0.1083326,10.5079168],[0.1083326,10.5245835],[0.0833326,10.5245835],[0.0833326,10.5079168],[0.1083326,10.5079168]],[[-0.3640307,10.5362005],[-0.3787117,10.5220729],[-0.3583341,10.5162502],[-0.3640307,10.5362005]],[[-1.0696459,10.8873317],[-1.0893887,10.9113185],[-1.1034024,10.8818711],[-1.0750007,10.8745835],[-1.0696459,10.8873317]],[[-1.1033373,10.9851873],[-1.1108243,10.9708848],[-1.1000007,10.9662502],[-1.1033373,10.9851873]],[[-0.8440274,10.7758937],[-0.8034024,10.7863185],[-0.796599,10.7944321],[-0.8299324,10.8029852],[-0.841407,10.8196152],[-0.8829923,10.8102891],[-0.8700691,10.7795151],[-0.8632657,10.7529852],[-0.858334,10.7495835],[-0.8440274,10.7758937]],[[-0.1737149,10.8687201],[-0.1950691,10.8485378],[-0.1666674,10.8412502],[-0.1737149,10.8687201]],[[-0.2163256,11.0674872],[-0.2512703,11.0735052],[-0.2698738,11.0434312],[-0.2540697,11.0461493],[-0.2333341,11.0412502],[-0.2163256,11.0674872]],[[-0.1206713,11.0931789],[-0.13628,11.0853379],[-0.1166674,11.0745835],[-0.1206713,11.0931789]],[[0.3833326,9.2829168],[0.3833326,9.2995835],[0.3583326,9.2995835],[0.3583326,9.2829168],[0.3833326,9.2829168]],[[-0.8056973,10.9195339],[-0.8203783,10.9054063],[-0.8000007,10.8995835],[-0.8056973,10.9195339]],[[-2.8766446,10.6463853],[-2.8940437,10.652383],[-2.9028002,10.6368475],[-2.883334,10.6329168],[-2.8766446,10.6463853]],[[-2.750668,10.8607692],[-2.7702969,10.8504828],[-2.758334,10.8412502],[-2.750668,10.8607692]],[[-0.8503895,9.5522561],[-0.8526212,9.567597],[-0.8684903,9.5522772],[-0.8520001,9.5498748],[-0.8503895,9.5522561]],[[-0.8166674,9.6079168],[-0.8166674,9.6329168],[-0.833334,9.6329168],[-0.833334,9.6079168],[-0.8166674,9.6079168]],[[-0.7964525,9.3710272],[-0.7863777,9.3785223],[-0.7964525,9.3948065],[-0.8035489,9.4293605],[-0.8207201,9.4421332],[-0.8285489,9.4710272],[-0.8895515,9.4864732],[-0.8799812,9.4309515],[-0.8978686,9.4020615],[-0.8783699,9.3875555],[-0.8814135,9.3698757],[-0.8000007,9.3662502],[-0.7964525,9.3710272]],[[-0.8461921,9.5434963],[-0.8608243,9.5362941],[-0.8416674,9.5329168],[-0.8461921,9.5434963]],[[0.2954745,10.1434963],[0.2808424,10.1362941],[0.2999993,10.1329168],[0.2954745,10.1434963]],[[-2.102084,7.7519313],[-2.11128,7.7371364],[-2.0916674,7.7329169],[-2.102084,7.7519313]],[[-0.9837898,7.7697007],[-0.9956062,7.7476101],[-0.9750007,7.7412502],[-0.9837898,7.7697007]],[[-0.6457677,8.2341705],[-0.6608243,8.2279608],[-0.6416674,8.2245835],[-0.6457677,8.2341705]],[[-1.7283373,8.0601874],[-1.7358243,8.0458848],[-1.7250007,8.0412502],[-1.7283373,8.0601874]],[[0.312662,8.5015122],[0.2970533,8.4936712],[0.3166659,8.4829169],[0.312662,8.5015122]]],"bbox":[-2.9028002,4.8738581,1.191781,11.0931789]}