{"type":"Topology","objects":{"foo":{"type":"GeometryCollection","geometries":[{"type":"Polygon","arcs":[[0]],"properties":{"name":"Administrative unit not available","gaul_code":16730,"targetarea":1.129169,"totpop":16343.9350929,"country_id":"GRD","targetpop":1997.65979,"new_mean":0.09011,"totalarea":54.5054445}},{"type":"Polygon","arcs":[[1]],"properties":{"name":"Administrative unit not available","gaul_code":16731,"targetarea":6.0890698,"totpop":25674.7218819,"country_id":"GRD","targetpop":7899.7820358,"new_mean":0.0898225,"totalarea":99.2858496}},{"type":"Polygon","arcs":[[2]],"properties":{"name":"Administrative unit not available","gaul_code":16732,"targetarea":10.0054156,"totpop":29659.2002926,"country_id":"GRD","targetpop":8962.5892334,"new_mean":0.0950711,"totalarea":65.2098712}}]}},"arcs":[[[-61.6961919,12.0268296],[-61.7108322,12.0196274],[-61.6916671,12.0162502],[-61.6961919,12.0268296]],[[-61.6064255,12.1307755],[-61.6086924,12.1360673],[-61.620435,12.1444281],[-61.6365076,12.1201442],[-61.6212952,12.1107691],[-61.6177902,12.1214066],[-61.6107492,12.1211254],[-61.6064255,12.1307755]],[[-61.74856,12.0363145],[-61.7300379,12.0495835],[-61.7534896,12.0663903],[-61.7520523,12.0516644],[-61.7488327,12.0424471],[-61.7668952,12.0240354],[-61.7751225,12.0040106],[-61.768076,12.0021525],[-61.762352,12.0059671],[-61.7548507,12.0044378],[-61.74856,12.0363145]]],"bbox":[-61.7751225,12.0021525,-61.6064255,12.1444281]}