{"type":"Topology","objects":{"foo":{"type":"GeometryCollection","geometries":[{"type":"MultiPolygon","arcs":[[[0,1]],[[2]]],"properties":{"name":"Mahaicony/berbice","gaul_code":17157,"targetarea":5.3238635,"totpop":43478.9759094,"country_id":"GUY","targetpop":7493.486145,"new_mean":0.0621665,"totalarea":1123.9441776}},{"type":"Polygon","arcs":[[3,-1]],"properties":{"name":"East Berbice/west Canje","gaul_code":17147,"targetarea":2.4323616,"totpop":19680.2323562,"country_id":"GUY","targetpop":5717.3883057,"new_mean":0.0680393,"totalarea":1150.149169}},{"type":"Polygon","arcs":[[4]],"properties":{"name":"East Canje/east Coast Berbice","gaul_code":17148,"targetarea":2.0523053,"totpop":36557.6762046,"country_id":"GUY","targetpop":6610.663208,"new_mean":0.0630428,"totalarea":360.9729017}},{"type":"MultiPolygon","arcs":[[[5,6]],[[7,8,9]],[[10,11,12]]],"properties":{"name":"Moblissa/la Reconnaissance","gaul_code":17145,"targetarea":65.5026589,"totpop":229917.997397,"country_id":"GUY","targetpop":161311.722054,"new_mean":0.0719243,"totalarea":880.4221632}},{"type":"Polygon","arcs":[[13]],"properties":{"name":"Mazaruni/left Bank Essequibo River","gaul_code":17143,"targetarea":2.4660056,"totpop":17704.0935857,"country_id":"GUY","targetpop":2072.8924904,"new_mean":0.064733,"totalarea":33315.4955253}},{"type":"Polygon","arcs":[[14,-12]],"properties":{"name":"Buxton/mahaica","gaul_code":17144,"targetarea":23.4283512,"totpop":60502.2369384,"country_id":"GUY","targetpop":29069.6374207,"new_mean":0.0727408,"totalarea":1120.1421186}},{"type":"MultiPolygon","arcs":[[[15]],[[-6,16]],[[17]],[[-9,18]],[[19,20]]],"properties":{"name":"Lower West Demerara River","gaul_code":17155,"targetarea":13.2703021,"totpop":61030.8599509,"country_id":"GUY","targetpop":17950.6356392,"new_mean":0.0693912,"totalarea":1238.0545106}},{"type":"MultiPolygon","arcs":[[[21]],[[-21,22]],[[23]]],"properties":{"name":"Bonasika/boerasirie","gaul_code":17153,"targetarea":13.1283538,"totpop":42990.405103,"country_id":"GUY","targetpop":15857.3249178,"new_mean":0.0683476,"totalarea":952.8756877}}]}},"arcs":[[[-57.513889,6.2307849],[-57.5151634,6.2453718],[-57.5201031,6.2609705]],[[-57.5201031,6.2609705],[-57.5281743,6.2316758],[-57.5166672,6.2245835],[-57.513889,6.2307849]],[[-57.5360204,6.2898314],[-57.5441655,6.2792181],[-57.5333338,6.2745835],[-57.5360204,6.2898314]],[[-57.513889,6.2307849],[-57.5052414,6.2500881],[-57.5201031,6.2609705]],[[-57.3526291,6.267597],[-57.3684901,6.2522772],[-57.3500005,6.2495835],[-57.3526291,6.267597]],[[-58.1870849,6.7388475],[-58.1781437,6.702881]],[[-58.1781437,6.702881],[-58.1634119,6.7088324],[-58.1800786,6.7195013],[-58.1833338,6.7412502],[-58.1870849,6.7388475]],[[-58.1750005,6.7995835],[-58.1789222,6.8132074]],[[-58.1789222,6.8132074],[-58.1841675,6.8019362]],[[-58.1841675,6.8019362],[-58.1750005,6.7995835]],[[-58.1750005,6.7995835],[-58.1712977,6.7782904],[-58.1186772,6.7708767],[-58.1045822,6.8043199],[-58.078036,6.805447],[-58.0621261,6.7855739],[-58.0458338,6.7876003],[-58.0324305,6.7859361],[-58.0271291,6.7793161]],[[-58.0271291,6.7793161],[-58.0203153,6.8041864]],[[-58.0203153,6.8041864],[-58.0556624,6.8190818],[-58.1031113,6.8204618],[-58.1341209,6.826437],[-58.14702,6.834831],[-58.156189,6.8284388],[-58.1613808,6.809854],[-58.1689522,6.8082495],[-58.1750005,6.7995835]],[[-58.6131385,6.4151338],[-58.6248863,6.4145002],[-58.6339332,6.4074902],[-58.6144901,6.401485],[-58.6131385,6.4151338]],[[-58.0271291,6.7793161],[-58.0067795,6.7539048],[-57.9738612,6.7444932],[-57.9440597,6.7269761],[-57.9450917,6.7352845],[-58,6.780869],[-58.0050902,6.7936659],[-58.0203153,6.8041864]],[[-58.2033371,6.7185207],[-58.2108322,6.7042181],[-58.2000005,6.6995835],[-58.2033371,6.7185207]],[[-58.1870849,6.7388475],[-58.1948003,6.7339056],[-58.1852788,6.6999986],[-58.1781437,6.702881]],[[-58.2033371,6.7601874],[-58.2108322,6.7458848],[-58.2000005,6.7412502],[-58.2033371,6.7601874]],[[-58.1789222,6.8132074],[-58.1937668,6.8234523],[-58.2117355,6.8090114],[-58.1841675,6.8019362]],[[-58.2706721,6.859496],[-58.2583338,6.8579169],[-58.2636479,6.8760321],[-58.2699412,6.8768643]],[[-58.2699412,6.8768643],[-58.2706721,6.859496]],[[-58.4201308,6.8647198],[-58.4343057,6.8520814],[-58.4166672,6.8495835],[-58.4201308,6.8647198]],[[-58.2699412,6.8768643],[-58.3287847,6.8846462],[-58.3035731,6.8637071],[-58.2706721,6.859496]],[[-58.3389816,6.8853054],[-58.3612065,6.8782049],[-58.3333338,6.8745835],[-58.3389816,6.8853054]]],"bbox":[-58.6339332,6.2245835,-57.3500005,6.8853054]}