{"type":"Topology","objects":{"foo":{"type":"GeometryCollection","geometries":[{"type":"Polygon","arcs":[[0]],"properties":{"name":"Morazan","gaul_code":17493,"targetarea":5.3716019,"totpop":45121.3111668,"country_id":"HND","targetpop":8429.6659546,"new_mean":0.1313944,"totalarea":507.2192574}},{"type":"Polygon","arcs":[[1]],"properties":{"name":"Villa De San Antonio","gaul_code":17262,"targetarea":1.0286429,"totpop":31064.8294723,"country_id":"HND","targetpop":2174.3319702,"new_mean":0.1183783,"totalarea":335.5207324}},{"type":"Polygon","arcs":[[2]],"properties":{"name":"San Esteban","gaul_code":17429,"targetarea":1.9562033,"totpop":29086.8825815,"country_id":"HND","targetpop":3901.6757812,"new_mean":0.1113638,"totalarea":1937.9982351}},{"type":"Polygon","arcs":[[3]],"properties":{"name":"Talanga","gaul_code":17322,"targetarea":6.1497154,"totpop":39914.5694027,"country_id":"HND","targetpop":10579.4998779,"new_mean":0.1153069,"totalarea":424.0661182}},{"type":"MultiPolygon","arcs":[[[4,5]],[[6,7]]],"properties":{"name":"La Lima","gaul_code":17287,"targetarea":19.4372003,"totpop":70116.9013844,"country_id":"HND","targetpop":51094.0447083,"new_mean":0.0992786,"totalarea":129.4114027}},{"type":"MultiPolygon","arcs":[[[8]],[[9,10]],[[11]],[[12]],[[13]]],"properties":{"name":"Distrito Central","gaul_code":17301,"targetarea":355.3741715,"totpop":1307047.32175,"country_id":"HND","targetpop":983289.726166,"new_mean":0.118511,"totalarea":1477.6692135}},{"type":"Polygon","arcs":[[14]],"properties":{"name":"Marcala","gaul_code":17356,"targetarea":2.2286541,"totpop":33087.0619364,"country_id":"HND","targetpop":3278.6318359,"new_mean":0.135648,"totalarea":212.0236926}},{"type":"Polygon","arcs":[[15,16,17]],"properties":{"name":"Quimistan","gaul_code":17469,"targetarea":2.9412801,"totpop":67337.3672566,"country_id":"HND","targetpop":5166.3736572,"new_mean":0.1241801,"totalarea":803.1622224}},{"type":"MultiPolygon","arcs":[[[18]],[[19]]],"properties":{"name":"La Libertad","gaul_code":17247,"targetarea":4.6914597,"totpop":36487.6253796,"country_id":"HND","targetpop":6408.7269898,"new_mean":0.1203763,"totalarea":300.7798104}},{"type":"Polygon","arcs":[[20]],"properties":{"name":"San Antonio","gaul_code":17276,"targetarea":1.1283723,"totpop":11965.1274714,"country_id":"HND","targetpop":1886.3031616,"new_mean":0.1099254,"totalarea":125.8644928}},{"type":"Polygon","arcs":[[21]],"properties":{"name":"El Porvenir","gaul_code":17210,"targetarea":1.6604007,"totpop":19067.3882788,"country_id":"HND","targetpop":4517.0003662,"new_mean":0.1534771,"totalarea":288.5552045}},{"type":"Polygon","arcs":[[22]],"properties":{"name":"Copan Ruinas","gaul_code":17265,"targetarea":2.2219628,"totpop":51859.2367935,"country_id":"HND","targetpop":3626.9915772,"new_mean":0.1216903,"totalarea":398.6554713}},{"type":"Polygon","arcs":[[23]],"properties":{"name":"Bonito Oriental","gaul_code":17233,"targetarea":1.9512912,"totpop":30634.6360457,"country_id":"HND","targetpop":3895.7584228,"new_mean":0.1168086,"totalarea":514.1878564}},{"type":"Polygon","arcs":[[24,25]],"properties":{"name":"Potrerillos","gaul_code":17290,"targetarea":4.2405413,"totpop":19936.2703726,"country_id":"HND","targetpop":13211.3847046,"new_mean":0.1159994,"totalarea":91.2899477}},{"type":"Polygon","arcs":[[26]],"properties":{"name":"Gracias","gaul_code":17372,"targetarea":6.8239286,"totpop":58279.2636728,"country_id":"HND","targetpop":13447.5578613,"new_mean":0.1207296,"totalarea":429.225377}},{"type":"MultiPolygon","arcs":[[[27]],[[28]],[[29]],[[30,31,32,33,-5,34,-7,35,36,37],[38],[39]]],"properties":{"name":"San Pedro Sula","gaul_code":17295,"targetarea":238.5959752,"totpop":859885.296068,"country_id":"HND","targetpop":748227.674988,"new_mean":0.1235836,"totalarea":913.5393925}},{"type":"Polygon","arcs":[[40]],"properties":{"name":"Santa Rosa De Copan","gaul_code":17283,"targetarea":17.8374326,"totpop":69977.2949848,"country_id":"HND","targetpop":22638.2770691,"new_mean":0.1156685,"totalarea":296.8413731}},{"type":"Polygon","arcs":[[41,42]],"properties":{"name":"Saba","gaul_code":17236,"targetarea":3.8825501,"totpop":30658.7523847,"country_id":"HND","targetpop":7706.060669,"new_mean":0.1347705,"totalarea":363.8229711}},{"type":"Polygon","arcs":[[43]],"properties":{"name":"Guaimaca","gaul_code":17303,"targetarea":4.9685919,"totpop":32752.4125353,"country_id":"HND","targetpop":6950.0662231,"new_mean":0.1083751,"totalarea":784.960561}},{"type":"Polygon","arcs":[[44]],"properties":{"name":"Sabanagrande","gaul_code":17313,"targetarea":1.1213039,"totpop":24010.9459381,"country_id":"HND","targetpop":2357.9411621,"new_mean":0.143948,"totalarea":247.0498229}},{"type":"MultiPolygon","arcs":[[[45,-11]],[[46]]],"properties":{"name":"Santa Lucia","gaul_code":17321,"targetarea":6.2567688,"totpop":28147.9486275,"country_id":"HND","targetpop":10980.5649414,"new_mean":0.1189075,"totalarea":58.8589168}},{"type":"MultiPolygon","arcs":[[[47]],[[48]],[[49]],[[50]]],"properties":{"name":"Puerto Cortes","gaul_code":17291,"targetarea":35.1731713,"totpop":123103.363335,"country_id":"HND","targetpop":79396.0297852,"new_mean":0.1354484,"totalarea":357.0745504}},{"type":"Polygon","arcs":[[51]],"properties":{"name":"Valle De Angeles","gaul_code":17324,"targetarea":2.2286542,"totpop":21489.9735852,"country_id":"HND","targetpop":3529.4805908,"new_mean":0.1133466,"totalarea":97.5988641}},{"type":"Polygon","arcs":[[52,53,-18]],"properties":{"name":"Macuelizo","gaul_code":17464,"targetarea":2.5910332,"totpop":46957.7338703,"country_id":"HND","targetpop":6328.7669678,"new_mean":0.1185909,"totalarea":407.8237881}},{"type":"MultiPolygon","arcs":[[[54]],[[55]]],"properties":{"name":"Tela","gaul_code":17215,"targetarea":14.392744,"totpop":96742.2847101,"country_id":"HND","targetpop":27435.4717407,"new_mean":0.139346,"totalarea":1217.9211329}},{"type":"Polygon","arcs":[[56]],"properties":{"name":"San Jose De Colimas","gaul_code":17471,"targetarea":1.1282863,"totpop":18468.3396177,"country_id":"HND","targetpop":1988.1373291,"new_mean":0.1222251,"totalarea":228.9738986}},{"type":"Polygon","arcs":[[57]],"properties":{"name":"El Negrito","gaul_code":17490,"targetarea":3.5363668,"totpop":46048.4329782,"country_id":"HND","targetpop":4518.836792,"new_mean":0.126568,"totalarea":498.9220811}},{"type":"MultiPolygon","arcs":[[[58]],[[59]]],"properties":{"name":"Tocoa","gaul_code":17240,"targetarea":18.314307,"totpop":110449.322762,"country_id":"HND","targetpop":55336.3058472,"new_mean":0.118603,"totalarea":895.0265908}},{"type":"Polygon","arcs":[[60]],"properties":{"name":"San Francisco De La Paz","gaul_code":17431,"targetarea":1.9158158,"totpop":19772.2597268,"country_id":"HND","targetpop":3476.4885254,"new_mean":0.1100376,"totalarea":506.8682682}},{"type":"Polygon","arcs":[[61]],"properties":{"name":"Siguatepeque","gaul_code":17260,"targetarea":20.7666373,"totpop":118366.207382,"country_id":"HND","targetpop":72347.9993896,"new_mean":0.1209438,"totalarea":377.3902446}},{"type":"Polygon","arcs":[[62]],"properties":{"name":"San Pedro De Tutule","gaul_code":17362,"targetarea":1.1322651,"totpop":7980.7947807,"country_id":"HND","targetpop":1945.9896851,"new_mean":0.1383133,"totalarea":47.3207193}},{"type":"Polygon","arcs":[[63]],"properties":{"name":"La Paz","gaul_code":17354,"targetarea":8.6048991,"totpop":44121.6587553,"country_id":"HND","targetpop":16509.5083008,"new_mean":0.1297833,"totalarea":218.917844}},{"type":"Polygon","arcs":[[64]],"properties":{"name":"San Juan De Flores","gaul_code":17317,"targetarea":1.3545989,"totpop":26966.0397362,"country_id":"HND","targetpop":1811.0209961,"new_mean":0.1192358,"totalarea":390.9848281}},{"type":"Polygon","arcs":[[65]],"properties":{"name":"Las Vegas","gaul_code":17463,"targetarea":6.2913388,"totpop":24396.1561274,"country_id":"HND","targetpop":9819.1065674,"new_mean":0.1298168,"totalarea":124.728187}},{"type":"Polygon","arcs":[[66]],"properties":{"name":"Marcovia","gaul_code":17222,"targetarea":2.2635174,"totpop":46290.9172602,"country_id":"HND","targetpop":3603.7160644,"new_mean":0.1411614,"totalarea":483.086439}},{"type":"Polygon","arcs":[[67]],"properties":{"name":"Santa Rita","gaul_code":17282,"targetarea":1.1161532,"totpop":34071.8468971,"country_id":"HND","targetpop":2610.3100586,"new_mean":0.1332688,"totalarea":306.8122372}},{"type":"Polygon","arcs":[[68]],"properties":{"name":"San Marcos De Colon","gaul_code":17230,"targetarea":4.9920762,"totpop":30769.9990438,"country_id":"HND","targetpop":7260.0686645,"new_mean":0.1313228,"totalarea":609.6789987}},{"type":"Polygon","arcs":[[69]],"properties":{"name":"Gualaco","gaul_code":17418,"targetarea":1.1283722,"totpop":24819.6800345,"country_id":"HND","targetpop":2041.3491821,"new_mean":0.1123241,"totalarea":2218.5303484}},{"type":"Polygon","arcs":[[70]],"properties":{"name":"Trinidad","gaul_code":17479,"targetarea":1.9134862,"totpop":26806.9953651,"country_id":"HND","targetpop":5303.3249512,"new_mean":0.1168642,"totalarea":206.0098559}},{"type":"MultiPolygon","arcs":[[[71]],[[72]]],"properties":{"name":"Catacamas","gaul_code":17413,"targetarea":18.4210663,"totpop":196292.869037,"country_id":"HND","targetpop":46086.4569092,"new_mean":0.1013912,"totalarea":8762.6384147}},{"type":"Polygon","arcs":[[73]],"properties":{"name":"San Francisco  De Yojoa","gaul_code":17293,"targetarea":3.6052173,"totpop":25337.123661,"country_id":"HND","targetpop":5238.9417114,"new_mean":0.1167742,"totalarea":85.2783892}},{"type":"MultiPolygon","arcs":[[[74]],[[75]]],"properties":{"name":"Trujillo","gaul_code":17241,"targetarea":4.2606991,"totpop":61327.2794548,"country_id":"HND","targetpop":6571.9330063,"new_mean":0.1247612,"totalarea":967.5257458}},{"type":"Polygon","arcs":[[76]],"properties":{"name":"El Paraiso","gaul_code":17270,"targetarea":1.9145104,"totpop":21546.3466721,"country_id":"HND","targetpop":2708.53302,"new_mean":0.1387096,"totalarea":266.1652919}},{"type":"Polygon","arcs":[[77]],"properties":{"name":"Santa Cruz De Yojoa","gaul_code":17296,"targetarea":6.0743423,"totpop":86345.4341168,"country_id":"HND","targetpop":10146.0932617,"new_mean":0.1136181,"totalarea":779.1694915}},{"type":"Polygon","arcs":[[78]],"properties":{"name":"El Paraiso","gaul_code":17437,"targetarea":8.6355901,"totpop":52529.215281,"country_id":"HND","targetpop":18785.3270874,"new_mean":0.1136895,"totalarea":388.8920119}},{"type":"MultiPolygon","arcs":[[[-17,79,-53]],[[80]]],"properties":{"name":"Azacualpa","gaul_code":17455,"targetarea":4.0979707,"totpop":27567.7934947,"country_id":"HND","targetpop":5616.5203247,"new_mean":0.1290107,"totalarea":214.8920889}},{"type":"Polygon","arcs":[[81]],"properties":{"name":"Omoa","gaul_code":17288,"targetarea":4.3019775,"totpop":46780.3011165,"country_id":"HND","targetpop":8288.4473267,"new_mean":0.1386186,"totalarea":383.8208128}},{"type":"Polygon","arcs":[[82]],"properties":{"name":"Santa Barbara","gaul_code":17477,"targetarea":9.1319206,"totpop":52107.3377056,"country_id":"HND","targetpop":15113.1368408,"new_mean":0.1172469,"totalarea":303.8629582}},{"type":"Polygon","arcs":[[83]],"properties":{"name":"Jose Santos Guardiola","gaul_code":17346,"targetarea":1.2304596,"totpop":6742.1740274,"country_id":"HND","targetpop":1162.2858276,"new_mean":0.1392196,"totalarea":71.0809876}},{"type":"MultiPolygon","arcs":[[[84]],[[85]]],"properties":{"name":"Juticalpa","gaul_code":17423,"targetarea":18.9237586,"totpop":151651.213968,"country_id":"HND","targetpop":64295.2601318,"new_mean":0.1011159,"totalarea":2677.9316467}},{"type":"MultiPolygon","arcs":[[[86]],[[87]]],"properties":{"name":"La Ceiba","gaul_code":17212,"targetarea":53.5794909,"totpop":215452.101406,"country_id":"HND","targetpop":187377.148529,"new_mean":0.144443,"totalarea":645.7592704}},{"type":"Polygon","arcs":[[88]],"properties":{"name":"Balfate","gaul_code":17232,"targetarea":1.2541269,"totpop":48638.013016,"country_id":"HND","targetpop":2180.2259522,"new_mean":0.1418256,"totalarea":920.9533989}},{"type":"Polygon","arcs":[[89]],"properties":{"name":"Roatan","gaul_code":17347,"targetarea":12.1100396,"totpop":28746.6999493,"country_id":"HND","targetpop":20957.3056641,"new_mean":0.1412064,"totalarea":89.221372}},{"type":"Polygon","arcs":[[90]],"properties":{"name":"Teupasenti","gaul_code":17448,"targetarea":1.9213238,"totpop":48226.5296559,"country_id":"HND","targetpop":3456.7409058,"new_mean":0.1082292,"totalarea":667.9882296}},{"type":"MultiPolygon","arcs":[[[91,92]],[[93]],[[94,95]],[[96,97]]],"properties":{"name":"San Manuel","gaul_code":17294,"targetarea":12.7699326,"totpop":56992.2346916,"country_id":"HND","targetpop":24233.2692871,"new_mean":0.1125135,"totalarea":134.47099}},{"type":"Polygon","arcs":[[98]],"properties":{"name":"El Triunfo","gaul_code":17221,"targetarea":1.9301565,"totpop":46122.9020023,"country_id":"HND","targetpop":3931.5300293,"new_mean":0.1256025,"totalarea":299.2201469}},{"type":"MultiPolygon","arcs":[[[99]],[[100]],[[101,-97]],[[102]]],"properties":{"name":"El Progreso","gaul_code":17491,"targetarea":51.9938543,"totpop":208077.106943,"country_id":"HND","targetpop":118101.238922,"new_mean":0.1239814,"totalarea":548.8361506}},{"type":"Polygon","arcs":[[103]],"properties":{"name":"San Lorenzo","gaul_code":17488,"targetarea":11.9307205,"totpop":44285.131361,"country_id":"HND","targetpop":20658.8790894,"new_mean":0.1536457,"totalarea":180.372717}},{"type":"Polygon","arcs":[[104]],"properties":{"name":"Comayagua","gaul_code":17243,"targetarea":42.3086282,"totpop":184279.60629,"country_id":"HND","targetpop":97696.0007324,"new_mean":0.1212852,"totalarea":791.4615177}},{"type":"Polygon","arcs":[[105,106]],"properties":{"name":"San Francisco Del Valle","gaul_code":17406,"targetarea":2.2855446,"totpop":17926.825758,"country_id":"HND","targetpop":2254.4243164,"new_mean":0.1382309,"totalarea":106.2435897}},{"type":"Polygon","arcs":[[107]],"properties":{"name":"Yoro","gaul_code":17499,"targetarea":7.4765244,"totpop":109112.666043,"country_id":"HND","targetpop":23189.4891357,"new_mean":0.1184614,"totalarea":2253.1784085}},{"type":"Polygon","arcs":[[108]],"properties":{"name":"Intibuca","gaul_code":17333,"targetarea":9.4732659,"totpop":71761.8954206,"country_id":"HND","targetpop":19838.0165405,"new_mean":0.1327647,"totalarea":518.7029621}},{"type":"Polygon","arcs":[[109]],"properties":{"name":"San Antonio De Cortes","gaul_code":17292,"targetarea":2.5016264,"totpop":25445.4528999,"country_id":"HND","targetpop":5623.3188477,"new_mean":0.1223813,"totalarea":219.9822872}},{"type":"MultiPolygon","arcs":[[[110]],[[111]],[[-43,112]]],"properties":{"name":"Olanchito","gaul_code":17494,"targetarea":16.3062238,"totpop":128673.157589,"country_id":"HND","targetpop":39560.4497681,"new_mean":0.1122962,"totalarea":2144.3231277}},{"type":"Polygon","arcs":[[113,114]],"properties":{"name":"Nueva Arcadia","gaul_code":17274,"targetarea":9.2940437,"totpop":47463.2619171,"country_id":"HND","targetpop":19060.0597534,"new_mean":0.0995055,"totalarea":155.8889191}},{"type":"Polygon","arcs":[[115,116]],"properties":{"name":"Santa Ana De Yusguare","gaul_code":17231,"targetarea":0.6965277,"totpop":15683.5979252,"country_id":"HND","targetpop":1015.5638428,"new_mean":0.1356381,"totalarea":74.292118}},{"type":"Polygon","arcs":[[117]],"properties":{"name":"Villa De San Francisco","gaul_code":17326,"targetarea":1.9467582,"totpop":11738.8528163,"country_id":"HND","targetpop":3254.6445923,"new_mean":0.1282971,"totalarea":88.3251177}},{"type":"MultiPolygon","arcs":[[[118]],[[119]]],"properties":{"name":"San Francisco","gaul_code":17214,"targetarea":3.7640423,"totpop":23240.6336532,"country_id":"HND","targetpop":9166.7331543,"new_mean":0.1420725,"totalarea":281.4530528}},{"type":"Polygon","arcs":[[120]],"properties":{"name":"Santa Rita","gaul_code":17495,"targetarea":4.2496133,"totpop":23712.0943143,"country_id":"HND","targetpop":10594.2635498,"new_mean":0.1159562,"totalarea":118.0293423}},{"type":"Polygon","arcs":[[121]],"properties":{"name":"Campamento","gaul_code":17412,"targetarea":3.6455912,"totpop":24360.9404726,"country_id":"HND","targetpop":6823.9254761,"new_mean":0.1051113,"totalarea":381.0791796}},{"type":"Polygon","arcs":[[122,123]],"properties":{"name":"Nueva Ocotepeque","gaul_code":17404,"targetarea":0.4804863,"totpop":9304.5036931,"country_id":"HND","targetpop":0,"new_mean":0.1342332,"totalarea":138.1563365}},{"type":"Polygon","arcs":[[124]],"properties":{"name":"San Marcos","gaul_code":17473,"targetarea":1.9525187,"totpop":14723.4542696,"country_id":"HND","targetpop":2545.7537231,"new_mean":0.1144322,"totalarea":222.227937}},{"type":"Polygon","arcs":[[125,-124]],"properties":{"name":"Sinuapa","gaul_code":17411,"targetarea":6.1475807,"totpop":25120.5402069,"country_id":"HND","targetpop":13092.6187744,"new_mean":0.1352532,"totalarea":127.4740762}},{"type":"MultiPolygon","arcs":[[[126,127,128,-93]],[[-33,129,-96,130]]],"properties":{"name":"Villanueva","gaul_code":17297,"targetarea":48.7093882,"totpop":190622.257151,"country_id":"HND","targetpop":144030.036987,"new_mean":0.1176657,"totalarea":347.7182963}},{"type":"MultiPolygon","arcs":[[[131]],[[132]]],"properties":{"name":"Nacaome","gaul_code":17486,"targetarea":6.6788606,"totpop":67052.7167525,"country_id":"HND","targetpop":12182.3291016,"new_mean":0.1499109,"totalarea":664.5937892}},{"type":"MultiPolygon","arcs":[[[133]],[[134,-31,135,-37,136]],[[137]],[[138]]],"properties":{"name":"Choloma","gaul_code":17286,"targetarea":81.7199545,"totpop":273964.903507,"country_id":"HND","targetpop":189667.654175,"new_mean":0.1211664,"totalarea":433.5061141}},{"type":"Polygon","arcs":[[139]],"properties":{"name":"Taulabe","gaul_code":17261,"targetarea":1.9173938,"totpop":27360.7277479,"country_id":"HND","targetpop":4108.1241455,"new_mean":0.1281715,"totalarea":219.1955569}},{"type":"Polygon","arcs":[[140,-107]],"properties":{"name":"San Marcos","gaul_code":17408,"targetarea":0.8769857,"totpop":17909.7225761,"country_id":"HND","targetpop":835.914917,"new_mean":0.1416677,"totalarea":169.4825779}},{"type":"Polygon","arcs":[[141]],"properties":{"name":"Sonaguera","gaul_code":17239,"targetarea":5.5610054,"totpop":49192.6213531,"country_id":"HND","targetpop":12047.5618896,"new_mean":0.1309136,"totalarea":446.6947131}},{"type":"Polygon","arcs":[[-117,142]],"properties":{"name":"Choluteca","gaul_code":17217,"targetarea":31.9436036,"totpop":165314.133295,"country_id":"HND","targetpop":41221.9968262,"new_mean":0.1389092,"totalarea":1082.8377658}},{"type":"Polygon","arcs":[[143]],"properties":{"name":"Danli","gaul_code":17436,"targetarea":20.9234022,"totpop":235576.522242,"country_id":"HND","targetpop":67407.5351257,"new_mean":0.1121729,"totalarea":2556.0423625}},{"type":"MultiPolygon","arcs":[[[144,-25]],[[-128,145]]],"properties":{"name":"Pimienta","gaul_code":17289,"targetarea":6.0533867,"totpop":24063.1925278,"country_id":"HND","targetpop":9167.7865601,"new_mean":0.1165789,"totalarea":58.5959855}},{"type":"MultiPolygon","arcs":[[[146]],[[147]]],"properties":{"name":"La Masica","gaul_code":17213,"targetarea":5.9270318,"totpop":29589.6909509,"country_id":"HND","targetpop":11458.7808838,"new_mean":0.1385294,"totalarea":466.7287939}},{"type":"Polygon","arcs":[[-114,148]],"properties":{"name":"La Jigua","gaul_code":17272,"targetarea":1.085351,"totpop":13727.296175,"country_id":"HND","targetpop":0,"new_mean":0.0971313,"totalarea":115.8599211}}]}},"arcs":[[[-87.5838057,15.3237331],[-87.6038171,15.3357163],[-87.6111332,15.3118475],[-87.591667,15.3079168],[-87.5838057,15.3237331]],[[-87.6471491,14.3353514],[-87.6333337,14.3329168],[-87.6378584,14.3434963],[-87.6482613,14.3383787],[-87.6471491,14.3353514]],[[-85.7687585,15.2269313],[-85.7779545,15.2121364],[-85.7583337,15.2079168],[-85.7687585,15.2269313]],[[-87.0647139,14.4119451],[-87.0871504,14.4190496],[-87.0944665,14.3951808],[-87.0750004,14.3912502],[-87.0647139,14.4119451]],[[-87.9453788,15.4405149],[-87.9500275,15.4481153],[-87.9593957,15.4388087]],[[-87.9593957,15.4388087],[-87.9453788,15.4405149]],[[-87.9110859,15.4694237],[-87.9060364,15.4582138],[-87.90934,15.4531627],[-87.9105222,15.4501981],[-87.9160156,15.4483538],[-87.9324951,15.4306269],[-87.9429321,15.4323339],[-87.9455427,15.4377592]],[[-87.9455427,15.4377592],[-87.9463789,15.4237005],[-87.9195094,15.4127674],[-87.9166201,15.4132912],[-87.875391,15.4356919],[-87.8960941,15.445193],[-87.895085,15.4620835],[-87.9110859,15.4694237]],[[-87.3311609,14.152855],[-87.353931,14.1418524],[-87.3250004,14.1329168],[-87.3311609,14.152855]],[[-87.1382896,14.1385272],[-87.1399011,14.1444159],[-87.1116133,14.1621364],[-87.1294763,14.1701076],[-87.1375004,14.1794215],[-87.151986,14.1626084],[-87.1711429,14.1540594],[-87.1823083,14.1411037],[-87.2060225,14.1942653],[-87.2228275,14.1566025],[-87.2708337,14.1527451],[-87.2954187,14.1547227],[-87.2962732,14.14407],[-87.2652266,14.1173162],[-87.2788822,14.0867254],[-87.3000004,14.0864121],[-87.3204187,14.088056],[-87.3218754,14.0699977],[-87.3111495,14.0708604],[-87.2916345,14.0482041],[-87.2631189,14.0322983],[-87.2368575,14.0205796],[-87.2564945,13.9928859],[-87.2124027,13.99643],[-87.2044763,13.9701076],[-87.191667,13.9662502],[-87.1813399,14.0005641],[-87.1627689,14.0221136],[-87.1308435,14.0195461],[-87.1104903,14.0370835],[-87.131405,14.055097],[-87.128697,14.0887767]],[[-87.128697,14.0887767],[-87.1363602,14.0933237],[-87.1377258,14.1035566],[-87.144165,14.121417],[-87.1382896,14.1385272]],[[-87.3833337,14.1995835],[-87.3890791,14.1831935],[-87.3375411,14.157453],[-87.2959965,14.173318],[-87.3376631,14.2119248],[-87.3602543,14.2363145],[-87.3803308,14.2452581],[-87.3956709,14.2110174],[-87.3833337,14.1995835],[-87.3752282,14.2113185],[-87.354932,14.2010768],[-87.3620528,14.1943548],[-87.3833337,14.1995835]],[[-87.241667,14.2495835],[-87.2456709,14.2681789],[-87.2612878,14.2603379],[-87.241667,14.2495835]],[[-87.3961918,14.2948797],[-87.4287846,14.2804144],[-87.391667,14.2495835],[-87.3961918,14.2948797]],[[-88.0307051,14.1695339],[-88.0453698,14.1554062],[-88.0250004,14.1495835],[-88.0307051,14.1695339]],[[-88.4911475,15.2922654],[-88.4907212,15.3014162]],[[-88.4907212,15.3014162],[-88.4933243,15.296504]],[[-88.4933243,15.296504],[-88.4911475,15.2922654]],[[-87.6057051,14.7695339],[-87.6203698,14.7554062],[-87.6000004,14.7495835],[-87.6057051,14.7695339]],[[-87.5825966,14.8939556],[-87.566667,14.8912502],[-87.5819828,14.9110988],[-87.5904897,14.9015233],[-87.5825966,14.8939556]],[[-88.8700036,15.0351873],[-88.8774987,15.0208848],[-88.866667,15.0162502],[-88.8700036,15.0351873]],[[-86.9056482,15.7186387],[-86.9278731,15.7115382],[-86.9000004,15.7079168],[-86.9056482,15.7186387]],[[-89.1557051,14.8528672],[-89.1703698,14.8387396],[-89.1500004,14.8329168],[-89.1557051,14.8528672]],[[-85.7354252,15.7602646],[-85.7446211,15.7454697],[-85.7250004,15.7412502],[-85.7354252,15.7602646]],[[-87.9530234,15.2378679],[-87.9747622,15.2387045]],[[-87.9747622,15.2387045],[-87.9784021,15.2301092],[-87.9583337,15.2162502],[-87.9530234,15.2378679]],[[-88.5665531,14.5930487],[-88.5833744,14.6110174],[-88.5947676,14.5791042],[-88.5750004,14.5745835],[-88.5665531,14.5930487]],[[-88.0583337,15.4079168],[-88.0572594,15.4018196],[-88.0550214,15.4064996],[-88.0583337,15.4079168]],[[-88.0583337,15.4079168],[-88.0616703,15.426854],[-88.0691654,15.4125514],[-88.0583337,15.4079168]],[[-88.0993917,15.4058651],[-88.0944502,15.4069077],[-88.0967045,15.4221339],[-88.1329024,15.4167873],[-88.1536299,15.4292873],[-88.1733239,15.4365464],[-88.1928715,15.3887843],[-88.1583337,15.3829168],[-88.1486413,15.3954738],[-88.1027878,15.4051485],[-88.0993917,15.4058651]],[[-87.9579825,15.5508327],[-87.969162,15.5481997],[-87.998433,15.5783466]],[[-87.998433,15.5783466],[-88.0197839,15.5770737],[-88.0292077,15.5876247],[-88.0520105,15.5517685],[-88.0622644,15.4897731],[-88.0363285,15.4526393],[-88.0377608,15.428563],[-88.0287218,15.4118633]],[[-88.0287218,15.4118633],[-88.0198364,15.4144058],[-88.0161362,15.4073277],[-88.002655,15.4060745],[-87.9966475,15.4109019]],[[-87.9966475,15.4109019],[-87.9955407,15.4294785],[-87.9789799,15.4284897],[-87.9593957,15.4388087]],[[-87.9453788,15.4405149],[-87.9455427,15.4377592]],[[-87.9110859,15.4694237],[-87.9205977,15.4873195],[-87.9380782,15.4953395],[-87.9200525,15.5114528],[-87.9203982,15.5402332]],[[-87.9203982,15.5402332],[-87.9516977,15.5514472]],[[-87.9516977,15.5514472],[-87.9583337,15.5495835],[-87.969084,15.5299668],[-87.9769291,15.5455837],[-87.9583337,15.5495835],[-87.9579825,15.5508327]],[[-87.9500004,15.5162502],[-87.9466231,15.5354152],[-87.9394209,15.520779],[-87.9500004,15.5162502]],[[-88.0024987,15.4446274],[-87.9878584,15.4518296],[-87.9833337,15.4412502],[-88.0024987,15.4446274]],[[-88.7544926,14.8053981],[-88.7836592,14.8030544],[-88.7955245,14.7582708],[-88.766667,14.7495835],[-88.7544926,14.8053981]],[[-86.2283079,15.5100408],[-86.216667,15.5079168],[-86.2218917,15.5365667],[-86.234976,15.5236198]],[[-86.234976,15.5236198],[-86.2283079,15.5100408]],[[-86.816667,14.5329168],[-86.816667,14.5579168],[-86.8333337,14.5579168],[-86.8333337,14.5329168],[-86.816667,14.5329168]],[[-87.2545251,13.8184963],[-87.2691654,13.8112941],[-87.2500004,13.8079168],[-87.2545251,13.8184963]],[[-87.128697,14.0887767],[-87.1277836,14.1001369],[-87.1382896,14.1385272]],[[-87.1128584,14.1434963],[-87.1274987,14.1362941],[-87.1083337,14.1329168],[-87.1128584,14.1434963]],[[-87.8584069,15.7615464],[-87.8363936,15.7697821],[-87.8444747,15.8029852],[-87.8766117,15.7564479],[-87.866667,15.7495835],[-87.8584069,15.7615464]],[[-87.8584883,15.8361476],[-87.8868168,15.8215643],[-87.866667,15.8162502],[-87.8584883,15.8361476]],[[-87.8950036,15.851854],[-87.9024987,15.8375514],[-87.891667,15.8329168],[-87.8950036,15.851854]],[[-87.9095544,15.8237941],[-87.9215156,15.8601561],[-87.9441528,15.862072],[-87.9560013,15.8597841],[-87.9662655,15.8459401],[-87.9372864,15.8329382],[-87.9344406,15.8219261],[-87.9452079,15.8109223],[-87.916667,15.8079168],[-87.9095544,15.8237941]],[[-87.0390385,14.1695339],[-87.0537032,14.1554062],[-87.0333337,14.1495835],[-87.0390385,14.1695339]],[[-88.4933243,15.296504],[-88.4984084,15.2989603]],[[-88.4984084,15.2989603],[-88.4911475,15.2922654]],[[-87.6557051,15.6112005],[-87.6703698,15.5970729],[-87.6500004,15.5912502],[-87.6557051,15.6112005]],[[-87.4182051,15.7871486],[-87.4377444,15.7944595],[-87.4513702,15.7779083],[-87.4755402,15.7740612],[-87.4974276,15.7816803],[-87.4936527,15.7648423],[-87.466667,15.7579168],[-87.4632653,15.7628485],[-87.4450687,15.7696518],[-87.4182051,15.7871486]],[[-88.303337,15.051854],[-88.3108321,15.0375514],[-88.3000004,15.0329168],[-88.303337,15.051854]],[[-87.6964034,15.3191392],[-87.7119633,15.3069158],[-87.691667,15.2912502],[-87.6964034,15.3191392]],[[-85.9750004,15.6412502],[-85.9750004,15.6745835],[-86.016667,15.6745835],[-86.016667,15.6412502],[-85.9750004,15.6412502]],[[-85.8795251,15.7434962],[-85.8941654,15.7362941],[-85.8750004,15.7329168],[-85.8795251,15.7434962]],[[-86.1790043,14.8848455],[-86.1946211,14.8770046],[-86.1750004,14.8662502],[-86.1790043,14.8848455]],[[-87.8548018,14.6085638],[-87.8700687,14.5862168],[-87.8333337,14.5662502],[-87.829932,14.5711818],[-87.8021081,14.5903916],[-87.8060551,14.6079982],[-87.829167,14.6028143],[-87.8548018,14.6085638]],[[-87.853337,14.2601873],[-87.8608321,14.2458848],[-87.8500004,14.2412502],[-87.853337,14.2601873]],[[-87.6561609,14.3290513],[-87.6871911,14.3357163],[-87.6944665,14.3114243],[-87.666667,14.3079168],[-87.6561609,14.3290513]],[[-87.0211918,14.2684963],[-87.0358321,14.2612941],[-87.016667,14.2579168],[-87.0211918,14.2684963]],[[-88.0712976,14.8625433],[-88.0549239,14.8756577],[-88.0768803,14.8866237],[-88.0870365,14.859223],[-88.0750004,14.8495835],[-88.0712976,14.8625433]],[[-87.2878584,13.3018296],[-87.3024987,13.2946274],[-87.2833337,13.2912502],[-87.2878584,13.3018296]],[[-89.0878584,14.8768296],[-89.1024987,14.8696274],[-89.0833337,14.8662502],[-89.0878584,14.8768296]],[[-86.791667,13.4245835],[-86.791667,13.4412502],[-86.816667,13.4412502],[-86.816667,13.4245835],[-86.791667,13.4245835]],[[-86.0700036,15.0351873],[-86.0774987,15.0208848],[-86.066667,15.0162502],[-86.0700036,15.0351873]],[[-88.2290043,15.1515122],[-88.2446211,15.1436712],[-88.2250004,15.1329168],[-88.2290043,15.1515122]],[[-85.9950036,14.0935207],[-86.0024987,14.0792181],[-85.991667,14.0745835],[-85.9950036,14.0935207]],[[-85.8800785,14.8296657],[-85.8655114,14.8389878],[-85.8740564,14.8693752],[-85.903459,14.861111],[-85.9115889,14.8288071],[-85.8833337,14.8245835],[-85.8800785,14.8296657]],[[-87.9926942,15.0437959],[-87.9944665,15.0385483],[-87.9833337,15.0329168],[-87.9770267,15.0456081],[-87.98944,15.0534311],[-87.9926942,15.0437959]],[[-85.9339597,15.9258749],[-85.9489212,15.9187756],[-85.9615021,15.9172649],[-85.9698246,15.9122422],[-85.941667,15.9079168],[-85.9339597,15.9258749]],[[-85.9628584,16.0101629],[-85.9749653,16.0042071],[-85.9583337,15.9995835],[-85.9628584,16.0101629]],[[-88.9790043,15.0348455],[-88.9946211,15.0270046],[-88.9750004,15.0162502],[-88.9790043,15.0348455]],[[-87.8781905,14.9871852],[-87.8832767,15.0029852],[-87.9034021,14.9801092],[-87.8833337,14.9662502],[-87.8781905,14.9871852]],[[-86.5452966,13.8792873],[-86.5555342,13.8865464],[-86.5702966,13.855862],[-86.5333337,13.8495835],[-86.5452966,13.8792873]],[[-88.4907212,15.3014162],[-88.4984084,15.2989603]],[[-88.5464034,15.3524725],[-88.5619633,15.3402492],[-88.541667,15.3245835],[-88.5464034,15.3524725]],[[-88.0268837,15.7816507],[-88.0482736,15.779183],[-88.0433191,15.7698268],[-88.0250004,15.7662502],[-88.0268837,15.7816507]],[[-88.2520819,14.9199299],[-88.2534834,14.9154323],[-88.2250004,14.9079168],[-88.2285811,14.9300604],[-88.2391605,14.9613958],[-88.2513753,14.9221974],[-88.2520819,14.9199299]],[[-86.3454895,16.3962212],[-86.3489506,16.4113063],[-86.358547,16.4003996],[-86.3454895,16.3962212]],[[-86.1951338,14.6708848],[-86.2329512,14.6863633],[-86.2452966,14.6489447],[-86.2000004,14.6412502],[-86.1951338,14.6708848]],[[-86.0950036,14.751854],[-86.1024987,14.7375514],[-86.091667,14.7329168],[-86.0950036,14.751854]],[[-86.9030344,15.7386985],[-86.8833337,15.7329168],[-86.8902213,15.7563861],[-86.8988679,15.7542279],[-86.9032722,15.7405141],[-86.9030344,15.7386985]],[[-86.7767868,15.7928123],[-86.7846069,15.7923889],[-86.7957993,15.7793646],[-86.8188324,15.7677689],[-86.8411255,15.7614441],[-86.8782553,15.7580478],[-86.8702966,15.7373398],[-86.8250004,15.7329168],[-86.8069502,15.7554591],[-86.7791589,15.7447739],[-86.7212976,15.7677557],[-86.7462976,15.7782904],[-86.750464,15.7881844],[-86.7767868,15.7928123]],[[-86.5045251,15.7518296],[-86.5191654,15.7446274],[-86.5000004,15.7412502],[-86.5045251,15.7518296]],[[-86.5237797,16.3327866],[-86.5693038,16.3384466],[-86.5869226,16.3084621],[-86.5539229,16.3211492],[-86.5495443,16.3156795],[-86.5286179,16.3242493],[-86.5237797,16.3327866]],[[-86.7123376,14.2348455],[-86.7279545,14.2270046],[-86.7083337,14.2162502],[-86.7123376,14.2348455]],[[-87.9509499,15.3118887],[-87.9443607,15.3200221],[-87.9115075,15.3277614],[-87.9051599,15.3432643],[-87.929167,15.3357855],[-87.941667,15.3396795],[-87.9568573,15.3349474]],[[-87.9568573,15.3349474],[-87.9509499,15.3118887]],[[-87.8839929,15.3857692],[-87.9036299,15.3754827],[-87.891667,15.3662502],[-87.8839929,15.3857692]],[[-87.9600621,15.3919297],[-87.954403,15.404979],[-87.9695434,15.4040761]],[[-87.9695434,15.4040761],[-87.9600621,15.3919297]],[[-87.8274327,15.387866],[-87.8248138,15.3908844],[-87.8256285,15.4074295]],[[-87.8256285,15.4074295],[-87.8298425,15.4041774],[-87.8274327,15.387866]],[[-86.9873376,13.1265122],[-87.0029545,13.1186712],[-86.9833337,13.1079168],[-86.9873376,13.1265122]],[[-87.866667,15.2329168],[-87.866667,15.2579168],[-87.8833337,15.2579168],[-87.8833337,15.2329168],[-87.866667,15.2329168]],[[-87.841667,15.2995835],[-87.8333337,15.2995835],[-87.8333337,15.3079168],[-87.841667,15.3079168],[-87.841667,15.2995835]],[[-87.8274327,15.387866],[-87.8266036,15.3822536],[-87.8119633,15.3709539],[-87.8047041,15.3615464],[-87.791667,15.3579168],[-87.7745284,15.4015163],[-87.7798181,15.4373276],[-87.767489,15.4686916],[-87.7793054,15.478213],[-87.813835,15.4165309],[-87.8256285,15.4074295]],[[-87.7021224,15.5070486],[-87.7035008,15.5092809],[-87.7202966,15.5004827],[-87.7083337,15.4912502],[-87.7021224,15.5070486]],[[-87.4222009,13.4356187],[-87.4545332,13.4519761],[-87.4611332,13.4177638],[-87.4457996,13.4100073],[-87.4277998,13.4190496],[-87.4222009,13.4356187]],[[-87.6165708,14.3663897],[-87.6034021,14.3779852],[-87.5965987,14.391478],[-87.620028,14.4076605],[-87.608822,14.4576605],[-87.6474939,14.4843573],[-87.6770674,14.4650986],[-87.6547041,14.4496567],[-87.6465987,14.4279852],[-87.6228194,14.4115667],[-87.6412683,14.3832342],[-87.6168605,14.3663837],[-87.6165708,14.3663897]],[[-88.9448756,14.4099696],[-88.9504561,14.428034],[-88.9622644,14.4059434],[-88.9565281,14.4041722]],[[-88.9565281,14.4041722],[-88.9448756,14.4099696]],[[-87.116667,15.1245835],[-87.116667,15.1495835],[-87.141667,15.1495835],[-87.141667,15.1245835],[-87.116667,15.1245835]],[[-88.1496097,14.3203477],[-88.1844567,14.3279852],[-88.1950687,14.3090114],[-88.1583337,14.2995835],[-88.1496097,14.3203477]],[[-88.0359623,15.1259303],[-88.0518233,15.1106105],[-88.0333337,15.1079168],[-88.0359623,15.1259303]],[[-86.6556482,15.4603053],[-86.6778731,15.4532049],[-86.6500004,15.4495835],[-86.6556482,15.4603053]],[[-86.5574467,15.4952703],[-86.5938643,15.5029852],[-86.5865645,15.4704087],[-86.5500004,15.4662502],[-86.5574467,15.4952703]],[[-86.234976,15.5236198],[-86.2455245,15.5131821],[-86.2283079,15.5100408]],[[-88.7499411,15.07647],[-88.762147,15.0618416]],[[-88.762147,15.0618416],[-88.7616459,15.0555975],[-88.741667,15.0495835],[-88.7163603,15.0940915],[-88.7172379,15.0942207],[-88.7188007,15.0933489],[-88.7204584,15.0924242],[-88.7247935,15.0900058],[-88.7266435,15.0889737],[-88.7316014,15.0862079],[-88.736531,15.083458],[-88.7499411,15.07647]],[[-87.1371211,13.3090817],[-87.1284021,13.3113185],[-87.1282523,13.3218214]],[[-87.1282523,13.3218214],[-87.1371211,13.3090817]],[[-86.952629,14.1842637],[-86.96849,14.1689438],[-86.9500004,14.1662502],[-86.952629,14.1842637]],[[-87.052629,15.6509303],[-87.06849,15.6356105],[-87.0500004,15.6329168],[-87.052629,15.6509303]],[[-87.0378584,15.6768296],[-87.0524987,15.6696274],[-87.0333337,15.6662502],[-87.0378584,15.6768296]],[[-87.8726144,15.2126138],[-87.8807323,15.212506],[-87.8952966,15.1961126],[-87.866667,15.1912502],[-87.8726144,15.2126138]],[[-86.6516361,14.5547186],[-86.6690433,14.5607163],[-86.6777999,14.5451808],[-86.6583337,14.5412502],[-86.6516361,14.5547186]],[[-89.1865109,14.4245835],[-89.166667,14.4245835],[-89.166667,14.4283092]],[[-89.166667,14.4283092],[-89.1865109,14.4245835]],[[-88.4108927,15.3095125],[-88.4196211,15.2954697],[-88.4000004,15.2912502],[-88.4101181,15.3097046],[-88.4108927,15.3095125]],[[-89.166667,14.4283092],[-89.166667,14.4412502],[-89.2000004,14.4412502],[-89.2000004,14.4245835],[-89.1865109,14.4245835]],[[-87.9568573,15.3349474],[-87.9625004,15.3331894],[-87.979167,15.3383815],[-88.0050053,15.330333],[-88.0115075,15.3049261],[-87.9865075,15.2964056],[-87.983343,15.2871169]],[[-87.983343,15.2871169],[-87.9772339,15.2826176],[-87.9644982,15.2868565]],[[-87.9644982,15.2868565],[-87.9634932,15.2964056],[-87.9509499,15.3118887]],[[-88.0287218,15.4118633],[-88.0210697,15.3951808],[-88.0078617,15.3833848],[-87.9881758,15.3613511],[-87.9687422,15.3719142],[-87.9600621,15.3919297]],[[-87.9695434,15.4040761],[-87.9970544,15.4040716],[-87.9966475,15.4109019]],[[-87.5000004,13.5412502],[-87.5189375,13.5379136],[-87.504639,13.5304185],[-87.5000004,13.5412502]],[[-87.5000004,13.5412502],[-87.4790612,13.5361069],[-87.4632653,13.5411973],[-87.4861413,13.5613185],[-87.5000004,13.5412502]],[[-87.9833337,15.6329168],[-87.9890385,15.6528672],[-88.0037032,15.6387396],[-87.9833337,15.6329168]],[[-87.9833337,15.6329168],[-87.979403,15.6035142],[-87.9705977,15.5956528],[-87.9627364,15.5775213],[-87.998433,15.5783466]],[[-87.9579825,15.5508327],[-87.9516977,15.5514472]],[[-87.9203982,15.5402332],[-87.9215824,15.5620835],[-87.9200525,15.6127142],[-87.9440026,15.6341172],[-87.9214196,15.6756821],[-87.9468265,15.6868475],[-87.9622644,15.6368475],[-87.9833337,15.6329168]],[[-87.9150313,15.7113022],[-87.9310144,15.7190496],[-87.9444665,15.6951808],[-87.9250004,15.6912502],[-87.9150313,15.7113022]],[[-87.8817212,15.7482623],[-87.8851668,15.7483486],[-87.9117354,15.7297349],[-87.891667,15.7245835],[-87.8817212,15.7482623]],[[-87.9623376,14.7015122],[-87.9779545,14.6936712],[-87.9583337,14.6829168],[-87.9623376,14.7015122]],[[-88.9565281,14.4041722],[-88.941667,14.3995835],[-88.9448756,14.4099696]],[[-86.2691166,15.6356064],[-86.2867354,15.6120957],[-86.2500004,15.6079168],[-86.2691166,15.6356064]],[[-87.1282523,13.3218214],[-87.127808,13.3529852],[-87.1450687,13.3279852],[-87.1825443,13.3183701],[-87.2058109,13.3235866],[-87.2014896,13.3043076],[-87.2135583,13.2959743],[-87.2096439,13.2785223],[-87.1750004,13.2745835],[-87.168197,13.3011094],[-87.1371211,13.3090817]],[[-86.5438236,14.0448187],[-86.5585453,14.0561794],[-86.5854821,14.0521999],[-86.598975,14.0192327],[-86.5583337,14.0079168],[-86.5438236,14.0448187]],[[-87.9530234,15.2378679],[-87.9515629,15.2438136],[-87.9651859,15.2613185],[-87.9747622,15.2387045]],[[-87.983343,15.2871169],[-87.9787764,15.2737127],[-87.966667,15.2662502],[-87.9644982,15.2868565]],[[-87.191667,15.5912502],[-87.191667,15.6079168],[-87.216667,15.6079168],[-87.216667,15.5912502],[-87.191667,15.5912502]],[[-87.1009839,15.6251017],[-87.1060671,15.6449833],[-87.1112064,15.6304876],[-87.1009839,15.6251017]],[[-88.7499411,15.07647],[-88.7628584,15.0707057],[-88.762147,15.0618416]]],"bbox":[-89.2000004,13.1079168,-85.7250004,16.4113063]}