{"type":"Topology","objects":{"foo":{"type":"GeometryCollection","geometries":[{"type":"Polygon","arcs":[[0]],"properties":{"name":"Administrative unit not available","gaul_code":25278,"targetarea":3.2445422,"totpop":16757.1341619,"country_id":"KNA","targetpop":4690.4121094,"new_mean":0.0679297,"totalarea":40.6676834}},{"type":"Polygon","arcs":[[1]],"properties":{"name":"Administrative unit not available","gaul_code":25285,"targetarea":1.0305705,"totpop":2509.5037231,"country_id":"KNA","targetpop":1648.4997559,"new_mean":0,"totalarea":3.4271477}}]}},"arcs":[[[-62.7167078,17.3077988],[-62.7439132,17.2945135],[-62.725113,17.2927891],[-62.715744,17.2926197],[-62.7083338,17.2912501],[-62.7167078,17.3077988]],[[-62.6202404,17.1412717],[-62.6250144,17.1416158],[-62.6343511,17.1370227],[-62.6342099,17.1360082],[-62.6178447,17.1331243],[-62.6169025,17.1334672],[-62.6202404,17.1412717]]],"bbox":[-62.7439132,17.1331243,-62.6169025,17.3077988]}