{"type":"Topology","objects":{"foo":{"type":"GeometryCollection","geometries":[{"type":"MultiPolygon","arcs":[[[0]],[[1]],[[2]],[[3]],[[4]]],"properties":{"name":"Sanasomboon","gaul_code":18656,"targetarea":4.7665476,"totpop":73478.6970696,"country_id":"LAO","targetpop":9346.9017334,"new_mean":0.216,"totalarea":904.144727}},{"type":"Polygon","arcs":[[5]],"properties":{"name":"Nhommalath","gaul_code":18672,"targetarea":1.1143998,"totpop":39215.9011034,"country_id":"LAO","targetpop":2547.8769531,"new_mean":0.0771228,"totalarea":1508.0667616}},{"type":"MultiPolygon","arcs":[[[6]],[[7]]],"properties":{"name":"Thateng","gaul_code":18736,"targetarea":3.3501033,"totpop":62035.6322262,"country_id":"LAO","targetpop":7949.1398926,"new_mean":0.1743391,"totalarea":550.9899282}},{"type":"Polygon","arcs":[[8]],"properties":{"name":"Samuoi","gaul_code":18706,"targetarea":0.561902,"totpop":18283.0457678,"country_id":"LAO","targetpop":871.9284058,"new_mean":0.0994781,"totalarea":492.2885073}},{"type":"Polygon","arcs":[[9]],"properties":{"name":"Xaysetha","gaul_code":18636,"targetarea":0.5658857,"totpop":48700.7357704,"country_id":"LAO","targetpop":895.8574219,"new_mean":0.1643424,"totalarea":1391.8832335}},{"type":"Polygon","arcs":[[10]],"properties":{"name":"Khongxedone","gaul_code":18703,"targetarea":0.5638628,"totpop":65351.096147,"country_id":"LAO","targetpop":2108.9609375,"new_mean":0.1618433,"totalarea":790.238877}},{"type":"MultiPolygon","arcs":[[[11]],[[12]],[[13]]],"properties":{"name":"Songkhone","gaul_code":74332,"targetarea":2.9271147,"totpop":100730.477986,"country_id":"LAO","targetpop":5533.0177612,"new_mean":0.081,"totalarea":1622.6292861}},{"type":"Polygon","arcs":[[14]],"properties":{"name":"Vangvieng","gaul_code":74338,"targetarea":2.2237247,"totpop":54509.5924301,"country_id":"LAO","targetpop":4684.5083008,"new_mean":0.1135708,"totalarea":1456.6824221}},{"type":"MultiPolygon","arcs":[[[15]],[[16]]],"properties":{"name":"Namtha","gaul_code":18686,"targetarea":8.6519471,"totpop":64312.6153103,"country_id":"LAO","targetpop":17484.2127075,"new_mean":0.0880854,"totalarea":2299.2648211}},{"type":"MultiPolygon","arcs":[[[17,18,19]],[[20]],[[21]],[[22]],[[23]],[[24]],[[25,26]],[[27]],[[28]]],"properties":{"name":"Naxaithong","gaul_code":18739,"targetarea":11.9841699,"totpop":103680.050128,"country_id":"LAO","targetpop":27359.1466064,"new_mean":0.0885381,"totalarea":903.3729356}},{"type":"MultiPolygon","arcs":[[[29]],[[30]]],"properties":{"name":"Nambak","gaul_code":18675,"targetarea":3.9519205,"totpop":85413.1531968,"country_id":"LAO","targetpop":7372.5586548,"new_mean":0.09099,"totalarea":2082.5874396}},{"type":"MultiPolygon","arcs":[[[31]],[[32]]],"properties":{"name":"Xayphoothong","gaul_code":74339,"targetarea":1.1233602,"totpop":48605.7435892,"country_id":"LAO","targetpop":1982.4417725,"new_mean":0.081,"totalarea":480.1059719}},{"type":"MultiPolygon","arcs":[[[33]],[[34]]],"properties":{"name":"Sepone","gaul_code":18718,"targetarea":1.6678641,"totpop":60120.6136249,"country_id":"LAO","targetpop":3638.9375,"new_mean":0.081,"totalarea":2271.7392426}},{"type":"Polygon","arcs":[[35]],"properties":{"name":"Lao Ngarm","gaul_code":18705,"targetarea":2.2168167,"totpop":91455.5426081,"country_id":"LAO","targetpop":3963.210083,"new_mean":0.1722738,"totalarea":901.1926681}},{"type":"Polygon","arcs":[[36]],"properties":{"name":"Thaphalanxay","gaul_code":74335,"targetarea":0.5608654,"totpop":41476.1829858,"country_id":"LAO","targetpop":884.2835693,"new_mean":0.081,"totalarea":932.3654928}},{"type":"Polygon","arcs":[[37]],"properties":{"name":"Vapy","gaul_code":18710,"targetarea":0.5635495,"totpop":43663.3625237,"country_id":"LAO","targetpop":1351.4620361,"new_mean":0.1347505,"totalarea":942.084792}},{"type":"MultiPolygon","arcs":[[[38]],[[39]]],"properties":{"name":"Lamarm","gaul_code":18735,"targetarea":6.0008705,"totpop":49844.6326091,"country_id":"LAO","targetpop":11772.2663574,"new_mean":0.1494242,"totalarea":1867.1708923}},{"type":"MultiPolygon","arcs":[[[40]],[[41]]],"properties":{"name":"Samakkhixay","gaul_code":18633,"targetarea":7.766323,"totpop":49445.4650431,"country_id":"LAO","targetpop":19574.5192261,"new_mean":0.1685039,"totalarea":254.9967076}},{"type":"MultiPolygon","arcs":[[[42]],[[43]]],"properties":{"name":"Pakkading","gaul_code":18644,"targetarea":1.6548046,"totpop":73579.6360818,"country_id":"LAO","targetpop":4971.5894775,"new_mean":0.0899649,"totalarea":2469.788954}},{"type":"Polygon","arcs":[[44]],"properties":{"name":"Paksong","gaul_code":18653,"targetarea":1.9140919,"totpop":110869.577022,"country_id":"LAO","targetpop":7266.3561401,"new_mean":0.216,"totalarea":3433.8924333}},{"type":"MultiPolygon","arcs":[[[45]],[[46]],[[47]]],"properties":{"name":"Khamkheuth","gaul_code":18643,"targetarea":7.8372022,"totpop":103613.733017,"country_id":"LAO","targetpop":15922.4967651,"new_mean":0.0998686,"totalarea":4527.054225}},{"type":"MultiPolygon","arcs":[[[48]],[[49]],[[50]],[[51,-18,52,53,54],[55]],[[56]],[[57]],[[58]],[[59]],[[60]],[[61]],[[62]],[[63]],[[64,-26]]],"properties":{"name":"Xaythany","gaul_code":18745,"targetarea":35.4581709,"totpop":202017.545434,"country_id":"LAO","targetpop":79276.3354492,"new_mean":0.0814934,"totalarea":593.4615801}},{"type":"MultiPolygon","arcs":[[[65]],[[66]],[[67,68,-53,-20,69,70,71]]],"properties":{"name":"Chanthabuly","gaul_code":18737,"targetarea":34.1572518,"totpop":173084.311104,"country_id":"LAO","targetpop":156155.73822,"new_mean":0.0913113,"totalarea":54.0735221}},{"type":"Polygon","arcs":[[72]],"properties":{"name":"Xay","gaul_code":18695,"targetarea":9.1845063,"totpop":110898.924114,"country_id":"LAO","targetpop":30358.8225708,"new_mean":0.0963925,"totalarea":2160.7613074}},{"type":"MultiPolygon","arcs":[[[73]],[[74]],[[75]],[[76]],[[77]]],"properties":{"name":"Xaybuly","gaul_code":18722,"targetarea":3.6074103,"totpop":78043.0928019,"country_id":"LAO","targetpop":6995.8630371,"new_mean":0.081,"totalarea":918.8317811}},{"type":"MultiPolygon","arcs":[[[78]],[[79]],[[80]],[[81]],[[82]]],"properties":{"name":"Saravane","gaul_code":18707,"targetarea":8.3917052,"totpop":136053.795104,"country_id":"LAO","targetpop":16841.5237122,"new_mean":0.1319744,"totalarea":2381.6561495}},{"type":"MultiPolygon","arcs":[[[83]],[[84]],[[85]],[[86]],[[87]],[[88]],[[89]],[[90]],[[91]]],"properties":{"name":"Champhone","gaul_code":74322,"targetarea":9.5238433,"totpop":131062.211641,"country_id":"LAO","targetpop":19037.7903442,"new_mean":0.081,"totalarea":1047.8442027}},{"type":"Polygon","arcs":[[92]],"properties":{"name":"Lakhonepheng","gaul_code":18704,"targetarea":0.563392,"totpop":50408.1971174,"country_id":"LAO","targetpop":1075.6295166,"new_mean":0.098558,"totalarea":1261.2135912}},{"type":"MultiPolygon","arcs":[[[93]],[[94]],[[95]],[[96]],[[97]],[[98]]],"properties":{"name":"Champassack","gaul_code":18649,"targetarea":4.52305,"totpop":63985.3378313,"country_id":"LAO","targetpop":8780.939331,"new_mean":0.216,"totalarea":884.4424878}},{"type":"MultiPolygon","arcs":[[[99]],[[100]],[[101]]],"properties":{"name":"Phine","gaul_code":74331,"targetarea":2.2297892,"totpop":69833.9290178,"country_id":"LAO","targetpop":5680.8947144,"new_mean":0.081,"totalarea":3348.9179673}},{"type":"Polygon","arcs":[[102]],"properties":{"name":"Atsaphone","gaul_code":18711,"targetarea":0.5603387,"totpop":69084.9759743,"country_id":"LAO","targetpop":1441.6876221,"new_mean":0.081,"totalarea":1469.0928539}},{"type":"MultiPolygon","arcs":[[[103]],[[104]]],"properties":{"name":"Sanamxay","gaul_code":18634,"targetarea":2.0832912,"totpop":39815.2831356,"country_id":"LAO","targetpop":3586.4213867,"new_mean":0.1927693,"totalarea":1928.2193715}},{"type":"MultiPolygon","arcs":[[[105]],[[106]]],"properties":{"name":"Pathoomphone","gaul_code":18654,"targetarea":1.4583137,"totpop":74616.6292092,"country_id":"LAO","targetpop":2897.3318481,"new_mean":0.216,"totalarea":2783.7631797}},{"type":"Polygon","arcs":[[107,108]],"properties":{"name":"Louangphrabang","gaul_code":18674,"targetarea":16.9768103,"totpop":97766.3467689,"country_id":"LAO","targetpop":56444.8925171,"new_mean":0.0943215,"totalarea":828.6236525}},{"type":"Polygon","arcs":[[109]],"properties":{"name":"Xayabury","gaul_code":18731,"targetarea":7.9403829,"totpop":104774.272017,"country_id":"LAO","targetpop":17257.3075562,"new_mean":0.0947506,"totalarea":3145.4804125}},{"type":"Polygon","arcs":[[110]],"properties":{"name":"Sing","gaul_code":18687,"targetarea":2.2981946,"totpop":49101.1540186,"country_id":"LAO","targetpop":4829.1472168,"new_mean":0.0852877,"totalarea":1397.3797962}},{"type":"MultiPolygon","arcs":[[[111]],[[112]]],"properties":{"name":"Xonbuly","gaul_code":74341,"targetarea":1.1232666,"totpop":79656.707728,"country_id":"LAO","targetpop":1901.7458496,"new_mean":0.081,"totalarea":1218.1918776}},{"type":"MultiPolygon","arcs":[[[113]],[[114]],[[115,116]],[[117]],[[118]],[[119]],[[120,121,122,123]],[[124]]],"properties":{"name":"Hadxaifong","gaul_code":18738,"targetarea":22.7730861,"totpop":99489.0224812,"country_id":"LAO","targetpop":40165.0445557,"new_mean":0.0835257,"totalarea":226.3878242}},{"type":"MultiPolygon","arcs":[[[125,-122,126]],[[127]],[[-54,-69,128,129]]],"properties":{"name":"Xaysetha","gaul_code":18742,"targetarea":26.8170476,"totpop":95156.0600686,"country_id":"LAO","targetpop":67599.7253418,"new_mean":0.0569286,"totalarea":136.3455125}},{"type":"MultiPolygon","arcs":[[[130]],[[131]]],"properties":{"name":"Khong","gaul_code":18650,"targetarea":2.2036058,"totpop":91312.8204394,"country_id":"LAO","targetpop":4526.6895142,"new_mean":0.216,"totalarea":1524.3107775}},{"type":"Polygon","arcs":[[132]],"properties":{"name":"Namor","gaul_code":18692,"targetarea":1.0927182,"totpop":47284.2071184,"country_id":"LAO","targetpop":2995.8015137,"new_mean":0.0891664,"totalarea":1544.5620618}},{"type":"Polygon","arcs":[[133]],"properties":{"name":"Phiang","gaul_code":18730,"targetarea":2.6072368,"totpop":67252.7823981,"country_id":"LAO","targetpop":5303.6904907,"new_mean":0.0967252,"totalarea":2936.0549906}},{"type":"MultiPolygon","arcs":[[[134]],[[135,136]],[[137]],[[138]],[[139]]],"properties":{"name":"Bachiangchaleunsook","gaul_code":18648,"targetarea":4.6067196,"totpop":82563.1627131,"country_id":"LAO","targetpop":9390.678772,"new_mean":0.216,"totalarea":868.0267163}},{"type":"MultiPolygon","arcs":[[[140]],[[141]]],"properties":{"name":"Hoon","gaul_code":18690,"targetarea":5.4844228,"totpop":93988.2548335,"country_id":"LAO","targetpop":14243.0194092,"new_mean":0.0914853,"totalarea":2146.479991}},{"type":"Polygon","arcs":[[142]],"properties":{"name":"Moonlapamok","gaul_code":18651,"targetarea":1.6216059,"totpop":44816.9155778,"country_id":"LAO","targetpop":3069.560852,"new_mean":0.216,"totalarea":2284.3230423}},{"type":"Polygon","arcs":[[143]],"properties":{"name":"Xamtay","gaul_code":18660,"targetarea":1.0864573,"totpop":77222.8868747,"country_id":"LAO","targetpop":4091.0066528,"new_mean":0.1040745,"totalarea":3780.8767703}},{"type":"MultiPolygon","arcs":[[[144]],[[145]],[[146]],[[147]],[[148]],[[149]]],"properties":{"name":"Kaysone Phomvihane","gaul_code":74326,"targetarea":16.7094339,"totpop":98301.9142449,"country_id":"LAO","targetpop":37536.4187622,"new_mean":0.081,"totalarea":687.3344099}},{"type":"MultiPolygon","arcs":[[[150]],[[151]]],"properties":{"name":"Thakhek","gaul_code":18671,"targetarea":14.3681695,"totpop":104667.205913,"country_id":"LAO","targetpop":33393.5497437,"new_mean":0.0854792,"totalarea":941.2314233}},{"type":"Polygon","arcs":[[152]],"properties":{"name":"Parklai","gaul_code":74330,"targetarea":2.1479608,"totpop":63457.2317381,"country_id":"LAO","targetpop":3847.6565552,"new_mean":0.0964814,"totalarea":1914.1504928}},{"type":"Polygon","arcs":[[153]],"properties":{"name":"Pha Oudom","gaul_code":18640,"targetarea":1.6486031,"totpop":56188.651311,"country_id":"LAO","targetpop":2938.6626587,"new_mean":0.0883663,"totalarea":1928.3929011}},{"type":"Polygon","arcs":[[154]],"properties":{"name":"Houixai","gaul_code":18637,"targetarea":6.7757815,"totpop":79440.4754994,"country_id":"LAO","targetpop":12720.8152161,"new_mean":0.081856,"totalarea":1782.0446825}},{"type":"Polygon","arcs":[[155]],"properties":{"name":"Pek","gaul_code":18762,"targetarea":11.6729673,"totpop":91994.4219354,"country_id":"LAO","targetpop":29215.4822998,"new_mean":0.0968942,"totalarea":1177.8822484}},{"type":"MultiPolygon","arcs":[[[156]],[[157,-137,158]],[[159]],[[160]]],"properties":{"name":"Pakxe","gaul_code":18652,"targetarea":27.2045317,"totpop":107513.648803,"country_id":"LAO","targetpop":79148.2365723,"new_mean":0.216,"totalarea":135.4000101}},{"type":"Polygon","arcs":[[161,-71]],"properties":{"name":"Sikhottabong","gaul_code":18743,"targetarea":23.8355676,"totpop":116993.749248,"country_id":"LAO","targetpop":86299.8334351,"new_mean":0.1007502,"totalarea":151.9409452}},{"type":"Polygon","arcs":[[162]],"properties":{"name":"Phonhong","gaul_code":18754,"targetarea":3.372059,"totpop":45821.5134985,"country_id":"LAO","targetpop":10292.7727051,"new_mean":0.0875443,"totalarea":476.6704224}},{"type":"MultiPolygon","arcs":[[[163]],[[164]],[[165]],[[166]]],"properties":{"name":"Nongbok","gaul_code":18668,"targetarea":2.5371072,"totpop":45180.5705085,"country_id":"LAO","targetpop":6111.0153809,"new_mean":0.0838295,"totalarea":320.4561366}},{"type":"MultiPolygon","arcs":[[[167]],[[168]]],"properties":{"name":"Thoulakhom","gaul_code":18756,"targetarea":2.2258575,"totpop":51667.6520477,"country_id":"LAO","targetpop":4412.7490845,"new_mean":0.0934669,"totalarea":895.7935701}},{"type":"MultiPolygon","arcs":[[[169]],[[170]],[[171]],[[172]]],"properties":{"name":"Bolikhanh","gaul_code":18642,"targetarea":13.7051149,"totpop":97025.6797282,"country_id":"LAO","targetpop":25624.5452881,"new_mean":0.0959931,"totalarea":1948.3867233}},{"type":"MultiPolygon","arcs":[[[173]],[[174]]],"properties":{"name":"Paksane","gaul_code":18645,"targetarea":4.3688018,"totpop":58156.1872282,"country_id":"LAO","targetpop":10222.0987549,"new_mean":0.0945491,"totalarea":757.9335113}},{"type":"Polygon","arcs":[[175]],"properties":{"name":"Feuang","gaul_code":74323,"targetarea":1.664532,"totpop":54041.8106051,"country_id":"LAO","targetpop":3080.8145142,"new_mean":0.0879898,"totalarea":922.0659367}},{"type":"Polygon","arcs":[[176]],"properties":{"name":"Phouvong","gaul_code":18632,"targetarea":0.5661605,"totpop":12324.6256795,"country_id":"LAO","targetpop":1002.6176758,"new_mean":0.1628662,"totalarea":3157.9305942}},{"type":"Polygon","arcs":[[177]],"properties":{"name":"Xanakharm","gaul_code":18755,"targetarea":4.1284937,"totpop":91925.9120826,"country_id":"LAO","targetpop":10470.8240356,"new_mean":0.089414,"totalarea":2906.6106361}},{"type":"Polygon","arcs":[[178]],"properties":{"name":"Keo Oudom","gaul_code":18752,"targetarea":1.6731433,"totpop":17407.9972892,"country_id":"LAO","targetpop":2748.4277954,"new_mean":0.1182649,"totalarea":489.1431173}},{"type":"MultiPolygon","arcs":[[[179]],[[180]],[[181]],[[182]],[[183]],[[184]],[[185]]],"properties":{"name":"Phonthong","gaul_code":18655,"targetarea":6.9385712,"totpop":99205.4662849,"country_id":"LAO","targetpop":13388.7886353,"new_mean":0.216,"totalarea":874.7352995}},{"type":"MultiPolygon","arcs":[[[186]],[[187]],[[188]]],"properties":{"name":"Outhoomphone","gaul_code":18716,"targetarea":5.6790279,"totpop":103593.621767,"country_id":"LAO","targetpop":14567.3217163,"new_mean":0.081,"totalarea":1070.9466582}},{"type":"Polygon","arcs":[[189]],"properties":{"name":"Xamneua","gaul_code":18659,"targetarea":7.3603174,"totpop":68409.6957395,"country_id":"LAO","targetpop":15615.5514526,"new_mean":0.099169,"totalarea":2672.9250601}},{"type":"Polygon","arcs":[[190,-109]],"properties":{"name":"Chomphet","gaul_code":18673,"targetarea":3.7862787,"totpop":42518.1618936,"country_id":"LAO","targetpop":8024.3186035,"new_mean":0.0967772,"totalarea":1236.54756}},{"type":"Polygon","arcs":[[-129,-68,191,-123,-126,192]],"properties":{"name":"Sisattanak","gaul_code":18744,"targetarea":33.6598594,"totpop":124489.406006,"country_id":"LAO","targetpop":118865.10968,"new_mean":0.0567769,"totalarea":38.7264688}},{"type":"MultiPolygon","arcs":[[[193]],[[194]],[[195]],[[196]]],"properties":{"name":"Sukhuma","gaul_code":18657,"targetarea":4.6596564,"totpop":70927.9347579,"country_id":"LAO","targetpop":10460.2264404,"new_mean":0.216,"totalarea":1172.9380157}}]}},"arcs":[[[105.7083322,15.1995835],[105.7187489,15.180569],[105.7279611,15.1953639],[105.7083322,15.1995835]],[[105.7083322,15.1995835],[105.7038075,15.2101629],[105.689159,15.2029608],[105.7083322,15.1995835]],[[105.8054676,15.2514105],[105.7981759,15.2441025],[105.8083322,15.2412502],[105.8054676,15.2514105]],[[105.7471343,15.2764105],[105.7398426,15.2691025],[105.7499989,15.2662502],[105.7471343,15.2764105]],[[105.7471343,15.3014105],[105.7398426,15.2941025],[105.7499989,15.2912502],[105.7471343,15.3014105]],[[105.171646,17.6185207],[105.164159,17.6042181],[105.1749989,17.5995835],[105.171646,17.6185207]],[[106.3843739,15.4446396],[106.3715809,15.4301092],[106.3916655,15.4162502],[106.3843739,15.4446396]],[[106.4804676,15.4514105],[106.4731759,15.4441025],[106.4833322,15.4412502],[106.4804676,15.4514105]],[[106.8888009,16.3014105],[106.8815093,16.2941025],[106.8916655,16.2912502],[106.8888009,16.3014105]],[[106.9304676,14.8097438],[106.9231759,14.8024359],[106.9333322,14.7995835],[106.9304676,14.8097438]],[[105.8138009,15.5847438],[105.8065093,15.5774359],[105.8166655,15.5745835],[105.8138009,15.5847438]],[[105.2138009,16.0597438],[105.2065093,16.0524359],[105.2166488,16.0496426],[105.2138009,16.0597438]],[[105.2160145,16.2441025],[105.196353,16.2338161],[105.2083322,16.2245835],[105.2160145,16.2441025]],[[105.2971343,16.2680771],[105.2898426,16.2607692],[105.2999989,16.2579168],[105.2971343,16.2680771]],[[102.4547515,18.9437078],[102.4471343,18.9221543],[102.4583322,18.9162501],[102.4547515,18.9437078]],[[101.4121408,20.9351629],[101.3974924,20.9279607],[101.4166655,20.9245835],[101.4121408,20.9351629]],[[101.4267892,21.008458],[101.4135405,21.0196518],[101.4049142,20.9873927],[101.4333322,20.9829168],[101.4267892,21.008458]],[[102.6222382,18.0498905],[102.6221914,18.0500255]],[[102.6221914,18.0500255],[102.6221733,18.0498819]],[[102.6221733,18.0498819],[102.6222382,18.0498905]],[[102.5496194,18.035509],[102.5473622,18.0509303],[102.5327567,18.0368159],[102.5496194,18.035509]],[[102.5493478,18.0857692],[102.5296864,18.0754827],[102.5416655,18.0662501],[102.5493478,18.0857692]],[[102.5221343,18.0930771],[102.5148426,18.0857692],[102.5249989,18.0829168],[102.5221343,18.0930771]],[[102.5471343,18.1014105],[102.5398426,18.0941025],[102.5499989,18.0912501],[102.5471343,18.1014105]],[[102.5049793,18.151854],[102.4974924,18.1375514],[102.5083322,18.1329168],[102.5049793,18.151854]],[[102.6043734,18.16097],[102.5955876,18.1795276]],[[102.5955876,18.1795276],[102.5880197,18.1735825],[102.6043734,18.16097]],[[102.5049793,18.1844427],[102.4931304,18.1609889],[102.5083322,18.1579168],[102.5049793,18.1844427]],[[102.5729155,18.2019313],[102.5637033,18.1871364],[102.5833322,18.1829168],[102.5729155,18.2019313]],[[102.3383127,20.476854],[102.3308257,20.4625514],[102.3416655,20.4579168],[102.3383127,20.476854]],[[102.4743478,20.6357692],[102.4546864,20.6254827],[102.4666655,20.6162501],[102.4743478,20.6357692]],[[105.0138009,16.3680771],[105.0065093,16.3607692],[105.0166655,16.3579168],[105.0138009,16.3680771]],[[105.0054676,16.3930771],[104.9981759,16.3857692],[105.0083322,16.3829168],[105.0054676,16.3930771]],[[106.4304676,16.6347438],[106.4231759,16.6274359],[106.4333322,16.6245835],[106.4304676,16.6347438]],[[106.2121408,16.7018296],[106.1974923,16.6946274],[106.2166655,16.6912502],[106.2121408,16.7018296]],[[106.1693022,15.4778672],[106.1546213,15.4637396],[106.1749989,15.4579168],[106.1693022,15.4778672]],[[105.5721343,16.6680771],[105.5648426,16.6607692],[105.5749989,16.6579168],[105.5721343,16.6680771]],[[106.0138009,15.7014105],[106.0065093,15.6941025],[106.0166655,15.6912502],[106.0138009,15.7014105]],[[106.7349598,15.3529689],[106.7189767,15.3607163],[106.7055327,15.3368475],[106.7249989,15.3329168],[106.7349598,15.3529689]],[[106.7054676,15.4180771],[106.6981759,15.4107692],[106.7083322,15.4079168],[106.7054676,15.4180771]],[[106.8333322,14.8162502],[106.8333322,14.8079168],[106.8249989,14.8079168],[106.834146,14.7898545],[106.8527983,14.8064032],[106.8333322,14.8162502]],[[106.8333322,14.8162502],[106.8289377,14.8355413],[106.8135731,14.841242],[106.8249989,14.8162502],[106.8333322,14.8162502]],[[104.2888009,18.1014105],[104.2815093,18.0941025],[104.2916655,18.0912501],[104.2888009,18.1014105]],[[104.2371408,18.1768296],[104.2224924,18.1696274],[104.2416655,18.1662501],[104.2371408,18.1768296]],[[106.2376616,15.1848455],[106.2220366,15.1770046],[106.2416655,15.1662502],[106.2376616,15.1848455]],[[105.0471343,18.0764105],[105.0398426,18.0691025],[105.0499989,18.0662501],[105.0471343,18.0764105]],[[105.0388009,18.1680771],[105.0315093,18.1607692],[105.0416655,18.1579168],[105.0388009,18.1680771]],[[104.9833322,18.1829168],[104.99134,18.2011541],[104.9592437,18.211168],[104.9660145,18.1871201],[104.9833322,18.1829168]],[[102.6749989,18.0579168],[102.6851551,18.0607692],[102.6778635,18.0680771],[102.6749989,18.0579168]],[[102.7221343,18.0680771],[102.7148426,18.0607692],[102.7249989,18.0579168],[102.7221343,18.0680771]],[[102.7910145,18.0691025],[102.771353,18.0588161],[102.7833322,18.0495835],[102.7910145,18.0691025]],[[102.6749989,18.0579168],[102.6542957,18.0534938],[102.637271,18.0534897],[102.6264416,18.0770735],[102.6250884,18.0730235],[102.6221914,18.0500255]],[[102.6222382,18.0498905],[102.6404266,18.0302849],[102.6523285,18.0124207]],[[102.6523285,18.0124207],[102.661795,18.0208016]],[[102.661795,18.0208016],[102.6545562,18.0383164],[102.6711903,18.0366196],[102.6749989,18.0579168]],[[102.6398426,18.0357692],[102.6471343,18.0430771],[102.6499989,18.0329168],[102.6398426,18.0357692]],[[102.6499989,18.1162501],[102.6604155,18.0972357],[102.6696278,18.1120306],[102.6499989,18.1162501]],[[102.8038075,18.1351629],[102.789159,18.1279608],[102.8083322,18.1245835],[102.8038075,18.1351629]],[[102.7299793,18.1351873],[102.7224924,18.1208847],[102.7333322,18.1162501],[102.7299793,18.1351873]],[[102.6744455,18.1421535],[102.6555327,18.128091],[102.6833322,18.1245835],[102.6744455,18.1421535]],[[102.6499989,18.1162501],[102.6311187,18.1435776],[102.6233438,18.1272418],[102.6259224,18.1224244],[102.6499989,18.1162501]],[[102.738801,18.1680771],[102.7315093,18.1607692],[102.7416655,18.1579168],[102.738801,18.1680771]],[[102.7884103,18.1646551],[102.7637033,18.1751857],[102.77259,18.1536891],[102.7916655,18.1495835],[102.7884103,18.1646551]],[[102.663801,18.1847438],[102.6565093,18.1774359],[102.6666655,18.1745835],[102.663801,18.1847438]],[[102.6043734,18.16097],[102.6035796,18.1858058],[102.5955876,18.1795276]],[[102.5749989,18.0245835],[102.5718117,18.0236884],[102.5732935,18.0185349],[102.5749989,18.0245835]],[[102.5749989,18.0245835],[102.5851551,18.0274359],[102.5778635,18.0347438],[102.5749989,18.0245835]],[[102.6078178,17.9560254],[102.6220093,17.9658775],[102.6302109,17.9797478]],[[102.6302109,17.9797478],[102.6464462,17.9940071],[102.6523285,18.0124207]],[[102.6221733,18.0498819],[102.6211577,18.0276963],[102.6039051,18.0122951],[102.6048817,17.9961574],[102.5903879,17.988286]],[[102.5903879,17.988286],[102.5924302,17.9649358]],[[102.5924302,17.9649358],[102.6078178,17.9560254]],[[102.0198556,20.6942409],[101.9793609,20.7080429],[101.9718088,20.6868108],[101.9916655,20.6745835],[102.0008127,20.6894272],[102.0131174,20.6855983],[102.0198556,20.6942409]],[[104.7721343,16.8180771],[104.7648426,16.8107692],[104.7749989,16.8079168],[104.7721343,16.8180771]],[[104.7638009,16.8847438],[104.7565093,16.8774359],[104.7666655,16.8745835],[104.7638009,16.8847438]],[[104.8804676,16.9847438],[104.8731759,16.9774359],[104.8833322,16.9745835],[104.8804676,16.9847438]],[[104.8954741,17.0434962],[104.8808257,17.0362941],[104.8999989,17.0329168],[104.8954741,17.0434962]],[[105.1054676,17.0764105],[105.0981759,17.0691025],[105.1083322,17.0662501],[105.1054676,17.0764105]],[[106.2721343,15.5430771],[106.2648426,15.5357692],[106.2749989,15.5329168],[106.2721343,15.5430771]],[[106.3138009,15.6180771],[106.3065093,15.6107692],[106.3166655,15.6079168],[106.3138009,15.6180771]],[[106.2388009,15.7097438],[106.2315093,15.7024359],[106.2416655,15.6995835],[106.2388009,15.7097438]],[[106.4118153,15.7044378],[106.4298491,15.7113958],[106.4368153,15.7353867],[106.3965158,15.7080511],[106.4083322,15.6995835],[106.4118153,15.7044378]],[[106.3471343,15.7680771],[106.3398426,15.7607692],[106.3499989,15.7579168],[106.3471343,15.7680771]],[[105.2971343,16.3680771],[105.2898426,16.3607692],[105.2999989,16.3579168],[105.2971343,16.3680771]],[[105.2638009,16.4180771],[105.2565093,16.4107692],[105.2666655,16.4079168],[105.2638009,16.4180771]],[[105.2055327,16.4551173],[105.1805327,16.4594305],[105.1987293,16.4365382],[105.2166655,16.4329168],[105.2055327,16.4551173]],[[105.1138009,16.4597438],[105.1065093,16.4524359],[105.1166655,16.4495835],[105.1138009,16.4597438]],[[105.0971343,16.4680771],[105.0898426,16.4607692],[105.0999989,16.4579168],[105.0971343,16.4680771]],[[105.1388009,16.4930771],[105.1315093,16.4857692],[105.1416655,16.4829168],[105.1388009,16.4930771]],[[105.1388009,16.5180771],[105.1315093,16.5107692],[105.1416655,16.5079168],[105.1388009,16.5180771]],[[105.2804676,16.5514105],[105.2731759,16.5441025],[105.2833322,16.5412502],[105.2804676,16.5514105]],[[105.1804676,16.5930771],[105.1731759,16.5857692],[105.1833322,16.5829168],[105.1804676,16.5930771]],[[105.7721343,15.7597438],[105.7648426,15.7524359],[105.7749989,15.7495835],[105.7721343,15.7597438]],[[105.8138009,14.7930771],[105.8065093,14.7857692],[105.8166655,14.7829168],[105.8138009,14.7930771]],[[105.8888009,14.8180771],[105.8815093,14.8107692],[105.8916655,14.8079168],[105.8888009,14.8180771]],[[105.8471343,14.8514105],[105.8398426,14.8441025],[105.8499989,14.8412502],[105.8471343,14.8514105]],[[105.871646,14.851854],[105.864159,14.8375514],[105.8749989,14.8329168],[105.871646,14.851854]],[[105.8749989,14.8829168],[105.8648426,14.8800644],[105.8721343,14.8727565],[105.8749989,14.8829168]],[[105.8749989,14.8829168],[105.8851551,14.8857692],[105.8778634,14.8930771],[105.8749989,14.8829168]],[[106.0221343,16.5347438],[106.0148426,16.5274359],[106.0249989,16.5245835],[106.0221343,16.5347438]],[[105.9288075,16.5768296],[105.914159,16.5696274],[105.9333322,16.5662502],[105.9288075,16.5768296]],[[105.9304676,16.6430771],[105.9231759,16.6357692],[105.9333322,16.6329168],[105.9304676,16.6430771]],[[105.3471343,16.8514105],[105.3398426,16.8441025],[105.3499989,16.8412502],[105.3471343,16.8514105]],[[106.5883127,14.6601873],[106.5808257,14.6458848],[106.5916655,14.6412502],[106.5883127,14.6601873]],[[106.6971343,14.7514105],[106.6898426,14.7441025],[106.6999989,14.7412502],[106.6971343,14.7514105]],[[105.8813412,14.6899787],[105.8774909,14.6900938],[105.8743461,14.686942],[105.873808,14.6855917],[105.8813412,14.6899787]],[[105.9138009,14.9847438],[105.9065093,14.9774359],[105.9166655,14.9745835],[105.9138009,14.9847438]],[[102.1159612,19.8779431],[102.0970692,19.85598],[102.120995,19.8634385],[102.1333322,19.8579168],[102.1365223,19.8630722],[102.1607411,19.8779974],[102.1732985,19.9060289]],[[102.1732985,19.9060289],[102.1455078,19.8980389],[102.1328278,19.8909435],[102.1159612,19.8779431]],[[101.7230457,19.2480861],[101.7198882,19.2620835],[101.7246408,19.2832871],[101.7170236,19.2946518],[101.7049142,19.2410223],[101.7166655,19.2329168],[101.7230457,19.2480861]],[[101.1660145,21.1941025],[101.146353,21.1838161],[101.1583322,21.1745835],[101.1660145,21.1941025]],[[105.3804676,16.3930771],[105.3731759,16.3857692],[105.3833322,16.3829168],[105.3804676,16.3930771]],[[105.3388009,16.4014105],[105.3315093,16.3941025],[105.3416655,16.3912502],[105.3388009,16.4014105]],[[102.6583322,17.8245835],[102.6611968,17.8144232],[102.6684885,17.8217311],[102.6583322,17.8245835]],[[102.688801,17.8264105],[102.6815093,17.8191025],[102.6916655,17.8162501],[102.688801,17.8264105]],[[102.6583322,17.8245835],[102.6517892,17.8375229],[102.6333322,17.8412501]],[[102.6333322,17.8412501],[102.6398752,17.8283107],[102.6583322,17.8245835]],[[102.6333322,17.8412501],[102.6304676,17.8514105],[102.623176,17.8441025],[102.6333322,17.8412501]],[[102.6583322,17.8745835],[102.6673491,17.8628851],[102.6786447,17.8825628],[102.6583322,17.8745835]],[[102.7197571,17.8823624],[102.7356832,17.8867922],[102.7074533,17.8903021],[102.7197571,17.8823624]],[[102.6583322,17.8745835],[102.6511707,17.8936346],[102.6645822,17.9047837],[102.66363,17.9090689]],[[102.66363,17.9090689],[102.6626892,17.9102478]],[[102.6626892,17.9102478],[102.6606979,17.9083061],[102.622757,17.9086971],[102.6131134,17.9098426]],[[102.6131134,17.9098426],[102.6110666,17.8756658],[102.6291655,17.8959132],[102.6443674,17.8788926],[102.6583322,17.8745835]],[[102.7510055,17.8910574],[102.7654675,17.9010821],[102.7575184,17.9110255],[102.7388053,17.8876613],[102.7510055,17.8910574]],[[102.6629529,17.9121167],[102.6626892,17.9102478]],[[102.66363,17.9090689],[102.6629529,17.9121167]],[[102.7047515,17.9770412],[102.6971343,17.9554876],[102.7083322,17.9495835],[102.7047515,17.9770412]],[[102.6302109,17.9797478],[102.6458054,17.9762115],[102.6623001,17.9603882],[102.6666959,17.9495603]],[[102.6666959,17.9495603],[102.6809233,17.9324285],[102.6787424,17.9537501],[102.6795887,17.9620835],[102.6771473,17.9861069],[102.6879546,17.9950913],[102.6860991,18.0132147],[102.6657866,18.0111435],[102.661795,18.0208016]],[[105.9221343,14.0097438],[105.9148426,14.0024359],[105.9249989,13.9995835],[105.9221343,14.0097438]],[[105.8721343,14.4430771],[105.8648426,14.4357692],[105.8749989,14.4329168],[105.8721343,14.4430771]],[[101.7633127,20.9185206],[101.7558257,20.9042181],[101.7666655,20.8995835],[101.7633127,20.9185206]],[[101.52884,19.1085027],[101.5221994,19.0868475],[101.5416655,19.0829168],[101.52884,19.1085027]],[[105.8971343,15.0764105],[105.8898426,15.0691025],[105.8999989,15.0662502],[105.8971343,15.0764105]],[[105.8622367,15.09471],[105.870032,15.1177014]],[[105.870032,15.1177014],[105.8666229,15.1145248],[105.8622367,15.09471]],[[105.8888009,15.1180771],[105.8815093,15.1107692],[105.8916655,15.1079168],[105.8888009,15.1180771]],[[105.8895822,15.1852646],[105.88037,15.1704697],[105.8999989,15.1662502],[105.8895822,15.1852646]],[[105.9299793,15.2685207],[105.9224923,15.2542181],[105.9333322,15.2495835],[105.9299793,15.2685207]],[[101.3383127,20.026854],[101.3308257,20.0125514],[101.3416655,20.0079168],[101.3383127,20.026854]],[[101.4704741,20.1518296],[101.4558257,20.1446274],[101.4749989,20.1412501],[101.4704741,20.1518296]],[[105.8607315,14.3670214],[105.8585623,14.3761826],[105.8388009,14.3698716],[105.8607315,14.3670214]],[[104.6454741,20.0018296],[104.6308257,19.9946274],[104.6499989,19.9912501],[104.6454741,20.0018296]],[[104.8471343,16.5430771],[104.8398426,16.5357692],[104.8499989,16.5329168],[104.8471343,16.5430771]],[[104.8804676,16.5597438],[104.8731759,16.5524359],[104.8833322,16.5495835],[104.8804676,16.5597438]],[[104.7724924,16.5608384],[104.7473296,16.5864691],[104.740771,16.5563701],[104.7461479,16.5394135],[104.7666655,16.5329168],[104.7724924,16.5608384]],[[104.7749989,16.5995835],[104.7644194,16.5950547],[104.7716134,16.5804184],[104.7749989,16.5995835]],[[104.7749989,16.5995835],[104.7855783,16.6041123],[104.7783843,16.6187485],[104.7749989,16.5995835]],[[104.7549793,16.626854],[104.7474924,16.6125514],[104.7583322,16.6079168],[104.7549793,16.626854]],[[104.8388009,17.2347438],[104.8315093,17.2274359],[104.8416655,17.2245835],[104.8388009,17.2347438]],[[104.7999989,17.4079168],[104.8066101,17.3882923],[104.8082519,17.3746822],[104.8124989,17.3691839],[104.820409,17.3794297],[104.8404285,17.3798],[104.8354155,17.4137355],[104.7999989,17.4079168]],[[101.4052947,18.1917852],[101.4061943,18.1962489],[101.4038075,18.2018296],[101.389159,18.1946274],[101.4052947,18.1917852]],[[100.8299793,20.0935206],[100.8224924,20.0792181],[100.8333322,20.0745835],[100.8299793,20.0935206]],[[100.4371734,20.2603908],[100.4145171,20.2867742],[100.4106024,20.2737837],[100.4196185,20.2527849],[100.4371734,20.2603908]],[[103.2264312,19.456159],[103.1952788,19.4631414],[103.1882476,19.4529852],[103.1715809,19.441478],[103.1787424,19.4360581],[103.1918934,19.439004],[103.2166655,19.4329168],[103.2264312,19.456159]],[[105.8304676,15.0680771],[105.8231759,15.0607692],[105.8333322,15.0579168],[105.8304676,15.0680771]],[[105.7749989,15.1495835],[105.7702788,15.1370021],[105.782616,15.1154648],[105.8351226,15.1000514],[105.8514311,15.1196681],[105.8622367,15.09471]],[[105.870032,15.1177014],[105.8424142,15.1296779],[105.8115874,15.1265325],[105.7749989,15.1495835]],[[105.7749989,15.1495835],[105.7721343,15.1597438],[105.7648426,15.1524359],[105.7749989,15.1495835]],[[105.7317576,15.1527966],[105.7499989,15.1495835],[105.7454741,15.1601629],[105.7313211,15.1532043],[105.7317576,15.1527966]],[[102.5903879,17.988286],[102.5544585,17.9863551],[102.5554025,18.0200954],[102.5156239,18.0224676],[102.5448882,18.0090277],[102.5132801,17.9807765],[102.5516509,17.968928],[102.5709915,17.9688969],[102.5924302,17.9649358]],[[102.4296213,18.368952],[102.4219064,18.3396958],[102.4333322,18.3329168],[102.4296213,18.368952]],[[104.8249989,16.9745835],[104.8148426,16.9717311],[104.8221343,16.9644232],[104.8249989,16.9745835]],[[104.8249989,16.9745835],[104.8339281,16.9770912],[104.8335004,16.9790943],[104.8249989,16.9745835]],[[104.8138009,17.0014105],[104.8065093,16.9941025],[104.8166655,16.9912501],[104.8138009,17.0014105]],[[104.8054676,17.0930771],[104.7981759,17.0857692],[104.8083322,17.0829168],[104.8054676,17.0930771]],[[102.5799793,18.3685207],[102.5724924,18.3542181],[102.5833322,18.3495835],[102.5799793,18.3685207]],[[102.5416655,18.4079168],[102.5413884,18.4088996],[102.5407786,18.4081659],[102.5416655,18.4079168]],[[103.7166655,18.5495835],[103.7294911,18.5239975],[103.7361317,18.5456528],[103.7166655,18.5495835]],[[103.7166655,18.5495835],[103.7207345,18.5538315],[103.7429676,18.5646103],[103.7042632,18.5615138],[103.7166655,18.5495835]],[[103.5833322,18.7495835],[103.5878569,18.739004],[103.6025054,18.7462062],[103.5833322,18.7495835]],[[103.7083322,18.7495835],[103.7027007,18.7607163],[103.6805327,18.7532252],[103.6887033,18.7398301],[103.7083322,18.7495835]],[[103.6666655,18.3829168],[103.6746082,18.4006658],[103.6468088,18.3951442],[103.6666655,18.3829168]],[[103.6583322,18.4829168],[103.6651013,18.4848179],[103.6599215,18.4885539],[103.6583322,18.4829168]],[[101.9799793,18.4851873],[101.9724924,18.4708847],[101.9833322,18.4662501],[101.9799793,18.4851873]],[[106.8388009,14.7014105],[106.8315093,14.6941025],[106.8416655,14.6912502],[106.8388009,14.7014105]],[[101.9630848,18.3020412],[101.9554676,18.2804876],[101.9666655,18.2745835],[101.9630848,18.3020412]],[[102.5130848,18.5437078],[102.5054676,18.5221543],[102.5166655,18.5162501],[102.5130848,18.5437078]],[[105.6638009,15.0847438],[105.6565093,15.0774359],[105.6666655,15.0745835],[105.6638009,15.0847438]],[[105.6633127,15.1101873],[105.6558257,15.0958848],[105.6666655,15.0912502],[105.6633127,15.1101873]],[[105.7666655,15.1162502],[105.7587228,15.0985011],[105.7865223,15.1040228],[105.7754324,15.1108517],[105.7689113,15.1148673],[105.7666655,15.1162502]],[[105.7666655,15.1162502],[105.7660502,15.1184328],[105.7610356,15.123639],[105.7666655,15.1162502]],[[105.6221343,15.1430771],[105.6148426,15.1357692],[105.6249989,15.1329168],[105.6221343,15.1430771]],[[105.6554676,15.2347438],[105.6481759,15.2274359],[105.6583322,15.2245835],[105.6554676,15.2347438]],[[105.6471343,15.2597438],[105.6398426,15.2524359],[105.6499989,15.2495835],[105.6471343,15.2597438]],[[104.9888009,16.6097438],[104.9815093,16.6024359],[104.9916655,16.5995835],[104.9888009,16.6097438]],[[105.0063791,16.6790919],[104.9939767,16.6940496],[104.9805327,16.6701808],[104.9999989,16.6662502],[105.0063791,16.6790919]],[[105.0054676,16.8014105],[104.9981759,16.7941025],[105.0083322,16.7912502],[105.0054676,16.8014105]],[[104.0408192,20.4360296],[104.0296213,20.4158961],[104.0499989,20.3995835],[104.0629546,20.4116237],[104.0703765,20.4219142],[104.0537749,20.4198512],[104.0408192,20.4360296]],[[102.1732985,19.9060289],[102.178189,19.9169459],[102.1304351,19.8947698],[102.1159612,19.8779431]],[[102.6078178,17.9560254],[102.6122059,17.9544785],[102.6143875,17.9332142],[102.6131134,17.9098426]],[[102.6629529,17.9121167],[102.6502267,17.9693914],[102.6666959,17.9495603]],[[105.8577545,14.6195128],[105.8549793,14.6351873],[105.8474923,14.6208848],[105.8548247,14.6177498],[105.8577545,14.6195128]],[[105.7979155,14.6519313],[105.7887033,14.6371364],[105.8083322,14.6329168],[105.7979155,14.6519313]],[[105.5971343,14.7014105],[105.5898426,14.6941025],[105.5999989,14.6912502],[105.5971343,14.7014105]],[[105.7388009,14.7347438],[105.7315093,14.7274359],[105.7416655,14.7245835],[105.7388009,14.7347438]]],"bbox":[100.4106024,13.9995835,106.9333322,21.1941025]}