{"type":"Topology","objects":{"foo":{"type":"GeometryCollection","geometries":[{"type":"Polygon","arcs":[[0]],"properties":{"name":"Urban","gaul_code":18948,"targetarea":1.7404032,"totpop":16484.4906998,"country_id":"LSO","targetpop":2103.0007324,"totalarea":34.2623585,"new_mean":0}},{"type":"MultiPolygon","arcs":[[[1,2,3]],[[4,5]]],"properties":{"name":"Thaba-Bosiu","gaul_code":18924,"targetarea":0.8797029,"totpop":23804.1127663,"country_id":"LSO","targetpop":1701.7932129,"totalarea":123.7319375,"new_mean":0.0023414}},{"type":"Polygon","arcs":[[6]],"properties":{"name":"Urban","gaul_code":18858,"targetarea":5.5691347,"totpop":14774.0035706,"country_id":"LSO","targetpop":6498.5553589,"totalarea":21.7006561,"new_mean":0.0020288}},{"type":"Polygon","arcs":[[7]],"properties":{"name":"Tsikoane","gaul_code":18880,"targetarea":0.516987,"totpop":19475.5766296,"country_id":"LSO","targetpop":659.954895,"totalarea":89.7747644,"new_mean":0.0002366}},{"type":"MultiPolygon","arcs":[[[-3,8,9]],[[10,11]]],"properties":{"name":"Mazenod","gaul_code":18907,"targetarea":1.4206655,"totpop":30962.2597046,"country_id":"LSO","targetpop":1612.1242065,"totalarea":155.9414552,"new_mean":0.0010856}},{"type":"MultiPolygon","arcs":[[[12]],[[13]],[[14]],[[15]]],"properties":{"name":"Urban","gaul_code":18881,"targetarea":16.6408315,"totpop":45821.2134323,"country_id":"LSO","targetpop":22771.3863525,"totalarea":68.5728994,"new_mean":0.0014758}},{"type":"MultiPolygon","arcs":[[[16,17]],[[18,19,20]]],"properties":{"name":"Sebetia (II)","gaul_code":18837,"targetarea":1.323131,"totpop":16656.0994301,"country_id":"LSO","targetpop":533.5585938,"totalarea":90.5110869,"new_mean":0.0024166}},{"type":"Polygon","arcs":[[21]],"properties":{"name":"URBAN","gaul_code":18902,"targetarea":6.8825133,"totpop":19121.5997314,"country_id":"LSO","targetpop":8140.9558106,"totalarea":31.5511832,"new_mean":0.0013075}},{"type":"Polygon","arcs":[[22,23]],"properties":{"name":"Popa","gaul_code":18914,"targetarea":1.4752607,"totpop":30449.9146042,"country_id":"LSO","targetpop":1680.5541382,"totalarea":164.4552592,"new_mean":0.0022479}},{"type":"Polygon","arcs":[[24,25]],"properties":{"name":"Foso","gaul_code":18821,"targetarea":1.6770354,"totpop":9381.8525124,"country_id":"LSO","targetpop":1356.5738525,"totalarea":28.5919165,"new_mean":0.0014782}},{"type":"Polygon","arcs":[[26]],"properties":{"name":"Hleoheng","gaul_code":18862,"targetarea":0.2164462,"totpop":17163.9863434,"country_id":"LSO","targetpop":1664.289917,"totalarea":91.5740683,"new_mean":0.002}},{"type":"MultiPolygon","arcs":[[[-24,27]],[[28,29,-11,30,-9,-2,31,-5,32,-18,33,-21],[34]]],"properties":{"name":"Urban","gaul_code":18925,"targetarea":97.219208,"totpop":200100.626038,"country_id":"LSO","targetpop":185136.549011,"totalarea":123.3987589,"new_mean":0.001516}},{"type":"MultiPolygon","arcs":[[[-26,35,-29,-20,36]],[[37]]],"properties":{"name":"Urban","gaul_code":18840,"targetarea":21.2371943,"totpop":71535.2965164,"country_id":"LSO","targetpop":53962.4682617,"totalarea":72.4758314,"new_mean":0.0008143}}]}},"arcs":[[[27.4807121,-30.1407402],[27.4648429,-30.156056],[27.4833325,-30.1587497],[27.4807121,-30.1407402]],[[27.5662058,-29.3941143],[27.5656109,-29.3982277]],[[27.5656109,-29.3982277],[27.5663779,-29.4003456]],[[27.5663779,-29.4003456],[27.5662058,-29.3941143]],[[27.5636509,-29.3591166],[27.5603752,-29.3629379],[27.5580406,-29.3722878],[27.5585766,-29.3738708],[27.5626659,-29.3756828],[27.5651295,-29.3793703]],[[27.5651295,-29.3793703],[27.5636509,-29.3591166]],[[28.2407705,-28.7718739],[28.2583325,-28.7754163],[28.2668611,-28.7582695],[28.2556307,-28.7392835],[28.2401851,-28.7698055],[28.2407705,-28.7718739]],[[28.0304842,-28.8902601],[28.0231763,-28.8975599],[28.0333325,-28.9004163],[28.0304842,-28.8902601]],[[27.5656109,-29.3982277],[27.5624924,-29.3969975],[27.5600657,-29.3987945]],[[27.5600657,-29.3987945],[27.5663779,-29.4003456]],[[27.5004341,-29.384219],[27.4987221,-29.380188],[27.4913673,-29.3769951],[27.4916897,-29.3803196],[27.488533,-29.3802185],[27.486187,-29.3856583],[27.4808502,-29.380022],[27.4803162,-29.3852596],[27.4770307,-29.389328]],[[27.4770307,-29.389328],[27.5004341,-29.384219]],[[27.8908724,-28.9142539],[27.8849346,-28.9151898],[27.8916658,-28.917083],[27.8908724,-28.9142539]],[[27.9499992,-28.9004163],[27.9601554,-28.8975599],[27.9528475,-28.8902601],[27.9499992,-28.9004163]],[[27.9499992,-28.9004163],[27.9396802,-28.8940605],[27.9284985,-28.8758965],[27.9164083,-28.8796632],[27.9099922,-28.8828259],[27.9056908,-28.8830022],[27.9017244,-28.8842379],[27.9126619,-28.9193535],[27.9444328,-28.9094577],[27.9499992,-28.9004163]],[[28.0395005,-28.878439],[28.0499992,-28.8837497],[28.0563143,-28.8710625],[28.0463533,-28.8559502],[28.0391544,-28.8772652],[28.0395005,-28.878439]],[[27.553486,-29.3412072],[27.5439933,-29.3289645],[27.5499861,-29.3129458]],[[27.5499861,-29.3129458],[27.5478916,-29.3137569],[27.5460072,-29.3232651],[27.5371399,-29.3305645],[27.536911,-29.3318367],[27.5456047,-29.3336372],[27.5482388,-29.3381882],[27.553486,-29.3412072]],[[27.5524889,-29.3062556],[27.5560601,-29.2997343]],[[27.5560601,-29.2997343],[27.5546303,-29.2969208],[27.545269,-29.3016148]],[[27.545269,-29.3016148],[27.547224,-29.3042774],[27.5524889,-29.3062556]],[[27.2548332,-29.8059502],[27.2221997,-29.8127129],[27.2338859,-29.8333835],[27.2458488,-29.8275404],[27.2583325,-29.8337497],[27.2548332,-29.8059502]],[[27.731582,-29.4530767],[27.7271802,-29.4388115],[27.7043937,-29.4498141],[27.7177773,-29.4539466]],[[27.7177773,-29.4539466],[27.7182636,-29.4480705],[27.7200222,-29.4456654],[27.7252083,-29.445715],[27.7279491,-29.4478607],[27.731582,-29.4530767]],[[27.5663755,-29.2838936],[27.5700675,-29.2782239],[27.5631339,-29.2618421],[27.5541658,-29.2638522],[27.5490273,-29.2626979]],[[27.5490273,-29.2626979],[27.5551167,-29.2688179],[27.5599651,-29.2703876],[27.5620461,-29.2724209],[27.5619469,-29.2757721],[27.5655785,-29.2804489],[27.5663755,-29.2838936]],[[27.859635,-28.9027713],[27.8565096,-28.9058932],[27.8665193,-28.9087084],[27.859635,-28.9027713]],[[27.7177773,-29.4539466],[27.7333325,-29.4587497],[27.731582,-29.4530767]],[[27.545269,-29.3016148],[27.544487,-29.2988853],[27.5403061,-29.2963295],[27.5367622,-29.29776],[27.5354805,-29.3023491],[27.5311337,-29.3076267],[27.5242958,-29.3089619],[27.512207,-29.3019543],[27.5103912,-29.2969704],[27.5119057,-29.2912006],[27.5113201,-29.2891731],[27.5123787,-29.2849731],[27.5097116,-29.2800145]],[[27.5097116,-29.2800145],[27.5022107,-29.2849717],[27.5011826,-29.287569],[27.469742,-29.2955661],[27.471966,-29.3054892],[27.4751701,-29.3075981],[27.4782104,-29.3108826],[27.4775753,-29.314537],[27.4740734,-29.3176651],[27.465672,-29.3203486],[27.4493423,-29.3316262],[27.4475175,-29.3375977],[27.4536938,-29.364959],[27.4713859,-29.3905937],[27.4770307,-29.389328]],[[27.5004341,-29.384219],[27.5225903,-29.3986585],[27.5418937,-29.3943291],[27.5600657,-29.3987945]],[[27.5662058,-29.3941143],[27.5655004,-29.3844518],[27.5651646,-29.3798518],[27.5651295,-29.3793703]],[[27.5636509,-29.3591166],[27.5632641,-29.353818],[27.553486,-29.3412072]],[[27.5499861,-29.3129458],[27.5524889,-29.3062556]],[[27.4731763,-29.3475599],[27.4804842,-29.3402601],[27.4833325,-29.3504163],[27.4731763,-29.3475599]],[[27.5490273,-29.2626979],[27.5392407,-29.2604993],[27.5335461,-29.2642628],[27.5249615,-29.271841],[27.520022,-29.2732005],[27.5097116,-29.2800145]],[[27.5560601,-29.2997343],[27.5663755,-29.2838936]],[[27.7579582,-29.1410006],[27.7301587,-29.1465264],[27.7499992,-29.1587497],[27.7579582,-29.1410006]]],"bbox":[27.2221997,-30.1587497,28.2668611,-28.7392835]}