{"type":"Topology","objects":{"foo":{"type":"GeometryCollection","geometries":[{"type":"Polygon","arcs":[[0]],"properties":{"name":"Miarinarivo","gaul_code":19201,"targetarea":4.2349432,"totpop":281322.475375,"country_id":"MDG","targetpop":7152.6133423,"totalarea":2653.3967207,"new_mean":0.0034732}},{"type":"MultiPolygon","arcs":[[[1]],[[2]]],"properties":{"name":"Arivonimamo","gaul_code":19196,"targetarea":13.5481429,"totpop":285680.849203,"country_id":"MDG","targetpop":20603.8987427,"totalarea":2050.3691768,"new_mean":0.003249}},{"type":"MultiPolygon","arcs":[[[3]],[[4]],[[5,6]]],"properties":{"name":"Toamasina I","gaul_code":19270,"targetarea":111.5393264,"totpop":347313.931974,"country_id":"MDG","targetpop":280655.699768,"totalarea":244.1363781,"new_mean":0.00793}},{"type":"Polygon","arcs":[[7,8]],"properties":{"name":"Fianarantsoa I","gaul_code":19220,"targetarea":7.0784949,"totpop":31867.2207308,"country_id":"MDG","targetpop":13411.4697876,"totalarea":146.3347855,"new_mean":0.0004274}},{"type":"Polygon","arcs":[[9,10]],"properties":{"name":"Mahabo","gaul_code":19286,"targetarea":5.2716397,"totpop":191928.430913,"country_id":"MDG","targetpop":9247.8435059,"totalarea":13905.3153859,"new_mean":0.0022997}},{"type":"Polygon","arcs":[[11]],"properties":{"name":"Boriziny","gaul_code":19244,"targetarea":4.9361654,"totpop":341273.932369,"country_id":"MDG","targetpop":8206.7838135,"totalarea":6703.0320416,"new_mean":0.0021248}},{"type":"Polygon","arcs":[[12,13]],"properties":{"name":"Antsirabe I","gaul_code":19194,"targetarea":38.1389495,"totpop":117014.549183,"country_id":"MDG","targetpop":80635.0831909,"totalarea":145.7496863,"new_mean":0.0025121}},{"type":"Polygon","arcs":[[14,15,16,17],[18]],"properties":{"name":"Antananarivo-Avaradrano","gaul_code":19191,"targetarea":216.801569,"totpop":1111335.29466,"country_id":"MDG","targetpop":970648.704346,"totalarea":472.6419504,"new_mean":0.0039373}},{"type":"Polygon","arcs":[[19]],"properties":{"name":"Ambatondrazaka","gaul_code":19257,"targetarea":27.1335811,"totpop":377632.600031,"country_id":"MDG","targetpop":35974.1592407,"totalarea":5870.943014,"new_mean":0.0021511}},{"type":"Polygon","arcs":[[19]],"properties":{"name":"Ambatondrazaka","gaul_code":19257,"targetarea":27.1335811,"totpop":377632.600031,"country_id":"MDG","targetpop":35974.1592407,"totalarea":5870.943014,"new_mean":0.0118827}},{"type":"Polygon","arcs":[[20]],"properties":{"name":"Ambatolampy","gaul_code":19185,"targetarea":1.912926,"totpop":226459.942692,"country_id":"MDG","targetpop":2708.1221314,"totalarea":1575.0771294,"new_mean":0.0050888}},{"type":"MultiPolygon","arcs":[[[21,22]],[[23,24,-15]]],"properties":{"name":"Antananarivo-Renivohitra","gaul_code":19192,"targetarea":31.415444,"totpop":219541.425797,"country_id":"MDG","targetpop":212019.213013,"totalarea":43.7910156,"new_mean":0.0020912}},{"type":"Polygon","arcs":[[25]],"properties":{"name":"Vohipeno","gaul_code":19234,"targetarea":7.8869887,"totpop":212537.283534,"country_id":"MDG","targetpop":11843.0736694,"totalarea":1171.0552135,"new_mean":0.00687}},{"type":"Polygon","arcs":[[26]],"properties":{"name":"Mahajanga II","gaul_code":19248,"targetarea":81.0232188,"totpop":413107.022235,"country_id":"MDG","targetpop":301138.554321,"totalarea":4410.9097424,"new_mean":0.002635}},{"type":"Polygon","arcs":[[27]],"properties":{"name":"Antsiranana II","gaul_code":19209,"targetarea":14.7334303,"totpop":184410.917509,"country_id":"MDG","targetpop":19295.0717163,"totalarea":5511.4245552,"new_mean":0.0056725}},{"type":"Polygon","arcs":[[28]],"properties":{"name":"Maevatanana","gaul_code":19246,"targetarea":7.753056,"totpop":182609.139892,"country_id":"MDG","targetpop":11905.6235962,"totalarea":11862.4485752,"new_mean":0.0021691}},{"type":"Polygon","arcs":[[-7,29]],"properties":{"name":"Toamasina II","gaul_code":19271,"targetarea":13.5390207,"totpop":287657.862975,"country_id":"MDG","targetpop":22590.4112549,"totalarea":4731.2839484,"new_mean":0.0111584}},{"type":"MultiPolygon","arcs":[[[30,31]],[[32]]],"properties":{"name":"Toliara II","gaul_code":19294,"targetarea":39.8804073,"totpop":431433.47138,"country_id":"MDG","targetpop":71099.9389038,"totalarea":6958.5703563,"new_mean":0.0029068}},{"type":"Polygon","arcs":[[33]],"properties":{"name":"Tsiroanomandidy","gaul_code":19203,"targetarea":19.1392219,"totpop":447801.505972,"country_id":"MDG","targetpop":26643.9398804,"totalarea":9874.1762045,"new_mean":0.0021488}},{"type":"Polygon","arcs":[[34]],"properties":{"name":"Manakara","gaul_code":19228,"targetarea":25.0666451,"totpop":487986.447289,"country_id":"MDG","targetpop":69587.8657837,"totalarea":3279.6069988,"new_mean":0.0068972}},{"type":"Polygon","arcs":[[35]],"properties":{"name":"Nosy Boraha","gaul_code":19268,"targetarea":1.7805214,"totpop":35316.8801956,"country_id":"MDG","targetpop":1976.3269653,"totalarea":169.9045714,"new_mean":0.0103216}},{"type":"MultiPolygon","arcs":[[[36]],[[37,38]]],"properties":{"name":"Betafo","gaul_code":19197,"targetarea":2.8178635,"totpop":447260.501417,"country_id":"MDG","targetpop":4086.2417602,"totalarea":8546.5929632,"new_mean":0.0034222}},{"type":"Polygon","arcs":[[39]],"properties":{"name":"Vohimarina","gaul_code":19210,"targetarea":6.0199089,"totpop":348204.959159,"country_id":"MDG","targetpop":15561.6012878,"totalarea":8406.7779888,"new_mean":0.0061757}},{"type":"Polygon","arcs":[[40]],"properties":{"name":"Farafangana","gaul_code":19219,"targetarea":27.5114872,"totpop":555166.33454,"country_id":"MDG","targetpop":55377.854557,"totalarea":3050.0585276,"new_mean":0.0058142}},{"type":"MultiPolygon","arcs":[[[41]],[[42,-16,-25,43,-22,44]]],"properties":{"name":"Antananarivo-Atsimondrano","gaul_code":19190,"targetarea":237.3149899,"totpop":1958033.89517,"country_id":"MDG","targetpop":1875244.15576,"totalarea":475.9086876,"new_mean":0.0026926}},{"type":"Polygon","arcs":[[45]],"properties":{"name":"Marovoay","gaul_code":19252,"targetarea":14.2678917,"totpop":248151.134944,"country_id":"MDG","targetpop":45437.4885864,"totalarea":4445.5849057,"new_mean":0.0021526}},{"type":"Polygon","arcs":[[45]],"properties":{"name":"Marovoay","gaul_code":19252,"targetarea":14.2678917,"totpop":248151.134944,"country_id":"MDG","targetpop":45437.4885864,"totalarea":4445.5849057,"new_mean":0.0017634}},{"type":"Polygon","arcs":[[46]],"properties":{"name":"Sambava","gaul_code":19212,"targetarea":8.3113793,"totpop":303041.77848,"country_id":"MDG","targetpop":12317.0494385,"totalarea":5006.172766,"new_mean":0.0064925}},{"type":"MultiPolygon","arcs":[[[-11,47]],[[48]]],"properties":{"name":"Morondava","gaul_code":19290,"targetarea":14.2502442,"totpop":184089.780407,"country_id":"MDG","targetpop":26055.8654175,"totalarea":5364.6657549,"new_mean":0.0024851}},{"type":"Polygon","arcs":[[49]],"properties":{"name":"Ihosy","gaul_code":19224,"targetarea":19.418744,"totpop":396679.399951,"country_id":"MDG","targetpop":54235.5884399,"totalarea":16773.7629481,"new_mean":0.0020399}},{"type":"Polygon","arcs":[[50]],"properties":{"name":"Mampikony","gaul_code":19250,"targetarea":4.4958742,"totpop":198215.646766,"country_id":"MDG","targetpop":6042.2561645,"totalarea":4891.8651202,"new_mean":0.0019717}},{"type":"MultiPolygon","arcs":[[[51]],[[52,-9]]],"properties":{"name":"Fianarantsoa II","gaul_code":19221,"targetarea":41.107207,"totpop":639841.834928,"country_id":"MDG","targetpop":159295.940735,"totalarea":4322.9939567,"new_mean":0.0016227}},{"type":"Polygon","arcs":[[53]],"properties":{"name":"Ambanja","gaul_code":19204,"targetarea":8.5257054,"totpop":252515.994444,"country_id":"MDG","targetpop":12877.4476318,"totalarea":5524.9882535,"new_mean":0.0099178}},{"type":"Polygon","arcs":[[54]],"properties":{"name":"Nosy Be","gaul_code":19211,"targetarea":36.5388269,"totpop":134294.4621,"country_id":"MDG","targetpop":53601.7882385,"totalarea":317.9543891,"new_mean":0.0087887}},{"type":"Polygon","arcs":[[-17,-43,55],[56]],"properties":{"name":"Ambohidratrimo","gaul_code":19186,"targetarea":223.9643899,"totpop":723065.814522,"country_id":"MDG","targetpop":401989.053894,"totalarea":1213.0578875,"new_mean":0.0023415}},{"type":"MultiPolygon","arcs":[[[57,-31]],[[58]]],"properties":{"name":"Toliara I","gaul_code":19293,"targetarea":28.6659029,"totpop":115323.734728,"country_id":"MDG","targetpop":32832.7280884,"totalarea":330.2751407,"new_mean":0.0013925}},{"type":"Polygon","arcs":[[59]],"properties":{"name":"Ambositra","gaul_code":19216,"targetarea":14.7675863,"totpop":252221.150362,"country_id":"MDG","targetpop":22732.7346802,"totalarea":3166.9443766,"new_mean":0.0027186}},{"type":"MultiPolygon","arcs":[[[60,-38,61,-13]],[[62]]],"properties":{"name":"Antsirabe II","gaul_code":19195,"targetarea":88.8961409,"totpop":552403.479424,"country_id":"MDG","targetpop":245319.176353,"totalarea":2348.8621871,"new_mean":0.0042562}},{"type":"MultiPolygon","arcs":[[[63]],[[64]],[[65]]],"properties":{"name":"Antsiranana I","gaul_code":19208,"targetarea":41.5427488,"totpop":115438.972487,"country_id":"MDG","targetpop":57335.5843468,"totalarea":246.9632049,"new_mean":0.0024918}}]}},"arcs":[[[46.9264151,-18.9474623],[46.9130199,-18.9392836],[46.9055329,-18.9614515],[46.9166658,-18.967083],[46.9264151,-18.9474623]],[[47.1967276,-18.9897067],[47.179296,-18.9982191],[47.1721996,-19.0219089],[47.1999991,-19.0254164],[47.1967276,-18.9897067]],[[47.338671,-18.9793796],[47.3272777,-18.9636813],[47.3049307,-18.9847914],[47.3333324,-18.992083],[47.338671,-18.9793796]],[[49.3916657,-18.1754164],[49.4111482,-18.1696614],[49.4193192,-18.1441574],[49.4104424,-18.1328316],[49.3971996,-18.1392836],[49.3827465,-18.157472],[49.3916657,-18.1754164]],[[49.40923,-18.0784338],[49.4105315,-18.0721196],[49.3816072,-18.0636814],[49.3715974,-18.0849786],[49.3999991,-18.1004164],[49.40923,-18.0784338]],[[49.3278938,-18.0698882],[49.3416657,-18.0837497],[49.357128,-18.0558607],[49.3797842,-18.0468601],[49.3868806,-18.0206394],[49.4253544,-18.0067849],[49.4311923,-17.9852592],[49.4281892,-17.9718601],[49.3593578,-17.983709],[49.3360342,-17.9981459],[49.3166657,-17.9948174],[49.2998852,-17.9977064]],[[49.2998852,-17.9977064],[49.3044243,-18.0279369],[49.3278938,-18.0698882]],[[47.1151017,-21.5335034],[47.1112458,-21.5208265],[47.1240225,-21.5120049],[47.100406,-21.47575],[47.0853453,-21.4791317]],[[47.0853453,-21.4791317],[47.0951805,-21.4856892],[47.1151017,-21.5335034]],[[44.5676683,-20.348786],[44.5916658,-20.3504164],[44.6107087,-20.3370944],[44.57466,-20.3320922]],[[44.57466,-20.3320922],[44.5676683,-20.348786]],[[47.6411124,-15.5995131],[47.6221996,-15.6135756],[47.6499991,-15.6170831],[47.6411124,-15.5995131]],[[47.0899032,-19.8353258],[47.067379,-19.8109264],[47.0406914,-19.7931328],[47.0181371,-19.7879286]],[[47.0181371,-19.7879286],[47.0194164,-19.8117608],[47.0299958,-19.8297458],[47.0193188,-19.8382907],[47.021337,-19.8544528],[47.0749991,-19.8587497],[47.0899032,-19.8353258]],[[47.5888184,-18.9917888],[47.5266609,-18.9613113],[47.5120659,-18.9353657]],[[47.5120659,-18.9353657],[47.5066452,-18.9257259],[47.5110931,-18.8856907],[47.519989,-18.8523293],[47.4976997,-18.8099823]],[[47.4976997,-18.8099823],[47.4704208,-18.8266945],[47.4419823,-18.8347607],[47.4383485,-18.8399373]],[[47.4383485,-18.8399373],[47.4496736,-18.8757338],[47.4628246,-18.8879164],[47.4531729,-18.8968601],[47.4376456,-18.9297539],[47.4210115,-18.9290948],[47.4204418,-18.9436944],[47.469921,-18.9593601],[47.479003,-18.9880791],[47.4956859,-19.0214206],[47.5123201,-19.0207614],[47.5038891,-19.0463067],[47.5583324,-19.1004164],[47.5709952,-19.1044203],[47.6152172,-19.1061781],[47.5876456,-19.0794121],[47.5790193,-19.0797539],[47.5661938,-19.0659193],[47.5459952,-19.0197686],[47.6026555,-19.0220165],[47.6021302,-19.0169367],[47.5888184,-18.9917888]],[[47.5416658,-19.0504164],[47.5210603,-19.0440524],[47.5328767,-19.0219659],[47.5416658,-19.0504164]],[[48.5570629,-17.7653741],[48.5526846,-17.730112],[48.5131176,-17.7050469],[48.5219066,-17.7757175],[48.5499991,-17.7837497],[48.5570629,-17.7653741]],[[47.4312491,-19.3730645],[47.4220531,-19.3878594],[47.4416658,-19.392083],[47.4312491,-19.3730645]],[[47.6062291,-18.9588156],[47.584068,-18.9384996]],[[47.584068,-18.9384996],[47.6007315,-18.9710869],[47.6062291,-18.9588156]],[[47.5888184,-18.9917888],[47.5713207,-18.9587334],[47.5837764,-18.9382323]],[[47.5837764,-18.9382323],[47.5466766,-18.9279499],[47.5120659,-18.9353657]],[[47.8371898,-22.4209404],[47.8674796,-22.3948418],[47.8384757,-22.3971774],[47.8128083,-22.4192396],[47.8371898,-22.4209404]],[[46.4202302,-15.6846123],[46.3450837,-15.7051853],[46.3016514,-15.7250526],[46.3287697,-15.729517],[46.3359146,-15.7235899],[46.3596001,-15.7276249],[46.3455232,-15.7876071],[46.4270173,-15.7690931],[46.4202302,-15.6846123]],[[49.3867178,-12.4359144],[49.3406404,-12.4159356],[49.3295564,-12.431406],[49.3637686,-12.4462497],[49.3620434,-12.4632826],[49.3749991,-12.4670831],[49.3867178,-12.4359144]],[[46.8437003,-16.9462253],[46.8186677,-16.9392836],[46.8055329,-16.9635756],[46.8333324,-16.967083],[46.8437003,-16.9462253]],[[49.2998852,-17.9977064],[49.2829743,-18.020444],[49.2980785,-18.0580417],[49.3278938,-18.0698882]],[[43.7346863,-23.3867862],[43.7146357,-23.3967956]],[[43.7146357,-23.3967956],[43.7416658,-23.4004164],[43.7346863,-23.3867862]],[[43.7587409,-23.374778],[43.7713695,-23.3957126],[43.7786287,-23.4467868],[43.7999991,-23.4504164],[43.8164867,-23.4357842],[43.8112621,-23.4004164],[43.8166658,-23.3638604],[43.7654402,-23.3714337],[43.7587409,-23.374778]],[[45.9547029,-18.7123793],[45.9068188,-18.6927829],[45.8963695,-18.72964],[45.9583324,-18.7337497],[45.9547029,-18.7123793]],[[48.0290298,-22.1367931],[48.0388012,-22.1068047],[47.9628083,-22.0993991],[47.9843415,-22.1379896],[48.0278736,-22.1416269],[48.0290298,-22.1367931]],[[49.855712,-16.9907403],[49.8446461,-17.0067558],[49.8583324,-17.0087497],[49.855712,-16.9907403]],[[46.8562491,-19.8230645],[46.8470531,-19.8378594],[46.8666658,-19.842083],[46.8562491,-19.8230645]],[[47.0018894,-19.7520358],[47.0081558,-19.7313309],[47.0032656,-19.7135461]],[[47.0032656,-19.7135461],[47.0018894,-19.7520358]],[[50.0227165,-13.3594294],[50.0056697,-13.3526355],[49.9973461,-13.371502],[50.0225365,-13.3750678],[50.0227165,-13.3594294]],[[47.8401833,-22.8493477],[47.8369457,-22.8106133],[47.7968415,-22.813836],[47.7878083,-22.8625827],[47.8356876,-22.8665835],[47.8401833,-22.8493477]],[[47.6377432,-18.8727797],[47.6218904,-18.8958998],[47.6416658,-18.9004164],[47.6377432,-18.8727797]],[[47.6004244,-18.7186097],[47.5501976,-18.7436676],[47.5381241,-18.7652035],[47.5082016,-18.7847595],[47.5027924,-18.7986348],[47.500151,-18.8069878],[47.4976997,-18.8099823]],[[47.5837764,-18.9382323],[47.584068,-18.9384996]],[[47.6062291,-18.9588156],[47.6123363,-18.9451836],[47.5876619,-18.9201836],[47.6105134,-18.8990085],[47.5836742,-18.8863457],[47.5966625,-18.8617933],[47.6293285,-18.8630873],[47.6361454,-18.8305545],[47.6337017,-18.8231554],[47.6120108,-18.8129164],[47.6127432,-18.7944268],[47.6293285,-18.7630547],[47.6284,-18.7396264],[47.6243192,-18.7338429],[47.6004244,-18.7186097]],[[46.7059561,-16.0658542],[46.6752432,-16.0550469],[46.6546215,-16.0864109],[46.6999991,-16.0920831],[46.7059561,-16.0658542]],[[50.173027,-14.2662687],[50.1549145,-14.249664],[50.1297029,-14.2611504],[50.1378246,-14.2730482],[50.173027,-14.2662687]],[[44.57466,-20.3320922],[44.5675447,-20.3311048],[44.5473461,-20.3474053],[44.5676683,-20.348786]],[[44.3174958,-20.2882907],[44.2860098,-20.277565],[44.2797928,-20.2908516],[44.2644985,-20.30513],[44.3083324,-20.3087497],[44.3174958,-20.2882907]],[[46.1448884,-22.3046156],[46.1483064,-22.2894056],[46.107893,-22.280348],[46.0965974,-22.3184258],[46.120572,-22.3241061],[46.137727,-22.320265],[46.1448884,-22.3046156]],[[47.6899079,-16.1237318],[47.6460603,-16.1305759],[47.6833324,-16.1420831],[47.6899079,-16.1237318]],[[47.106363,-21.5671888],[47.0841462,-21.5383802],[47.0712882,-21.5755384],[47.0999991,-21.5837497],[47.106363,-21.5671888]],[[47.0853453,-21.4791317],[47.0462231,-21.4823011],[47.0382641,-21.5159925],[47.0928376,-21.5299981],[47.1151017,-21.5335034]],[[48.4621573,-13.6641615],[48.4499014,-13.6469333],[48.4381827,-13.6845717],[48.4666658,-13.6920831],[48.4621573,-13.6641615]],[[48.2757315,-13.374684],[48.2508943,-13.3400404],[48.2318839,-13.3699883],[48.2270096,-13.3946353],[48.2566882,-13.4148905],[48.2639961,-13.4021244],[48.3116202,-13.4004164],[48.2757315,-13.374684]],[[47.6004244,-18.7186097],[47.5786775,-18.7047458],[47.5793448,-18.7214043],[47.5443513,-18.7324802],[47.4833324,-18.7254164],[47.4684398,-18.7623793],[47.4463695,-18.7515638],[47.4575023,-18.7298028],[47.4833324,-18.7254164],[47.4886221,-18.7039076],[47.4546703,-18.6951999],[47.4374991,-18.6990492],[47.4208324,-18.6953138],[47.4041658,-18.6990492],[47.3965974,-18.6788181],[47.3803865,-18.6676202],[47.3713207,-18.6807386],[47.3367992,-18.6700371],[47.3333324,-18.692083],[47.3416658,-18.7004164],[47.3583324,-18.7087497],[47.3416658,-18.7004164],[47.3333324,-18.692083],[47.3051586,-18.7055759],[47.2801586,-18.7140882],[47.2919913,-18.7448011],[47.3328604,-18.7264906],[47.3728181,-18.7401055],[47.3948396,-18.7555759],[47.4083324,-18.7587497],[47.4127921,-18.7304538],[47.4276846,-18.7271172],[47.4333324,-18.7523369],[47.4083324,-18.7587497],[47.4149568,-18.8260511],[47.3999991,-18.8587497],[47.4126619,-18.8547458],[47.4353018,-18.8303073],[47.4383485,-18.8399373]],[[47.4315095,-18.7893894],[47.4473786,-18.7740736],[47.4499991,-18.792083],[47.4315095,-18.7893894]],[[43.7346863,-23.3867862],[43.7276684,-23.3730807],[43.7146357,-23.3967956]],[[43.6999991,-23.367083],[43.6929516,-23.3513441],[43.6990063,-23.3318698],[43.6621736,-23.3281833],[43.6311677,-23.3387464],[43.6661148,-23.3661022],[43.6848298,-23.3865003],[43.6999991,-23.367083]],[[47.2132641,-20.5371514],[47.1728832,-20.530348],[47.1632641,-20.5536309],[47.2166658,-20.567083],[47.2132641,-20.5371514]],[[47.0899032,-19.8353258],[47.1028311,-19.8150078],[47.0951488,-19.7532403],[47.0398917,-19.7089938],[47.0032656,-19.7135461]],[[47.0018894,-19.7520358],[47.0010408,-19.7588474],[47.0181371,-19.7879286]],[[47.1443025,-19.6054701],[47.1296215,-19.6195895],[47.1499991,-19.6254164],[47.1443025,-19.6054701]],[[49.3721996,-12.2782159],[49.3549441,-12.2728922],[49.3471996,-12.3031426],[49.3749991,-12.3170831],[49.3721996,-12.2782159]],[[49.2988434,-12.2647543],[49.2734577,-12.2789055],[49.2690496,-12.2862489],[49.2860342,-12.3266859],[49.3083324,-12.3420831],[49.3144197,-12.3173109],[49.306694,-12.2895632],[49.3148285,-12.2812336],[49.2988434,-12.2647543]],[[49.3549307,-12.2371514],[49.337841,-12.2479982],[49.3443876,-12.263503],[49.3583324,-12.2670831],[49.3549307,-12.2371514]]],"bbox":[43.6311677,-23.4504164,50.173027,-12.2371514]}