{"type":"Topology","objects":{"foo":{"type":"GeometryCollection","geometries":[{"type":"MultiPolygon","arcs":[[[0]],[[1]],[[2]],[[3]]],"properties":{"name":"Administrative unit not available","gaul_code":19362,"targetarea":6.538848,"totpop":7937.6019306,"country_id":"MDV","targetpop":7683.5479431,"totalarea":17.6515078,"new_mean":0.0164962}},{"type":"Polygon","arcs":[[4]],"properties":{"name":"Administrative unit not available","gaul_code":19352,"targetarea":1.4546383,"totpop":1265.7075729,"country_id":"MDV","targetpop":984.7319336,"totalarea":3.3388337,"new_mean":0.0164363}},{"type":"Polygon","arcs":[[5]],"properties":{"name":"Administrative unit not available","gaul_code":19364,"targetarea":1.2023967,"totpop":2557.3362017,"country_id":"MDV","targetpop":2399.3601074,"totalarea":11.3829807,"new_mean":0.0164774}}]}},"arcs":[[[73.1697006,-0.6897231],[73.1517011,-0.6803937],[73.145546,-0.679983],[73.1498642,-0.6850621],[73.1605682,-0.692702],[73.1697006,-0.6897231]],[[73.1268927,-0.6660899],[73.1196225,-0.6555606],[73.1151242,-0.6591797],[73.1172867,-0.6644371],[73.1209259,-0.6676729],[73.1254883,-0.6690759],[73.1268927,-0.6660899]],[[73.099999,-0.6170831],[73.0976914,-0.6229575],[73.1024074,-0.6313228],[73.1085253,-0.6281193],[73.1062231,-0.6218888],[73.099999,-0.6170831]],[[73.099999,-0.6170831],[73.0978483,-0.607692],[73.0949631,-0.605621],[73.090707,-0.5951307],[73.0835518,-0.5894773],[73.0817795,-0.5929981],[73.0812836,-0.599891],[73.090436,-0.6148942],[73.099999,-0.6170831]],[[73.4435883,-0.303632],[73.4430837,-0.3022197],[73.4228155,-0.2868998],[73.4208145,-0.288128],[73.433548,-0.299907],[73.434433,-0.306575],[73.439682,-0.307289],[73.4435883,-0.303632]],[[73.1231089,2.1902788],[73.121625,2.1960589],[73.1129608,2.2004471],[73.1108627,2.1976728],[73.1120911,2.1941719],[73.1174088,2.1901531],[73.1231089,2.1902788]]],"bbox":[73.0812836,-0.692702,73.4435883,2.2004471]}