{"type":"Topology","objects":{"foo":{"type":"GeometryCollection","geometries":[{"type":"Polygon","arcs":[[0]],"properties":{"name":"Nouakchott","gaul_code":19522,"targetarea":176.1854319,"totpop":1353219.19183,"country_id":"MRT","targetpop":1301517.37088,"new_mean":0.0150623,"totalarea":1501.8447375}},{"type":"Polygon","arcs":[[1]],"properties":{"name":"Kaedi","gaul_code":19505,"targetarea":9.2380969,"totpop":147911.144759,"country_id":"MRT","targetpop":13153.9700928,"new_mean":0.0094554,"totalarea":4239.0001436}},{"type":"Polygon","arcs":[[2]],"properties":{"name":"Aioun Al Atrous","gaul_code":19517,"targetarea":7.9429185,"totpop":80194.1340873,"country_id":"MRT","targetpop":10116.982666,"new_mean":0.0170619,"totalarea":17698.9840502}},{"type":"Polygon","arcs":[[3]],"properties":{"name":"F Derik","gaul_code":19527,"targetarea":6.1773609,"totpop":56485.6914947,"country_id":"MRT","targetpop":10668.5514526,"new_mean":0.0000982,"totalarea":172161.427658}},{"type":"Polygon","arcs":[[4]],"properties":{"name":"Kiffa","gaul_code":19498,"targetarea":9.7741753,"totpop":132200.341049,"country_id":"MRT","targetpop":13673.7929077,"new_mean":0.0141465,"totalarea":10824.3236699}},{"type":"Polygon","arcs":[[5]],"properties":{"name":"Nema","gaul_code":19514,"targetarea":8.6084648,"totpop":104769.722144,"country_id":"MRT","targetpop":20471.763916,"new_mean":0.0168682,"totalarea":9927.1021086}},{"type":"Polygon","arcs":[[6]],"properties":{"name":"Nouadhibou","gaul_code":19504,"targetarea":59.1550723,"totpop":153771.327892,"country_id":"MRT","targetpop":129877.685852,"new_mean":0.0214701,"totalarea":17105.0962031}},{"type":"Polygon","arcs":[[7]],"properties":{"name":"Selibaby","gaul_code":19510,"targetarea":9.2162007,"totpop":252395.419944,"country_id":"MRT","targetpop":12652.9274292,"new_mean":0.0177543,"totalarea":7130.2221586}}]}},"arcs":[[[-15.8878099,18.080748],[-15.9044766,18.0951076],[-15.9162116,18.1467921],[-16.0301138,18.1376393],[-16.0240575,18.063076],[-16.0038581,18.0540594],[-15.9865241,18.0368149],[-15.9878587,18.0202174],[-15.9726081,17.9787054],[-15.9500007,17.9745835],[-15.9441901,18.0034002],[-15.9205247,18.0367742],[-15.9125007,18.0547552],[-15.895541,18.0533921],[-15.8878099,18.080748]],[[-13.4965374,16.1381564],[-13.4799323,16.1766058],[-13.5256354,16.146845],[-13.4965374,16.1381564]],[[-9.633334,16.6495835],[-9.596599,16.6545151],[-9.6194831,16.6696518],[-9.633334,16.6495835]],[[-12.483334,22.7245835],[-12.4706224,22.719249],[-12.4549323,22.7306422],[-12.4760423,22.7529852],[-12.483334,22.7245835]],[[-11.3884935,16.6047389],[-11.3772142,16.6116929],[-11.3911302,16.631513],[-11.4245449,16.6211045],[-11.3884935,16.6047389]],[[-7.2398933,16.620897],[-7.273308,16.627383],[-7.2944668,16.6109971],[-7.233334,16.6079168],[-7.2398933,16.620897]],[[-17.0115892,20.9895656],[-17.0317227,21.0034409],[-17.062224,20.9230454],[-17.0664576,20.875091],[-17.0538255,20.828921],[-17.0551602,20.8121689],[-17.0412645,20.8041564],[-17.0279045,20.8437996],[-17.0290508,20.8566704],[-17.0475273,20.8733044],[-17.0518284,20.8900928],[-17.042923,20.9079647],[-17.020547,20.912695],[-17.012208,20.9284266],[-17.0231452,20.9365626],[-17.0115892,20.9895656]],[[-12.166,15.1609157],[-12.1802253,15.1693507],[-12.1878262,15.2025498],[-12.1947761,15.1457708],[-12.1750007,15.1412502],[-12.166,15.1609157]]],"bbox":[-17.0664576,15.1412502,-7.233334,22.7529852]}