{"type":"Topology","objects":{"foo":{"type":"GeometryCollection","geometries":[{"type":"Polygon","arcs":[[0]],"properties":{"name":"Chichigalpa","gaul_code":22425,"targetarea":6.7720903,"totpop":44030.4774189,"country_id":"NIC","targetpop":8957.3157349,"new_mean":0.1279366,"totalarea":191.873239}},{"type":"Polygon","arcs":[[1,2,3]],"properties":{"name":"Dolores","gaul_code":22419,"targetarea":3.6743839,"totpop":10822.0522575,"country_id":"NIC","targetpop":7285.1164551,"new_mean":0.1182975,"totalarea":44.0774447}},{"type":"Polygon","arcs":[[4,5,6]],"properties":{"name":"Ticuantepe","gaul_code":22493,"targetarea":6.0226217,"totpop":32064.1615219,"country_id":"NIC","targetpop":10918.005249,"new_mean":0.1187188,"totalarea":54.9103553}},{"type":"Polygon","arcs":[[7]],"properties":{"name":"Quilali","gaul_code":22526,"targetarea":2.2341972,"totpop":42436.7325249,"country_id":"NIC","targetpop":2887.4491577,"new_mean":0.0966068,"totalarea":383.0810648}},{"type":"MultiPolygon","arcs":[[[8]],[[9,10,11]]],"properties":{"name":"Chinandega","gaul_code":22426,"targetarea":26.7774115,"totpop":146480.707382,"country_id":"NIC","targetpop":48355.5635376,"new_mean":0.1331514,"totalarea":772.1842491}},{"type":"Polygon","arcs":[[12]],"properties":{"name":"Granada","gaul_code":22459,"targetarea":21.6763576,"totpop":95388.0070701,"country_id":"NIC","targetpop":34804.0219116,"new_mean":0.1368609,"totalarea":524.2464289}},{"type":"Polygon","arcs":[[13,14]],"properties":{"name":"Mateare","gaul_code":22490,"targetarea":15.0101711,"totpop":82414.0035038,"country_id":"NIC","targetpop":30105.2587891,"new_mean":0.1414036,"totalarea":577.6849419}},{"type":"Polygon","arcs":[[15]],"properties":{"name":"Corinto","gaul_code":22428,"targetarea":6.4346678,"totpop":9880.5845541,"country_id":"NIC","targetpop":6904.5709305,"new_mean":0.1270705,"totalarea":37.5847149}},{"type":"Polygon","arcs":[[16]],"properties":{"name":"Ciudad Dario","gaul_code":22505,"targetarea":4.6279855,"totpop":60543.0579243,"country_id":"NIC","targetpop":6715.227417,"new_mean":0.1231481,"totalarea":918.0389538}},{"type":"Polygon","arcs":[[17]],"properties":{"name":"Las Praderas","gaul_code":22467,"targetarea":1.972085,"totpop":54919.7919731,"country_id":"NIC","targetpop":3033.1894531,"new_mean":0.0806909,"totalarea":556.0961089}},{"type":"Polygon","arcs":[[18,19,20]],"properties":{"name":"Rivas","gaul_code":22548,"targetarea":7.5545873,"totpop":30822.9363575,"country_id":"NIC","targetpop":10479.7470703,"new_mean":0.1260306,"totalarea":159.6902881}},{"type":"Polygon","arcs":[[21]],"properties":{"name":"Matagalpa","gaul_code":22508,"targetarea":46.8059446,"totpop":181345.174086,"country_id":"NIC","targetpop":93028.6396484,"new_mean":0.1123605,"totalarea":602.3165089}},{"type":"Polygon","arcs":[[22]],"properties":{"name":"Jinotega","gaul_code":22465,"targetarea":12.6606637,"totpop":156999.682079,"country_id":"NIC","targetpop":21934.6229248,"new_mean":0.0946555,"totalarea":946.3618135}},{"type":"Polygon","arcs":[[23]],"properties":{"name":"Boaco","gaul_code":22411,"targetarea":5.4364371,"totpop":53485.6476727,"country_id":"NIC","targetpop":7461.6820679,"new_mean":0.096186,"totalarea":996.1056109}},{"type":"Polygon","arcs":[[-11,24]],"properties":{"name":"El Viejo","gaul_code":22430,"targetarea":7.3285977,"totpop":81160.1592075,"country_id":"NIC","targetpop":12187.5287476,"new_mean":0.1372371,"totalarea":1337.5397341}},{"type":"Polygon","arcs":[[25]],"properties":{"name":"Diria","gaul_code":22457,"targetarea":4.3352964,"totpop":12935.1340866,"country_id":"NIC","targetpop":6932.3662109,"new_mean":0.1247326,"totalarea":23.5628188}},{"type":"Polygon","arcs":[[26,27]],"properties":{"name":"La Concepcion","gaul_code":22497,"targetarea":8.8796092,"totpop":35567.9896927,"country_id":"NIC","targetpop":12458.9830322,"new_mean":0.11508,"totalarea":63.3877246}},{"type":"Polygon","arcs":[[28,-21,29]],"properties":{"name":"Buenos Aires","gaul_code":22543,"targetarea":2.1136219,"totpop":15792.2531428,"country_id":"NIC","targetpop":3900.9334717,"new_mean":0.1313831,"totalarea":73.2634093}},{"type":"Polygon","arcs":[[30]],"properties":{"name":"Great Corn Island","gaul_code":22404,"targetarea":2.2088761,"totpop":5596.7458267,"country_id":"NIC","targetpop":2773.0523071,"new_mean":0.0956638,"totalarea":9.8242271}},{"type":"Polygon","arcs":[[31]],"properties":{"name":"San Sebastian De Yali","gaul_code":22469,"targetarea":1.9724162,"totpop":31945.5409117,"country_id":"NIC","targetpop":3954.7113648,"new_mean":0.0903805,"totalarea":322.4758869}},{"type":"Polygon","arcs":[[32]],"properties":{"name":"Somoto","gaul_code":22485,"targetarea":2.2349591,"totpop":44842.8796597,"country_id":"NIC","targetpop":2893.2218628,"new_mean":0.1228221,"totalarea":467.4080497}},{"type":"Polygon","arcs":[[33,34,35]],"properties":{"name":"Niquinohomo","gaul_code":22502,"targetarea":1.0992816,"totpop":6159.0573578,"country_id":"NIC","targetpop":1607.9096069,"new_mean":0.1205224,"totalarea":20.3494653}},{"type":"MultiPolygon","arcs":[[[36]],[[37,38,-3]]],"properties":{"name":"Diriamba","gaul_code":22418,"targetarea":11.3438056,"totpop":81750.6832628,"country_id":"NIC","targetpop":18076.5249634,"new_mean":0.1179069,"totalarea":609.1329309}},{"type":"Polygon","arcs":[[39]],"properties":{"name":"Siuna","gaul_code":22397,"targetarea":1.9253291,"totpop":140168.388162,"country_id":"NIC","targetpop":2849.7243042,"new_mean":0.087792,"totalarea":4664.8635821}},{"type":"Polygon","arcs":[[40]],"properties":{"name":"San Marcos","gaul_code":22424,"targetarea":3.3247385,"totpop":25894.2633133,"country_id":"NIC","targetpop":4214.5691528,"new_mean":0.112154,"totalarea":92.5568724}},{"type":"MultiPolygon","arcs":[[[41,42]],[[-27,43]]],"properties":{"name":"Masatepe","gaul_code":22498,"targetarea":14.8219242,"totpop":50899.7573519,"country_id":"NIC","targetpop":18950.7943115,"new_mean":0.1148805,"totalarea":71.3176133}},{"type":"MultiPolygon","arcs":[[[44]],[[45]]],"properties":{"name":"Isla","gaul_code":22431,"targetarea":52.6959573,"totpop":192690.358085,"country_id":"NIC","targetpop":89766.3304138,"new_mean":0.1286433,"totalarea":849.6516039}},{"type":"Polygon","arcs":[[46]],"properties":{"name":"Juigalpa","gaul_code":22444,"targetarea":8.0505576,"totpop":67169.9408356,"country_id":"NIC","targetpop":12627.6039429,"new_mean":0.1231598,"totalarea":1060.5985064}},{"type":"Polygon","arcs":[[47]],"properties":{"name":"La Dalia","gaul_code":22507,"targetarea":4.998011,"totpop":57455.8452187,"country_id":"NIC","targetpop":8539.3468018,"new_mean":0.0854456,"totalarea":424.5957584}},{"type":"Polygon","arcs":[[48]],"properties":{"name":"Rio Blanco","gaul_code":22512,"targetarea":1.9316123,"totpop":101746.806714,"country_id":"NIC","targetpop":3156.3817749,"new_mean":0.0814203,"totalarea":2699.0155346}},{"type":"MultiPolygon","arcs":[[[49,50]],[[51,52,-5]]],"properties":{"name":"Nindiri","gaul_code":22501,"targetarea":6.4867197,"totpop":52283.859642,"country_id":"NIC","targetpop":9188.9268188,"new_mean":0.1208161,"totalarea":122.133522}},{"type":"Polygon","arcs":[[53,-43,54,-35,55]],"properties":{"name":"Nandasmo","gaul_code":22500,"targetarea":7.5802098,"totpop":17540.2637024,"country_id":"NIC","targetpop":11522.7333374,"new_mean":0.1215537,"totalarea":16.8447549}},{"type":"MultiPolygon","arcs":[[[56,57]],[[58]]],"properties":{"name":"Tipitapa","gaul_code":22494,"targetarea":36.5366669,"totpop":183508.656139,"country_id":"NIC","targetpop":66595.8222046,"new_mean":0.1359399,"totalarea":1051.8948282}},{"type":"Polygon","arcs":[[59,60,61,-38,-2,62]],"properties":{"name":"Jinotepe","gaul_code":22421,"targetarea":15.1134427,"totpop":49041.6632648,"country_id":"NIC","targetpop":26285.6251221,"new_mean":0.1155725,"totalarea":209.307883}},{"type":"Polygon","arcs":[[63]],"properties":{"name":"Ocotal","gaul_code":22525,"targetarea":18.0359903,"totpop":55994.4174213,"country_id":"NIC","targetpop":35610.2243042,"new_mean":0.1262644,"totalarea":141.3626656}},{"type":"Polygon","arcs":[[64]],"properties":{"name":"Esteli","gaul_code":22452,"targetarea":32.6840562,"totpop":141760.577402,"country_id":"NIC","targetpop":62026.6727905,"new_mean":0.123681,"totalarea":720.2356683}},{"type":"Polygon","arcs":[[65,-15,66,-6,-53,67,-58]],"properties":{"name":"Managua","gaul_code":22489,"targetarea":275.7209835,"totpop":1219435.67632,"country_id":"NIC","targetpop":1154489.72952,"new_mean":0.1313591,"totalarea":694.9274509}},{"type":"Polygon","arcs":[[68,-60,69]],"properties":{"name":"La Conquista","gaul_code":22422,"targetarea":0.3589116,"totpop":4906.3227921,"country_id":"NIC","targetpop":0,"new_mean":0.1240729,"totalarea":83.963252}},{"type":"Polygon","arcs":[[70]],"properties":{"name":"Condega","gaul_code":22451,"targetarea":2.5537831,"totpop":34673.3881779,"country_id":"NIC","targetpop":4271.5703735,"new_mean":0.1143716,"totalarea":400.9290356}},{"type":"Polygon","arcs":[[71]],"properties":{"name":"Jalapa","gaul_code":22521,"targetarea":4.9820115,"totpop":75909.0786057,"country_id":"NIC","targetpop":7388.8398438,"new_mean":0.0878749,"totalarea":605.6217851}},{"type":"Polygon","arcs":[[72]],"properties":{"name":"Sebaco","gaul_code":22516,"targetarea":8.6241145,"totpop":46718.0158176,"country_id":"NIC","targetpop":13112.7923584,"new_mean":0.1278443,"totalarea":277.7469662}},{"type":"MultiPolygon","arcs":[[[73,74,-56]],[[75,-50]]],"properties":{"name":"Masaya","gaul_code":22499,"targetarea":64.1871585,"totpop":183176.775398,"country_id":"NIC","targetpop":130368.838806,"new_mean":0.1263298,"totalarea":180.9395365}},{"type":"Polygon","arcs":[[-74,-34,76]],"properties":{"name":"Catarina","gaul_code":22496,"targetarea":4.6875591,"totpop":9897.1163025,"country_id":"NIC","targetpop":7601.8713379,"new_mean":0,"totalarea":12.6973653}},{"type":"Polygon","arcs":[[77,-61,-69]],"properties":{"name":"El Rosario","gaul_code":22420,"targetarea":1.7621933,"totpop":12584.4921722,"country_id":"NIC","targetpop":2780.6676025,"new_mean":0,"totalarea":19.9025958}},{"type":"Polygon","arcs":[[78,-30,-20]],"properties":{"name":"San Jorge","gaul_code":22549,"targetarea":0.4759054,"totpop":6111.1341782,"country_id":"NIC","targetpop":0,"new_mean":0,"totalarea":22.281}}]}},"arcs":[[[-87.0164799,12.5750636],[-87.0277022,12.5940496],[-87.0440352,12.561758],[-87.0250004,12.5579168],[-87.0164799,12.5750636]],[[-86.2135055,11.8376914],[-86.2121201,11.8501205],[-86.2298813,11.8572893]],[[-86.2298813,11.8572893],[-86.2358828,11.8427758]],[[-86.2358828,11.8427758],[-86.2135055,11.8376914]],[[-86.1833706,12.0245551],[-86.1991272,12.0409622]],[[-86.1991272,12.0409622],[-86.2170778,12.0297249]],[[-86.2170778,12.0297249],[-86.2129642,12.019957],[-86.191667,12.0162502],[-86.1833706,12.0245551]],[[-86.0223718,13.5778672],[-86.0370365,13.5637396],[-86.016667,13.5579168],[-86.0223718,13.5778672]],[[-87.1500004,12.6495835],[-87.1463708,12.6115464],[-87.1341719,12.6021307],[-87.0880375,12.6111598],[-87.1214278,12.6562038],[-87.1500004,12.6495835]],[[-87.1500004,12.6495835],[-87.1518156,12.6624076]],[[-87.1518156,12.6624076],[-87.1660906,12.6518611]],[[-87.1660906,12.6518611],[-87.1500004,12.6495835]],[[-85.9750004,11.9079168],[-85.9450687,11.9113185],[-85.9382653,11.9601182],[-85.985238,11.9495876],[-85.9750004,11.9079168]],[[-86.3302987,12.1715486],[-86.3370853,12.1876532],[-86.3461348,12.186526],[-86.3627771,12.196312],[-86.3703698,12.1782904],[-86.386654,12.1505845],[-86.382757,12.1474639]],[[-86.382757,12.1474639],[-86.3302987,12.1715486]],[[-87.1679153,12.4816141],[-87.1716232,12.4956532],[-87.1920636,12.5112129],[-87.2037032,12.5158962],[-87.18182,12.4786729],[-87.1679153,12.4816141]],[[-86.1205001,12.7526515],[-86.1365075,12.7284775],[-86.116667,12.7162502],[-86.1205001,12.7526515]],[[-85.9437585,13.3602646],[-85.9529545,13.3454697],[-85.9333337,13.3412502],[-85.9437585,13.3602646]],[[-85.8363017,11.4561333],[-85.8448409,11.4564927],[-85.8363448,11.4292181],[-85.816667,11.4245835],[-85.8128064,11.4422317]],[[-85.8128064,11.4422317],[-85.818924,11.4483948]],[[-85.818924,11.4483948],[-85.8363017,11.4561333]],[[-85.8923425,12.9505885],[-85.9223881,12.9565252],[-85.9432458,12.9274155],[-85.9625004,12.9312201],[-85.979167,12.9279282],[-85.9954756,12.9311509],[-86.0368168,12.9152085],[-86.0295902,12.9026068],[-86.0043705,12.9129705],[-85.9618168,12.9044378],[-85.941667,12.8912502],[-85.938184,12.8961045],[-85.8985681,12.9190741],[-85.8923425,12.9505885]],[[-85.9820886,13.0890448],[-86.0042321,13.1230454],[-86.0138594,13.097313],[-86.0078292,13.0703965],[-85.991667,13.0662502],[-85.9820886,13.0890448]],[[-85.642139,12.4737331],[-85.6621504,12.4857163],[-85.6694665,12.4618475],[-85.6500004,12.4579168],[-85.642139,12.4737331]],[[-87.1518156,12.6624076],[-87.1539717,12.6776393],[-87.1825687,12.6678167],[-87.1776534,12.6534979],[-87.1660906,12.6518611]],[[-86.0402496,11.8691033],[-86.0350508,11.879568],[-86.0551436,11.8897324],[-86.0611332,11.8701808],[-86.0474593,11.8674198],[-86.0402496,11.8691033]],[[-86.1869675,11.9266162],[-86.1765993,11.9376687]],[[-86.1765993,11.9376687],[-86.1786299,11.9542873],[-86.1915368,11.9615464],[-86.2119633,11.930862],[-86.1869675,11.9266162]],[[-85.8030235,11.4528553],[-85.8363017,11.4561333]],[[-85.818924,11.4483948],[-85.8030235,11.4528553]],[[-83.0519535,12.1707586],[-83.0626831,12.174099],[-83.0698612,12.1602445],[-83.0583337,12.1579168],[-83.0519535,12.1707586]],[[-86.1854252,13.318598],[-86.1946211,13.3038031],[-86.1750004,13.2995835],[-86.1854252,13.318598]],[[-86.5807051,13.4945339],[-86.5953698,13.4804063],[-86.5750004,13.4745835],[-86.5807051,13.4945339]],[[-86.085508,11.896419],[-86.0932846,11.9040728]],[[-86.0932846,11.9040728],[-86.099263,11.8920251]],[[-86.099263,11.8920251],[-86.085508,11.896419]],[[-86.303337,11.8435207],[-86.3108321,11.8292181],[-86.3000004,11.8245835],[-86.303337,11.8435207]],[[-86.2298813,11.8572893],[-86.2235162,11.8714319]],[[-86.2235162,11.8714319],[-86.2431644,11.882396],[-86.2621911,11.8487534],[-86.2358828,11.8427758]],[[-84.7790043,13.7431789],[-84.7946211,13.7353379],[-84.7750004,13.7245835],[-84.7790043,13.7431789]],[[-86.1973589,11.8956435],[-86.1928329,11.8981151],[-86.1960986,11.9173446],[-86.197304,11.9184317],[-86.2119633,11.9069159],[-86.1973589,11.8956435]],[[-86.1239285,11.9288361],[-86.1471846,11.9291937],[-86.1760258,11.8998561],[-86.1256638,11.8947184]],[[-86.1256638,11.8947184],[-86.1239285,11.9288361]],[[-86.1869675,11.9266162],[-86.1750004,11.9245835],[-86.1765993,11.9376687]],[[-87.025863,12.3825995],[-87.0531305,12.3781961],[-87.0240939,12.3553163],[-87.025863,12.3825995]],[[-86.8323653,12.4332383],[-86.8461918,12.4451483],[-86.8454838,12.4539821],[-86.8591068,12.4784084],[-86.9082198,12.4510036],[-86.9205245,12.4145086],[-86.841667,12.4079168],[-86.8323653,12.4332383]],[[-85.3544112,12.1105373],[-85.3781172,12.1193508],[-85.3864343,12.0949896],[-85.3500004,12.0912502],[-85.3544112,12.1105373]],[[-85.7250004,13.1245835],[-85.7250004,13.1495835],[-85.741667,13.1495835],[-85.741667,13.1245835],[-85.7250004,13.1245835]],[[-85.220671,12.9348455],[-85.2362878,12.9270046],[-85.216667,12.9162502],[-85.220671,12.9348455]],[[-86.1116937,11.9799283],[-86.1025848,11.9836893],[-86.0975963,12.0151364]],[[-86.0975963,12.0151364],[-86.1143721,11.9908351],[-86.1116937,11.9799283]],[[-86.1833706,12.0245551],[-86.1773441,12.0293809],[-86.1904383,12.0516568]],[[-86.1904383,12.0516568],[-86.1991272,12.0409622]],[[-86.1004251,11.9120486],[-86.1125004,11.9110785],[-86.1239285,11.9288361]],[[-86.1256638,11.8947184],[-86.099263,11.8920251]],[[-86.0932846,11.9040728],[-86.1004251,11.9120486]],[[-86.1352266,12.1137884],[-86.1271976,12.1419175],[-86.1523875,12.1733805]],[[-86.1523875,12.1733805],[-86.1568375,12.1626987],[-86.1558228,12.1304979],[-86.1483078,12.1194363],[-86.1352266,12.1137884]],[[-86.0783288,12.2037787],[-86.1019698,12.2118475],[-86.1168298,12.1637315],[-86.0955977,12.1539862],[-86.0833337,12.1329168],[-86.0783288,12.2037787]],[[-86.1804749,11.8268424],[-86.1773682,11.8328218]],[[-86.1773682,11.8328218],[-86.1762264,11.8423068]],[[-86.1762264,11.8423068],[-86.193962,11.8619248],[-86.2235162,11.8714319]],[[-86.2135055,11.8376914],[-86.196143,11.8284409],[-86.1804749,11.8268424]],[[-86.4556237,13.6342148],[-86.4694747,13.6613185],[-86.4996667,13.6416652],[-86.4936527,13.6148423],[-86.466667,13.6079168],[-86.4556237,13.6342148]],[[-86.3369633,13.1042873],[-86.3553226,13.1417466],[-86.3826338,13.1063625],[-86.3765547,13.0652614],[-86.3333337,13.0579168],[-86.3369633,13.1042873]],[[-86.1523875,12.1733805],[-86.1546797,12.1762437],[-86.2556563,12.1599635],[-86.3043705,12.1710272],[-86.324976,12.1589178],[-86.3302987,12.1715486]],[[-86.382757,12.1474639],[-86.3576745,12.1273789],[-86.3787032,12.0916042],[-86.370321,12.0765448],[-86.3043054,12.0615505],[-86.2817793,12.0643499],[-86.2629642,12.0532904],[-86.2220788,12.0416001],[-86.2170778,12.0297249]],[[-86.1904383,12.0516568],[-86.199447,12.0669826],[-86.1712976,12.0875433],[-86.1401778,12.0964422],[-86.1352266,12.1137884]],[[-86.1728932,11.8260689],[-86.1773682,11.8328218]],[[-86.1804749,11.8268424],[-86.1728932,11.8260689]],[[-86.3889083,13.3771795],[-86.41189,13.3584255],[-86.4000004,13.3495835],[-86.3889083,13.3771795]],[[-86.116667,13.9079168],[-86.116667,13.9329168],[-86.1333337,13.9329168],[-86.1333337,13.9079168],[-86.116667,13.9079168]],[[-86.086475,12.8848496],[-86.0944665,12.8690496],[-86.1150394,12.863113],[-86.1057377,12.8440741],[-86.0833337,12.8412502],[-86.086475,12.8848496]],[[-86.0932846,11.9040728],[-86.0853472,11.91326]],[[-86.0853472,11.91326],[-86.1004251,11.9120486]],[[-86.1116937,11.9799283],[-86.1024011,11.9420884],[-86.066667,11.9329168],[-86.0615157,11.9451849],[-86.0641443,11.9569199],[-86.0458337,11.9528143],[-86.0232507,11.9578802],[-86.0132653,11.9948512],[-86.054932,12.0029852],[-86.0945072,12.0196112],[-86.0975963,12.0151364]],[[-86.085508,11.896419],[-86.0669177,11.9020155],[-86.0623019,11.9054485],[-86.06307,11.9150498],[-86.0853472,11.91326]],[[-86.1728932,11.8260689],[-86.1762264,11.8423068]],[[-85.8128064,11.4422317],[-85.8030235,11.4528553]]],"bbox":[-87.2037032,11.4245835,-83.0519535,13.9329168]}