{"type":"Topology","objects":{"foo":{"type":"GeometryCollection","geometries":[{"type":"MultiPolygon","arcs":[[[0]],[[1]],[[2]],[[3]],[[4]],[[5]],[[6,7,8]],[[9,10,11,12],[13],[14]],[[15,16,17,18]],[[19]]],"properties":{"name":"LIMA","gaul_code":1011849,"targetarea":1087.3343774,"totpop":10513184.4183,"country_id":"PER","targetpop":10226188.1239,"new_mean":0.047568,"totalarea":2771.1377292}},{"type":"MultiPolygon","arcs":[[[20]],[[21]]],"properties":{"name":"OXAPAMPA","gaul_code":1011850,"targetarea":4.6556956,"totpop":111751.900213,"country_id":"PER","targetpop":13123.8704834,"new_mean":0.0944784,"totalarea":17696.376553}},{"type":"Polygon","arcs":[[-11,22,-18,23]],"properties":{"name":"CALLAO","gaul_code":1011851,"targetarea":142.5242005,"totpop":955588.158257,"country_id":"PER","targetpop":944340.253784,"new_mean":0.0496747,"totalarea":163.9113916}},{"type":"Polygon","arcs":[[24]],"properties":{"name":"CASTILLA","gaul_code":1011855,"targetarea":1.1218553,"totpop":59189.8708997,"country_id":"PER","targetpop":2220.1679688,"new_mean":0.0488654,"totalarea":6918.5858403}},{"type":"Polygon","arcs":[[25]],"properties":{"name":"ANDAHUAYLAS","gaul_code":1011864,"targetarea":17.2846987,"totpop":166571.283501,"country_id":"PER","targetpop":50405.3688965,"new_mean":0.0459349,"totalarea":4018.9486009}},{"type":"MultiPolygon","arcs":[[[26]],[[27]],[[28]],[[29]],[[30]]],"properties":{"name":"VIRU","gaul_code":1011867,"targetarea":14.4275135,"totpop":159937.500364,"country_id":"PER","targetpop":27365.4568481,"new_mean":0.0588661,"totalarea":3239.2746222}},{"type":"Polygon","arcs":[[31]],"properties":{"name":"TOCACHE","gaul_code":1011869,"targetarea":1.9609351,"totpop":77772.5936818,"country_id":"PER","targetpop":5129.5394287,"new_mean":0.0915506,"totalarea":6102.857167}},{"type":"MultiPolygon","arcs":[[[32]],[[33]]],"properties":{"name":"LA CONVENCION","gaul_code":1011872,"targetarea":8.5006102,"totpop":184951.194476,"country_id":"PER","targetpop":19804.3465576,"new_mean":0.0697447,"totalarea":31967.1806656}},{"type":"Polygon","arcs":[[34]],"properties":{"name":"TAYACAJA","gaul_code":1011873,"targetarea":3.4539321,"totpop":122714.313937,"country_id":"PER","targetpop":11213.7178955,"new_mean":0.0586928,"totalarea":3378.373722}},{"type":"MultiPolygon","arcs":[[[35,36,37,38,39]],[[40]],[[41]],[[42]]],"properties":{"name":"HUANCAYO","gaul_code":1011874,"targetarea":79.8615934,"totpop":565691.740987,"country_id":"PER","targetpop":437532.889526,"new_mean":0.0308764,"totalarea":3734.5369326}},{"type":"Polygon","arcs":[[43]],"properties":{"name":"CHINCHA","gaul_code":1011881,"targetarea":40.5469297,"totpop":246964.352173,"country_id":"PER","targetpop":173366.096313,"new_mean":0.0424653,"totalarea":2914.7108342}},{"type":"MultiPolygon","arcs":[[[44]],[[45]]],"properties":{"name":"PISCO","gaul_code":1011887,"targetarea":27.0779064,"totpop":154019.486702,"country_id":"PER","targetpop":89577.8318481,"new_mean":0.0648481,"totalarea":4005.7514863}},{"type":"MultiPolygon","arcs":[[[46]],[[47]]],"properties":{"name":"SAN ANTONIO DE PUTIN","gaul_code":1011888,"targetarea":6.3208458,"totpop":90480.3259555,"country_id":"PER","targetpop":14313.7442017,"new_mean":0.0424962,"totalarea":3123.0251534}},{"type":"Polygon","arcs":[[48]],"properties":{"name":"ESPINAR","gaul_code":1011892,"targetarea":2.2218279,"totpop":69316.2720715,"country_id":"PER","targetpop":4203.6027832,"new_mean":0.0280517,"totalarea":5236.1872166}},{"type":"Polygon","arcs":[[49]],"properties":{"name":"HUAURA","gaul_code":1011893,"targetarea":44.5919925,"totpop":238297.234443,"country_id":"PER","targetpop":128852.388403,"new_mean":0.0587338,"totalarea":5020.9409524}},{"type":"MultiPolygon","arcs":[[[50]],[[51]],[[52]],[[53]],[[54]]],"properties":{"name":"MAYNAS","gaul_code":1011897,"targetarea":58.393268,"totpop":725049.524557,"country_id":"PER","targetpop":194466.568008,"new_mean":0.0591375,"totalarea":121745.450347}},{"type":"Polygon","arcs":[[55]],"properties":{"name":"HUANTA","gaul_code":1011898,"targetarea":8.1012937,"totpop":138751.311268,"country_id":"PER","targetpop":42195.3062744,"new_mean":0.0518777,"totalarea":3813.1675546}},{"type":"MultiPolygon","arcs":[[[56]],[[57]]],"properties":{"name":"AZANGARO","gaul_code":1011901,"targetarea":4.9037524,"totpop":135446.764944,"country_id":"PER","targetpop":14475.8421631,"new_mean":0.0297598,"totalarea":5100.7813405}},{"type":"Polygon","arcs":[[58]],"properties":{"name":"SAN MARCOS","gaul_code":1011920,"targetarea":2.2776943,"totpop":55065.0345736,"country_id":"PER","targetpop":5149.2716065,"new_mean":0.0744025,"totalarea":1348.1551074}},{"type":"Polygon","arcs":[[59]],"properties":{"name":"CELENDIN","gaul_code":1011925,"targetarea":4.7051105,"totpop":95500.2873683,"country_id":"PER","targetpop":13562.6125488,"new_mean":0.0709578,"totalarea":2580.3784803}},{"type":"Polygon","arcs":[[60]],"properties":{"name":"TARMA","gaul_code":1011926,"targetarea":9.3609617,"totpop":110232.359261,"country_id":"PER","targetpop":22350.1067505,"new_mean":0.0655096,"totalarea":2664.0814699}},{"type":"Polygon","arcs":[[61]],"properties":{"name":"CHACHAPOYAS","gaul_code":1011933,"targetarea":5.7125121,"totpop":57065.5487021,"country_id":"PER","targetpop":19040.3907471,"new_mean":0.0708221,"totalarea":2997.9256258}},{"type":"MultiPolygon","arcs":[[[62]],[[63]]],"properties":{"name":"MOYOBAMBA","gaul_code":1011936,"targetarea":18.906361,"totpop":187838.354842,"country_id":"PER","targetpop":70439.6456299,"new_mean":0.0847916,"totalarea":3792.1217189}},{"type":"Polygon","arcs":[[64]],"properties":{"name":"CAJABAMBA","gaul_code":1011938,"targetarea":4.4461555,"totpop":79646.8811071,"country_id":"PER","targetpop":12017.3042297,"new_mean":0.0751284,"totalarea":1788.7327006}},{"type":"MultiPolygon","arcs":[[[65]],[[66]],[[67]],[[68]],[[69,70,71]]],"properties":{"name":"PACASMAYO","gaul_code":1011945,"targetarea":16.5000143,"totpop":104535.033553,"country_id":"PER","targetpop":50501.8594971,"new_mean":0.0595554,"totalarea":1080.1947778}},{"type":"Polygon","arcs":[[72]],"properties":{"name":"TACNA","gaul_code":1011961,"targetarea":54.8967363,"totpop":362431.155947,"country_id":"PER","targetpop":262910.793854,"new_mean":0.0318703,"totalarea":8210.9519474}},{"type":"Polygon","arcs":[[73]],"properties":{"name":"EL COLLAO","gaul_code":1011966,"targetarea":10.4260398,"totpop":87629.4251459,"country_id":"PER","targetpop":35565.8591919,"new_mean":0.027333,"totalarea":5655.059543}},{"type":"MultiPolygon","arcs":[[[74]],[[75]],[[76]]],"properties":{"name":"BARRANCA","gaul_code":1011969,"targetarea":26.3419687,"totpop":158289.519296,"country_id":"PER","targetpop":67514.4318352,"new_mean":0.0641866,"totalarea":1430.8525917}},{"type":"Polygon","arcs":[[77]],"properties":{"name":"FERREÂ¥AFE","gaul_code":1011970,"targetarea":7.4177401,"totpop":112011.209778,"country_id":"PER","targetpop":38186.9510498,"new_mean":0.0724574,"totalarea":1577.7828486}},{"type":"Polygon","arcs":[[78]],"properties":{"name":"CAMANA","gaul_code":1011978,"targetarea":8.2592529,"totpop":83405.0077023,"country_id":"PER","targetpop":16394.394043,"new_mean":0.0494726,"totalarea":4005.3081965}},{"type":"Polygon","arcs":[[79]],"properties":{"name":"ISLAY","gaul_code":1011979,"targetarea":2.7775225,"totpop":54880.482624,"country_id":"PER","targetpop":4116.6785889,"new_mean":0.0373464,"totalarea":3836.7936473}},{"type":"Polygon","arcs":[[80]],"properties":{"name":"MORROPON","gaul_code":1011980,"targetarea":9.3950488,"totpop":157453.805121,"country_id":"PER","targetpop":32401.9041748,"new_mean":0.0971478,"totalarea":3811.8712826}},{"type":"MultiPolygon","arcs":[[[81]],[[82]],[[83]],[[84]]],"properties":{"name":"SATIPO","gaul_code":1011981,"targetarea":17.0364462,"totpop":412884.203498,"country_id":"PER","targetpop":63264.1488647,"new_mean":0.0896804,"totalarea":19219.3136968}},{"type":"MultiPolygon","arcs":[[[85]],[[86]],[[87]]],"properties":{"name":"SULLANA","gaul_code":1011985,"targetarea":41.1832174,"totpop":349367.560201,"country_id":"PER","targetpop":209580.559143,"new_mean":0.0873377,"totalarea":5280.97079}},{"type":"MultiPolygon","arcs":[[[88]],[[89]],[[90]]],"properties":{"name":"TRUJILLO","gaul_code":1011988,"targetarea":149.5641477,"totpop":1115075.07615,"country_id":"PER","targetpop":1019314.47413,"new_mean":0.0701297,"totalarea":1808.5999978}},{"type":"Polygon","arcs":[[91]],"properties":{"name":"CUTERVO","gaul_code":1011991,"targetarea":5.5310752,"totpop":134518.470465,"country_id":"PER","targetpop":15508.6373901,"new_mean":0.070295,"totalarea":3030.2149411}},{"type":"Polygon","arcs":[[92]],"properties":{"name":"CORONEL PORTILLO","gaul_code":1012012,"targetarea":74.7556189,"totpop":481151.47487,"country_id":"PER","targetpop":346556.531006,"new_mean":0.0789981,"totalarea":39269.0770387}},{"type":"Polygon","arcs":[[93]],"properties":{"name":"CHUCUITO","gaul_code":1012014,"targetarea":9.4234669,"totpop":193791.007641,"country_id":"PER","targetpop":34041.894165,"new_mean":0.02623,"totalarea":3972.6468374}},{"type":"Polygon","arcs":[[94]],"properties":{"name":"MARISCAL NIETO","gaul_code":1012015,"targetarea":19.7841991,"totpop":92122.8784389,"country_id":"PER","targetpop":38838.4039307,"new_mean":0.0372374,"totalarea":8658.4109524}},{"type":"Polygon","arcs":[[95]],"properties":{"name":"HUARMEY","gaul_code":1012018,"targetarea":3.2134643,"totpop":32426.9931327,"country_id":"PER","targetpop":3446.7908325,"new_mean":0.0603693,"totalarea":4024.5982937}},{"type":"Polygon","arcs":[[96]],"properties":{"name":"SAN ROMAN","gaul_code":1012019,"targetarea":47.6234861,"totpop":339746.481075,"country_id":"PER","targetpop":284955.135132,"new_mean":0.0299763,"totalarea":2280.3077609}},{"type":"Polygon","arcs":[[97]],"properties":{"name":"CARHUAZ","gaul_code":1012021,"targetarea":3.1703463,"totpop":48382.6307902,"country_id":"PER","targetpop":5735.0478516,"new_mean":0.0633675,"totalarea":816.311331}},{"type":"Polygon","arcs":[[98]],"properties":{"name":"AMBO","gaul_code":1012022,"targetarea":1.1494698,"totpop":56251.6431484,"country_id":"PER","targetpop":2845.2525635,"new_mean":0.067665,"totalarea":1576.4231443}},{"type":"MultiPolygon","arcs":[[[99]],[[100]]],"properties":{"name":"PAITA","gaul_code":1012025,"targetarea":19.7942064,"totpop":147719.380158,"country_id":"PER","targetpop":75129.3170166,"new_mean":0.0668897,"totalarea":1744.7497766}},{"type":"Polygon","arcs":[[101]],"properties":{"name":"REQUENA","gaul_code":1012038,"targetarea":1.9981938,"totpop":78797.037306,"country_id":"PER","targetpop":3519.8612671,"new_mean":0.0769699,"totalarea":50597.8903881}},{"type":"Polygon","arcs":[[102]],"properties":{"name":"UTCUBAMBA","gaul_code":1012041,"targetarea":6.5185443,"totpop":116872.326853,"country_id":"PER","targetpop":16467.8615112,"new_mean":0.0737436,"totalarea":3870.5892497}},{"type":"Polygon","arcs":[[103]],"properties":{"name":"CHUMBIVILCAS","gaul_code":1012044,"targetarea":1.9439557,"totpop":82008.6696677,"country_id":"PER","targetpop":4113.0670166,"new_mean":0.0279376,"totalarea":5335.2969905}},{"type":"Polygon","arcs":[[104,-8]],"properties":{"name":"HUAROCHIRI","gaul_code":1012045,"targetarea":4.9718132,"totpop":103941.654429,"country_id":"PER","targetpop":10487.2491455,"new_mean":0.0703164,"totalarea":5738.4347214}},{"type":"Polygon","arcs":[[105]],"properties":{"name":"MARISCAL CACERES","gaul_code":1012047,"targetarea":6.2956499,"totpop":52743.3997882,"country_id":"PER","targetpop":17092.6954346,"new_mean":0.0793772,"totalarea":14435.3754368}},{"type":"Polygon","arcs":[[106]],"properties":{"name":"MELGAR","gaul_code":1012049,"targetarea":4.1803934,"totpop":78696.5385895,"country_id":"PER","targetpop":7753.9711914,"new_mean":0.0317204,"totalarea":6541.956321}},{"type":"MultiPolygon","arcs":[[[107]],[[108]],[[109]],[[110]]],"properties":{"name":"SANTA","gaul_code":1012051,"targetarea":78.3251774,"totpop":457309.199513,"country_id":"PER","targetpop":342092.478134,"new_mean":0.0740723,"totalarea":4033.2616485}},{"type":"Polygon","arcs":[[111]],"properties":{"name":"SAN IGNACIO","gaul_code":1012052,"targetarea":3.0152005,"totpop":152230.70272,"country_id":"PER","targetpop":7618.2851562,"new_mean":0.0690445,"totalarea":4884.2560303}},{"type":"Polygon","arcs":[[112]],"properties":{"name":"PASCO","gaul_code":1012055,"targetarea":13.3733393,"totpop":188895.260619,"country_id":"PER","targetpop":49244.7727051,"new_mean":0.0635598,"totalarea":4752.155184}},{"type":"Polygon","arcs":[[113]],"properties":{"name":"BAGUA","gaul_code":1012057,"targetarea":4.7480341,"totpop":73195.3219025,"country_id":"PER","targetpop":11757.5814209,"new_mean":0.0771984,"totalarea":5885.4109207}},{"type":"Polygon","arcs":[[114]],"properties":{"name":"HUAMANGA","gaul_code":1011826,"targetarea":39.0838885,"totpop":316781.884378,"country_id":"PER","targetpop":211430.559845,"new_mean":0.0372324,"totalarea":2958.334386}},{"type":"Polygon","arcs":[[115]],"properties":{"name":"ILO","gaul_code":1011827,"targetarea":17.2620826,"totpop":73349.6519027,"country_id":"PER","targetpop":53460.1091309,"new_mean":0.0508159,"totalarea":1368.0725548}},{"type":"Polygon","arcs":[[116]],"properties":{"name":"PALPA","gaul_code":1011862,"targetarea":1.814667,"totpop":12572.5676138,"country_id":"PER","targetpop":1976.0266113,"new_mean":0.0514576,"totalarea":1219.4330279}},{"type":"Polygon","arcs":[[117]],"properties":{"name":"HUANCAVELICA","gaul_code":1011877,"targetarea":12.0018121,"totpop":176421.025579,"country_id":"PER","targetpop":32761.9328003,"new_mean":0.0579492,"totalarea":4188.5430282}},{"type":"Polygon","arcs":[[118]],"properties":{"name":"SANTA CRUZ","gaul_code":1011894,"targetarea":2.2810528,"totpop":44857.6070407,"country_id":"PER","targetpop":4058.0974121,"new_mean":0.0796174,"totalarea":1383.3572915}},{"type":"MultiPolygon","arcs":[[[119]],[[120]],[[121]]],"properties":{"name":"CHANCHAMAYO","gaul_code":1011905,"targetarea":16.6319136,"totpop":265014.935892,"country_id":"PER","targetpop":81689.1392822,"new_mean":0.0842994,"totalarea":4674.9206494}},{"type":"MultiPolygon","arcs":[[[122]],[[123]]],"properties":{"name":"SAN MARTIN","gaul_code":1011982,"targetarea":30.5450729,"totpop":234834.156933,"country_id":"PER","targetpop":157769.368774,"new_mean":0.0808252,"totalarea":5394.6305364}},{"type":"MultiPolygon","arcs":[[[124]],[[125]],[[126]]],"properties":{"name":"RIOJA","gaul_code":1011984,"targetarea":12.5073362,"totpop":161392.633555,"country_id":"PER","targetpop":34656.682373,"new_mean":0.0827871,"totalarea":2598.679715}},{"type":"Polygon","arcs":[[127]],"properties":{"name":"URUBAMBA","gaul_code":1012000,"targetarea":5.7483579,"totpop":69419.3233781,"country_id":"PER","targetpop":12900.7715454,"new_mean":0.038043,"totalarea":1459.7961065}},{"type":"MultiPolygon","arcs":[[[128]],[[129]],[[130]],[[131]]],"properties":{"name":"CAJAMARCA","gaul_code":1011836,"targetarea":66.8850311,"totpop":438202.294375,"country_id":"PER","targetpop":268928.316254,"new_mean":0.0810495,"totalarea":2978.0691856}},{"type":"Polygon","arcs":[[132]],"properties":{"name":"LAMPA","gaul_code":1011871,"targetarea":1.1265017,"totpop":62453.3485104,"country_id":"PER","targetpop":2841.8034668,"new_mean":0.0286245,"totalarea":5717.4986825}},{"type":"MultiPolygon","arcs":[[[133,-71]],[[134]]],"properties":{"name":"CHEPEN","gaul_code":1011879,"targetarea":13.5415664,"totpop":98108.8848498,"country_id":"PER","targetpop":39087.2700195,"new_mean":0.0627045,"totalarea":1136.5963629}},{"type":"MultiPolygon","arcs":[[[135]],[[136]]],"properties":{"name":"TUMBES","gaul_code":1011904,"targetarea":23.2048688,"totpop":166688.991701,"country_id":"PER","targetpop":95576.3974609,"new_mean":0.09818,"totalarea":1779.2900382}},{"type":"Polygon","arcs":[[137]],"properties":{"name":"JAUJA","gaul_code":1011913,"targetarea":5.6276864,"totpop":83571.0678649,"country_id":"PER","targetpop":20453.243042,"new_mean":0.0552131,"totalarea":4383.744024}},{"type":"Polygon","arcs":[[138]],"properties":{"name":"YUNGUYO","gaul_code":1011923,"targetarea":4.2352951,"totpop":47533.8248539,"country_id":"PER","targetpop":13398.1358643,"new_mean":0.0318706,"totalarea":406.4465477}},{"type":"Polygon","arcs":[[139]],"properties":{"name":"HUANCABAMBA","gaul_code":1011843,"targetarea":2.2866322,"totpop":131813.116714,"country_id":"PER","targetpop":4803.8528442,"new_mean":0.0721758,"totalarea":4287.971509}},{"type":"Polygon","arcs":[[140]],"properties":{"name":"CHOTA","gaul_code":1011853,"targetarea":7.1820211,"totpop":158599.777355,"country_id":"PER","targetpop":22868.9623413,"new_mean":0.0774979,"totalarea":3836.6824471}},{"type":"Polygon","arcs":[[141]],"properties":{"name":"TAMBOPATA","gaul_code":1011974,"targetarea":15.6093204,"totpop":127389.097101,"country_id":"PER","targetpop":51434.4503937,"new_mean":0.0906346,"totalarea":35409.2960909}},{"type":"Polygon","arcs":[[142]],"properties":{"name":"PUNO","gaul_code":1012036,"targetarea":28.509783,"totpop":261237.874108,"country_id":"PER","targetpop":125850.06897,"new_mean":0.0333829,"totalarea":6802.4837391}},{"type":"Polygon","arcs":[[143]],"properties":{"name":"CAYLLOMA","gaul_code":1012037,"targetarea":23.1215822,"totpop":169570.26866,"country_id":"PER","targetpop":79588.9180908,"new_mean":0.0359431,"totalarea":14062.7939146}},{"type":"MultiPolygon","arcs":[[[144]],[[145]]],"properties":{"name":"SANCHEZ CARRION","gaul_code":1011801,"targetarea":9.7219226,"totpop":169284.879398,"country_id":"PER","targetpop":29596.8618164,"new_mean":0.0797155,"totalarea":2494.9560119}},{"type":"MultiPolygon","arcs":[[[146]],[[147]],[[148]],[[149]],[[150]],[[151]],[[152]]],"properties":{"name":"PIURA","gaul_code":1011804,"targetarea":114.6997452,"totpop":869802.849939,"country_id":"PER","targetpop":516813.293365,"new_mean":0.0786354,"totalarea":6149.8874422}},{"type":"MultiPolygon","arcs":[[[153]],[[154]]],"properties":{"name":"HUARAZ","gaul_code":1011809,"targetarea":23.846967,"totpop":179874.610744,"country_id":"PER","targetpop":102164.624939,"new_mean":0.0667923,"totalarea":2501.1791954}},{"type":"MultiPolygon","arcs":[[[155]],[[156]]],"properties":{"name":"ABANCAY","gaul_code":1011856,"targetarea":13.1083471,"totpop":98165.3518753,"country_id":"PER","targetpop":43461.3054199,"new_mean":0.0425687,"totalarea":3461.3806769}},{"type":"MultiPolygon","arcs":[[[157,158]],[[159]],[[160]],[[161]],[[162]],[[163]]],"properties":{"name":"LAMBAYEQUE","gaul_code":1011996,"targetarea":23.6866981,"totpop":313829.396781,"country_id":"PER","targetpop":74493.916748,"new_mean":0.0714929,"totalarea":9291.8036366}},{"type":"MultiPolygon","arcs":[[[164]],[[165]]],"properties":{"name":"ANGARAES","gaul_code":1011998,"targetarea":4.6872937,"totpop":89242.2306466,"country_id":"PER","targetpop":9631.5424805,"new_mean":0.0479577,"totalarea":1944.9375186}},{"type":"Polygon","arcs":[[166]],"properties":{"name":"YUNGAY","gaul_code":1011802,"targetarea":2.2675814,"totpop":60711.1155615,"country_id":"PER","targetpop":4223.2015381,"new_mean":0.0642984,"totalarea":1362.6825851}},{"type":"Polygon","arcs":[[167]],"properties":{"name":"ACOBAMBA","gaul_code":1011805,"targetarea":3.1024536,"totpop":106463.435966,"country_id":"PER","targetpop":7029.4770508,"new_mean":0.045731,"totalarea":927.4037491}},{"type":"Polygon","arcs":[[168]],"properties":{"name":"CALCA","gaul_code":1011806,"targetarea":4.2627326,"totpop":76742.0535525,"country_id":"PER","targetpop":12945.1491699,"new_mean":0.0580621,"totalarea":3567.7570146}},{"type":"MultiPolygon","arcs":[[[169]],[[170]]],"properties":{"name":"CUSCO","gaul_code":1011811,"targetarea":71.6614841,"totpop":534127.248628,"country_id":"PER","targetpop":468709.016876,"new_mean":0.0334887,"totalarea":530.2267154}},{"type":"MultiPolygon","arcs":[[[171]],[[172]],[[173]],[[174]],[[175]],[[176]]],"properties":{"name":"CAÂ¥ETE","gaul_code":1011812,"targetarea":37.1858973,"totpop":262905.980165,"country_id":"PER","targetpop":96727.9907837,"new_mean":0.0441187,"totalarea":4695.0967961}},{"type":"MultiPolygon","arcs":[[[177]],[[178]]],"properties":{"name":"ICA","gaul_code":1011819,"targetarea":78.3207673,"totpop":425193.346503,"country_id":"PER","targetpop":290199.282257,"new_mean":0.0361241,"totalarea":7911.2058743}},{"type":"Polygon","arcs":[[179]],"properties":{"name":"OYON","gaul_code":1011821,"targetarea":1.1475294,"totpop":24262.6835452,"country_id":"PER","targetpop":2059.8539429,"new_mean":0.0689407,"totalarea":1871.0221351}},{"type":"Polygon","arcs":[[180]],"properties":{"name":"HUALLAGA","gaul_code":1011825,"targetarea":1.1588631,"totpop":28229.6453022,"country_id":"PER","targetpop":3012.8321533,"new_mean":0.0807491,"totalarea":2359.7226588}},{"type":"Polygon","arcs":[[181]],"properties":{"name":"CONCEPCION","gaul_code":1011828,"targetarea":3.1938947,"totpop":57726.532774,"country_id":"PER","targetpop":6469.4190674,"new_mean":0.061267,"totalarea":2248.9915437}},{"type":"Polygon","arcs":[[182]],"properties":{"name":"JAEN","gaul_code":1011831,"targetarea":14.9424825,"totpop":203417.917462,"country_id":"PER","targetpop":57483.1091919,"new_mean":0.0677568,"totalarea":5025.4992374}},{"type":"Polygon","arcs":[[183]],"properties":{"name":"SECHURA","gaul_code":1011835,"targetarea":2.8747513,"totpop":88192.3941907,"country_id":"PER","targetpop":5858.3193359,"new_mean":0.0719313,"totalarea":6354.9971083}},{"type":"Polygon","arcs":[[184]],"properties":{"name":"PARINACOCHAS","gaul_code":1011838,"targetarea":1.1283253,"totpop":42575.8770172,"country_id":"PER","targetpop":3257.1901856,"new_mean":0.057608,"totalarea":5950.7997866}},{"type":"MultiPolygon","arcs":[[[185]],[[186]]],"properties":{"name":"LEONCIO PRADO","gaul_code":1011839,"targetarea":11.3217119,"totpop":139182.176501,"country_id":"PER","targetpop":40011.8814087,"new_mean":0.1053813,"totalarea":4924.7465795}},{"type":"MultiPolygon","arcs":[[[187]],[[188]],[[189]],[[190]]],"properties":{"name":"AREQUIPA","gaul_code":1011845,"targetarea":217.8809587,"totpop":1131776.57607,"country_id":"PER","targetpop":964886.341797,"new_mean":0.043658,"totalarea":9661.6310242}},{"type":"MultiPolygon","arcs":[[[191]],[[192]],[[193]]],"properties":{"name":"HUARAL","gaul_code":1011906,"targetarea":30.5436169,"totpop":216516.95104,"country_id":"PER","targetpop":93913.5713501,"new_mean":0.0414577,"totalarea":3678.6531546}},{"type":"Polygon","arcs":[[194]],"properties":{"name":"OTUZCO","gaul_code":1011911,"targetarea":4.1639928,"totpop":94239.6878479,"country_id":"PER","targetpop":8142.3677368,"new_mean":0.0795204,"totalarea":2088.2570206}},{"type":"MultiPolygon","arcs":[[[195]],[[196]],[[197]]],"properties":{"name":"TALARA","gaul_code":1011917,"targetarea":25.513433,"totpop":130889.68496,"country_id":"PER","targetpop":71569.7910461,"new_mean":0.0854044,"totalarea":2921.6974867}},{"type":"Polygon","arcs":[[198]],"properties":{"name":"ZARUMILLA","gaul_code":1011918,"targetarea":11.8664152,"totpop":68042.9304421,"country_id":"PER","targetpop":36734.5723877,"new_mean":0.0997007,"totalarea":705.3856917}},{"type":"Polygon","arcs":[[199]],"properties":{"name":"HUAYLAS","gaul_code":1011919,"targetarea":3.5679563,"totpop":58904.258973,"country_id":"PER","targetpop":11191.4536133,"new_mean":0.0637707,"totalarea":2284.1662222}},{"type":"MultiPolygon","arcs":[[[200]],[[201]]],"properties":{"name":"HUANCANE","gaul_code":1011946,"targetarea":2.8192935,"totpop":61714.8243812,"country_id":"PER","targetpop":7703.0768433,"new_mean":0.0329599,"totalarea":2785.7025263}},{"type":"MultiPolygon","arcs":[[[-39,202]],[[-37,203]]],"properties":{"name":"CHUPACA","gaul_code":1011950,"targetarea":8.2388899,"totpop":55708.5981658,"country_id":"PER","targetpop":19282.5065918,"new_mean":0.0464105,"totalarea":1163.9868382}},{"type":"Polygon","arcs":[[204]],"properties":{"name":"CANCHIS","gaul_code":1011953,"targetarea":8.6532662,"totpop":99363.2387217,"country_id":"PER","targetpop":28115.1054688,"new_mean":0.0307538,"totalarea":3950.4673244}},{"type":"Polygon","arcs":[[205]],"properties":{"name":"ALTO AMAZONAS","gaul_code":1011992,"targetarea":6.2976011,"totpop":224589.559239,"country_id":"PER","targetpop":22324.053833,"new_mean":0.072488,"totalarea":66361.7726121}},{"type":"Polygon","arcs":[[206]],"properties":{"name":"SAN MIGUEL","gaul_code":1011997,"targetarea":2.279317,"totpop":52860.4504821,"country_id":"PER","targetpop":3434.8222046,"new_mean":0.0824351,"totalarea":2527.4403872}},{"type":"Polygon","arcs":[[207]],"properties":{"name":"PICOTA","gaul_code":1011999,"targetarea":1.7359172,"totpop":58129.7174776,"country_id":"PER","targetpop":3896.6918335,"new_mean":0.0878183,"totalarea":2054.1392496}},{"type":"Polygon","arcs":[[208]],"properties":{"name":"NAZCA","gaul_code":1012003,"targetarea":10.0010317,"totpop":59497.019213,"country_id":"PER","targetpop":19990.6186218,"new_mean":0.0453506,"totalarea":5265.2497445}},{"type":"Polygon","arcs":[[209]],"properties":{"name":"CASMA","gaul_code":1012005,"targetarea":6.7090294,"totpop":50247.8630037,"country_id":"PER","targetpop":15392.5220947,"new_mean":0.061433,"totalarea":2334.5955563}},{"type":"MultiPolygon","arcs":[[[210]],[[211]],[[212]]],"properties":{"name":"ASCOPE","gaul_code":1012008,"targetarea":11.541259,"totpop":120992.10095,"country_id":"PER","targetpop":29430.960144,"new_mean":0.0664779,"totalarea":2619.8244751}},{"type":"MultiPolygon","arcs":[[[213]],[[214]],[[215]],[[216]],[[217]],[[218]],[[-158,219]],[[220]],[[221]]],"properties":{"name":"CHICLAYO","gaul_code":1012027,"targetarea":115.4387839,"totpop":900891.044803,"country_id":"PER","targetpop":692470.71283,"new_mean":0.102657,"totalarea":3290.0950763}},{"type":"Polygon","arcs":[[222]],"properties":{"name":"HUANUCO","gaul_code":1012030,"targetarea":31.6757095,"totpop":325202.174047,"country_id":"PER","targetpop":151834.580505,"new_mean":0.0586669,"totalarea":4077.4867584}},{"type":"Polygon","arcs":[[223]],"properties":{"name":"LUCANAS","gaul_code":1012032,"targetarea":2.222823,"totpop":81567.9682263,"country_id":"PER","targetpop":4890.5130615,"new_mean":0.0643773,"totalarea":14478.1521432}},{"type":"Polygon","arcs":[[224]],"properties":{"name":"HUALGAYOC","gaul_code":1012033,"targetarea":5.3012095,"totpop":106116.375291,"country_id":"PER","targetpop":15018.6397705,"new_mean":0.0735767,"totalarea":783.6942356}},{"type":"Polygon","arcs":[[225]],"properties":{"name":"BELLAVISTA","gaul_code":1012034,"targetarea":1.1619193,"totpop":81729.3676206,"country_id":"PER","targetpop":3523.8953857,"new_mean":0.0883491,"totalarea":7647.5741584}}]}},"arcs":[[[-76.7801762,-12.4747735],[-76.790382,-12.467507],[-76.796402,-12.4845819],[-76.8107368,-12.4886679],[-76.7916671,-12.5004164],[-76.7801762,-12.4747735]],[[-76.7537186,-12.4734587],[-76.7512855,-12.4655168],[-76.7517591,-12.4618688],[-76.7547799,-12.4513863],[-76.7612065,-12.4695163],[-76.7537186,-12.4734587]],[[-76.7833337,-12.3754164],[-76.7802576,-12.3997979],[-76.7638676,-12.3852634],[-76.7833337,-12.3754164]],[[-76.7833337,-12.3754164],[-76.8022058,-12.3480889],[-76.8114964,-12.3676221],[-76.7833337,-12.3754164]],[[-76.7901127,-12.0919447],[-76.8121749,-12.1052504],[-76.8368494,-12.1015964],[-76.8191817,-12.1309014],[-76.8215255,-12.1467462],[-76.8083337,-12.1504164],[-76.8047042,-12.129046],[-76.7901127,-12.0919447]],[[-76.7692957,-12.082407],[-76.7851567,-12.0977227],[-76.7666671,-12.1004164],[-76.7692957,-12.082407]],[[-76.7333337,-11.9587497],[-76.6987716,-11.9498793],[-76.6699744,-11.9288449]],[[-76.6699744,-11.9288449],[-76.6687241,-11.9203863],[-76.6806629,-11.9180603]],[[-76.6806629,-11.9180603],[-76.7049321,-11.9288181],[-76.72981,-11.9450209],[-76.7333337,-11.9587497]],[[-77.1416671,-11.8004164],[-77.147474,-11.8207164]],[[-77.147474,-11.8207164],[-77.1261139,-11.8202495],[-77.1162338,-11.8325329],[-77.1132736,-11.849863],[-77.0937347,-11.8755855],[-77.0900345,-11.9011812],[-77.0969238,-11.9238243],[-77.1029358,-11.9293556],[-77.0954819,-11.9498005],[-77.1084824,-11.9492321],[-77.1179276,-11.9559317],[-77.1131821,-11.9821405],[-77.1157761,-11.9959946],[-77.0962906,-12.0050154],[-77.0884399,-12.0161095],[-77.0955429,-12.0323419],[-77.0830612,-12.0396566],[-77.0881577,-12.0617895],[-77.1082687,-12.0635719],[-77.1068802,-12.0731792],[-77.1127505,-12.0834383]],[[-77.1127505,-12.0834383],[-77.0358484,-12.1309828],[-77.0368621,-12.1480068],[-77.0335159,-12.1661873],[-77.0384606,-12.1748539],[-77.0404789,-12.2087497],[-76.9203617,-12.2638767],[-76.9041264,-12.2457126],[-76.8711918,-12.2974948],[-76.8363692,-12.3126804],[-76.8182296,-12.2731703],[-76.8223718,-12.2548191],[-76.8421635,-12.2769708],[-76.8789311,-12.2604913],[-76.8406987,-12.2263279],[-76.8572595,-12.1801771],[-76.8876388,-12.1966892],[-76.9002364,-12.1692478],[-76.8622807,-12.1715102],[-76.8500004,-12.1504164],[-76.8643152,-12.1405368],[-76.8531336,-12.1044691],[-76.866073,-12.0736504],[-76.907349,-12.0630547],[-76.868547,-12.0485365],[-76.8518722,-12.024391],[-76.8206059,-12.0447523],[-76.7882654,-12.0226088],[-76.8056156,-11.9959568],[-76.7913578,-11.9861179],[-76.7791671,-11.9888523],[-76.7495284,-11.9822035],[-76.7333337,-11.9587497]],[[-76.7333337,-11.9587497],[-76.7534021,-11.9636814],[-76.8132654,-11.9704848],[-76.8450688,-11.980348],[-76.8750004,-11.9837497],[-76.8790369,-11.9587741],[-76.9166671,-11.9662123],[-76.9534835,-11.9588799],[-76.9368168,-11.9469333],[-76.9233403,-11.9119968],[-76.938184,-11.8886],[-76.9474939,-11.864487],[-76.9868168,-11.8969333],[-76.9951502,-11.8886],[-76.9860844,-11.8434014],[-77.0370447,-11.808709],[-77.0750004,-11.8162123],[-77.1293868,-11.805462],[-77.1416671,-11.8004164]],[[-76.9695398,-11.996795],[-76.9473149,-11.9896986],[-76.9416671,-12.0004164],[-76.9695398,-11.996795]],[[-76.9107182,-12.1467543],[-76.928101,-12.1087579],[-76.8963546,-12.0973158],[-76.878101,-12.1368503],[-76.8750004,-12.1504164],[-76.9107182,-12.1467543]],[[-77.1416671,-11.8004164],[-77.143783,-11.7858656],[-77.1562179,-11.7733005],[-77.1583337,-11.7587497]],[[-77.1583337,-11.7587497],[-77.171392,-11.7627802],[-77.1705733,-11.788128],[-77.179574,-11.7961684],[-77.1701257,-11.8135512],[-77.1708734,-11.8261033]],[[-77.1708734,-11.8261033],[-77.1475554,-11.820722]],[[-77.1475554,-11.820722],[-77.1616134,-11.8061212],[-77.1416671,-11.8004164]],[[-77.1583337,-11.7587497],[-77.1342615,-11.7401706],[-77.1520512,-11.7217868],[-77.1583337,-11.7587497]],[[-75.2613774,-10.7270033],[-75.2853032,-10.7386814],[-75.2583338,-10.7420831],[-75.2613774,-10.7270033]],[[-75.3973718,-10.5638035],[-75.4120366,-10.5779229],[-75.3916671,-10.5837497],[-75.3973718,-10.5638035]],[[-77.147474,-11.8207164],[-77.1475554,-11.820722]],[[-77.1708734,-11.8261033],[-77.1715499,-11.8374607],[-77.1534509,-11.8633721],[-77.1548751,-11.8872816],[-77.1455733,-11.9043959],[-77.1464604,-11.9192722],[-77.1364099,-11.9758233],[-77.1401443,-12.0203304],[-77.1461258,-12.0430832],[-77.1455002,-12.0550566],[-77.1613102,-12.0733057],[-77.1127505,-12.0834383]],[[-72.4700037,-16.2148125],[-72.4774988,-16.229111],[-72.4666671,-16.2337497],[-72.4700037,-16.2148125]],[[-73.3598718,-13.6443536],[-73.4453699,-13.6550469],[-73.4183435,-13.6693454],[-73.3623621,-13.6623793],[-73.3416671,-13.6670831],[-73.3598718,-13.6443536]],[[-78.5006596,-8.7142348],[-78.5202966,-8.7245131],[-78.5083337,-8.7337497],[-78.5006596,-8.7142348]],[[-78.6723718,-8.5304701],[-78.6870365,-8.5445896],[-78.6666671,-8.5504164],[-78.6723718,-8.5304701]],[[-78.7728276,-8.4138116],[-78.7955977,-8.4248142],[-78.7666671,-8.4337497],[-78.7728276,-8.4138116]],[[-78.7423263,-8.4059014],[-78.7619633,-8.4161798],[-78.7500004,-8.4254164],[-78.7423263,-8.4059014]],[[-78.8146733,-8.3973565],[-78.8368901,-8.4070815],[-78.8000004,-8.4170831],[-78.8146733,-8.3973565]],[[-76.5123377,-8.181821],[-76.5279545,-8.1896661],[-76.5083337,-8.2004164],[-76.5123377,-8.181821]],[[-72.6902023,-12.8469415],[-72.7122644,-12.8748142],[-72.6833338,-12.8837497],[-72.6902023,-12.8469415]],[[-73.8270919,-12.5063978],[-73.8362879,-12.5211928],[-73.8166671,-12.5254164],[-73.8270919,-12.5063978]],[[-74.8622481,-12.381113],[-74.878101,-12.4042331],[-74.8583338,-12.4087497],[-74.8622481,-12.381113]],[[-75.2416671,-12.0170831],[-75.2468185,-12.0293471],[-75.2438888,-12.042433],[-75.2758591,-12.0506387]],[[-75.2758591,-12.0506387],[-75.2694168,-12.0605001],[-75.2574983,-12.0583968]],[[-75.2574983,-12.0583968],[-75.2479207,-12.0626244]],[[-75.2479207,-12.0626244],[-75.2384796,-12.0633945],[-75.2315624,-12.0849715]],[[-75.2315624,-12.0849715],[-75.2284021,-12.0871514],[-75.2183517,-12.1263197],[-75.1869308,-12.1058607],[-75.1731368,-12.0689955],[-75.1846114,-12.0177992],[-75.2045414,-12.022267],[-75.2239343,-12.0096368],[-75.2416671,-12.0170831]],[[-75.278337,-12.0064792],[-75.2858321,-12.0207777],[-75.2750004,-12.0254164],[-75.278337,-12.0064792]],[[-75.2416671,-12.0170831],[-75.2444666,-11.9948825],[-75.2596033,-11.9892836],[-75.2474614,-12.0141534],[-75.2416671,-12.0170831]],[[-75.2790043,-11.9401544],[-75.2946212,-11.9479994],[-75.2750004,-11.9587497],[-75.2790043,-11.9401544]],[[-76.1121912,-13.421559],[-76.092782,-13.3833184],[-76.1595707,-13.3886895],[-76.177157,-13.4280857],[-76.1455245,-13.4376071],[-76.1333337,-13.4587497],[-76.1121912,-13.421559]],[[-76.2134933,-13.7285902],[-76.180518,-13.7173598],[-76.1718266,-13.7045505],[-76.2169086,-13.6977875],[-76.2189255,-13.7155256],[-76.2275391,-13.7353861],[-76.2166671,-13.7420831],[-76.2134933,-13.7285902]],[[-76.1363448,-13.7127536],[-76.1482426,-13.6944838],[-76.1422205,-13.6676364],[-76.1667485,-13.6731377],[-76.1558435,-13.7217787],[-76.1416671,-13.7254164],[-76.1363448,-13.7127536]],[[-69.8624923,-14.8921644],[-69.8735926,-14.9141045],[-69.8500004,-14.9170831],[-69.8624923,-14.8921644]],[[-69.4353601,-14.6293959],[-69.4453129,-14.6142836],[-69.4527999,-14.6364515],[-69.4416671,-14.6420831],[-69.4353601,-14.6293959]],[[-71.4057052,-14.7804701],[-71.4203699,-14.7945896],[-71.4000004,-14.8004164],[-71.4057052,-14.7804701]],[[-77.5702966,-11.1051202],[-77.5630375,-11.0846531],[-77.5797042,-11.0717868],[-77.5869633,-11.0623793],[-77.6017338,-11.0551202],[-77.6119633,-11.0801202],[-77.6390198,-11.0876513],[-77.6405131,-11.0926803],[-77.62863,-11.1123793],[-77.6213709,-11.1301202],[-77.5916671,-11.1337497],[-77.5702966,-11.1051202]],[[-77.1951904,-12.1164484],[-77.2023544,-12.1030531],[-77.2121353,-12.097929],[-77.2274551,-12.0814915],[-77.2507677,-12.073589],[-77.242017,-12.0944187],[-77.2146326,-12.1133314],[-77.1951904,-12.1164484]],[[-73.3333338,-3.8337498],[-73.3440515,-3.8393976],[-73.3369552,-3.8616225],[-73.3333338,-3.8337498]],[[-73.4833338,-3.8170831],[-73.4886153,-3.8385756],[-73.4644454,-3.8454848],[-73.4549321,-3.821559],[-73.4833338,-3.8170831]],[[-73.4833338,-3.8170831],[-73.4765629,-3.8034682],[-73.4916671,-3.8004164],[-73.4916671,-3.8170831],[-73.4833338,-3.8170831]],[[-73.2666671,-3.7837498],[-73.2598637,-3.7738865],[-73.2440515,-3.7629734],[-73.2350346,-3.722739],[-73.2589767,-3.7173679],[-73.2700688,-3.7470147],[-73.3115483,-3.7947768],[-73.2666671,-3.7837498]],[[-74.2366297,-12.9234633],[-74.2693933,-12.9290704],[-74.2597986,-12.9471775],[-74.2333338,-12.9504164],[-74.2366297,-12.9234633]],[[-70.3366704,-15.0231459],[-70.3441655,-15.0374444],[-70.3333338,-15.0420831],[-70.3366704,-15.0231459]],[[-70.1947433,-14.9010349],[-70.2111333,-14.9155694],[-70.1916671,-14.9254164],[-70.1947433,-14.9010349]],[[-78.1640385,-7.3221368],[-78.1787032,-7.3362563],[-78.1583337,-7.3420831],[-78.1640385,-7.3221368]],[[-78.1329106,-6.8661309],[-78.1459395,-6.8476169],[-78.1527999,-6.8781182],[-78.1416671,-6.8837498],[-78.1329106,-6.8661309]],[[-75.6728113,-11.4107517],[-75.6887374,-11.3889825],[-75.703101,-11.4292331],[-75.6833338,-11.4337497],[-75.6728113,-11.4107517]],[[-77.8614587,-6.2165297],[-77.88606,-6.2207371],[-77.8766524,-6.2385024],[-77.8583337,-6.2420831],[-77.8614587,-6.2165297]],[[-77.0838058,-6.1345961],[-77.1038171,-6.1226169],[-77.1111332,-6.1464858],[-77.0916671,-6.1504164],[-77.0838058,-6.1345961]],[[-76.9547612,-6.0270603],[-76.9895837,-6.0132989],[-76.9855147,-6.0532159],[-76.9666671,-6.0587498],[-76.9547612,-6.0270603]],[[-78.0403813,-7.6062839],[-78.0617354,-7.6264581],[-78.0333337,-7.6337498],[-78.0403813,-7.6062839]],[[-79.503337,-7.4148126],[-79.5108321,-7.4291111],[-79.5000004,-7.4337498],[-79.503337,-7.4148126]],[[-79.5460535,-7.3995945],[-79.5611174,-7.3918822],[-79.5767375,-7.411294],[-79.5416671,-7.4254164],[-79.5460535,-7.3995945]],[[-79.4670496,-7.2993341],[-79.4948409,-7.3048598],[-79.4750004,-7.3170831],[-79.4670496,-7.2993341]],[[-79.4500004,-7.2337498],[-79.4833012,-7.2394057],[-79.4721033,-7.2623793],[-79.4500004,-7.2337498]],[[-79.4500004,-7.2337498],[-79.4496067,-7.2338464]],[[-79.4496067,-7.2338464],[-79.4498599,-7.2335462]],[[-79.4498599,-7.2335462],[-79.4500004,-7.2337498]],[[-70.2379643,-18.0707858],[-70.2334233,-18.0343194],[-70.210173,-18.0024834],[-70.214478,-17.9678643],[-70.2532231,-17.9726901],[-70.2703699,-18.0133802],[-70.2866541,-18.0410821],[-70.2703699,-18.0541192],[-70.2629643,-18.0717136],[-70.2416671,-18.0754164],[-70.2379643,-18.0707858]],[[-69.6217452,-16.0728285],[-69.6477299,-16.0636814],[-69.6617355,-16.0931247],[-69.6333338,-16.1004164],[-69.6217452,-16.0728285]],[[-77.7122644,-10.7892836],[-77.7527999,-10.7957777],[-77.737769,-10.8067478],[-77.7249516,-10.8004896],[-77.7083337,-10.8087497],[-77.7122644,-10.7892836]],[[-77.7450688,-10.7371514],[-77.7697921,-10.720086],[-77.7851973,-10.7235365],[-77.7763106,-10.7631443],[-77.7416671,-10.7670831],[-77.7450688,-10.7371514]],[[-77.8144942,-10.6638116],[-77.8372644,-10.6748142],[-77.8083337,-10.6837497],[-77.8144942,-10.6638116]],[[-79.778101,-6.628517],[-79.7918705,-6.6139825],[-79.803101,-6.6464369],[-79.7750004,-6.6504164],[-79.778101,-6.628517]],[[-72.7083338,-16.5837497],[-72.7155685,-16.6278171],[-72.7050541,-16.6373793],[-72.6963709,-16.5929864],[-72.7083338,-16.5837497]],[[-72.0057052,-17.0138034],[-72.0203699,-17.0279229],[-72.0000004,-17.0337497],[-72.0057052,-17.0138034]],[[-80.1500004,-5.1087498],[-80.1500004,-5.0837498],[-80.1750004,-5.0837498],[-80.1750004,-5.1087498],[-80.1500004,-5.1087498]],[[-74.4837895,-11.4136325],[-74.4955978,-11.4357191],[-74.4750004,-11.4420831],[-74.4837895,-11.4136325]],[[-74.5197921,-11.3165297],[-74.5443933,-11.320737],[-74.5349858,-11.3385023],[-74.5166671,-11.3420831],[-74.5197921,-11.3165297]],[[-74.6219975,-11.2422947],[-74.635059,-11.2306492],[-74.653101,-11.2625665],[-74.6333338,-11.2670831],[-74.6219975,-11.2422947]],[[-74.653337,-11.1981459],[-74.6608321,-11.2124444],[-74.6500004,-11.2170831],[-74.653337,-11.1981459]],[[-80.6290043,-4.9151544],[-80.6446212,-4.9229994],[-80.6250004,-4.9337498],[-80.6290043,-4.9151544]],[[-80.6547042,-4.9197605],[-80.6675785,-4.8771091],[-80.7369633,-4.9055027],[-80.7218754,-4.9220229],[-80.7120772,-4.9205743],[-80.6916671,-4.9420831],[-80.6880375,-4.929046],[-80.6547042,-4.9197605]],[[-80.6455815,-4.8227797],[-80.6614343,-4.8458998],[-80.6416671,-4.8504164],[-80.6455815,-4.8227797]],[[-78.9723718,-8.2054701],[-78.9870365,-8.2195896],[-78.9666671,-8.2254164],[-78.9723718,-8.2054701]],[[-78.9539148,-8.0727797],[-78.9697677,-8.0958998],[-78.9500004,-8.1004164],[-78.9539148,-8.0727797]],[[-79.0600102,-8.0051202],[-79.0713708,-8.0207126],[-79.0835372,-8.0783787],[-79.1000004,-8.0808119],[-79.12863,-8.0765802],[-79.1174239,-8.094907],[-79.0978682,-8.097796],[-79.0612146,-8.0833917],[-79.0637292,-8.1004164],[-79.0618819,-8.1129164],[-79.0671457,-8.1485142],[-79.0458337,-8.163779],[-79.0213627,-8.1490167],[-79.013005,-8.1886081],[-79.0041427,-8.1872979],[-78.9750004,-8.1920831],[-78.9931726,-8.1637953],[-78.9868819,-8.1212497],[-78.9881514,-8.0960056],[-78.9713708,-8.0533136],[-79.0104659,-8.0441013],[-79.0421391,-8.0487807],[-79.0600102,-8.0051202]],[[-78.8004724,-6.3762628],[-78.8204838,-6.3642836],[-78.8277999,-6.3881524],[-78.8083337,-6.3920831],[-78.8004724,-6.3762628]],[[-74.5131026,-8.3734877],[-74.5505619,-8.3616306],[-74.5959395,-8.3376153],[-74.6123377,-8.3797458],[-74.6500574,-8.4040948],[-74.595671,-8.4127537],[-74.5500004,-8.4337497],[-74.5131026,-8.3734877]],[[-69.0549321,-16.5871514],[-69.0369522,-16.5768918],[-69.0357666,-16.5615158],[-69.0449479,-16.5514278],[-69.0682784,-16.5852227],[-69.0549321,-16.5871514]],[[-70.8882654,-17.1750827],[-70.9166671,-17.1814548],[-70.9291671,-17.1786472],[-70.9458907,-17.1823988],[-70.9617355,-17.205348],[-70.9734949,-17.2134616],[-70.9416671,-17.217083],[-70.9382654,-17.2121514],[-70.9200688,-17.205348],[-70.8953618,-17.189251],[-70.8882654,-17.1750827]],[[-78.1504561,-10.0469659],[-78.1622644,-10.0690525],[-78.1416671,-10.0754164],[-78.1504561,-10.0469659]],[[-70.1000004,-15.4504164],[-70.1155522,-15.457236],[-70.1509933,-15.4472832],[-70.161589,-15.4638278],[-70.1721847,-15.470615],[-70.163184,-15.5026462],[-70.136589,-15.5120049],[-70.1298019,-15.5226006],[-70.1208338,-15.5200778],[-70.1033777,-15.5249851],[-70.1000004,-15.4504164]],[[-77.6394942,-9.2721449],[-77.6622644,-9.2831475],[-77.6333337,-9.2920831],[-77.6394942,-9.2721449]],[[-76.203337,-10.1148126],[-76.2108321,-10.1291111],[-76.2000004,-10.1337497],[-76.203337,-10.1148126]],[[-81.0634932,-5.0650649],[-81.0717316,-5.0676322],[-81.0852356,-5.0809879],[-81.1086426,-5.0861931],[-81.1228409,-5.0826912],[-81.1224776,-5.105226],[-81.1000004,-5.1170831],[-81.0968266,-5.1119236],[-81.0779219,-5.1002781],[-81.0634932,-5.0650649]],[[-81.053337,-4.8981459],[-81.0608321,-4.9124444],[-81.0500004,-4.9170831],[-81.053337,-4.8981459]],[[-73.8442957,-5.0490737],[-73.8601567,-5.0643894],[-73.8416671,-5.0670831],[-73.8442957,-5.0490737]],[[-78.4240808,-5.7578302],[-78.4430831,-5.7426039],[-78.4620365,-5.7614109],[-78.4166671,-5.7670831],[-78.4240808,-5.7578302]],[[-72.077629,-14.4407403],[-72.09349,-14.456056],[-72.0750004,-14.4587497],[-72.077629,-14.4407403]],[[-76.6699744,-11.9288449],[-76.64974,-11.9276544],[-76.6611414,-11.905348],[-76.6806629,-11.9180603]],[[-76.714714,-7.1713881],[-76.7371505,-7.1642836],[-76.7444666,-7.1881524],[-76.7250004,-7.1920831],[-76.714714,-7.1713881]],[[-70.5941573,-14.8643405],[-70.6034021,-14.8876071],[-70.5750004,-14.8920831],[-70.5941573,-14.8643405]],[[-78.278337,-9.1398126],[-78.2858321,-9.1541111],[-78.2750004,-9.1587497],[-78.278337,-9.1398126]],[[-78.4957686,-9.1074639],[-78.549683,-9.096087],[-78.5702966,-9.0457126],[-78.6017338,-9.0384535],[-78.6179733,-9.0781331],[-78.6040268,-9.0790787],[-78.5797042,-9.0894057],[-78.5630375,-9.1301202],[-78.5369633,-9.1373793],[-78.5130375,-9.1467869],[-78.4916671,-9.1504164],[-78.4957686,-9.1074639]],[[-78.5540043,-8.9901544],[-78.5696212,-8.9979994],[-78.5500004,-9.0087497],[-78.5540043,-8.9901544]],[[-78.6131759,-9.0042738],[-78.6032475,-8.9878188],[-78.6170251,-8.9717869],[-78.6324141,-9.027044],[-78.6083337,-9.0337497],[-78.6131759,-9.0042738]],[[-78.9964034,-5.1308608],[-79.0119633,-5.1430841],[-78.9916671,-5.1587498],[-78.9964034,-5.1308608]],[[-76.2361332,-10.688071],[-76.2481856,-10.6514255],[-76.2656824,-10.6568699],[-76.2612065,-10.6712497],[-76.2690434,-10.6964288],[-76.2416671,-10.7004164],[-76.2361332,-10.688071]],[[-78.5257565,-5.650034],[-78.5173669,-5.63506],[-78.5363285,-5.6226169],[-78.5444666,-5.6405694],[-78.5351724,-5.6452709],[-78.5257565,-5.650034]],[[-74.1952966,-13.1884535],[-74.1880375,-13.1513197],[-74.2289474,-13.1197361],[-74.2430343,-13.1379815],[-74.2336186,-13.2017103],[-74.2083338,-13.2087497],[-74.1952966,-13.1884535]],[[-71.3049077,-17.6364841],[-71.3359461,-17.6217136],[-71.3431209,-17.6326302],[-71.3430176,-17.6441479],[-71.3573211,-17.6620004],[-71.3166671,-17.667083],[-71.3049077,-17.6364841]],[[-75.1756596,-14.5225681],[-75.1952966,-14.5328464],[-75.1833338,-14.5420831],[-75.1756596,-14.5225681]],[[-74.9500004,-12.7920831],[-74.9500004,-12.7754164],[-75.0000004,-12.7754164],[-75.0000004,-12.7920831],[-74.9500004,-12.7920831]],[[-78.9390385,-6.6138035],[-78.9537032,-6.6279229],[-78.9333337,-6.6337498],[-78.9390385,-6.6138035]],[[-75.3557052,-11.1138034],[-75.3703699,-11.1279229],[-75.3500004,-11.1337497],[-75.3557052,-11.1138034]],[[-75.3164067,-11.047503],[-75.3457524,-11.0634861],[-75.3333338,-11.0754164],[-75.3164067,-11.047503]],[[-74.8626388,-10.9140639],[-74.8946375,-10.9054213],[-74.8864913,-10.9377618],[-74.8583338,-10.9420831],[-74.8626388,-10.9140639]],[[-76.2027999,-6.6865492],[-76.2277999,-6.686476],[-76.2000004,-6.7004164],[-76.2027999,-6.6865492]],[[-76.3380375,-6.504046],[-76.3263676,-6.4847019],[-76.3804366,-6.4634535],[-76.4022791,-6.4734063],[-76.3704106,-6.5146986],[-76.3539229,-6.5122654],[-76.3416671,-6.5170831],[-76.3380375,-6.504046]],[[-77.1583337,-6.0754164],[-77.1583337,-6.0504164],[-77.1750004,-6.0504164],[-77.1750004,-6.0754164],[-77.1583337,-6.0754164]],[[-77.2723718,-5.9804701],[-77.2870365,-5.9945896],[-77.2666671,-6.0004164],[-77.2723718,-5.9804701]],[[-77.3086023,-5.9216078],[-77.320671,-5.9448744],[-77.2916671,-5.9504164],[-77.3086023,-5.9216078]],[[-72.1241459,-13.2890639],[-72.1371912,-13.3058851],[-72.1000004,-13.3170831],[-72.1241459,-13.2890639]],[[-78.4856694,-7.1422621],[-78.527043,-7.1303481],[-78.5367354,-7.153224],[-78.5136723,-7.1886407],[-78.4750004,-7.1920831],[-78.4715987,-7.1788181],[-78.4526046,-7.1657078],[-78.4556563,-7.1521173],[-78.4895837,-7.1597182],[-78.4856694,-7.1422621]],[[-78.5973718,-7.0388035],[-78.6120365,-7.0529229],[-78.5916671,-7.0587498],[-78.5973718,-7.0388035]],[[-78.5250004,-6.9920831],[-78.5671635,-6.9723972],[-78.5835209,-6.9960951],[-78.5361576,-7.0082452],[-78.5250004,-6.9920831]],[[-78.5250004,-6.9920831],[-78.5126957,-6.9875665],[-78.488599,-6.9895033],[-78.5120284,-6.9548923],[-78.5455245,-6.9649102],[-78.5288578,-6.9792738],[-78.5250004,-6.9920831]],[[-70.3616704,-15.3564792],[-70.3691655,-15.3707777],[-70.3583338,-15.3754164],[-70.3616704,-15.3564792]],[[-79.4496067,-7.2338464],[-79.4161869,-7.2420505],[-79.404932,-7.2335219],[-79.4215987,-7.2220147],[-79.4317468,-7.2073093],[-79.4498599,-7.2335462]],[[-79.4416671,-7.1670831],[-79.4339929,-7.1475681],[-79.45363,-7.1578464],[-79.4416671,-7.1670831]],[[-80.4789229,-3.5945326],[-80.4950688,-3.6097914],[-80.4666671,-3.6170831],[-80.4789229,-3.5945326]],[[-80.4333337,-3.5754164],[-80.4063643,-3.5684991],[-80.4245609,-3.5470147],[-80.4667484,-3.5564711],[-80.4599939,-3.5865818],[-80.4384851,-3.5954848],[-80.4333337,-3.5754164]],[[-75.4864588,-11.7665297],[-75.51106,-11.770737],[-75.5016524,-11.7885023],[-75.4833338,-11.7920831],[-75.4864588,-11.7665297]],[[-69.0872482,-16.231113],[-69.103101,-16.2542331],[-69.0833338,-16.2587497],[-69.0872482,-16.231113]],[[-79.4473718,-5.2304701],[-79.4620365,-5.2445896],[-79.4416671,-5.2504164],[-79.4473718,-5.2304701]],[[-78.630697,-6.5487156],[-78.6701501,-6.5550063],[-78.6416671,-6.5754164],[-78.630697,-6.5487156]],[[-69.1703699,-12.5961521],[-69.1915043,-12.5663506],[-69.2288579,-12.6032566],[-69.1750004,-12.6087497],[-69.1703699,-12.5961521]],[[-70.0079041,-15.825326],[-70.0009851,-15.8183038],[-70.0439458,-15.8086683],[-70.0471928,-15.8231459],[-70.0343103,-15.8575778],[-70.0027185,-15.882057],[-69.9874679,-15.878639],[-69.9666671,-15.8837497],[-69.9784021,-15.8621514],[-69.9970245,-15.8638906],[-70.0028305,-15.8540544],[-70.0148773,-15.8512993],[-70.0187607,-15.8296499],[-70.0079041,-15.825326]],[[-72.1865727,-16.3742771],[-72.1694259,-16.3450941],[-72.1720789,-16.3237644],[-72.1952153,-16.3133803],[-72.2060714,-16.3879652],[-72.1916671,-16.392083],[-72.1865727,-16.3742771]],[[-78.1183842,-7.8871026],[-78.1383223,-7.8770115],[-78.1444666,-7.8905694],[-78.1250004,-7.9004164],[-78.1183842,-7.8871026]],[[-78.0441166,-7.7977227],[-78.0617354,-7.8212416],[-78.0250004,-7.8254164],[-78.0441166,-7.7977227]],[[-80.7523444,-5.404406],[-80.7333337,-5.4087498],[-80.7372481,-5.381113],[-80.7522566,-5.4030017],[-80.7523444,-5.404406]],[[-80.7640385,-5.3721368],[-80.7787032,-5.3862563],[-80.7583337,-5.3920831],[-80.7640385,-5.3721368]],[[-80.7166671,-5.3587498],[-80.6968184,-5.343434],[-80.7118005,-5.3301202],[-80.7166671,-5.3587498]],[[-80.6616703,-5.3148126],[-80.6691654,-5.3291111],[-80.6583337,-5.3337498],[-80.6616703,-5.3148126]],[[-80.6416671,-5.2420831],[-80.6119633,-5.2301202],[-80.6047042,-5.2123793],[-80.5742436,-5.1888686],[-80.6040287,-5.1658705],[-80.6083337,-5.1504164],[-80.6373946,-5.1548354],[-80.6661218,-5.1531264],[-80.7289311,-5.1640476],[-80.6955977,-5.1793471],[-80.6838057,-5.1925551],[-80.6556726,-5.2176853],[-80.6779464,-5.2586684],[-80.6872644,-5.2843438],[-80.6618005,-5.2705092],[-80.6627608,-5.2543634],[-80.6416671,-5.2420831],[-80.6528731,-5.236183],[-80.6452315,-5.2146254],[-80.6416671,-5.2420831]],[[-80.3333337,-4.9087498],[-80.3455082,-4.9149102],[-80.3527999,-4.9363132],[-80.3366459,-4.9448826],[-80.3333337,-4.9087498]],[[-80.2390385,-4.6471368],[-80.2537032,-4.6612563],[-80.2333337,-4.6670831],[-80.2390385,-4.6471368]],[[-77.502157,-9.5135186],[-77.5378585,-9.4859633],[-77.5452966,-9.5455499],[-77.5166671,-9.5504164],[-77.502157,-9.5135186]],[[-77.5807052,-9.4554701],[-77.5953699,-9.4695896],[-77.5750004,-9.4754164],[-77.5807052,-9.4554701]],[[-72.8715987,-13.6454848],[-72.8614425,-13.6384779],[-72.8678878,-13.6097344],[-72.8963871,-13.6282973],[-72.9034021,-13.6459405],[-72.8750004,-13.6504164],[-72.8715987,-13.6454848]],[[-72.6950037,-13.5314792],[-72.7024988,-13.5457777],[-72.6916671,-13.5504164],[-72.6950037,-13.5314792]],[[-79.8952308,-6.7305685],[-79.8817233,-6.7262505]],[[-79.8817233,-6.7262505],[-79.9036381,-6.6784926],[-79.9248946,-6.7022882],[-79.8952308,-6.7305685]],[[-79.8616703,-6.5398126],[-79.8691654,-6.5541111],[-79.8583337,-6.5587498],[-79.8616703,-6.5398126]],[[-80.0116703,-6.5314792],[-80.0191654,-6.5457778],[-80.0083337,-6.5504164],[-80.0116703,-6.5314792]],[[-79.8557052,-6.4971368],[-79.8703699,-6.5112563],[-79.8500004,-6.5170831],[-79.8557052,-6.4971368]],[[-79.853337,-6.4648126],[-79.8608321,-6.4791111],[-79.8500004,-6.4837498],[-79.853337,-6.4648126]],[[-79.7039148,-6.131113],[-79.7197677,-6.1542332],[-79.7000004,-6.1587498],[-79.7039148,-6.131113]],[[-74.4100115,-13.0825912],[-74.410099,-13.0768679],[-74.4149907,-13.0577976],[-74.4367354,-13.0641371],[-74.4100115,-13.0825912]],[[-74.7200037,-12.9814792],[-74.7274988,-12.9957777],[-74.7166671,-13.0004164],[-74.7200037,-12.9814792]],[[-77.7390385,-9.1304701],[-77.7537032,-9.1445896],[-77.7333337,-9.1504164],[-77.7390385,-9.1304701]],[[-74.5687586,-12.8313978],[-74.5779545,-12.8461928],[-74.5583338,-12.8504164],[-74.5687586,-12.8313978]],[[-71.9527999,-13.3198825],[-71.9679366,-13.3142836],[-71.9557947,-13.3391534],[-71.9527999,-13.3198825]],[[-71.981755,-13.4973565],[-72.0205978,-13.5061211],[-72.0039311,-13.5210137],[-71.9924728,-13.5459893],[-71.8980229,-13.5558363],[-71.8666671,-13.5670831],[-71.8516443,-13.5527683],[-71.8877364,-13.5298191],[-71.8955978,-13.5210137],[-71.9155522,-13.5118585],[-71.9376713,-13.5131768],[-71.981755,-13.4973565]],[[-72.051459,-13.4959189],[-72.0250004,-13.5004164],[-72.0403162,-13.4805678],[-72.0459112,-13.4868638],[-72.0471815,-13.4882933],[-72.0515393,-13.4931971],[-72.051459,-13.4959189]],[[-76.2873051,-13.230698],[-76.3159021,-13.2405124],[-76.3109867,-13.2548353],[-76.2833337,-13.2587497],[-76.2873051,-13.230698]],[[-76.428337,-13.0398126],[-76.4358321,-13.0541111],[-76.4250004,-13.0587497],[-76.428337,-13.0398126]],[[-76.3406987,-13.0577813],[-76.354224,-13.0349623],[-76.3697677,-13.0639825],[-76.3885665,-13.0701836],[-76.3947677,-13.0853041],[-76.3833337,-13.0920831],[-76.3784347,-13.0838148],[-76.3461674,-13.0723158],[-76.3202804,-13.0812025],[-76.3135665,-13.073862],[-76.3406987,-13.0577813]],[[-76.3790043,-12.9401544],[-76.3946212,-12.9479994],[-76.3750004,-12.9587497],[-76.3790043,-12.9401544]],[[-76.6366703,-12.6981459],[-76.6441655,-12.7124444],[-76.6333337,-12.7170831],[-76.6366703,-12.6981459]],[[-76.6197921,-12.649863],[-76.6443933,-12.6540704],[-76.6349858,-12.6718357],[-76.6166671,-12.6754164],[-76.6197921,-12.649863]],[[-75.7118982,-14.181292],[-75.7195398,-14.2028497],[-75.7083338,-14.2087497],[-75.7118982,-14.181292]],[[-75.7620772,-14.0111342],[-75.7753504,-14.0283298],[-75.7619633,-14.0623793],[-75.7510746,-14.1014906],[-75.7083338,-14.1087497],[-75.6860518,-14.0964125],[-75.7024988,-14.0837172],[-75.7119633,-14.0682468],[-75.6770024,-14.0734144],[-75.6841882,-14.0247816],[-75.7229659,-14.0305108],[-75.7370772,-14.0122409],[-75.7620772,-14.0111342]],[[-76.7700037,-10.6564792],[-76.7774988,-10.6707777],[-76.7666671,-10.6754164],[-76.7700037,-10.6564792]],[[-76.7700037,-6.9231459],[-76.7774988,-6.9374444],[-76.7666671,-6.9420831],[-76.7700037,-6.9231459]],[[-75.3171228,-11.8969659],[-75.3289311,-11.9190525],[-75.3083338,-11.9254164],[-75.3171228,-11.8969659]],[[-78.7916671,-5.7337498],[-78.7874027,-5.7129164],[-78.7948735,-5.6796645],[-78.8290857,-5.7115411],[-78.7916671,-5.7337498]],[[-80.8140385,-5.5471368],[-80.8287032,-5.5612563],[-80.8083337,-5.5670831],[-80.8140385,-5.5471368]],[[-73.778337,-15.0064792],[-73.7858321,-15.0207777],[-73.7750004,-15.0254164],[-73.778337,-15.0064792]],[[-75.9845789,-9.2882338],[-76.0170007,-9.2720147],[-76.0078292,-9.3129327],[-75.9916671,-9.3170831],[-75.9845789,-9.2882338]],[[-76.1116703,-8.9231459],[-76.1191655,-8.9374444],[-76.1083337,-8.9420831],[-76.1116703,-8.9231459]],[[-71.8306482,-16.4896986],[-71.8528732,-16.496795],[-71.8250004,-16.5004164],[-71.8306482,-16.4896986]],[[-71.8089929,-16.4142347],[-71.82863,-16.4245131],[-71.8166671,-16.4337497],[-71.8089929,-16.4142347]],[[-71.5833338,-16.442083],[-71.5647872,-16.4652032],[-71.5284021,-16.4788181],[-71.5191573,-16.4922133],[-71.4893315,-16.4855238],[-71.4799321,-16.4667494],[-71.5161137,-16.474863],[-71.5107101,-16.4507663],[-71.4682215,-16.4348728],[-71.4549321,-16.4085219],[-71.4715987,-16.3970147],[-71.5044601,-16.348211],[-71.5307296,-16.3383803],[-71.5200688,-16.3220147],[-71.5132654,-16.3000827],[-71.5375004,-16.3055189],[-71.5462081,-16.3035658],[-71.5642664,-16.3153252],[-71.6029138,-16.3066582],[-71.6263432,-16.2914076],[-71.6367355,-16.303224],[-71.611239,-16.3208265],[-71.6254236,-16.3545993],[-71.5828292,-16.3629164],[-71.5896326,-16.3932549],[-71.6060388,-16.404583],[-71.5871912,-16.4175957],[-71.5833338,-16.442083]],[[-71.6790043,-16.2484877],[-71.6946212,-16.2563327],[-71.6750004,-16.2670831],[-71.6790043,-16.2484877]],[[-77.2582117,-11.552101],[-77.2808842,-11.5554538],[-77.2748184,-11.5779963],[-77.2748621,-11.5961928],[-77.2500004,-11.6004164],[-77.2582117,-11.552101]],[[-77.2923263,-11.4725681],[-77.3119633,-11.4828464],[-77.3000004,-11.4920831],[-77.2923263,-11.4725681]],[[-77.2047042,-11.5123793],[-77.1952966,-11.5051202],[-77.1880375,-11.4883721],[-77.2157638,-11.4717868],[-77.2406742,-11.5040541],[-77.2083337,-11.5170831],[-77.2047042,-11.5123793]],[[-78.5521244,-7.9045912],[-78.5589848,-7.8905531],[-78.5777999,-7.9072361],[-78.5583337,-7.9170831],[-78.5521244,-7.9045912]],[[-81.2625818,-4.6045017],[-81.2385746,-4.5928481],[-81.2776046,-4.5463311],[-81.2797775,-4.5518827],[-81.2771072,-4.573287],[-81.283989,-4.5767112],[-81.2907042,-4.5944849],[-81.2666671,-4.6087498],[-81.2625818,-4.6045017]],[[-81.1216124,-4.1664588],[-81.1341833,-4.1787391],[-81.1166671,-4.1837498],[-81.1216124,-4.1664588]],[[-81.0353275,-4.104339],[-81.0450149,-4.0907928],[-81.0621214,-4.106826],[-81.0416671,-4.1170831],[-81.0353275,-4.104339]],[[-80.2264239,-3.4958883],[-80.2337952,-3.4873588],[-80.238771,-3.4679314],[-80.2680912,-3.4804701],[-80.2866622,-3.5037612],[-80.2666671,-3.5087498],[-80.253573,-3.4890476],[-80.2264239,-3.4958883]],[[-77.8166671,-9.0337497],[-77.8119307,-9.0616387],[-77.7963709,-9.0494154],[-77.8166671,-9.0337497]],[[-69.978337,-15.2898125],[-69.9858321,-15.304111],[-69.9750004,-15.3087497],[-69.978337,-15.2898125]],[[-69.7616704,-15.1898125],[-69.7691655,-15.204111],[-69.7583338,-15.2087497],[-69.7616704,-15.1898125]],[[-75.2479207,-12.0626244],[-75.2333338,-12.0837497],[-75.2315624,-12.0849715]],[[-75.2758591,-12.0506387],[-75.3034021,-12.0577081],[-75.2842371,-12.0758152],[-75.2574983,-12.0583968]],[[-71.2200688,-14.2538181],[-71.2270919,-14.2470147],[-71.2450688,-14.2847914],[-71.2166671,-14.2920831],[-71.2200688,-14.2538181]],[[-76.1031254,-5.8831964],[-76.1277267,-5.8874037],[-76.1183191,-5.905169],[-76.1000004,-5.9087498],[-76.1031254,-5.8831964]],[[-78.8473718,-6.9888035],[-78.8620365,-7.0029229],[-78.8416671,-7.0087498],[-78.8473718,-6.9888035]],[[-76.328337,-6.9064792],[-76.3358321,-6.9207777],[-76.3250004,-6.9254164],[-76.328337,-6.9064792]],[[-74.9294031,-14.8460137],[-74.9182947,-14.8360935],[-74.9344812,-14.8131524],[-74.9539311,-14.8403415],[-74.9333338,-14.8587497],[-74.9294031,-14.8460137]],[[-78.2931075,-9.450449],[-78.3037846,-9.4632989],[-78.320435,-9.4771417],[-78.2833337,-9.4837497],[-78.2931075,-9.450449]],[[-79.2140385,-7.8804701],[-79.2287032,-7.8945896],[-79.2083337,-7.9004164],[-79.2140385,-7.8804701]],[[-79.1794763,-7.7308526],[-79.203101,-7.7464369],[-79.1750004,-7.7504164],[-79.1794763,-7.7308526]],[[-79.3024906,-7.7143406],[-79.3117354,-7.7376072],[-79.2833337,-7.7420831],[-79.3024906,-7.7143406]],[[-79.8616703,-6.8981459],[-79.8691654,-6.9124444],[-79.8583337,-6.9170831],[-79.8616703,-6.8981459]],[[-79.5557052,-6.8804701],[-79.5703699,-6.8945896],[-79.5500004,-6.9004164],[-79.5557052,-6.8804701]],[[-79.9104578,-6.8795912],[-79.9173181,-6.8655531],[-79.924964,-6.8723326],[-79.9104578,-6.8795912]],[[-79.8581466,-6.8749363],[-79.8693689,-6.8559503],[-79.8833744,-6.8836358],[-79.8666671,-6.8920831],[-79.8581466,-6.8749363]],[[-79.8140385,-6.8554701],[-79.8287032,-6.8695896],[-79.8083337,-6.8754164],[-79.8140385,-6.8554701]],[[-79.6838057,-6.7429294],[-79.7038171,-6.7309503],[-79.7111332,-6.7548191],[-79.6916671,-6.7587498],[-79.6838057,-6.7429294]],[[-79.8952308,-6.7305685],[-79.8723393,-6.7510186],[-79.8951908,-6.7930597],[-79.8372644,-6.8210138],[-79.8294031,-6.8464858],[-79.8201013,-6.8543471],[-79.8215824,-6.8295831],[-79.8190108,-6.7864353],[-79.7705977,-6.7714858],[-79.7627364,-6.7651137],[-79.7960697,-6.7548191],[-79.8000004,-6.7420831],[-79.8044031,-6.7381524],[-79.8457035,-6.7293308],[-79.8805749,-6.728753],[-79.8817233,-6.7262505]],[[-79.6294763,-6.7225193],[-79.653101,-6.7381036],[-79.6250004,-6.7420831],[-79.6294763,-6.7225193]],[[-79.7687585,-6.7063979],[-79.7779545,-6.7211928],[-79.7583337,-6.7254164],[-79.7687585,-6.7063979]],[[-76.22863,-9.9467869],[-76.2061365,-9.8851251],[-76.2299565,-9.8886488],[-76.2639002,-9.9326267],[-76.2582605,-9.970794],[-76.2416671,-9.9754164],[-76.22863,-9.9467869]],[[-74.1223718,-14.6804701],[-74.1370366,-14.6945896],[-74.1166671,-14.7004164],[-74.1223718,-14.6804701]],[[-78.5102869,-6.6792413],[-78.5226811,-6.6642836],[-78.5361332,-6.6881524],[-78.5166671,-6.6920831],[-78.5102869,-6.6792413]],[[-76.5866703,-7.0481459],[-76.5941655,-7.0624444],[-76.5833337,-7.0670831],[-76.5866703,-7.0481459]]],"bbox":[-81.2907042,-18.0754164,-69.0357666,-3.4679314]}