{"type":"Topology","objects":{"foo":{"type":"GeometryCollection","geometries":[{"type":"MultiPolygon","arcs":[[[0,1]],[[2,3]]],"properties":{"name":"Cambyreta","gaul_code":23913,"targetarea":18.7810926,"totpop":65603.0581647,"country_id":"PRY","targetpop":37136.0873413,"totalarea":197.3110969,"new_mean":0.0167705}},{"type":"Polygon","arcs":[[4]],"properties":{"name":"Carapegua","gaul_code":23972,"targetarea":2.899352,"totpop":36502.3216014,"country_id":"PRY","targetpop":5003.6499023,"totalarea":490.2028921,"new_mean":0.0162233}},{"type":"MultiPolygon","arcs":[[[5,6,7,8]],[[9,10,11,12,13,14]]],"properties":{"name":"Ypane","gaul_code":23867,"targetarea":26.6642641,"totpop":59464.0247345,"country_id":"PRY","targetpop":45207.7312012,"totalarea":46.7623609,"new_mean":0.015787}},{"type":"Polygon","arcs":[[15]],"properties":{"name":"Pedro Juan Caballero","gaul_code":23808,"targetarea":25.0771587,"totpop":127298.387838,"country_id":"PRY","targetpop":46974.6518555,"totalarea":5128.7960966,"new_mean":0.0126529}},{"type":"Polygon","arcs":[[16]],"properties":{"name":"F. Caballero Alvarez","gaul_code":23843,"targetarea":1.05516,"totpop":52657.9728612,"country_id":"PRY","targetpop":1799.1355591,"totalarea":3620.7601168,"new_mean":0.0124531}},{"type":"MultiPolygon","arcs":[[[17,18]],[[19,20]],[[21]]],"properties":{"name":"Hernandarias","gaul_code":23790,"targetarea":27.2393206,"totpop":95432.7695297,"country_id":"PRY","targetpop":44638.5596619,"totalarea":1462.1911886,"new_mean":0.0138544}},{"type":"MultiPolygon","arcs":[[[22]],[[23]]],"properties":{"name":"Chore","gaul_code":23992,"targetarea":3.6857512,"totpop":51351.6263275,"country_id":"PRY","targetpop":6884.0130005,"totalarea":1003.2174905,"new_mean":0.0146848}},{"type":"Polygon","arcs":[[24]],"properties":{"name":"Ypacarai","gaul_code":23866,"targetarea":4.8273953,"totpop":31669.5702028,"country_id":"PRY","targetpop":6531.9348755,"totalarea":111.6868346,"new_mean":0.0160011}},{"type":"Polygon","arcs":[[24]],"properties":{"name":"Ypacarai","gaul_code":23866,"targetarea":4.8273953,"totpop":31669.5702028,"country_id":"PRY","targetpop":6531.9348755,"totalarea":111.6868346,"new_mean":0.0150796}},{"type":"Polygon","arcs":[[25,26,27,28],[29]],"properties":{"name":"Aregua","gaul_code":23848,"targetarea":41.52621,"totpop":84769.485322,"country_id":"PRY","targetpop":69110.1212158,"totalarea":105.3204386,"new_mean":0.015275}},{"type":"Polygon","arcs":[[30,31,32,33,34]],"properties":{"name":"San Lorenzo","gaul_code":23863,"targetarea":56.6748225,"totpop":288865.839111,"country_id":"PRY","targetpop":288865.839111,"totalarea":56.6748222,"new_mean":0.0162726}},{"type":"Polygon","arcs":[[35]],"properties":{"name":"San Juan Bautista","gaul_code":23945,"targetarea":1.5345969,"totpop":23427.0707908,"country_id":"PRY","targetpop":3069.3274536,"totalarea":2172.8570572,"new_mean":0.0136165}},{"type":"Polygon","arcs":[[36]],"properties":{"name":"Ybycui","gaul_code":23984,"targetarea":1.0395351,"totpop":24948.1460752,"country_id":"PRY","targetpop":2349.9684448,"totalarea":815.549863,"new_mean":0.0147762}},{"type":"Polygon","arcs":[[37]],"properties":{"name":"Tomas Romero P.","gaul_code":23939,"targetarea":4.0011807,"totpop":31263.2609582,"country_id":"PRY","targetpop":6071.9023438,"totalarea":630.2806348,"new_mean":0.016347}},{"type":"MultiPolygon","arcs":[[[38]],[[39]]],"properties":{"name":"Caacupe","gaul_code":23879,"targetarea":16.4549231,"totpop":56732.6951103,"country_id":"PRY","targetpop":30301.3339844,"totalarea":116.7278667,"new_mean":0.0151681}},{"type":"Polygon","arcs":[[40]],"properties":{"name":"Emboscada","gaul_code":23881,"targetarea":1.0472063,"totpop":20810.5471593,"country_id":"PRY","targetpop":1768.2627564,"totalarea":192.3157538,"new_mean":0.0162722}},{"type":"Polygon","arcs":[[41]],"properties":{"name":"S.pedro De Ycuamandyyu","gaul_code":23998,"targetarea":2.1006651,"totpop":36211.6544124,"country_id":"PRY","targetpop":3230.6893921,"totalarea":3237.7635055,"new_mean":0.0155113}},{"type":"Polygon","arcs":[[42]],"properties":{"name":"J.e. Oleary","gaul_code":23792,"targetarea":2.5038099,"totpop":28543.9372431,"country_id":"PRY","targetpop":5487.2401123,"totalarea":233.3188092,"new_mean":0.0151513}},{"type":"Polygon","arcs":[[43]],"properties":{"name":"Yhu","gaul_code":23830,"targetarea":1.0598528,"totpop":51432.793053,"country_id":"PRY","targetpop":2352.0661621,"totalarea":2609.1821774,"new_mean":0.0137665}},{"type":"Polygon","arcs":[[44,45,46,-32]],"properties":{"name":"Fdo. De La Mora","gaul_code":23851,"targetarea":20.7195356,"totpop":175821.647461,"country_id":"PRY","targetpop":175821.647461,"totalarea":20.7195356,"new_mean":0.0178687}},{"type":"Polygon","arcs":[[47]],"properties":{"name":"Villarica","gaul_code":23909,"targetarea":18.0773539,"totpop":73590.1185036,"country_id":"PRY","targetpop":44052.5199585,"totalarea":315.957781,"new_mean":0.0164928}},{"type":"Polygon","arcs":[[48]],"properties":{"name":"Santa Rosa","gaul_code":23949,"targetarea":1.793913,"totpop":18094.7951899,"country_id":"PRY","targetpop":3114.2728882,"totalarea":831.6012291,"new_mean":0.0137979}},{"type":"Polygon","arcs":[[49,50]],"properties":{"name":"Pte. Franco","gaul_code":23800,"targetarea":31.2174708,"totpop":96464.3668118,"country_id":"PRY","targetpop":74198.5098267,"totalarea":120.7275262,"new_mean":0.0157361}},{"type":"Polygon","arcs":[[-28,51,-35,52,-12,53,54]],"properties":{"name":"Capiata","gaul_code":23850,"targetarea":77.5986378,"totpop":258522.624634,"country_id":"PRY","targetpop":258522.624634,"totalarea":77.5986378,"new_mean":0.0156589}},{"type":"Polygon","arcs":[[55]],"properties":{"name":"San Roque Gonzalez","gaul_code":23980,"targetarea":0.5273357,"totpop":12368.8914211,"country_id":"PRY","targetpop":1194.9844971,"totalarea":218.1217862,"new_mean":0.0161711}},{"type":"Polygon","arcs":[[56]],"properties":{"name":"Quiindy","gaul_code":23978,"targetarea":2.0693593,"totpop":21428.0818174,"country_id":"PRY","targetpop":3447.6637573,"totalarea":624.579496,"new_mean":0.015556}},{"type":"Polygon","arcs":[[57]],"properties":{"name":"Capitan Troche","gaul_code":23896,"targetarea":0.5284587,"totpop":10790.43361,"country_id":"PRY","targetpop":826.6676636,"totalarea":137.7602869,"new_mean":0.0135689}},{"type":"Polygon","arcs":[[57]],"properties":{"name":"Capitan Troche","gaul_code":23896,"targetarea":0.5284587,"totpop":10790.43361,"country_id":"PRY","targetpop":826.6676636,"totalarea":137.7602869,"new_mean":0.014169}},{"type":"MultiPolygon","arcs":[[[58]],[[59,60,61]]],"properties":{"name":"Hohenau","gaul_code":23924,"targetarea":1.4998542,"totpop":15242.8204685,"country_id":"PRY","targetpop":2678.3933106,"totalarea":277.4215026,"new_mean":0.0147912}},{"type":"Polygon","arcs":[[62]],"properties":{"name":"Pilar","gaul_code":23963,"targetarea":10.3174692,"totpop":33436.1770006,"country_id":"PRY","targetpop":17464.453064,"totalarea":332.0924701,"new_mean":0.0150658}},{"type":"Polygon","arcs":[[-4,63,-1,64]],"properties":{"name":"Encarnacion","gaul_code":23920,"targetarea":41.6800269,"totpop":135512.565215,"country_id":"PRY","targetpop":93112.572937,"totalarea":322.0003722,"new_mean":0.0175356}},{"type":"Polygon","arcs":[[65,66]],"properties":{"name":"Abai","gaul_code":23831,"targetarea":0.7521144,"totpop":35679.346334,"country_id":"PRY","targetpop":1082.6561279,"totalarea":2202.2658234,"new_mean":0.015959}},{"type":"Polygon","arcs":[[-29,-55,67,68,69,70,71]],"properties":{"name":"Itaugua","gaul_code":23854,"targetarea":50.6825482,"totpop":116138.701232,"country_id":"PRY","targetpop":86464.9251709,"totalarea":113.4819721,"new_mean":0.015354}},{"type":"Polygon","arcs":[[72]],"properties":{"name":"Bella Vista","gaul_code":23806,"targetarea":2.7448495,"totpop":18672.370047,"country_id":"PRY","targetpop":3531.7362671,"totalarea":3781.3446099,"new_mean":0.0159575}},{"type":"Polygon","arcs":[[73]],"properties":{"name":"Itakyry","gaul_code":23791,"targetarea":2.086122,"totpop":41511.5241265,"country_id":"PRY","targetpop":2788.1939697,"totalarea":1962.9179679,"new_mean":0.0152567}},{"type":"Polygon","arcs":[[74]],"properties":{"name":"Capitan Bado","gaul_code":23807,"targetarea":0.9215787,"totpop":26745.5107876,"country_id":"PRY","targetpop":2454.8314209,"totalarea":3756.5964787,"new_mean":0.0117756}},{"type":"Polygon","arcs":[[74]],"properties":{"name":"Capitan Bado","gaul_code":23807,"targetarea":0.9215787,"totpop":26745.5107876,"country_id":"PRY","targetpop":2454.8314209,"totalarea":3756.5964787,"new_mean":0.0083898}},{"type":"Polygon","arcs":[[75]],"properties":{"name":"Caaguazu","gaul_code":23813,"targetarea":28.074795,"totpop":126683.592001,"country_id":"PRY","targetpop":54798.6669312,"totalarea":959.2009858,"new_mean":0.0139731}},{"type":"Polygon","arcs":[[-47,76,77,78,79,80,-33]],"properties":{"name":"Villa Elisa","gaul_code":23864,"targetarea":19.6639853,"totpop":82143.215332,"country_id":"PRY","targetpop":81446.6929321,"totalarea":20.4673906,"new_mean":0.017115}},{"type":"Polygon","arcs":[[81]],"properties":{"name":"Mallorquin","gaul_code":23794,"targetarea":4.6431704,"totpop":24188.5476427,"country_id":"PRY","targetpop":7006.1442261,"totalarea":251.6001409,"new_mean":0.0147575}},{"type":"Polygon","arcs":[[82]],"properties":{"name":"Capitan Miranda","gaul_code":23915,"targetarea":0.5213319,"totpop":14970.3687744,"country_id":"PRY","targetpop":831.9833984,"totalarea":180.6484043,"new_mean":0.0157539}},{"type":"Polygon","arcs":[[83]],"properties":{"name":"Salto Del Guaira","gaul_code":23845,"targetarea":4.8515371,"totpop":39681.5200455,"country_id":"PRY","targetpop":10681.8843994,"totalarea":1664.7178746,"new_mean":0}},{"type":"Polygon","arcs":[[83]],"properties":{"name":"Salto Del Guaira","gaul_code":23845,"targetarea":4.8515371,"totpop":39681.5200455,"country_id":"PRY","targetpop":10681.8843994,"totalarea":1664.7178746,"new_mean":0.013698}},{"type":"Polygon","arcs":[[84]],"properties":{"name":"Altos","gaul_code":23876,"targetarea":0.6218632,"totpop":15043.1535835,"country_id":"PRY","targetpop":909.4312134,"totalarea":127.0999195,"new_mean":0.0147419}},{"type":"MultiPolygon","arcs":[[[85]],[[86]],[[87]]],"properties":{"name":"Coronel Oviedo","gaul_code":23816,"targetarea":29.9140996,"totpop":124213.634219,"country_id":"PRY","targetpop":63840.8518066,"totalarea":859.6545971,"new_mean":0.0159113}},{"type":"MultiPolygon","arcs":[[[85]],[[86]],[[87]]],"properties":{"name":"Coronel Oviedo","gaul_code":23816,"targetarea":29.9140996,"totpop":124213.634219,"country_id":"PRY","targetpop":63840.8518066,"totalarea":859.6545971,"new_mean":0.0154171}},{"type":"Polygon","arcs":[[88]],"properties":{"name":"Itacurubi De La Cordiller","gaul_code":23884,"targetarea":0.5291418,"totpop":11142.3454466,"country_id":"PRY","targetpop":1001.6879273,"totalarea":107.6411901,"new_mean":0.0155409}},{"type":"Polygon","arcs":[[89]],"properties":{"name":"San Ignacio","gaul_code":23944,"targetarea":4.807271,"totpop":33870.0274232,"country_id":"PRY","targetpop":8930.0831299,"totalarea":1515.1623502,"new_mean":0.0139358}},{"type":"Polygon","arcs":[[90]],"properties":{"name":"Isidoro Resquin","gaul_code":23994,"targetarea":0.5350066,"totpop":25341.0942271,"country_id":"PRY","targetpop":1120.1179199,"totalarea":1070.9978594,"new_mean":0.0154546}},{"type":"Polygon","arcs":[[90]],"properties":{"name":"Isidoro Resquin","gaul_code":23994,"targetarea":0.5350066,"totpop":25341.0942271,"country_id":"PRY","targetpop":1120.1179199,"totalarea":1070.9978594,"new_mean":0.0132208}},{"type":"MultiPolygon","arcs":[[[91]],[[92,-7,93]]],"properties":{"name":"Villeta","gaul_code":23865,"targetarea":4.6700523,"totpop":41054.0657089,"country_id":"PRY","targetpop":6671.6731567,"totalarea":824.5509951,"new_mean":0.0135103}},{"type":"MultiPolygon","arcs":[[[94,95]],[[96,97,98,99,100]],[[101,102,103]]],"properties":{"name":"Limpio","gaul_code":23857,"targetarea":65.8043277,"totpop":157772.769913,"country_id":"PRY","targetpop":135950.365356,"totalarea":122.8596171,"new_mean":0.0162434}},{"type":"Polygon","arcs":[[104]],"properties":{"name":"San Jose De Los Arroyos","gaul_code":23827,"targetarea":2.3311249,"totpop":20095.5617704,"country_id":"PRY","targetpop":3835.7578125,"totalarea":496.840339,"new_mean":0.017022}},{"type":"Polygon","arcs":[[105]],"properties":{"name":"Elizardo Aquino","gaul_code":23993,"targetarea":1.0527914,"totpop":24772.1472332,"country_id":"PRY","targetpop":2296.09552,"totalarea":813.1341965,"new_mean":0.0153247}},{"type":"Polygon","arcs":[[106]],"properties":{"name":"Coronel Bogado","gaul_code":23918,"targetarea":2.7111668,"totpop":21675.060527,"country_id":"PRY","targetpop":4449.3978272,"totalarea":552.9279469,"new_mean":0.0154131}},{"type":"Polygon","arcs":[[107]],"properties":{"name":"Bella Vista","gaul_code":23912,"targetarea":0.5221312,"totpop":15331.7776441,"country_id":"PRY","targetpop":848.5629883,"totalarea":295.8262562,"new_mean":0.016291}},{"type":"MultiPolygon","arcs":[[[108]],[[109,-61,110]]],"properties":{"name":"Obligado","gaul_code":23933,"targetarea":3.6735091,"totpop":18603.921335,"country_id":"PRY","targetpop":4805.769104,"totalarea":392.9178777,"new_mean":0.01623}},{"type":"Polygon","arcs":[[111]],"properties":{"name":"Mayor Otano","gaul_code":23930,"targetarea":1.0486605,"totpop":15891.043644,"country_id":"PRY","targetpop":1797.3417358,"totalarea":308.5301002,"new_mean":0.0151969}},{"type":"Polygon","arcs":[[112]],"properties":{"name":"Tobati","gaul_code":23893,"targetarea":5.5297881,"totpop":33837.0334406,"country_id":"PRY","targetpop":11203.1559448,"totalarea":269.2459046,"new_mean":0.0174324}},{"type":"Polygon","arcs":[[113]],"properties":{"name":"Caazapa","gaul_code":23833,"targetarea":2.0656146,"totpop":26609.4178813,"country_id":"PRY","targetpop":3690.6693115,"totalarea":866.3966501,"new_mean":0.015938}},{"type":"Polygon","arcs":[[114,115,116,-77,-46,117]],"properties":{"name":"Asuncion","gaul_code":23849,"targetarea":107.0360878,"totpop":548227.808914,"country_id":"PRY","targetpop":532548.10907,"totalarea":129.681547,"new_mean":0.0183334}},{"type":"Polygon","arcs":[[118]],"properties":{"name":"Repatriacion","gaul_code":23825,"targetarea":0.5288188,"totpop":33192.0130134,"country_id":"PRY","targetpop":863.0215454,"totalarea":851.2754357,"new_mean":0.0142653}},{"type":"Polygon","arcs":[[119,-101,120,-99,121,-118,-45,-31,-52,-27]],"properties":{"name":"Luque","gaul_code":23858,"targetarea":102.5314232,"totpop":304402.210457,"country_id":"PRY","targetpop":291565.070129,"totalarea":148.0929373,"new_mean":0.0162755}},{"type":"Polygon","arcs":[[122]],"properties":{"name":"Piribebuy","gaul_code":23889,"targetarea":2.952735,"totpop":29461.1173859,"country_id":"PRY","targetpop":4493.4085693,"totalarea":189.2416892,"new_mean":0.0149333}},{"type":"Polygon","arcs":[[122]],"properties":{"name":"Piribebuy","gaul_code":23889,"targetarea":2.952735,"totpop":29461.1173859,"country_id":"PRY","targetpop":4493.4085693,"totalarea":189.2416892,"new_mean":0.0146377}},{"type":"MultiPolygon","arcs":[[[123]],[[124]],[[-95,125]],[[-104,126,127]]],"properties":{"name":"Villa Hayes","gaul_code":23989,"targetarea":2.5094111,"totpop":68905.8065551,"country_id":"PRY","targetpop":4652.6460571,"totalarea":32417.4826609,"new_mean":0.0146415}},{"type":"Polygon","arcs":[[-34,-81,128,-13,-53]],"properties":{"name":"Nemby","gaul_code":23860,"targetarea":26.0202711,"totpop":137342.608032,"country_id":"PRY","targetpop":137342.608032,"totalarea":26.0202713,"new_mean":0.0160986}},{"type":"MultiPolygon","arcs":[[[129]],[[130]],[[131]],[[132]]],"properties":{"name":"San Estanislao","gaul_code":23999,"targetarea":10.6714621,"totpop":157448.764191,"country_id":"PRY","targetpop":19316.4611816,"totalarea":3885.538149,"new_mean":0.0147086}},{"type":"Polygon","arcs":[[133]],"properties":{"name":"J.e. Estigarribia","gaul_code":23817,"targetarea":4.614086,"totpop":40022.1033777,"country_id":"PRY","targetpop":7885.4709473,"totalarea":627.1549249,"new_mean":0.0139297}},{"type":"MultiPolygon","arcs":[[[134]],[[135,136]],[[137,138,139]],[[-71,140]],[[141,142,143]],[[-69,144,145]]],"properties":{"name":"Ita","gaul_code":23853,"targetarea":21.2765239,"totpop":85512.0917873,"country_id":"PRY","targetpop":34449.7131348,"totalarea":180.4406587,"new_mean":0.015175}},{"type":"MultiPolygon","arcs":[[[134]],[[135,136]],[[137,138,139]],[[-71,140]],[[141,142,143]],[[-69,144,145]]],"properties":{"name":"Ita","gaul_code":23853,"targetarea":21.2765239,"totpop":85512.0917873,"country_id":"PRY","targetpop":34449.7131348,"totalarea":180.4406587,"new_mean":0.0150842}},{"type":"Polygon","arcs":[[146]],"properties":{"name":"Atyra","gaul_code":23878,"targetarea":1.6059294,"totpop":16573.161377,"country_id":"PRY","targetpop":2638.3878784,"totalarea":120.2417383,"new_mean":0.0154202}},{"type":"Polygon","arcs":[[147]],"properties":{"name":"Paraguari","gaul_code":23976,"targetarea":1.7902963,"totpop":24258.8313603,"country_id":"PRY","targetpop":3090.265564,"totalarea":456.1860091,"new_mean":0.0167523}},{"type":"Polygon","arcs":[[-67,148]],"properties":{"name":"San Juan Nepomuceno","gaul_code":23838,"targetarea":3.6024895,"totpop":38521.7450452,"country_id":"PRY","targetpop":6615.7524414,"totalarea":1015.3449698,"new_mean":0.015254}},{"type":"Polygon","arcs":[[149]],"properties":{"name":"Curuguaty","gaul_code":23842,"targetarea":5.8008111,"totpop":103695.352626,"country_id":"PRY","targetpop":12684.6498413,"totalarea":4121.7910398,"new_mean":0.0149573}},{"type":"Polygon","arcs":[[150,151,-50,152,-18,153,-21,154]],"properties":{"name":"Ciudad  Del Este","gaul_code":23788,"targetarea":75.801238,"totpop":330095.680847,"country_id":"PRY","targetpop":324559.866577,"totalarea":83.2320577,"new_mean":0.015211}},{"type":"Polygon","arcs":[[155]],"properties":{"name":"Jose D. Ocampos","gaul_code":23818,"targetarea":0.5293566,"totpop":11408.8764223,"country_id":"PRY","targetpop":897.3198242,"totalarea":147.2833978,"new_mean":0.0150087}},{"type":"Polygon","arcs":[[156]],"properties":{"name":"San Joaquin","gaul_code":23826,"targetarea":0.5309907,"totpop":18640.165319,"country_id":"PRY","targetpop":917.9532471,"totalarea":422.9170191,"new_mean":0.0136255}},{"type":"Polygon","arcs":[[-68,-54,-11,157,158,-142,159,-145]],"properties":{"name":"J. A. Saldivar","gaul_code":23855,"targetarea":30.4178188,"totpop":56114.350769,"country_id":"PRY","targetpop":52003.3049927,"totalarea":34.7317649,"new_mean":0.0135427}},{"type":"Polygon","arcs":[[160]],"properties":{"name":"Yuty","gaul_code":23840,"targetarea":1.0462836,"totpop":42478.0101632,"country_id":"PRY","targetpop":2476.3001099,"totalarea":1774.3958562,"new_mean":0.0159629}},{"type":"Polygon","arcs":[[161]],"properties":{"name":"Concepcion","gaul_code":23869,"targetarea":20.4949414,"totpop":104746.626925,"country_id":"PRY","targetpop":49019.0665283,"totalarea":10167.8456941,"new_mean":0.0173908}},{"type":"Polygon","arcs":[[-129,-80,162,-14]],"properties":{"name":"San Antonio","gaul_code":23862,"targetarea":23.1665467,"totpop":67793.5032711,"country_id":"PRY","targetpop":64598.4134521,"totalarea":27.834274,"new_mean":0.0177392}},{"type":"Polygon","arcs":[[-98,163,-115,-122]],"properties":{"name":"M. Roque Alonso","gaul_code":23859,"targetarea":33.5785704,"totpop":118370.858276,"country_id":"PRY","targetpop":109988.58374,"totalarea":43.0287698,"new_mean":0.0150532}},{"type":"Polygon","arcs":[[164]],"properties":{"name":"Yaguaron","gaul_code":23983,"targetarea":4.0558065,"totpop":31898.568862,"country_id":"PRY","targetpop":7526.4692383,"totalarea":254.7912354,"new_mean":0.0154631}},{"type":"Polygon","arcs":[[165]],"properties":{"name":"Belen","gaul_code":23868,"targetarea":1.0729091,"totpop":13130.4433417,"country_id":"PRY","targetpop":2327.5255127,"totalarea":144.4189603,"new_mean":0.0147345}},{"type":"Polygon","arcs":[[166]],"properties":{"name":"San Pedro Del Parana","gaul_code":23937,"targetarea":3.3671935,"totpop":34537.2510419,"country_id":"PRY","targetpop":7002.7913818,"totalarea":1389.9648534,"new_mean":0.0157883}},{"type":"Polygon","arcs":[[167,-127,-103]],"properties":{"name":"Benjamin Aceval","gaul_code":23986,"targetarea":1.883786,"totpop":25963.7108726,"country_id":"PRY","targetpop":3845.6126709,"totalarea":2196.9211157,"new_mean":0.0156067}},{"type":"Polygon","arcs":[[168]],"properties":{"name":"Acahay","gaul_code":23969,"targetarea":0.5271899,"totpop":16376.4037843,"country_id":"PRY","targetpop":1273.5635986,"totalarea":329.1849158,"new_mean":0.0153516}},{"type":"Polygon","arcs":[[169]],"properties":{"name":"Alberdi","gaul_code":23953,"targetarea":1.8001068,"totpop":10094.8975196,"country_id":"PRY","targetpop":4001.7664795,"totalarea":109.8524762,"new_mean":0.0125805}},{"type":"MultiPolygon","arcs":[[[170]],[[171]]],"properties":{"name":"Santa Rita","gaul_code":23803,"targetarea":4.1924475,"totpop":37474.042026,"country_id":"PRY","targetpop":4743.0358276,"totalarea":628.3434866,"new_mean":0.0158023}},{"type":"MultiPolygon","arcs":[[[172]],[[173]]],"properties":{"name":"Nueva Germania","gaul_code":23997,"targetarea":2.8737163,"totpop":53274.887337,"country_id":"PRY","targetpop":4847.9537353,"totalarea":2222.7047673,"new_mean":0.0138104}},{"type":"Polygon","arcs":[[174]],"properties":{"name":"Arroyos Y Esteros","gaul_code":23877,"targetarea":0.5308849,"totpop":25612.5443041,"country_id":"PRY","targetpop":1329.1682129,"totalarea":554.9006322,"new_mean":0.0164057}},{"type":"Polygon","arcs":[[175]],"properties":{"name":"Yby Yau","gaul_code":23874,"targetarea":2.1182944,"totpop":33630.1217242,"country_id":"PRY","targetpop":3847.3662109,"totalarea":2136.6913167,"new_mean":0.0150146}},{"type":"Polygon","arcs":[[-143,-159,176,-8,-93,177,-139,178]],"properties":{"name":"Guarambare","gaul_code":23852,"targetarea":16.8497785,"totpop":41947.5716095,"country_id":"PRY","targetpop":31595.4562988,"totalarea":29.0062705,"new_mean":0.0144094}},{"type":"MultiPolygon","arcs":[[[179]],[[-151,180]]],"properties":{"name":"Minga Guazu","gaul_code":23796,"targetarea":15.9974369,"totpop":98514.4176059,"country_id":"PRY","targetpop":17958.8937378,"totalarea":539.0611876,"new_mean":0.0150978}},{"type":"Polygon","arcs":[[-117,181,-78]],"properties":{"name":"Lambare","gaul_code":23856,"targetarea":25.9939537,"totpop":182673.033508,"country_id":"PRY","targetpop":180854.126465,"totalarea":27.8921665,"new_mean":0.0187921}},{"type":"Polygon","arcs":[[182]],"properties":{"name":"Eusebio Ayala","gaul_code":23882,"targetarea":2.0794351,"totpop":24825.277339,"country_id":"PRY","targetpop":3116.5822144,"totalarea":268.6504284,"new_mean":0.0170527}},{"type":"Polygon","arcs":[[183]],"properties":{"name":"Horqueta","gaul_code":23870,"targetarea":6.7088833,"totpop":72042.4353285,"country_id":"PRY","targetpop":14299.4116821,"totalarea":2621.4563514,"new_mean":0.0136867}},{"type":"Polygon","arcs":[[183]],"properties":{"name":"Horqueta","gaul_code":23870,"targetarea":6.7088833,"totpop":72042.4353285,"country_id":"PRY","targetpop":14299.4116821,"totalarea":2621.4563514,"new_mean":0.0153432}}]}},"arcs":[[[-55.827017,-27.3321357],[-55.8321991,-27.3336697],[-55.8575935,-27.3305817],[-55.8625069,-27.3403931],[-55.8620186,-27.3444252],[-55.8495865,-27.3635159],[-55.8299026,-27.3668766],[-55.8190641,-27.3775197]],[[-55.8190641,-27.3775197],[-55.8221685,-27.3694512],[-55.8183843,-27.3390475],[-55.827017,-27.3321357]],[[-55.8241857,-27.3064404],[-55.810995,-27.2958753],[-55.8137619,-27.2736178],[-55.8319922,-27.2869366]],[[-55.8319922,-27.2869366],[-55.8316574,-27.2995014],[-55.8241857,-27.3064404]],[[-57.2394943,-25.7554782],[-57.2622645,-25.7664808],[-57.2333338,-25.7754163],[-57.2394943,-25.7554782]],[[-57.4916672,-25.467083],[-57.4832921,-25.4878809]],[[-57.4832921,-25.4878809],[-57.4796066,-25.4924908]],[[-57.4796066,-25.4924908],[-57.4745102,-25.4837246],[-57.4736103,-25.4736047]],[[-57.4736103,-25.4736047],[-57.4784022,-25.4704847],[-57.4916672,-25.467083]],[[-57.4916672,-25.467083],[-57.4881271,-25.4272637],[-57.469859,-25.439877]],[[-57.469859,-25.439877],[-57.465683,-25.4345131]],[[-57.465683,-25.4345131],[-57.4762535,-25.430872],[-57.4966812,-25.4209461],[-57.4979858,-25.4188519]],[[-57.4979858,-25.4188519],[-57.5130043,-25.4197521],[-57.5351334,-25.4401608]],[[-57.5351334,-25.4401608],[-57.5436717,-25.4486888]],[[-57.5436717,-25.4486888],[-57.5371912,-25.4542738],[-57.5230067,-25.470737],[-57.5054611,-25.472153],[-57.4916672,-25.467083]],[[-55.7018127,-22.5627975],[-55.7243729,-22.5479813],[-55.735569,-22.532196],[-55.7418404,-22.5143223],[-55.7458694,-22.4844095],[-55.7569829,-22.5498711],[-55.7406662,-22.5873792],[-55.7126144,-22.5704603],[-55.6875168,-22.5803236],[-55.684792,-22.5793265],[-55.7018127,-22.5627975]],[[-54.6628586,-24.1481703],[-54.6774989,-24.1553724],[-54.6583338,-24.1587497],[-54.6628586,-24.1481703]],[[-54.6280473,-25.4636513],[-54.628643,-25.4720039],[-54.6398811,-25.472662],[-54.634079,-25.4880314],[-54.6241302,-25.4968224],[-54.6027324,-25.5111685]],[[-54.6027324,-25.5111685],[-54.6110756,-25.4821096],[-54.6133713,-25.4772474],[-54.6280473,-25.4636513]],[[-54.6342115,-25.4579407],[-54.6415151,-25.4520546]],[[-54.6415151,-25.4520546],[-54.6398468,-25.4572411],[-54.6342115,-25.4579407]],[[-54.6047043,-25.416082],[-54.6297043,-25.3967868],[-54.6453862,-25.3705661],[-54.6570887,-25.3722995],[-54.6473556,-25.4381768],[-54.6333338,-25.442083],[-54.6296799,-25.4205579],[-54.6134526,-25.4229587],[-54.6047043,-25.416082]],[[-56.4354253,-24.1813978],[-56.4446213,-24.1961927],[-56.4250005,-24.2004164],[-56.4354253,-24.1813978]],[[-56.5776291,-24.1740736],[-56.5934901,-24.1893893],[-56.5750005,-24.192083],[-56.5776291,-24.1740736]],[[-57.2750005,-25.4087497],[-57.2750005,-25.392083],[-57.3000005,-25.392083],[-57.3000005,-25.4087497],[-57.2750005,-25.4087497]],[[-57.3876733,-25.3566264],[-57.3884852,-25.3465182],[-57.3788091,-25.3381849],[-57.3795252,-25.3293145],[-57.3628097,-25.3149102],[-57.3788579,-25.3042738],[-57.3961431,-25.2965589],[-57.4038579,-25.2876071],[-57.4211431,-25.2798923],[-57.4252802,-25.2572164]],[[-57.4252802,-25.2572164],[-57.4346733,-25.2714882],[-57.4465637,-25.2762165],[-57.4477921,-25.2828598],[-57.4452171,-25.2974167]],[[-57.4452171,-25.2974167],[-57.4343987,-25.3167019],[-57.4287758,-25.3228912],[-57.4260902,-25.3342648],[-57.41222,-25.3443604],[-57.4046669,-25.3522148]],[[-57.4046669,-25.3522148],[-57.3876733,-25.3566264]],[[-57.4000005,-25.3254163],[-57.4101567,-25.3225599],[-57.4028569,-25.3152601],[-57.4000005,-25.3254163]],[[-57.458519,-25.3111744],[-57.4723701,-25.3193359],[-57.4787178,-25.3199692],[-57.4963951,-25.3062248],[-57.5078583,-25.3020363],[-57.5116539,-25.2932091],[-57.5348053,-25.2924671]],[[-57.5348053,-25.2924671],[-57.5332108,-25.2971973],[-57.5175629,-25.3134937],[-57.5254478,-25.3219471],[-57.5264816,-25.3288593],[-57.5405807,-25.3291245],[-57.5465508,-25.3367615],[-57.551445,-25.3517704],[-57.5672531,-25.3508434],[-57.5722694,-25.3457451]],[[-57.5722694,-25.3457451],[-57.5677757,-25.3549366]],[[-57.5677757,-25.3549366],[-57.5623627,-25.3618565],[-57.5420074,-25.3606014],[-57.5259209,-25.3687115],[-57.5335236,-25.3817139],[-57.5266914,-25.3867207],[-57.515522,-25.3903675],[-57.5065727,-25.3961048],[-57.4996185,-25.3951988]],[[-57.4996185,-25.3951988],[-57.4827003,-25.3983002],[-57.4838715,-25.3865643],[-57.4833069,-25.3690052],[-57.487278,-25.3511696],[-57.4754219,-25.3286133],[-57.4604759,-25.3150616],[-57.458519,-25.3111744]],[[-57.1306483,-26.6646986],[-57.1528732,-26.6717949],[-57.1250005,-26.6754163],[-57.1306483,-26.6646986]],[[-57.0128586,-26.0148369],[-57.0274989,-26.0220391],[-57.0083338,-26.0254163],[-57.0128586,-26.0148369]],[[-55.2540776,-26.5242445],[-55.2776209,-26.5056491],[-55.2689702,-26.5308363],[-55.2500005,-26.542083],[-55.2540776,-26.5242445]],[[-57.1695236,-25.3652601],[-57.1768234,-25.3725599],[-57.1666672,-25.3754163],[-57.1695236,-25.3652601]],[[-57.1386398,-25.4034437],[-57.1280278,-25.397389],[-57.1168218,-25.3777357],[-57.151856,-25.3640557],[-57.1613612,-25.3807223],[-57.1731613,-25.3874525],[-57.1605311,-25.4045667],[-57.1416672,-25.4087497],[-57.1386398,-25.4034437]],[[-57.3461919,-25.1148369],[-57.3608322,-25.1220391],[-57.3416672,-25.1254163],[-57.3461919,-25.1148369]],[[-57.0723719,-24.0804701],[-57.0870366,-24.0945895],[-57.0666672,-24.1004164],[-57.0723719,-24.0804701]],[[-55.3587163,-25.4160007],[-55.3865077,-25.4215264],[-55.3666672,-25.4337497],[-55.3587163,-25.4160007]],[[-55.9200038,-25.0481458],[-55.9274989,-25.0624443],[-55.9166672,-25.067083],[-55.9200038,-25.0481458]],[[-57.5348053,-25.2924671],[-57.5421333,-25.288187]],[[-57.5421333,-25.288187],[-57.5560226,-25.3117371],[-57.5780449,-25.3293629],[-57.5840836,-25.3356686]],[[-57.5840836,-25.3356686],[-57.5722694,-25.3457451]],[[-56.4305832,-25.7502454],[-56.4607427,-25.7670667],[-56.4705246,-25.7853854],[-56.4250005,-25.817083],[-56.4305832,-25.7502454]],[[-56.8442957,-26.8740736],[-56.8601567,-26.8893893],[-56.8416672,-26.892083],[-56.8442957,-26.8740736]],[[-54.5984127,-25.555219],[-54.6092453,-25.5453529],[-54.6177521,-25.5405312],[-54.622448,-25.5351276],[-54.6378365,-25.5416412],[-54.6475182,-25.5391922],[-54.6674538,-25.5363026],[-54.6733589,-25.546526],[-54.6767998,-25.5447464],[-54.6886253,-25.5316048],[-54.6943092,-25.5321972]],[[-54.6943092,-25.5321972],[-54.678687,-25.5548923],[-54.6793625,-25.5720798],[-54.6416672,-25.5705905],[-54.6160324,-25.5716078],[-54.6041346,-25.5968112],[-54.5975881,-25.5761354],[-54.5984127,-25.555219]],[[-57.4452171,-25.2974167],[-57.4507828,-25.3061504],[-57.458519,-25.3111744]],[[-57.4996185,-25.3951988],[-57.5003662,-25.4076595],[-57.4979858,-25.4188519]],[[-57.465683,-25.4345131],[-57.4521942,-25.4079514],[-57.4477119,-25.391758],[-57.4277763,-25.3965816],[-57.4210205,-25.3948536],[-57.4175758,-25.3883934],[-57.404789,-25.3858089]],[[-57.404789,-25.3858089],[-57.4021912,-25.3620968],[-57.4046669,-25.3522148]],[[-57.2861903,-25.8735934],[-57.2934901,-25.8808932],[-57.2833338,-25.8837497],[-57.2861903,-25.8735934]],[[-57.2307052,-25.9638034],[-57.24537,-25.9779229],[-57.2250005,-25.9837497],[-57.2307052,-25.9638034]],[[-56.2778569,-25.6152601],[-56.2851567,-25.6225599],[-56.2750005,-25.6254163],[-56.2778569,-25.6152601]],[[-55.6500005,-27.0837497],[-55.6601567,-27.0866061],[-55.6528569,-27.0939059],[-55.6500005,-27.0837497]],[[-55.6500005,-27.0837497],[-55.6370982,-27.0751482]],[[-55.6370982,-27.0751482],[-55.6412849,-27.0745068],[-55.6457738,-27.0669324]],[[-55.6457738,-27.0669324],[-55.6478439,-27.0689792],[-55.6500005,-27.0837497]],[[-58.2798263,-26.8536309],[-58.2935145,-26.8384535],[-58.3202967,-26.8757744],[-58.2916672,-26.8837497],[-58.2798263,-26.8536309]],[[-55.8319922,-27.2869366],[-55.8455083,-27.2968112],[-55.9066004,-27.2892103],[-55.9032476,-27.316139],[-55.8806727,-27.3342217],[-55.8533778,-27.3791598],[-55.8166672,-27.3837497],[-55.8190641,-27.3775197]],[[-55.827017,-27.3321357],[-55.8306727,-27.3292087],[-55.8282476,-27.3096937],[-55.8241857,-27.3064404]],[[-55.9268188,-26.1072621],[-55.922966,-26.0965264],[-55.9373571,-26.1013978]],[[-55.9373571,-26.1013978],[-55.9268188,-26.1072621]],[[-57.404789,-25.3858089],[-57.4006805,-25.4001255],[-57.399704,-25.4125004],[-57.4034805,-25.4309673],[-57.4028015,-25.4374218]],[[-57.4028015,-25.4374218],[-57.400479,-25.4418803]],[[-57.400479,-25.4418803],[-57.3954839,-25.4297946],[-57.3974696,-25.4050469],[-57.3801681,-25.4036553],[-57.369898,-25.4220635],[-57.3716154,-25.4434498]],[[-57.3716154,-25.4434498],[-57.3590608,-25.4460717]],[[-57.3590608,-25.4460717],[-57.3527267,-25.4113538],[-57.3225103,-25.4137871],[-57.3091632,-25.4022829],[-57.3145499,-25.3945353],[-57.3405685,-25.3643405],[-57.3625005,-25.3625827],[-57.3870366,-25.3645521],[-57.3876733,-25.3566264]],[[-56.5279103,-22.1219018],[-56.5205978,-22.120265],[-56.5083338,-22.1254164],[-56.5147417,-22.1004428],[-56.51894,-22.1030636],[-56.5279103,-22.1219018]],[[-55.1473719,-24.9721367],[-55.1620366,-24.9862562],[-55.1416672,-24.992083],[-55.1473719,-24.9721367]],[[-55.5247206,-23.2560404],[-55.530407,-23.2661781],[-55.5220783,-23.2642463],[-55.5247206,-23.2560404]],[[-55.9887131,-25.4700371],[-55.9748296,-25.4624199],[-56.0178228,-25.4419121],[-56.0387131,-25.4533704],[-56.0446213,-25.4641289],[-56.0612879,-25.4732679],[-56.0298345,-25.4899102],[-56.020728,-25.4861585],[-55.9916672,-25.5004163],[-55.9887131,-25.4700371]],[[-57.5840836,-25.3356686],[-57.5854912,-25.3374748]],[[-57.5854912,-25.3374748],[-57.6135899,-25.3867307]],[[-57.6135899,-25.3867307],[-57.5940836,-25.3989498]],[[-57.5940836,-25.3989498],[-57.5718575,-25.3934155],[-57.5704918,-25.3799553],[-57.5675354,-25.3713417]],[[-57.5675354,-25.3713417],[-57.5677757,-25.3549366]],[[-55.2416672,-25.442083],[-55.2416672,-25.4254163],[-55.2666672,-25.4254163],[-55.2666672,-25.442083],[-55.2416672,-25.442083]],[[-55.8028569,-27.2152601],[-55.8101567,-27.2225599],[-55.8000005,-27.2254163],[-55.8028569,-27.2152601]],[[-54.3115212,-24.0428045],[-54.3139653,-24.0402764],[-54.3187831,-24.072682],[-54.3000005,-24.0754164],[-54.3021164,-24.0525322],[-54.3115212,-24.0428045]],[[-57.2445236,-25.2569268],[-57.2518234,-25.2642266],[-57.2416672,-25.267083],[-57.2445236,-25.2569268]],[[-56.4528569,-25.5735934],[-56.4601567,-25.5808932],[-56.4500005,-25.5837497],[-56.4528569,-25.5735934]],[[-56.3945236,-25.4652601],[-56.4018234,-25.4725599],[-56.3916672,-25.4754163],[-56.3945236,-25.4652601]],[[-56.4112147,-25.4716566],[-56.4239588,-25.4220147],[-56.4549321,-25.428818],[-56.4617355,-25.4470147],[-56.4784022,-25.4726087],[-56.4458664,-25.480527],[-56.4372645,-25.4785983],[-56.4250005,-25.4837497],[-56.4215988,-25.478818],[-56.4112147,-25.4716566]],[[-56.8528569,-25.4569268],[-56.8601567,-25.4642266],[-56.8500005,-25.467083],[-56.8528569,-25.4569268]],[[-57.0112391,-26.8874932],[-57.0273442,-26.8763766],[-57.0450689,-26.8931247],[-57.0166672,-26.9004163],[-57.0112391,-26.8874932]],[[-56.4445236,-24.0569268],[-56.4518234,-24.0642266],[-56.4416672,-24.067083],[-56.4445236,-24.0569268]],[[-57.5500005,-25.5254163],[-57.5500005,-25.5004163],[-57.5639725,-25.5004163],[-57.5666672,-25.5077045],[-57.5666672,-25.5254163],[-57.5500005,-25.5254163]],[[-57.480462,-25.4949091],[-57.4796066,-25.4924908]],[[-57.4832921,-25.4878809],[-57.480462,-25.4949091]],[[-57.5446392,-25.1335485],[-57.549582,-25.1470268]],[[-57.549582,-25.1470268],[-57.5416672,-25.1504163],[-57.5446392,-25.1335485]],[[-57.4289693,-25.1862408],[-57.4298345,-25.1754163],[-57.4288091,-25.1626478],[-57.4378097,-25.1548923],[-57.4455246,-25.1376071],[-57.4628097,-25.1298923],[-57.4794764,-25.1132256],[-57.49384,-25.0965589],[-57.4961838,-25.104404],[-57.4935959,-25.1365654],[-57.5045252,-25.1459811],[-57.5036107,-25.1573613],[-57.5031623,-25.1629418],[-57.5038793,-25.1639423]],[[-57.5038793,-25.1639423],[-57.5066223,-25.1778507],[-57.4997215,-25.1888657],[-57.5018158,-25.2014294]],[[-57.5018158,-25.2014294],[-57.4949532,-25.2073364],[-57.4882836,-25.2090201]],[[-57.4882836,-25.2090201],[-57.4858146,-25.2082625]],[[-57.4858146,-25.2082625],[-57.4821777,-25.20825],[-57.4773788,-25.2174416],[-57.464901,-25.2162609],[-57.4541168,-25.2100773],[-57.4442444,-25.2067108],[-57.4392738,-25.1922455],[-57.4289693,-25.1862408]],[[-57.5320464,-25.1064563],[-57.5250005,-25.1087497],[-57.5229578,-25.102459],[-57.5094569,-25.0980726],[-57.5100788,-25.08979]],[[-57.5100788,-25.08979],[-57.520916,-25.0959663],[-57.523468,-25.1005707]],[[-57.523468,-25.1005707],[-57.5320464,-25.1064563]],[[-56.7294032,-25.5376803],[-56.7141037,-25.5240166],[-56.7455978,-25.5311211],[-56.7333338,-25.542083],[-56.7294032,-25.5376803]],[[-56.8961919,-24.4398369],[-56.9108322,-24.4470391],[-56.8916672,-24.4504164],[-56.8961919,-24.4398369]],[[-56.2403163,-27.1472344],[-56.2536301,-27.1622165],[-56.2250005,-27.167083],[-56.2403163,-27.1472344]],[[-55.5778569,-27.0402601],[-55.5851567,-27.0475599],[-55.5750005,-27.0504163],[-55.5778569,-27.0402601]],[[-55.6250005,-27.067083],[-55.6221441,-27.0772393],[-55.6148442,-27.0699395],[-55.6250005,-27.067083]],[[-55.6250005,-27.067083],[-55.6276372,-27.0490003],[-55.6457738,-27.0669324]],[[-55.6370982,-27.0751482],[-55.6250005,-27.067083]],[[-54.7200038,-26.3398125],[-54.7274989,-26.354111],[-54.7166672,-26.3587497],[-54.7200038,-26.3398125]],[[-57.0696619,-25.2627129],[-57.0810633,-25.2470147],[-57.1034022,-25.2681247],[-57.0750005,-25.2754163],[-57.0696619,-25.2627129]],[[-56.3640386,-26.1804701],[-56.3787033,-26.1945895],[-56.3583338,-26.2004163],[-56.3640386,-26.1804701]],[[-57.5267715,-25.2410431],[-57.5295601,-25.2347927],[-57.5370941,-25.2303257],[-57.5412254,-25.232235],[-57.5665587,-25.223012]],[[-57.5665587,-25.223012],[-57.6211431,-25.2626071],[-57.6288986,-25.2716078],[-57.6517746,-25.2697686],[-57.6684112,-25.2841018],[-57.6700117,-25.2882918],[-57.6628097,-25.3215589],[-57.6455246,-25.3459404],[-57.6411285,-25.3492126],[-57.6381226,-25.3601799]],[[-57.6381226,-25.3601799],[-57.6363754,-25.356739],[-57.6352005,-25.3410301],[-57.6333618,-25.3353939],[-57.6202126,-25.3224907],[-57.6199837,-25.3163052],[-57.6142082,-25.3079433],[-57.6096077,-25.3158646],[-57.5908432,-25.3314419],[-57.5854912,-25.3374748]],[[-57.5421333,-25.288187],[-57.5396919,-25.2794552],[-57.5421486,-25.2637138],[-57.5267715,-25.2410431]],[[-55.9861903,-25.5319268],[-55.9934901,-25.5392266],[-55.9833338,-25.542083],[-55.9861903,-25.5319268]],[[-57.4252802,-25.2572164],[-57.4288579,-25.2376071],[-57.4378504,-25.2214775],[-57.4378504,-25.2043552],[-57.4289693,-25.1862408]],[[-57.4858146,-25.2082625],[-57.4833338,-25.217083],[-57.4934901,-25.2142266],[-57.4882836,-25.2090201]],[[-57.5018158,-25.2014294],[-57.5041046,-25.2063293],[-57.5142975,-25.2146034],[-57.5215034,-25.232523],[-57.5267715,-25.2410431]],[[-57.0421229,-25.4469658],[-57.0539312,-25.4690524],[-57.0333338,-25.4754163],[-57.0421229,-25.4469658]],[[-57.6945236,-25.2652601],[-57.7018234,-25.2725599],[-57.6916672,-25.2754163],[-57.6945236,-25.2652601]],[[-57.7111903,-25.2569268],[-57.7184901,-25.2642266],[-57.7083338,-25.267083],[-57.7111903,-25.2569268]],[[-57.5446392,-25.1335485],[-57.5524989,-25.1457777],[-57.549582,-25.1470268]],[[-57.523468,-25.1005707],[-57.5325114,-25.0916442]],[[-57.5325114,-25.0916442],[-57.5353765,-25.1053724],[-57.5320464,-25.1064563]],[[-57.5675354,-25.3713417],[-57.5563889,-25.3800583],[-57.5481415,-25.3842487],[-57.5506859,-25.3908901],[-57.5487137,-25.40135],[-57.542778,-25.4044514],[-57.5376854,-25.4164639],[-57.5353127,-25.4291115],[-57.5351334,-25.4401608]],[[-56.0250005,-24.742083],[-56.0351567,-24.7449395],[-56.0278569,-24.7522393],[-56.0250005,-24.742083]],[[-56.0250005,-24.742083],[-56.0049403,-24.7282321],[-56.0177088,-24.7136813],[-56.0250005,-24.742083]],[[-56.4278325,-24.6628106],[-56.4416102,-24.6470147],[-56.4617355,-24.6698906],[-56.4416672,-24.6837497],[-56.4278325,-24.6628106]],[[-56.4028569,-24.5235934],[-56.4101567,-24.5308932],[-56.4000005,-24.5337497],[-56.4028569,-24.5235934]],[[-55.681161,-25.3715752],[-55.702564,-25.3642835],[-55.7111333,-25.3804375],[-55.6750005,-25.3837497],[-55.681161,-25.3715752]],[[-57.3916672,-25.492083],[-57.372966,-25.5163099],[-57.3441167,-25.5120456],[-57.3481206,-25.4849297],[-57.3916672,-25.492083]],[[-57.3916672,-25.492083],[-57.3916672,-25.4837497],[-57.4000005,-25.4837497]],[[-57.4000005,-25.4837497],[-57.4000005,-25.492083],[-57.3916672,-25.492083]],[[-57.4000005,-25.4837497],[-57.4045171,-25.471445],[-57.4031255,-25.454168],[-57.4275733,-25.4561318]],[[-57.4275733,-25.4561318],[-57.4232254,-25.4626274],[-57.4235535,-25.4721813],[-57.4269552,-25.4775053]],[[-57.4269552,-25.4775053],[-57.4000005,-25.4837497]],[[-57.3716154,-25.4434498],[-57.3731369,-25.4623955],[-57.3621994,-25.4632744],[-57.3590608,-25.4460717]],[[-57.424888,-25.4423559],[-57.4315338,-25.4416122],[-57.4343262,-25.4487972]],[[-57.4343262,-25.4487972],[-57.4284943,-25.4549638]],[[-57.4284943,-25.4549638],[-57.424888,-25.4423559]],[[-57.4028015,-25.4374218],[-57.4048804,-25.4368955]],[[-57.4048804,-25.4368955],[-57.400479,-25.4418803]],[[-57.1763784,-25.2845849],[-57.1666672,-25.292083],[-57.158993,-25.272568],[-57.1737193,-25.280276],[-57.1763784,-25.2845849]],[[-57.1456711,-25.6151543],[-57.1612879,-25.6229994],[-57.1416672,-25.6337497],[-57.1456711,-25.6151543]],[[-55.9373571,-26.1013978],[-55.9539312,-26.1070081],[-55.9333338,-26.1254163],[-55.9268188,-26.1072621]],[[-55.6861333,-24.4615492],[-55.7111333,-24.4611504],[-55.701742,-24.4803805],[-55.6750005,-24.4837497],[-55.6861333,-24.4615492]],[[-54.6962239,-25.4468341],[-54.699791,-25.4678288],[-54.7003441,-25.4914207],[-54.7030257,-25.5148449]],[[-54.7030257,-25.5148449],[-54.6943092,-25.5321972]],[[-54.5984127,-25.555219],[-54.6027324,-25.5111685]],[[-54.6280473,-25.4636513],[-54.6342115,-25.4579407]],[[-54.6415151,-25.4520546],[-54.6768885,-25.4707695],[-54.6803531,-25.4598227],[-54.6822062,-25.4539676],[-54.6886238,-25.43479],[-54.6930921,-25.436944],[-54.6962239,-25.4468341]],[[-55.4278569,-25.4069268],[-55.4351567,-25.4142266],[-55.4250005,-25.417083],[-55.4278569,-25.4069268]],[[-56.0445236,-25.0235934],[-56.0518234,-25.0308932],[-56.0416672,-25.0337497],[-56.0445236,-25.0235934]],[[-57.469859,-25.439877],[-57.4614425,-25.4456882],[-57.4628105,-25.451802]],[[-57.4628105,-25.451802],[-57.450222,-25.4544392],[-57.4379196,-25.4538021],[-57.4343262,-25.4487972]],[[-57.424888,-25.4423559],[-57.4143397,-25.4054782],[-57.4048804,-25.4368955]],[[-56.2450037,-26.6064792],[-56.2524989,-26.6207777],[-56.2416672,-26.6254163],[-56.2450037,-26.6064792]],[[-57.4031255,-23.4044365],[-57.4130376,-23.3967868],[-57.422966,-23.3839206],[-57.4570887,-23.3889662],[-57.451563,-23.4263522],[-57.4250005,-23.4337497],[-57.4031255,-23.4044365]],[[-57.5940836,-25.3989498],[-57.5890793,-25.4020846],[-57.5640467,-25.4311292],[-57.5436717,-25.4486888]],[[-57.5038793,-25.1639423],[-57.5211024,-25.1625583],[-57.5361496,-25.1800225],[-57.5497582,-25.178929],[-57.5544047,-25.1807591],[-57.5533859,-25.1934909],[-57.5665587,-25.223012]],[[-57.282048,-25.5479505],[-57.3034022,-25.5681247],[-57.2750005,-25.5754163],[-57.282048,-25.5479505]],[[-57.2616704,-23.4564792],[-57.2691655,-23.4707777],[-57.2583338,-23.4754164],[-57.2616704,-23.4564792]],[[-56.1933029,-26.8286146],[-56.2107101,-26.8226169],[-56.2194666,-26.8381523],[-56.2000005,-26.842083],[-56.1933029,-26.8286146]],[[-57.5100788,-25.08979],[-57.5106857,-25.081707],[-57.5208338,-25.0922458],[-57.5305343,-25.0821709],[-57.5325114,-25.0916442]],[[-57.1111903,-25.9069268],[-57.1184901,-25.9142266],[-57.1083338,-25.917083],[-57.1111903,-25.9069268]],[[-58.1456735,-26.1956597],[-58.1369227,-26.1878431],[-58.153327,-26.180315],[-58.1574516,-26.1856079],[-58.1456735,-26.1956597]],[[-55.0735438,-25.7801364],[-55.1040858,-25.8020195],[-55.0833338,-25.8087497],[-55.0735438,-25.7801364]],[[-55.0695236,-25.7652601],[-55.0768234,-25.7725599],[-55.0666672,-25.7754163],[-55.0695236,-25.7652601]],[[-56.5083338,-23.817083],[-56.5269292,-23.8210869],[-56.5190842,-23.8367038],[-56.5083338,-23.817083]],[[-56.5083338,-23.817083],[-56.4977544,-23.8125583],[-56.5049565,-23.797918],[-56.5083338,-23.817083]],[[-57.0945236,-25.0485934],[-57.1018234,-25.0558932],[-57.0916672,-25.0587497],[-57.0945236,-25.0485934]],[[-56.5390386,-22.9554701],[-56.5537033,-22.9695895],[-56.5333338,-22.9754164],[-56.5390386,-22.9554701]],[[-57.4628105,-25.451802],[-57.4635584,-25.4551445],[-57.4465988,-25.4668551],[-57.4623784,-25.4809176],[-57.4736103,-25.4736047]],[[-57.480462,-25.4949091],[-57.4767827,-25.5040459],[-57.4600711,-25.500193],[-57.4572162,-25.4995348],[-57.4452967,-25.4967868],[-57.4364995,-25.4752943],[-57.4269552,-25.4775053]],[[-57.4275733,-25.4561318],[-57.4284943,-25.4549638]],[[-54.8945236,-25.4819268],[-54.9018234,-25.4892266],[-54.8916672,-25.492083],[-54.8945236,-25.4819268]],[[-54.6962239,-25.4468341],[-54.7096196,-25.489137],[-54.7373703,-25.4794121],[-54.76259,-25.4794121],[-54.7706711,-25.4806491],[-54.7459803,-25.5047539],[-54.7084885,-25.5032647],[-54.7030257,-25.5148449]],[[-57.6381226,-25.3601799],[-57.6378097,-25.3715589],[-57.6135899,-25.3867307]],[[-56.9557052,-25.3721367],[-56.97037,-25.3862562],[-56.9500005,-25.392083],[-56.9557052,-25.3721367]],[[-57.0336024,-23.342197],[-57.0558273,-23.330877],[-57.0695399,-23.3551283],[-57.0416672,-23.3587497],[-57.0336024,-23.342197]]],"bbox":[-58.3202967,-27.3837497,-54.3000005,-22.1004428]}