{"type":"Topology","objects":{"foo":{"type":"GeometryCollection","geometries":[{"type":"MultiPolygon","arcs":[[[0]],[[1,2]],[[3,4]]],"properties":{"name":"Administrative unit not available","gaul_code":24967,"targetarea":40.706515,"totpop":587674.594151,"country_id":"QAT","targetpop":297170.009003,"totalarea":1083.9912638,"new_mean":0}},{"type":"MultiPolygon","arcs":[[[5,6,7]],[[8]]],"properties":{"name":"Administrative unit not available","gaul_code":24971,"targetarea":25.1124112,"totpop":297219.548351,"country_id":"QAT","targetpop":101874.616211,"totalarea":424.6842206,"new_mean":0}},{"type":"MultiPolygon","arcs":[[[9,10]],[[11]],[[12,13,-8,14,-2,15,-11],[16]]],"properties":{"name":"Administrative unit not available","gaul_code":24968,"targetarea":239.7454695,"totpop":2886711.73386,"country_id":"QAT","targetpop":2519279.505,"totalarea":848.1307178,"new_mean":0}},{"type":"MultiPolygon","arcs":[[[17]],[[18]],[[19]],[[20]],[[21]]],"properties":{"name":"Administrative unit not available","gaul_code":24966,"targetarea":51.3803754,"totpop":834889.063757,"country_id":"QAT","targetpop":235884.84082,"totalarea":1066.2305959,"new_mean":0}},{"type":"MultiPolygon","arcs":[[[22]],[[23]]],"properties":{"name":"Administrative unit not available","gaul_code":24970,"targetarea":1.9319584,"totpop":74885.6668157,"country_id":"QAT","targetpop":5351.7026367,"totalarea":3878.5001312,"new_mean":0}},{"type":"Polygon","arcs":[[-6,-14,24,-5,25]],"properties":{"name":"Administrative unit not available","gaul_code":24963,"targetarea":85.855219,"totpop":1877106.64746,"country_id":"QAT","targetpop":1854882.47972,"totalarea":126.7076216,"new_mean":0}}]}},"arcs":[[[51.55135,25.0111191],[51.5376618,24.9937404],[51.5583324,24.9745835],[51.55135,25.0111191]],[[51.4740469,25.1715325],[51.4319448,25.1531695]],[[51.4319448,25.1531695],[51.4577465,25.1532903],[51.4740469,25.1715325]],[[51.5593407,25.2264883],[51.5741039,25.228213],[51.5907543,25.206631],[51.5777823,25.1506251],[51.5800284,25.1353663],[51.6083975,25.1395574],[51.6231351,25.2094264],[51.6166988,25.2152319],[51.5769845,25.2392943]],[[51.5769845,25.2392943],[51.5593407,25.2264883]],[[51.4471703,25.3580894],[51.4497414,25.3590141]],[[51.4497414,25.3590141],[51.4380362,25.3876206],[51.4286286,25.403213],[51.4158845,25.4343613],[51.4002758,25.4141383],[51.4130362,25.4042872],[51.4202953,25.378213],[51.430586,25.3556146]],[[51.430586,25.3556146],[51.4471703,25.3580894]],[[51.4048982,25.49667],[51.3799307,25.4884425],[51.4027009,25.4534734],[51.4083324,25.4495834],[51.4048982,25.49667]],[[51.4916657,25.1912501],[51.5045564,25.1848455],[51.5194652,25.1980698],[51.4999991,25.2079168]],[[51.4999991,25.2079168],[51.4916657,25.1995835],[51.4916657,25.1912501]],[[51.3062491,25.3519313],[51.2970531,25.3371363],[51.3166657,25.3329168],[51.3062491,25.3519313]],[[51.4999991,25.2079168],[51.5098786,25.2207098],[51.5398435,25.2242105]],[[51.5398435,25.2242105],[51.5253792,25.2521496],[51.5102615,25.2510395],[51.4471703,25.3580894]],[[51.430586,25.3556146],[51.4333324,25.3495835],[51.410725,25.3276149],[51.3873038,25.3290105],[51.3619457,25.3152247],[51.358723,25.3368474],[51.3377269,25.3109482],[51.372932,25.2947983],[51.393098,25.2959987],[51.4039379,25.2642766],[51.3593741,25.2505153],[51.3712881,25.2285833],[51.341503,25.2193873],[51.3544262,25.195604],[51.3538728,25.1863225],[51.3793773,25.186823],[51.3941723,25.203388],[51.4263337,25.1528346],[51.4319448,25.1531695]],[[51.4740469,25.1715325],[51.4916657,25.1912501]],[[51.3797842,25.2167587],[51.402766,25.2355128],[51.3916657,25.2079168],[51.3797842,25.2167587]],[[51.3881013,25.6853745],[51.3804515,25.6638209],[51.3916657,25.6579168],[51.3881013,25.6853745]],[[51.5036286,25.6626206],[51.5286286,25.6728501],[51.5178051,25.6948797],[51.4786286,25.6876206],[51.4713695,25.6698797],[51.4547029,25.6570175],[51.4999991,25.6495834],[51.5036286,25.6626206]],[[51.5488353,25.7370989],[51.5157543,25.7187526],[51.4964509,25.723082],[51.488264,25.711819],[51.5416657,25.7079168],[51.5488353,25.7370989]],[[51.5333324,25.8912501],[51.5456859,25.8856023],[51.5650219,25.892243],[51.5564607,25.9171656],[51.5374991,25.9106512],[51.5220206,25.9159653],[51.5333324,25.8912501]],[[51.5186189,25.9202784],[51.4961742,25.9273829],[51.4888663,25.9035141],[51.5083324,25.8995834],[51.5186189,25.9202784]],[[51.3249991,25.1995835],[51.3334559,25.1950317],[51.3326653,25.1974304],[51.3249991,25.1995835]],[[51.3249991,25.1995835],[51.3287815,25.2092143],[51.3265745,25.2159107],[51.3130362,25.208816],[51.3249991,25.1995835]],[[51.5398435,25.2242105],[51.5593407,25.2264883]],[[51.5769845,25.2392943],[51.5611807,25.2657089],[51.5633239,25.2801996],[51.527943,25.293582],[51.5026846,25.2978745],[51.5050284,25.3138006],[51.5211579,25.3114202],[51.535244,25.3239326],[51.5273754,25.3375107],[51.5298168,25.3539943],[51.5249991,25.3662501],[51.5021801,25.3715398],[51.4834626,25.3472926],[51.4871836,25.3724799],[51.4738889,25.3676986],[51.4713695,25.3615463],[51.4497414,25.3590141]]],"bbox":[51.2970531,24.9745835,51.6231351,25.9273829]}