{"type":"Topology","objects":{"foo":{"type":"GeometryCollection","geometries":[{"type":"MultiPolygon","arcs":[[[0]],[[1,2]],[[3]]],"properties":{"name":"Marka","gaul_code":25694,"targetarea":2.023511,"totpop":296103.74363,"country_id":"SOM","targetpop":1831.1201172,"new_mean":0.0366372,"totalarea":1074.1389895}},{"type":"MultiPolygon","arcs":[[[4,5,6]],[[7,8]]],"properties":{"name":"Balcad","gaul_code":25702,"targetarea":2.3127144,"totpop":221790.044589,"country_id":"SOM","targetpop":1454.6969605,"new_mean":0.0359094,"totalarea":4237.9917594}},{"type":"Polygon","arcs":[[9]],"properties":{"name":"Galdogob","gaul_code":25706,"targetarea":0.3769233,"totpop":60634.0504832,"country_id":"SOM","targetpop":0,"new_mean":0.0273496,"totalarea":1957.3236311}},{"type":"Polygon","arcs":[[10,-9,11,-5,12]],"properties":{"name":"Banadir","gaul_code":25672,"targetarea":237.6243043,"totpop":1311836.84011,"country_id":"SOM","targetpop":1309459.7228,"new_mean":0.0376014,"totalarea":241.3358484}},{"type":"Polygon","arcs":[[13,14]],"properties":{"name":"Doolow","gaul_code":25681,"targetarea":1.2745835,"totpop":42893.8117785,"country_id":"SOM","targetpop":4970.6594238,"new_mean":0.0381431,"totalarea":1622.3906708}},{"type":"Polygon","arcs":[[-7,15,-13]],"properties":{"name":"Afgooye","gaul_code":25691,"targetarea":7.2937618,"totpop":318158.720371,"country_id":"SOM","targetpop":15181.5838013,"new_mean":0.0376441,"totalarea":3957.9094315}},{"type":"Polygon","arcs":[[-15,16]],"properties":{"name":"Belet Xaawo","gaul_code":25679,"targetarea":0.7989814,"totpop":78762.195653,"country_id":"SOM","targetpop":0,"new_mean":0.0443144,"totalarea":3878.4356713}},{"type":"MultiPolygon","arcs":[[[17]],[[18]]],"properties":{"name":"Gebiley","gaul_code":25725,"targetarea":1.196218,"totpop":122977.053283,"country_id":"SOM","targetpop":770.8760376,"new_mean":0.020118,"totalarea":4277.9818671}}]}},"arcs":[[[44.6583324,1.6412502],[44.6481762,1.6383938],[44.6554841,1.631094],[44.6583324,1.6412502]],[[44.6583324,1.6412502],[44.6666658,1.6412502],[44.6666658,1.6495835]],[[44.6666658,1.6495835],[44.6583324,1.6495835],[44.6583324,1.6412502]],[[44.6666658,1.6495835],[44.676822,1.65244],[44.6695141,1.6597398],[44.6666658,1.6495835]],[[45.3909683,2.1516509],[45.4431822,2.1665672]],[[45.4431822,2.1665672],[45.3945629,2.1563951],[45.3907854,2.1517424]],[[45.3907854,2.1517424],[45.3909683,2.1516509]],[[45.5435739,2.1791571],[45.4939444,2.1771877],[45.4724664,2.1726941]],[[45.4724664,2.1726941],[45.5435739,2.1791571]],[[47.0293632,7.018258],[47.0333324,7.0162502],[47.0395093,7.0286685],[47.0293632,7.018258]],[[45.2660921,1.988374],[45.2707608,1.9868962],[45.2895012,1.9988321],[45.3038673,2.002419],[45.3136619,2.0061483],[45.34447,2.0242668],[45.3486633,2.027452],[45.379612,2.042233],[45.3863006,2.0446172],[45.3981116,2.0501897],[45.4296188,2.072371],[45.4419022,2.0789261],[45.4527893,2.0882261],[45.4750938,2.099014],[45.4957695,2.112776],[45.5194283,2.1254151],[45.5657806,2.1562009],[45.5780737,2.161648],[45.6094066,2.1817694],[45.5435739,2.1791571]],[[45.4724664,2.1726941],[45.4431822,2.1665672]],[[45.3909683,2.1516509],[45.3649902,2.1176839],[45.347084,2.094281],[45.322506,2.062144],[45.2979546,2.030035],[45.2660921,1.988374]],[[41.8633892,3.9104745],[41.8797192,3.9456447],[41.8791051,3.94585],[41.8728828,3.936615],[41.8601875,3.912657],[41.8596907,3.9119873]],[[41.8596907,3.9119873],[41.8633892,3.9104745]],[[45.3907854,2.1517424],[45.2903474,2.0280341],[45.2626619,1.9894598],[45.2660921,1.988374]],[[41.8596907,3.9119873],[41.8519176,3.901509],[41.8583324,3.8995835],[41.8633892,3.9104745]],[[43.512141,9.3934963],[43.5097222,9.3923057],[43.513451,9.3904334],[43.512141,9.3934963]],[[43.3416658,9.6079168],[43.3166658,9.6079168],[43.3166658,9.6071027],[43.3247871,9.6061306],[43.3406219,9.6002884],[43.3416658,9.598532],[43.3416658,9.6079168]]],"bbox":[41.8519176,1.631094,47.0395093,9.6079168]}