{"type":"Topology","objects":{"foo":{"type":"GeometryCollection","geometries":[{"type":"Polygon","arcs":[[0,1]],"properties":{"name":"Meerzorg","gaul_code":25889,"targetarea":0.097098,"totpop":19577.117022,"country_id":"SUR","targetpop":0,"new_mean":0.0754202,"totalarea":1159.0433422}},{"type":"Polygon","arcs":[[2,3,4,5]],"properties":{"name":"De Nieuwe Grond","gaul_code":25935,"targetarea":10.5837677,"totpop":37299.423645,"country_id":"SUR","targetpop":18176.4499512,"new_mean":0.0857262,"totalarea":36.5439259}},{"type":"Polygon","arcs":[[6,7,8,-6,9,10]],"properties":{"name":"Livorno","gaul_code":25916,"targetarea":3.1456159,"totpop":9922.5359192,"country_id":"SUR","targetpop":5660.2285156,"new_mean":0.0836128,"totalarea":9.0023143}},{"type":"MultiPolygon","arcs":[[[11,12]],[[13,14]]],"properties":{"name":"Blauwgrond","gaul_code":25912,"targetarea":10.077372,"totpop":33972.7939148,"country_id":"SUR","targetpop":13750.7503052,"new_mean":0.0793391,"totalarea":46.8792296}},{"type":"Polygon","arcs":[[15,16,17,18,19,20]],"properties":{"name":"Kwatta","gaul_code":25939,"targetarea":2.3904241,"totpop":18113.8008385,"country_id":"SUR","targetpop":2661.9414062,"new_mean":0.0819647,"totalarea":54.5845442}},{"type":"Polygon","arcs":[[-10,-5,21]],"properties":{"name":"Houttuin","gaul_code":25937,"targetarea":0.482853,"totpop":24092.2745147,"country_id":"SUR","targetpop":0,"new_mean":0.0806343,"totalarea":56.7446882}},{"type":"Polygon","arcs":[[22,23,24,-3,-9]],"properties":{"name":"Pontbuiten","gaul_code":25918,"targetarea":6.3489116,"totpop":27548.6014404,"country_id":"SUR","targetpop":27548.6014404,"new_mean":0,"totalarea":6.6261662}},{"type":"Polygon","arcs":[[-20,25,26,27,28,29,30,31,32]],"properties":{"name":"Tammenga","gaul_code":25920,"targetarea":5.0767213,"totpop":14703.8116455,"country_id":"SUR","targetpop":14703.8116455,"new_mean":0,"totalarea":5.4061789}},{"type":"MultiPolygon","arcs":[[[33,34,-28]],[[35,36]],[[-26,-19,37]],[[-17,38]]],"properties":{"name":"Saramacca Polder","gaul_code":25941,"targetarea":1.3381673,"totpop":16817.4385986,"country_id":"SUR","targetpop":2012.5325928,"new_mean":0,"totalarea":23.1155549}},{"type":"Polygon","arcs":[[-30,39,-23,-8,40,41]],"properties":{"name":"Latour","gaul_code":25915,"targetarea":6.360474,"totpop":28079.5239258,"country_id":"SUR","targetpop":28079.5239258,"new_mean":0,"totalarea":6.3604739}},{"type":"MultiPolygon","arcs":[[[-21,-33,42]],[[43,44,45]]],"properties":{"name":"Welgelegen","gaul_code":25922,"targetarea":0.4407984,"totpop":4682.3657379,"country_id":"SUR","targetpop":713.4168091,"new_mean":0,"totalarea":5.7285421}},{"type":"Polygon","arcs":[[-46,46,-31,-42,47,48]],"properties":{"name":"Flora","gaul_code":25914,"targetarea":3.4074983,"totpop":21071.4797363,"country_id":"SUR","targetpop":21071.4797363,"new_mean":0,"totalarea":3.9260954}},{"type":"Polygon","arcs":[[49,50,51]],"properties":{"name":"Munder","gaul_code":25917,"targetarea":6.1320286,"totpop":17729.5712891,"country_id":"SUR","targetpop":10295.5726929,"new_mean":0,"totalarea":9.7115368}},{"type":"Polygon","arcs":[[52,-52,53,54,-15,55,-12]],"properties":{"name":"Rainville","gaul_code":25919,"targetarea":9.503005,"totpop":17913.5377407,"country_id":"SUR","targetpop":13139.9605713,"new_mean":0.0824598,"totalarea":21.996293}},{"type":"MultiPolygon","arcs":[[[56,-24,-40,-29,-35,57]],[[58,-37,59]],[[60]]],"properties":{"name":"Koewarasan","gaul_code":25938,"targetarea":4.7204983,"totpop":47456.4053421,"country_id":"SUR","targetpop":5543.7227783,"new_mean":0.0841112,"totalarea":64.8191464}},{"type":"Polygon","arcs":[[-48,-41,-7,61,62]],"properties":{"name":"Beekhuizen","gaul_code":25911,"targetarea":5.6850631,"totpop":17279.4337158,"country_id":"SUR","targetpop":17279.4337158,"new_mean":0,"totalarea":6.2269008}},{"type":"Polygon","arcs":[[-51,63,-44,-49,-63,64,-1,65,-54]],"properties":{"name":"Centrum","gaul_code":25913,"targetarea":9.1182389,"totpop":13024.6199646,"country_id":"SUR","targetpop":13024.6199646,"new_mean":0,"totalarea":9.2764297}}]}},"arcs":[[[-55.1662117,5.8250058],[-55.16679,5.8249259],[-55.1686134,5.8244824],[-55.169838,5.8239303],[-55.1702385,5.8236403],[-55.1705246,5.8232765],[-55.1709404,5.822432],[-55.1713486,5.8208799],[-55.1714401,5.8203688],[-55.1713676,5.8190918],[-55.1713753,5.8176079],[-55.1711959,5.8170797]],[[-55.1711959,5.8170797],[-55.1713221,5.8202704],[-55.1662117,5.8250058]],[[-55.1927681,5.7802444],[-55.1989479,5.7826781],[-55.2053871,5.7853417],[-55.2048912,5.7860422],[-55.2069283,5.7862992],[-55.2304919,5.7881801]],[[-55.2304919,5.7881801],[-55.2293299,5.7869248],[-55.2206629,5.7788967],[-55.2210047,5.770307],[-55.2136235,5.7372422],[-55.199257,5.7616797]],[[-55.199257,5.7616797],[-55.1998863,5.762063],[-55.1931419,5.7790437]],[[-55.1931419,5.7790437],[-55.1927681,5.7802444]],[[-55.1708353,5.803444],[-55.1729317,5.8038282],[-55.1742744,5.8041248],[-55.1754532,5.8043351],[-55.1768799,5.8046889],[-55.1778946,5.8048697],[-55.1800385,5.8050284],[-55.1812973,5.8053241],[-55.1824799,5.8056641],[-55.1833458,5.8058596],[-55.1841927,5.806128],[-55.1853371,5.8063774],[-55.1885567,5.8068924],[-55.1897621,5.807189]],[[-55.1897621,5.807189],[-55.1898003,5.8063035],[-55.1897736,5.8040786],[-55.1899185,5.8023858],[-55.1899223,5.7985168],[-55.1899681,5.7955551],[-55.1899071,5.7927165],[-55.1898689,5.7919097]],[[-55.1898689,5.7919097],[-55.1898384,5.7914205],[-55.1894531,5.7892141],[-55.1893082,5.7886777],[-55.1887474,5.7870831],[-55.1885529,5.7866368],[-55.1881218,5.7859392],[-55.1880341,5.7855721],[-55.1882362,5.784493],[-55.1911583,5.7854829],[-55.1912994,5.7847357],[-55.191906,5.7829347],[-55.1927681,5.7802444]],[[-55.1931419,5.7790437],[-55.1922455,5.7786603],[-55.1898266,5.7777207]],[[-55.1898266,5.7777207],[-55.1793299,5.7955756],[-55.1708353,5.803444]],[[-55.1764721,5.8581876],[-55.1767197,5.8551555],[-55.1703205,5.8515494]],[[-55.1703205,5.8515494],[-55.1764721,5.8581876]],[[-55.1455678,5.8374428],[-55.1225428,5.8483099],[-55.1147873,5.8702582],[-55.1694976,5.8510825]],[[-55.1694976,5.8510825],[-55.155262,5.842999],[-55.1455678,5.8374428]],[[-55.2398499,5.8424925],[-55.2482915,5.846959],[-55.2623377,5.8437404],[-55.2603168,5.8418677]],[[-55.2603168,5.8418677],[-55.2585831,5.8417363],[-55.2576141,5.8417311],[-55.2575571,5.8393103]],[[-55.2575571,5.8393103],[-55.2546213,5.8365898]],[[-55.2546213,5.8365898],[-55.2484665,5.8364291],[-55.2481346,5.8363457],[-55.2478447,5.831079],[-55.246563,5.8310723],[-55.2418251,5.8309774],[-55.2383766,5.8309507]],[[-55.2383766,5.8309507],[-55.2390442,5.8324823],[-55.2401733,5.8327169],[-55.241703,5.8327293],[-55.2423286,5.8327737],[-55.2430344,5.8375745],[-55.2398987,5.8373556]],[[-55.2398987,5.8373556],[-55.2398499,5.8424925]],[[-55.199257,5.7616797],[-55.1898266,5.7777207]],[[-55.1898689,5.7919097],[-55.194458,5.7941079],[-55.2006035,5.7969861],[-55.200737,5.7973986],[-55.2011108,5.7975774],[-55.2035332,5.7977228],[-55.2126923,5.7981629],[-55.2222862,5.7985802],[-55.2298927,5.7995167]],[[-55.2298927,5.7995167],[-55.2313271,5.7983594],[-55.2332687,5.7981844],[-55.2346802,5.7962604],[-55.2353592,5.79633],[-55.2362163,5.794364]],[[-55.2362163,5.794364],[-55.2304919,5.7881801]],[[-55.2383766,5.8309507],[-55.2381783,5.8304296],[-55.237587,5.8291678],[-55.2368698,5.8269196],[-55.2366142,5.8258014],[-55.2361679,5.8246255],[-55.2358589,5.8242507],[-55.2350731,5.8238163],[-55.2339058,5.8233447],[-55.2326774,5.816255]],[[-55.2326774,5.816255],[-55.2295985,5.8134019],[-55.2329309,5.8127658]],[[-55.2329309,5.8127658],[-55.2349663,5.8079104]],[[-55.2349663,5.8079104],[-55.2346573,5.8081651],[-55.2317085,5.8107705],[-55.2308617,5.811563]],[[-55.2308617,5.811563],[-55.230381,5.8119774],[-55.2299919,5.812108],[-55.2295456,5.81212],[-55.2282906,5.8116498],[-55.2273865,5.811409],[-55.2270393,5.8114276],[-55.2257576,5.8117962],[-55.2242928,5.8121119],[-55.2237167,5.8123198],[-55.2231255,5.8124032],[-55.2223358,5.8126812],[-55.2215347,5.8128076],[-55.2208824,5.812789],[-55.2199478,5.8124914],[-55.2184677,5.8121653],[-55.2171249,5.8116632]],[[-55.2171249,5.8116632],[-55.2169991,5.8130326],[-55.2167511,5.8145733],[-55.2173615,5.816793],[-55.2176056,5.8180685],[-55.2179565,5.8189902],[-55.219223,5.821178],[-55.2203064,5.8231502],[-55.218277,5.8304815],[-55.2183997,5.8311432]],[[-55.2183997,5.8311432],[-55.2290158,5.8367602]],[[-55.2290158,5.8367602],[-55.2333221,5.8369679],[-55.2384834,5.8372569],[-55.2398987,5.8373556]],[[-55.2329309,5.8127658],[-55.2377363,5.8118485]],[[-55.2377363,5.8118485],[-55.2356911,5.8113465],[-55.2345352,5.8109779],[-55.2349663,5.8079104]],[[-55.2610701,5.8176498],[-55.2611903,5.8180772],[-55.2615172,5.8177499]],[[-55.2615172,5.8177499],[-55.2610701,5.8176498]],[[-55.2546213,5.8365898],[-55.2326774,5.816255]],[[-55.2603168,5.8418677],[-55.2575571,5.8393103]],[[-55.2308617,5.811563],[-55.230835,5.8108873],[-55.2302818,5.8109207],[-55.2296944,5.7996783],[-55.2298927,5.7995167]],[[-55.1897621,5.807189],[-55.1919975,5.8078036],[-55.1926575,5.8079462],[-55.1946945,5.8082109],[-55.1965599,5.8087611],[-55.1974716,5.808918],[-55.1982498,5.8089714],[-55.1991005,5.8091273],[-55.2002907,5.809186],[-55.2015877,5.8094258],[-55.2031784,5.8095899],[-55.2037506,5.809557],[-55.2051735,5.8095841],[-55.2060661,5.8096447],[-55.2073746,5.8095918]],[[-55.2073746,5.8095918],[-55.2089233,5.809598],[-55.2102203,5.8097529],[-55.2111931,5.8097076],[-55.2117805,5.8097367],[-55.2121887,5.809865],[-55.2133522,5.8103909],[-55.2153168,5.8111048],[-55.2171249,5.8116632]],[[-55.2290158,5.8367602],[-55.2398499,5.8424925]],[[-55.2025986,5.8342767],[-55.2025414,5.8345442],[-55.2026443,5.8354425],[-55.2032318,5.8355279],[-55.2034302,5.836803],[-55.2038345,5.8402653],[-55.2042459,5.8431922]],[[-55.2042459,5.8431922],[-55.2039963,5.836933],[-55.2067246,5.8347826]],[[-55.2067246,5.8347826],[-55.2027588,5.8342614],[-55.2025986,5.8342767]],[[-55.2067246,5.8347826],[-55.2141769,5.8289089],[-55.2183997,5.8311432]],[[-55.2073746,5.8095918],[-55.2074814,5.8112259],[-55.2077293,5.8141794],[-55.208065,5.8179169],[-55.2087898,5.8179531],[-55.2090874,5.8224106],[-55.2035294,5.8220863]],[[-55.2035294,5.8220863],[-55.2026596,5.8261228],[-55.2017364,5.829999],[-55.2019882,5.8315458],[-55.2025986,5.8342767]],[[-55.1935898,5.8766598],[-55.2050705,5.8890489],[-55.2040044,5.8620835],[-55.2045008,5.8495835],[-55.2043902,5.8468096]],[[-55.2043902,5.8468096],[-55.2027512,5.846487],[-55.2012444,5.8460083],[-55.1997795,5.8455806],[-55.1989212,5.8453798],[-55.1970139,5.8447671],[-55.1925125,5.8434119],[-55.1881599,5.8419766],[-55.1876755,5.8418045]],[[-55.1876755,5.8418045],[-55.1932907,5.8749709],[-55.1935898,5.8766598]],[[-55.1764721,5.8581876],[-55.1935898,5.8766598]],[[-55.1876755,5.8418045],[-55.1864738,5.8413835],[-55.1855812,5.841013],[-55.1843681,5.8403797],[-55.1831894,5.8399668],[-55.1817322,5.8392801],[-55.1792297,5.837985],[-55.1760635,5.8362827],[-55.1753769,5.8359656],[-55.1746521,5.8355408],[-55.1732597,5.8348436],[-55.1724091,5.8343611],[-55.1667595,5.8304687],[-55.1630894,5.827899]],[[-55.1630894,5.827899],[-55.160287,5.8304958],[-55.1455678,5.8374428]],[[-55.1694976,5.8510825],[-55.1697922,5.8509792],[-55.1703205,5.8515494]],[[-55.2583338,5.8079169],[-55.2543299,5.8035915],[-55.2373377,5.7955756],[-55.2362163,5.794364]],[[-55.2377363,5.8118485],[-55.2583338,5.8079169]],[[-55.2583338,5.8079169],[-55.2610701,5.8176498]],[[-55.2615172,5.8177499],[-55.2684901,5.8107692],[-55.2583338,5.8079169]],[[-55.2778569,5.8180772],[-55.2851567,5.8107692],[-55.2750005,5.8079169],[-55.2778569,5.8180772]],[[-55.1708353,5.803444],[-55.1706629,5.8036037],[-55.1710836,5.8142398]],[[-55.1710836,5.8142398],[-55.1752129,5.8153758],[-55.1759262,5.8155413],[-55.1779861,5.816381],[-55.1793976,5.8167744],[-55.1800957,5.8170242],[-55.1813011,5.817595],[-55.1830063,5.8181491],[-55.1839905,5.8185706],[-55.1852112,5.8189616],[-55.1864929,5.8194604],[-55.1875839,5.8199625],[-55.1891441,5.8203688],[-55.1898613,5.8206358],[-55.1910324,5.8211613],[-55.1919785,5.8216677],[-55.1927452,5.8219352],[-55.1934471,5.8219204],[-55.1941681,5.8215513],[-55.1977081,5.8216357],[-55.2012978,5.8219519],[-55.2035294,5.8220863]],[[-55.2043902,5.8468096],[-55.2042459,5.8431922]],[[-55.1710836,5.8142398],[-55.1711959,5.8170797]],[[-55.1662117,5.8250058],[-55.1630894,5.827899]]],"bbox":[-55.2851567,5.7372422,-55.1147873,5.8890489]}