{"type":"Topology","objects":{"foo":{"type":"GeometryCollection","geometries":[{"type":"MultiPolygon","arcs":[[[0]],[[1,2,3,4]]],"properties":{"name":"Ludzeludze","gaul_code":25970,"targetarea":9.0462743,"totpop":34049.0777092,"country_id":"SWZ","targetpop":8762.4257812,"new_mean":0.030577,"totalarea":174.6221554}},{"type":"Polygon","arcs":[[5,6]],"properties":{"name":"Motjane","gaul_code":25950,"targetarea":1.6701574,"totpop":32966.0040216,"country_id":"SWZ","targetpop":1610.7719116,"new_mean":0.022727,"totalarea":321.6414337}},{"type":"Polygon","arcs":[[7,8]],"properties":{"name":"Mthongwaneni","gaul_code":25978,"targetarea":1.0341008,"totpop":17767.1735353,"country_id":"SWZ","targetpop":708.9769287,"new_mean":0.0356405,"totalarea":272.1368709}},{"type":"Polygon","arcs":[[9,-4,10,11]],"properties":{"name":"Kwaluseni","gaul_code":25968,"targetarea":18.5527416,"totpop":38147.4804764,"country_id":"SWZ","targetpop":33584.6645355,"new_mean":0.0268573,"totalarea":27.2676606}},{"type":"Polygon","arcs":[[12,-5,13]],"properties":{"name":"Kukhanyeni","gaul_code":25967,"targetarea":6.1598241,"totpop":37387.4625416,"country_id":"SWZ","targetpop":6563.8116455,"new_mean":0.0275751,"totalarea":236.4750713}},{"type":"Polygon","arcs":[[14,-14,-10,15,-9]],"properties":{"name":"Manzini","gaul_code":25975,"targetarea":30.2024708,"totpop":56837.8064957,"country_id":"SWZ","targetpop":51771.3556824,"new_mean":0.0263694,"totalarea":42.8698054}},{"type":"Polygon","arcs":[[-6,16]],"properties":{"name":"Mbabane","gaul_code":25948,"targetarea":29.2310892,"totpop":67742.9893513,"country_id":"SWZ","targetpop":43212.3002319,"new_mean":0.0360582,"totalarea":102.9302391}},{"type":"Polygon","arcs":[[-11,-3,17]],"properties":{"name":"Mahlanya","gaul_code":25973,"targetarea":0.5633511,"totpop":19177.840189,"country_id":"SWZ","targetpop":0,"new_mean":0.0291128,"totalarea":151.782098}}]}},"arcs":[[[31.2704744,-26.4648369],[31.2558423,-26.4720391],[31.2749992,-26.4754163],[31.2704744,-26.4648369]],[[31.3368682,-26.4715355],[31.3301912,-26.4719333],[31.2881176,-26.4568372],[31.2872387,-26.4714206],[31.2942175,-26.490856]],[[31.2942175,-26.490856],[31.297163,-26.4893284]],[[31.297163,-26.4893284],[31.2969036,-26.4813499],[31.3033905,-26.4794655],[31.3354702,-26.4787846]],[[31.3354702,-26.4787846],[31.3368682,-26.4715355]],[[31.112798,-26.2798339],[31.1151142,-26.2897949],[31.1211166,-26.2925777],[31.1248169,-26.2909889],[31.129201,-26.2829641]],[[31.129201,-26.2829641],[31.112798,-26.2798339]],[[31.3899188,-26.5168677],[31.4139061,-26.4954375]],[[31.4139061,-26.4954375],[31.4019089,-26.5025883],[31.3970642,-26.5041485],[31.3893375,-26.5128441],[31.3899188,-26.5168677]],[[31.3460575,-26.5079001],[31.3400307,-26.4978638],[31.3350792,-26.4921799],[31.3354702,-26.4787846]],[[31.297163,-26.4893284],[31.3025723,-26.4973545],[31.2957119,-26.5024854]],[[31.2957119,-26.5024854],[31.2946443,-26.5204359],[31.3201977,-26.5219577],[31.3233025,-26.5202699],[31.3235056,-26.5201595],[31.3460575,-26.5079001]],[[31.4007709,-26.4724786],[31.3963208,-26.470973],[31.3749992,-26.4722425],[31.3499992,-26.4707533],[31.3368682,-26.4715355]],[[31.3354702,-26.4787846],[31.3526192,-26.4783001],[31.3698177,-26.4813786],[31.3838558,-26.4849358],[31.3909359,-26.4817734],[31.4007709,-26.4724786]],[[31.4139061,-26.4954375],[31.428938,-26.4820081],[31.4007709,-26.4724786]],[[31.3460575,-26.5079001],[31.3470695,-26.5073499],[31.3833325,-26.5337497],[31.38802,-26.5185641],[31.3899188,-26.5168677]],[[31.112798,-26.2798339],[31.107761,-26.2773237],[31.098423,-26.2729702],[31.0904424,-26.2712067],[31.1308423,-26.3371839],[31.1666658,-26.342083],[31.1593742,-26.288722],[31.129201,-26.2829641]],[[31.2942175,-26.490856],[31.2957119,-26.5024854]]],"bbox":[31.0904424,-26.5337497,31.428938,-26.2712067]}