{"type":"Topology","objects":{"foo":{"type":"GeometryCollection","geometries":[{"type":"Polygon","arcs":[[0,1,2,3,4,5]],"properties":{"name":"Gissarskiy","gaul_code":37620,"targetarea":41.0323482,"totpop":209112.330439,"country_id":"TJK","targetpop":75343.0744019,"totalarea":666.7075085,"new_mean":0}},{"type":"MultiPolygon","arcs":[[[6]],[[7,8]]],"properties":{"name":"Ura-Tubinskiy","gaul_code":37615,"targetarea":13.7624012,"totpop":212180.854313,"country_id":"TJK","targetpop":24007.0126343,"totalarea":665.0832379,"new_mean":1.8702102e-7}},{"type":"Polygon","arcs":[[9]],"properties":{"name":"Shugnanskiy","gaul_code":37580,"targetarea":9.6150428,"totpop":66385.1553453,"country_id":"TJK","targetpop":22128.1002808,"totalarea":4675.9512986,"new_mean":0}},{"type":"MultiPolygon","arcs":[[[10]],[[11]]],"properties":{"name":"Isfarinskiy","gaul_code":37607,"targetarea":36.5904071,"totpop":260560.805599,"country_id":"TJK","targetpop":83652.5228882,"totalarea":955.5436796,"new_mean":0.0000098195747}},{"type":"Polygon","arcs":[[12]],"properties":{"name":"Piynjskiy","gaul_code":37596,"targetarea":5.0176542,"totpop":72226.8957005,"country_id":"TJK","targetpop":8734.5877685,"totalarea":298.1791116,"new_mean":0}},{"type":"Polygon","arcs":[[13]],"properties":{"name":"Nurek","gaul_code":37624,"targetarea":11.4495193,"totpop":51848.0707313,"country_id":"TJK","targetpop":13709.392395,"totalarea":434.2086722,"new_mean":0}},{"type":"Polygon","arcs":[[13]],"properties":{"name":"Nurek","gaul_code":37624,"targetarea":11.4495193,"totpop":51848.0707313,"country_id":"TJK","targetpop":13709.392395,"totalarea":434.2086722,"new_mean":0.0000104}},{"type":"Polygon","arcs":[[14,15]],"properties":{"name":"Varzob","gaul_code":37630,"targetarea":1.8529201,"totpop":85128.7198611,"country_id":"TJK","targetpop":871.7375488,"totalarea":1637.7873086,"new_mean":0}},{"type":"MultiPolygon","arcs":[[[16,17]],[[18,19]],[[20]]],"properties":{"name":"Kofarnohon","gaul_code":37622,"targetarea":74.6472982,"totpop":421276.721092,"country_id":"TJK","targetpop":129282.767517,"totalarea":3877.1685575,"new_mean":0}},{"type":"MultiPolygon","arcs":[[[21]],[[22]],[[23,24]],[[25]]],"properties":{"name":"Vahshskiy","gaul_code":37600,"targetarea":50.5198692,"totpop":378029.772475,"country_id":"TJK","targetpop":88531.3247986,"totalarea":1163.4621754,"new_mean":0}},{"type":"MultiPolygon","arcs":[[[26]],[[27]]],"properties":{"name":"Matchinskiy","gaul_code":37610,"targetarea":6.0406199,"totpop":116642.996887,"country_id":"TJK","targetpop":8347.7146606,"totalarea":980.2995287,"new_mean":0}},{"type":"Polygon","arcs":[[28]],"properties":{"name":"Parharskiy","gaul_code":37595,"targetarea":5.4491164,"totpop":132396.160275,"country_id":"TJK","targetpop":8113.9205322,"totalarea":1349.6550859,"new_mean":0}},{"type":"Polygon","arcs":[[29]],"properties":{"name":"Dangara","gaul_code":37584,"targetarea":7.7274568,"totpop":204224.911352,"country_id":"TJK","targetpop":10935.3590088,"totalarea":2231.0274857,"new_mean":0}},{"type":"MultiPolygon","arcs":[[[30]],[[31,32]]],"properties":{"name":"Nauskiy","gaul_code":37611,"targetarea":13.3675606,"totpop":129046.890972,"country_id":"TJK","targetpop":18257.2246094,"totalarea":478.5152458,"new_mean":0}},{"type":"MultiPolygon","arcs":[[[33]],[[34]]],"properties":{"name":"Kabodien","gaul_code":37588,"targetarea":19.5619904,"totpop":229309.916847,"country_id":"TJK","targetpop":30025.6881714,"totalarea":1784.7397808,"new_mean":0}},{"type":"Polygon","arcs":[[35,-18]],"properties":{"name":"Yvanskiy","gaul_code":37602,"targetarea":28.8503958,"totpop":264734.748907,"country_id":"TJK","targetpop":47145.7800903,"totalarea":956.6382988,"new_mean":0}},{"type":"MultiPolygon","arcs":[[[36]],[[37,38]]],"properties":{"name":"Kurgan-Tjube","gaul_code":37592,"targetarea":25.4798858,"totpop":141416.711218,"country_id":"TJK","targetpop":38470.8603516,"totalarea":355.3933422,"new_mean":0}},{"type":"MultiPolygon","arcs":[[[39]],[[40]],[[41]],[[42,43]],[[44]],[[45]]],"properties":{"name":"Kanibadamskiy","gaul_code":37608,"targetarea":40.1587988,"totpop":212644.707468,"country_id":"TJK","targetpop":60897.0048218,"totalarea":797.7941476,"new_mean":0.0000015084376}},{"type":"Polygon","arcs":[[46]],"properties":{"name":"Faysabadskiy","gaul_code":37618,"targetarea":2.5739836,"totpop":101663.264481,"country_id":"TJK","targetpop":3944.550415,"totalarea":1051.6910181,"new_mean":0}},{"type":"MultiPolygon","arcs":[[[47]],[[48]]],"properties":{"name":"Kolhosobadskiy","gaul_code":37589,"targetarea":7.3848314,"totpop":156025.023826,"country_id":"TJK","targetpop":9476.8902588,"totalarea":839.7004735,"new_mean":0}},{"type":"MultiPolygon","arcs":[[[49,-25,50]],[[51]],[[52]],[[53]],[[54,-38],[55]],[[56]]],"properties":{"name":"Bokhtar","gaul_code":37583,"targetarea":102.9419217,"totpop":441965.152748,"country_id":"TJK","targetpop":181170.180786,"totalarea":898.9537875,"new_mean":0}},{"type":"MultiPolygon","arcs":[[[57]],[[58]],[[59,60]],[[61]]],"properties":{"name":"Voseysky","gaul_code":37601,"targetarea":19.8484351,"totpop":204730.812773,"country_id":"TJK","targetpop":32118.4356689,"totalarea":759.4618462,"new_mean":0}},{"type":"MultiPolygon","arcs":[[[62]],[[63]],[[64]]],"properties":{"name":"Penjikenskiy","gaul_code":37612,"targetarea":21.9238659,"totpop":289758.416256,"country_id":"TJK","targetpop":38455.5470581,"totalarea":3498.1069938,"new_mean":2.3708099e-7}},{"type":"MultiPolygon","arcs":[[[62]],[[63]],[[64]]],"properties":{"name":"Penjikenskiy","gaul_code":37612,"targetarea":21.9238659,"totpop":289758.416256,"country_id":"TJK","targetpop":38455.5470581,"totalarea":3498.1069938,"new_mean":0}},{"type":"Polygon","arcs":[[65,66,67]],"properties":{"name":"Hovaling","gaul_code":37586,"targetarea":0.5245819,"totpop":112207.191915,"country_id":"TJK","targetpop":705.3731079,"totalarea":2908.8377216,"new_mean":0}},{"type":"MultiPolygon","arcs":[[[68]],[[69]],[[70,-8]]],"properties":{"name":"Ganchinskiy","gaul_code":37605,"targetarea":8.4686318,"totpop":197612.54406,"country_id":"TJK","targetpop":13863.5836792,"totalarea":1857.3813017,"new_mean":0}},{"type":"MultiPolygon","arcs":[[[71,72]],[[-66,73,74]],[[75]]],"properties":{"name":"Muminobod","gaul_code":37594,"targetarea":7.5992717,"totpop":130696.114372,"country_id":"TJK","targetpop":13405.6716919,"totalarea":1309.3343187,"new_mean":0.0000685}},{"type":"MultiPolygon","arcs":[[[76,-3,77]],[[78,-5,79]],[[-19,80]],[[-1,81]],[[82,-16],[83],[84]]],"properties":{"name":"Leninskiy","gaul_code":37623,"targetarea":253.6779862,"totpop":1586121.2624,"country_id":"TJK","targetpop":1308717.1514,"totalarea":2060.3888223,"new_mean":0}},{"type":"MultiPolygon","arcs":[[[85]],[[86]],[[87]]],"properties":{"name":"Hojenskiy","gaul_code":37606,"targetarea":161.6396481,"totpop":676244.472205,"country_id":"TJK","targetpop":362064.149872,"totalarea":2651.6834974,"new_mean":6.2021563e-7}},{"type":"Polygon","arcs":[[88,89]],"properties":{"name":"Shahrinav","gaul_code":37626,"targetarea":8.342273,"totpop":71119.9539227,"country_id":"TJK","targetpop":15268.153656,"totalarea":763.4855562,"new_mean":0}},{"type":"MultiPolygon","arcs":[[[-60,90]],[[91]],[[92]],[[93,-73,94]],[[-74,-68,95]]],"properties":{"name":"Kulyab","gaul_code":37590,"targetarea":64.9660846,"totpop":227904.968197,"country_id":"TJK","targetpop":121611.889771,"totalarea":337.4174388,"new_mean":0}},{"type":"MultiPolygon","arcs":[[[96,-32]],[[97]],[[98]],[[99]]],"properties":{"name":"Rasulov","gaul_code":37613,"targetarea":32.3986508,"totpop":146930.213797,"country_id":"TJK","targetpop":53388.0516968,"totalarea":379.3862906,"new_mean":0.0000308}},{"type":"MultiPolygon","arcs":[[[100]],[[101]],[[-90,102]]],"properties":{"name":"Tursunzade","gaul_code":37629,"targetarea":51.8473931,"totpop":299125.129298,"country_id":"TJK","targetpop":80315.3289185,"totalarea":1046.0475139,"new_mean":0}},{"type":"Polygon","arcs":[[103]],"properties":{"name":"Jilikul","gaul_code":37587,"targetarea":0.6810463,"totpop":72057.8312101,"country_id":"TJK","targetpop":1514.6564941,"totalarea":1046.7117206,"new_mean":0}},{"type":"MultiPolygon","arcs":[[[104]],[[105]],[[106]]],"properties":{"name":"Kumsangirskiy","gaul_code":37591,"targetarea":12.0108991,"totpop":109671.451405,"country_id":"TJK","targetpop":18877.1902466,"totalarea":791.6940374,"new_mean":0}},{"type":"Polygon","arcs":[[107]],"properties":{"name":"Zafarobskiy","gaul_code":37616,"targetarea":2.1622255,"totpop":95047.7232857,"country_id":"TJK","targetpop":3127.842102,"totalarea":423.1346952,"new_mean":0}},{"type":"Polygon","arcs":[[107]],"properties":{"name":"Zafarobskiy","gaul_code":37616,"targetarea":2.1622255,"totpop":95047.7232857,"country_id":"TJK","targetpop":3127.842102,"totalarea":423.1346952,"new_mean":0}}]}},"arcs":[[[68.608755,38.5341113],[68.611215,38.5589476]],[[68.611215,38.5589476],[68.5784821,38.5613957],[68.5628571,38.5713119],[68.5267243,38.5641688],[68.5386221,38.5454167],[68.5270172,38.5271326],[68.532014,38.5018417],[68.5628571,38.5046452],[68.574974,38.4969551]],[[68.574974,38.4969551],[68.5780925,38.5093883]],[[68.5780925,38.5093883],[68.5805895,38.5177007]],[[68.5805895,38.5177007],[68.5904345,38.5256004]],[[68.5904345,38.5256004],[68.608755,38.5341113]],[[68.9481924,39.9578414],[68.9194652,39.9782129],[68.9047028,39.9475285],[68.9416657,39.9412501],[68.9481924,39.9578414]],[[69.0663908,40.0266698],[69.0720688,40.0462293]],[[69.0720688,40.0462293],[69.0509105,40.0528366],[69.057665,40.0287846],[69.0663908,40.0266698]],[[71.5888662,37.4967839],[71.5391592,37.5023829],[71.5305328,37.4864222],[71.5805328,37.4801173],[71.5888662,37.4967839]],[[70.5860342,39.9919642],[70.5570954,39.9846705],[70.5466787,39.9705998],[70.574999,39.9662501],[70.5860342,39.9919642]],[[70.5833323,40.1329167],[70.5864248,40.1114385],[70.622346,40.0979965],[70.6671214,40.1280705],[70.6450674,40.1363205],[70.6231273,40.1506088],[70.6069163,40.1271245],[70.5833323,40.1329167]],[[69.1039378,37.243781],[69.0807119,37.252684],[69.0888336,37.229043],[69.1083323,37.2245834],[69.1039378,37.243781]],[[69.2666657,38.3829167],[69.2744456,38.3720545],[69.3481273,38.3866155],[69.3335114,38.3970972],[69.312499,38.3929468],[69.2861318,38.3981572],[69.288443,38.3864385],[69.2666657,38.3829167]],[[68.7835797,38.6393328],[68.7613922,38.6550664],[68.7628608,38.6367424]],[[68.7628608,38.6367424],[68.7835797,38.6393328]],[[68.9970012,38.3363279],[68.9731661,38.3338683]],[[68.9731661,38.3338683],[68.9849014,38.3241005],[68.9970012,38.3363279]],[[68.9179778,38.5438417],[68.9228927,38.5239888]],[[68.9228927,38.5239888],[68.9353506,38.5203923],[68.9416657,38.5079167],[68.9634918,38.5277613],[68.9698395,38.5406682],[68.9368317,38.5303858],[68.924999,38.5495834],[68.9179778,38.5438417]],[[68.999999,38.5162501],[69.014501,38.5284408],[69.0347484,38.504928],[69.0545237,38.5492457],[69.1193512,38.5687586],[69.0865224,38.5786422],[69.1128082,38.5951075],[69.1205231,38.6062098],[69.0379385,38.5933029],[69.0548655,38.5787236],[69.0438304,38.570726],[69.0294749,38.5873926],[69.0044912,38.5985397],[68.9951976,38.557581],[68.9961904,38.5451461],[68.9794749,38.5224289],[68.999999,38.5162501]],[[68.6776846,37.6140569],[68.6369456,37.613414],[68.6379547,37.6034245],[68.621581,37.5898218],[68.6550934,37.5752894],[68.6537099,37.5617213],[68.6666657,37.5579167],[68.680305,37.5883855],[68.6776846,37.6140569]],[[68.6236861,37.7044089],[68.6583323,37.6912501],[68.6744944,37.7157069],[68.6458323,37.7092819],[68.6337851,37.7119826],[68.6236861,37.7044089]],[[68.8023207,37.7245789],[68.7952464,37.7118962],[68.8128083,37.7040593],[68.8249013,37.6900172],[68.821109,37.6707728],[68.8391429,37.6540593],[68.8371409,37.6789962],[68.8620921,37.7141708],[68.858709,37.7170839]],[[68.858709,37.7170839],[68.821228,37.7245789],[68.8023207,37.7245789]],[[68.7802236,37.7291977],[68.763264,37.7160202],[68.774999,37.7079167],[68.7802236,37.7291977]],[[69.3112783,40.4216334],[69.322053,40.4275334],[69.3229645,40.4442001],[69.2887197,40.4270024],[69.3112783,40.4216334]],[[69.3409984,40.5274337],[69.3213694,40.5171513],[69.3333323,40.5079167],[69.3409984,40.5274337]],[[69.4191032,37.5063226],[69.4141917,37.5117742],[69.3878082,37.4890955],[69.4083323,37.4829167],[69.4256826,37.4990198],[69.4210276,37.5041867],[69.4191032,37.5063226]],[[69.358723,38.1036809],[69.323876,38.1113205],[69.313264,38.0923446],[69.349999,38.0829167],[69.358723,38.1036809]],[[69.2659984,40.1441004],[69.2463694,40.133818],[69.2583323,40.1245834],[69.2659984,40.1441004]],[[69.3644869,40.1371509],[69.3883948,40.1475727]],[[69.3883948,40.1475727],[69.3604808,40.1691248],[69.3380361,40.1478052],[69.3644869,40.1371509]],[[68.1561514,37.2784062],[68.1043935,37.2636622],[68.149999,37.2495834],[68.1561514,37.2784062]],[[68.2087718,37.4181137],[68.1823232,37.4365463],[68.1713695,37.3902491],[68.1916657,37.3745834],[68.2087718,37.4181137]],[[68.9731661,38.3338683],[68.9681142,38.3138168],[68.987499,38.308934],[69.0135895,38.3155054],[69.0393056,38.2984054],[69.0303375,38.2628219],[69.049999,38.2579167],[69.0533193,38.2962549],[69.0666006,38.3161361],[69.0752269,38.3503748],[69.0382151,38.3212549],[69.0116526,38.3279118],[68.9970012,38.3363279]],[[68.6614411,37.7881495],[68.6862132,37.7963262],[68.6608226,37.8113795],[68.6657868,37.8258407],[68.6383779,37.816425],[68.6252594,37.7942957],[68.633609,37.7699997],[68.649999,37.7662501],[68.6614411,37.7881495]],[[68.7534988,37.8112988],[68.7308689,37.8291971]],[[68.7308689,37.8291971],[68.7053701,37.7962895],[68.724999,37.7912501],[68.7333323,37.7995834],[68.7430329,37.8136439],[68.7534988,37.8112988]],[[70.3528799,40.260879],[70.3209137,40.2402206],[70.3583323,40.2329167],[70.3528799,40.260879]],[[70.4083323,40.2745834],[70.3796702,40.2602116],[70.3721995,40.2399073],[70.4045888,40.2560043],[70.4083323,40.2745834]],[[70.4083323,40.2995834],[70.4083323,40.3162501],[70.3887685,40.3116419],[70.4083323,40.2995834]],[[70.4083323,40.2745834],[70.436262,40.267723],[70.4700674,40.3003158],[70.4387034,40.3196538],[70.4083323,40.2995834]],[[70.4083323,40.2995834],[70.4021149,40.2870834],[70.4083323,40.2745834]],[[70.5578766,40.3363693],[70.5460602,40.3142766],[70.5666657,40.3079167],[70.5578766,40.3363693]],[[70.4535309,40.3612655],[70.4378082,40.3307622],[70.4583323,40.3245834],[70.4535309,40.3612655]],[[69.3288564,38.5608098],[69.3052236,38.5452296],[69.3333323,38.5412501],[69.3288564,38.5608098]],[[68.6596833,37.39443],[68.6463694,37.3794479],[68.674999,37.3745834],[68.6596833,37.39443]],[[68.6450674,37.4696538],[68.6299306,37.4540593],[68.6583323,37.4495834],[68.6450674,37.4696538]],[[68.8083323,37.7412501],[68.8023207,37.7245789]],[[68.858709,37.7170839],[68.8426422,37.7309188],[68.8083323,37.7412501]],[[68.8083323,37.7412501],[68.8283193,37.7589177],[68.8086741,37.7923507],[68.7853012,37.769734],[68.7853012,37.7596903],[68.8083323,37.7412501]],[[68.8121898,37.8858098],[68.7885569,37.8702296],[68.8166657,37.8662501],[68.8121898,37.8858098]],[[68.9448558,37.8859685],[68.9019521,37.8774887],[68.9048981,37.8625127],[68.9333323,37.8579167],[68.9448558,37.8859685]],[[68.7534988,37.8112988],[68.7791657,37.8148849],[68.7963857,37.8110234],[68.8200674,37.8378463],[68.8549306,37.8446538],[68.8458323,37.8528162],[68.8208323,37.8528162],[68.7813955,37.8616562],[68.7708323,37.8898849],[68.7458323,37.8842819],[68.7287913,37.8881007],[68.6965973,37.8717737],[68.7215973,37.854513],[68.7308689,37.8291971]],[[68.7305329,37.8614222],[68.7494456,37.8754867],[68.7583323,37.8579167],[68.7305329,37.8614222]],[[68.8444652,37.9384506],[68.8673004,37.9450424],[68.8474437,37.9550949],[68.7891592,37.9607162],[68.7805329,37.9447555],[68.8444652,37.9384506]],[[69.6217915,37.6477816],[69.6399521,37.6552633],[69.6385407,37.6668055],[69.6139476,37.6625941],[69.6217915,37.6477816]],[[69.5150218,37.7463831],[69.4976227,37.7523829],[69.4888662,37.7368474],[69.5083323,37.7329167],[69.5150218,37.7463831]],[[69.6326529,37.7938108],[69.6416412,37.8158091]],[[69.6416412,37.8158091],[69.6359691,37.819487],[69.6131175,37.798556],[69.6326529,37.7938108]],[[69.6555329,37.8884506],[69.6367666,37.8979477],[69.6305329,37.8864222],[69.6555329,37.8884506]],[[67.7665029,39.4028122],[67.7381826,39.3882309],[67.7583323,39.3829167],[67.7665029,39.4028122]],[[67.7420075,39.4940597],[67.6881826,39.4868372],[67.749999,39.4829167],[67.7420075,39.4940597]],[[67.6365062,39.4880722],[67.6489085,39.4957097],[67.6028473,39.5110946],[67.5718252,39.4864608],[67.6333323,39.4829167],[67.6365062,39.4880722]],[[69.8621979,38.0640984],[69.8639275,38.0651239]],[[69.8639275,38.0651239],[69.8633291,38.0685206],[69.8604479,38.0630165]],[[69.8604479,38.0630165],[69.8621979,38.0640984]],[[69.0326047,39.9620489],[69.049999,39.9495834],[69.0609691,39.9762822],[69.0318883,39.9716484],[69.0326047,39.9620489]],[[69.1328766,39.9780359],[69.1210602,39.9559433],[69.1416657,39.9495834],[69.1328766,39.9780359]],[[69.0663908,40.0266698],[69.0829905,40.0428187],[69.0720688,40.0462293]],[[69.836149,37.9718527],[69.8404938,37.9857203],[69.8120886,37.9808303]],[[69.8120886,37.9808303],[69.836149,37.9718527]],[[69.8621979,38.0640984],[69.8646011,38.0613008]],[[69.8646011,38.0613008],[69.8639275,38.0651239]],[[70.0422191,38.1094894],[70.0263825,38.1274582],[70.0137848,38.1015426],[70.0333323,38.0912501],[70.0422191,38.1094894]],[[68.5833323,38.5079167],[68.5780925,38.5093883]],[[68.574974,38.4969551],[68.5792717,38.4834437],[68.587705,38.4694962],[68.6034821,38.4771408],[68.5833323,38.5079167]],[[68.5833323,38.5079167],[68.5904345,38.5256004]],[[68.5805895,38.5177007],[68.5833323,38.5079167]],[[68.9179778,38.5438417],[68.909846,38.5277552],[68.9228927,38.5239888]],[[68.608755,38.5341113],[68.6204417,38.5200322],[68.653775,38.5102523],[68.6180817,38.4947779],[68.6710602,38.4791346],[68.6954417,38.500855],[68.6698395,38.5119634],[68.6891917,38.5280441],[68.6748362,38.5399785],[68.6544424,38.5282984],[68.629833,38.5308049],[68.624999,38.5579167],[68.611215,38.5589476]],[[68.7628608,38.6367424],[68.7510569,38.6041142],[68.6794749,38.5825627],[68.6876129,38.5694219],[68.7205231,38.5720667],[68.6948558,38.5463038],[68.7051097,38.5279322],[68.7038076,38.5118128],[68.7205231,38.4974146],[68.7128083,38.4784408],[68.7000967,38.467483],[68.721109,38.4541081],[68.7371898,38.4284408],[68.7666657,38.4245834],[68.810139,38.4575098],[68.7917633,38.4733505],[68.8122223,38.4971115],[68.8377757,38.4950607],[68.8455556,38.5041061],[68.8616852,38.5028122],[68.8961904,38.5201278],[68.8948558,38.5368128],[68.9121898,38.5517522],[68.8753245,38.5627792],[68.8466461,38.5604741],[68.826236,38.5841557],[68.8038564,38.6034408],[68.7898102,38.6349146],[68.7835797,38.6393328]],[[68.7878896,38.5139165],[68.8404775,38.5366989],[68.8472809,38.5277247],[68.8121084,38.5124679],[68.7878896,38.5139165]],[[68.7606924,38.4782882],[68.7830231,38.4626836],[68.749999,38.4329167],[68.7379547,38.4425583],[68.7606924,38.4782882]],[[69.7583323,40.1995834],[69.7672353,40.1867009],[69.8210114,40.179513],[69.8534007,40.1922938],[69.8141429,40.2147059],[69.7858877,40.1928146],[69.7583323,40.1995834]],[[69.7583323,40.1995834],[69.7534007,40.2341802],[69.7705231,40.2540593],[69.8205231,40.26542],[69.8055166,40.2757431],[69.7097321,40.2495285],[69.6944977,40.2626612],[69.7227692,40.2870224],[69.6794749,40.2968592],[69.7038564,40.3027715],[69.69593,40.3297632],[69.6466461,40.329688],[69.5893545,40.3013046],[69.5461579,40.2640914],[69.5794749,40.2540593],[69.5944814,40.2366399],[69.6366852,40.2361455],[69.6676748,40.2534408],[69.6797353,40.2455612],[69.6659821,40.2209335],[69.7128082,40.2123926],[69.7205556,40.203394],[69.7583323,40.1995834]],[[69.6549306,40.5696538],[69.661734,40.5943059],[69.6217601,40.5633244],[69.6416657,40.5495834],[69.6549306,40.5696538]],[[68.3043753,38.5540682],[68.3538564,38.575619],[68.3183514,38.5914642]],[[68.3183514,38.5914642],[68.3043753,38.5540682]],[[69.6326529,37.7938108],[69.6578278,37.7876958],[69.6666657,37.7995834],[69.6416412,37.8158091]],[[69.7243317,37.8357671],[69.7047028,37.8254847],[69.7166657,37.8162501],[69.7243317,37.8357671]],[[69.8333323,37.9162501],[69.8378449,37.9151422],[69.8436061,37.926893],[69.8333323,37.9162501]],[[69.8333323,37.9162501],[69.819872,37.9199],[69.836149,37.9718527]],[[69.8120886,37.9808303],[69.7927724,37.9775049],[69.7797842,37.9448043],[69.7450185,37.9376531],[69.7450185,37.9198837],[69.7641754,37.9122685],[69.7471344,37.8995834],[69.7583323,37.8912501],[69.7622223,37.8747685],[69.796402,37.8854171],[69.8031728,37.8964055],[69.8333323,37.9162501]],[[69.8604479,38.0630165],[69.8647095,38.050421],[69.8662287,38.0520635],[69.8646011,38.0613008]],[[69.3644869,40.1371509],[69.374999,40.1329167],[69.3883948,40.1475727]],[[69.5645498,40.1474634],[69.5312164,40.1477605],[69.5434723,40.1350652],[69.5666657,40.1329167],[69.5645498,40.1474634]],[[69.5057444,40.1521672],[69.5278799,40.1638209],[69.5125967,40.1847763],[69.4804515,40.1691248],[69.4387848,40.1624537],[69.4680329,40.1385442],[69.5057444,40.1521672]],[[69.4916657,40.1995834],[69.5324372,40.202863],[69.5303413,40.2205216],[69.5260248,40.2264934],[69.5029124,40.2185552],[69.4916657,40.1995834]],[[68.1287099,38.4958786],[68.1517405,38.5055811],[68.1579743,38.5366216],[68.1032021,38.5044188],[68.1287099,38.4958786]],[[68.174999,38.5079167],[68.235318,38.502096],[68.2622711,38.5179204],[68.2325348,38.5535161],[68.2210602,38.5284876],[68.2043773,38.5294825],[68.174999,38.5079167]],[[68.3183514,38.5914642],[68.2597646,38.5659225],[68.2230622,38.5919438],[68.2128083,38.5735478],[68.2378083,38.5623926],[68.274999,38.5412501],[68.2872223,38.5554448],[68.3043753,38.5540682]],[[68.5311681,37.4952003],[68.5272312,37.4965728],[68.5290878,37.4847342],[68.5321584,37.4895794],[68.5311681,37.4952003]],[[68.681249,37.3352646],[68.672053,37.3204696],[68.6916657,37.3162501],[68.681249,37.3352646]],[[68.7248362,37.3444788],[68.6965159,37.3298975],[68.7166657,37.3245834],[68.7248362,37.3444788]],[[68.6713684,37.3649146],[68.6471181,37.3445521],[68.6916657,37.3412501],[68.6999339,37.3582117],[68.6781944,37.3682852],[68.6713684,37.3649146]],[[68.857779,40.1921534],[68.8388662,40.1780888],[68.8666657,40.1745834],[68.857779,40.1921534]]],"bbox":[67.5718252,37.2245834,71.5888662,40.5943059]}