{"type":"Topology","objects":{"foo":{"type":"GeometryCollection","geometries":[{"type":"Polygon","arcs":[[0]],"properties":{"name":"Administrative unit not available","gaul_code":27407,"targetarea":10.6856983,"totpop":88717.6062959,"country_id":"TON","targetpop":12684.7084351,"new_mean":0.097646,"totalarea":672.1635586}}]}},"arcs":[[[-175.1651531,-21.1427],[-175.185318,-21.1401463],[-175.2145731,-21.1255906],[-175.2200704,-21.1470147],[-175.2329031,-21.1558688],[-175.2228586,-21.1628064],[-175.2120361,-21.1562424],[-175.2047638,-21.1451836],[-175.1754674,-21.151751],[-175.1651531,-21.1427]]],"bbox":[-175.2329031,-21.1628064,-175.1651531,-21.1255906]}