{"type":"Topology","objects":{"foo":{"type":"GeometryCollection","geometries":[{"type":"Polygon","arcs":[[0]],"properties":{"name":"Administrative unit not available","gaul_code":28380,"targetarea":1.2287922,"totpop":1259.5098137,"country_id":"TUV","targetpop":276.0072021,"totalarea":29.9904645,"new_mean":0.0161598}}]}},"arcs":[[[179.1873779,-8.5331211],[179.1919403,-8.5284796],[179.1918113,-8.5168747],[179.179979,-8.5340102],[179.1823856,-8.5356726],[179.1873779,-8.5331211]]],"bbox":[179.179979,-8.5356726,179.1919403,-8.5168747]}