{"type":"Topology","objects":{"foo":{"type":"GeometryCollection","geometries":[{"type":"MultiPolygon","arcs":[[[0]],[[1,2,3]]],"properties":{"name":"Administrative unit not available","gaul_code":61295,"targetarea":20.5745914,"totpop":41229.2404938,"country_id":"VCT","targetpop":27367.6878815,"totalarea":52.155052,"new_mean":0.015367}},{"type":"Polygon","arcs":[[4]],"properties":{"name":"Administrative unit not available","gaul_code":61292,"targetarea":0.5573924,"totpop":24531.7146263,"country_id":"VCT","targetpop":950.8555298,"totalarea":144.3061473,"new_mean":0.0153707}},{"type":"Polygon","arcs":[[5]],"properties":{"name":"Administrative unit not available","gaul_code":61296,"targetarea":0.5689169,"totpop":7072.6314888,"country_id":"VCT","targetpop":859.5269165,"totalarea":40.6544381,"new_mean":0.0153838}},{"type":"Polygon","arcs":[[6]],"properties":{"name":"Administrative unit not available","gaul_code":61291,"targetarea":1.0890168,"totpop":14586.0704401,"country_id":"VCT","targetpop":1097.5791321,"totalarea":100.9447602,"new_mean":0.0153802}},{"type":"Polygon","arcs":[[7,-3]],"properties":{"name":"Administrative unit not available","gaul_code":61293,"targetarea":5.8570432,"totpop":16632.7693062,"country_id":"VCT","targetpop":9817.9994202,"totalarea":30.6520884,"new_mean":0.0153758}}]}},"arcs":[[[-61.1666671,13.1412502],[-61.1565109,13.1441025],[-61.1638107,13.1514105],[-61.1666671,13.1412502]],[[-61.1666671,13.1412502],[-61.1882654,13.1446519],[-61.1950688,13.1545151],[-61.223871,13.1739077]],[[-61.223871,13.1739077],[-61.2325745,13.167716],[-61.2410262,13.1574775]],[[-61.2410262,13.1574775],[-61.229187,13.147954],[-61.2250737,13.1376206],[-61.1946131,13.1262233],[-61.1738286,13.1308823],[-61.1666671,13.1412502]],[[-61.147414,13.1589295],[-61.1432589,13.1616387],[-61.1461919,13.1684963],[-61.1519631,13.1656571],[-61.147414,13.1589295]],[[-61.2648442,13.2383978],[-61.2747056,13.2411674],[-61.272144,13.2310898],[-61.2648442,13.2383978]],[[-61.3278569,12.7097438],[-61.3351567,12.7024359],[-61.3250005,12.6995835],[-61.3278569,12.7097438]],[[-61.223871,13.1739077],[-61.2384119,13.1836981],[-61.2617355,13.1717759],[-61.2410262,13.1574775]]],"bbox":[-61.3351567,12.6995835,-61.1432589,13.2411674]}