{"type":"Topology","objects":{"foo":{"type":"GeometryCollection","geometries":[{"type":"MultiPolygon","arcs":[[[0]],[[1]],[[2]]],"properties":{"name":"Administrative unit not available","gaul_code":31853,"targetarea":19.1737164,"totpop":101630.023696,"country_id":"VUT","targetpop":63855.1965027,"new_mean":0.0831908,"totalarea":1475.0650084}},{"type":"Polygon","arcs":[[3]],"properties":{"name":"Administrative unit not available","gaul_code":31852,"targetarea":4.5030187,"totpop":47753.0852508,"country_id":"VUT","targetpop":9174.3652954,"new_mean":0.1024076,"totalarea":4309.8652303}}]}},"arcs":[[[168.3083319,-17.767083],[168.2834989,-17.779539],[168.2923438,-17.7828574],[168.2999573,-17.779995],[168.3069538,-17.7738939],[168.3083319,-17.767083]],[[168.3083319,-17.767083],[168.3179023,-17.7599704],[168.3204498,-17.7509785],[168.3248444,-17.7420292],[168.3369484,-17.7393895],[168.3445299,-17.7337497],[168.3285468,-17.7218601],[168.3187486,-17.6971612],[168.2888113,-17.7105868],[168.2944489,-17.7151623],[168.295521,-17.7223199],[168.3041048,-17.735562],[168.3105927,-17.7273426],[168.3138275,-17.740942],[168.3127747,-17.7568722],[168.3083319,-17.759697],[168.3083319,-17.767083]],[[168.2716457,-17.6814792],[168.2644281,-17.6952632],[168.2749378,-17.7000731],[168.2716457,-17.6814792]],[[167.1882148,-15.4895114],[167.1791653,-15.5097426],[167.1702135,-15.4897149],[167.1652516,-15.5147089],[167.1701202,-15.5162096],[167.1774445,-15.5133715],[167.1890699,-15.5145218],[167.1922838,-15.5130873],[167.1882148,-15.4895114]]],"bbox":[167.1652516,-17.7828574,168.3445299,-15.4895114]}