{"type":"Topology","objects":{"foo":{"type":"GeometryCollection","geometries":[{"type":"Polygon","arcs":[[0,1,2]],"properties":{"name":"Al Qurishy","gaul_code":32717,"targetarea":5.0211276,"totpop":51084.2116351,"country_id":"YEM","targetpop":6557.034668,"totalarea":581.4607448,"new_mean":0.0056324}},{"type":"MultiPolygon","arcs":[[[3,4]],[[5,6,7,8,9]]],"properties":{"name":"Jiblah","gaul_code":32891,"targetarea":78.5443441,"totpop":400531.912964,"country_id":"YEM","targetpop":341942.21167,"totalarea":145.6939344,"new_mean":0.010552}},{"type":"Polygon","arcs":[[10]],"properties":{"name":"Harib","gaul_code":32911,"targetarea":5.8557458,"totpop":74561.0958391,"country_id":"YEM","targetpop":11568.9694824,"totalarea":1080.5417894,"new_mean":0.003162}},{"type":"Polygon","arcs":[[11]],"properties":{"name":"Amanat al 'Asima","gaul_code":32939,"targetarea":61.3236349,"totpop":1360219.14551,"country_id":"YEM","targetpop":1360219.14551,"totalarea":61.3236348,"new_mean":0.0057098}},{"type":"Polygon","arcs":[[12,13]],"properties":{"name":"Msswar","gaul_code":32805,"targetarea":2.3369157,"totpop":68263.4912415,"country_id":"YEM","targetpop":2730.3227539,"totalarea":135.2960633,"new_mean":0.009945}},{"type":"Polygon","arcs":[[14,15,16,17,18,19,20,21,22,23,24,25],[-12]],"properties":{"name":"San'aa","gaul_code":32955,"targetarea":155.9325939,"totpop":1099425.53378,"country_id":"YEM","targetpop":1081390.95483,"totalarea":180.5475669,"new_mean":0.0055596}},{"type":"Polygon","arcs":[[26,27,28,29,30,31,32]],"properties":{"name":"Al Mahabishah","gaul_code":32854,"targetarea":31.5188607,"totpop":93747.5629807,"country_id":"YEM","targetpop":62757.5192261,"totalarea":108.2635687,"new_mean":0.0088313}},{"type":"MultiPolygon","arcs":[[[33]],[[34]],[[35]],[[36,37,38,39,40]],[[41,42]]],"properties":{"name":"Shara'b ar Rawna","gaul_code":32991,"targetarea":89.8426099,"totpop":286135.02655,"country_id":"YEM","targetpop":129549.210083,"totalarea":399.2711396,"new_mean":0.0200912}},{"type":"MultiPolygon","arcs":[[[43,44]],[[45,46]]],"properties":{"name":"Shbam","gaul_code":32843,"targetarea":34.7329789,"totpop":112821.804444,"country_id":"YEM","targetpop":49679.1167603,"totalarea":1281.2794925,"new_mean":0.0008831}},{"type":"Polygon","arcs":[[47]],"properties":{"name":"Al 'Alb","gaul_code":32960,"targetarea":4.6628666,"totpop":66694.5483272,"country_id":"YEM","targetpop":5941.2145386,"totalarea":471.0247164,"new_mean":0.0045741}},{"type":"Polygon","arcs":[[48]],"properties":{"name":"Zinjubar","gaul_code":32703,"targetarea":17.320127,"totpop":165130.612642,"country_id":"YEM","targetpop":28060.4755249,"totalarea":1931.4144221,"new_mean":0.0050215}},{"type":"MultiPolygon","arcs":[[[49]],[[50]],[[51,52]]],"properties":{"name":"Aden","gaul_code":32713,"targetarea":194.9839533,"totpop":898856.98532,"country_id":"YEM","targetpop":814192.758942,"totalarea":749.1828954,"new_mean":0.00608}},{"type":"Polygon","arcs":[[53]],"properties":{"name":"As Salafiyah","gaul_code":32941,"targetarea":1.6817683,"totpop":124354.227154,"country_id":"YEM","targetpop":2723.0823364,"totalarea":397.687643,"new_mean":0.0084317}},{"type":"Polygon","arcs":[[54,55]],"properties":{"name":"Hazm al 'Udayn","gaul_code":32888,"targetarea":3.4313006,"totpop":116941.657505,"country_id":"YEM","targetpop":4080.3232422,"totalarea":473.2037567,"new_mean":0.0117693}},{"type":"Polygon","arcs":[[56,57,58]],"properties":{"name":"Jahaf","gaul_code":32710,"targetarea":1.0320772,"totpop":39519.3992462,"country_id":"YEM","targetpop":2050.2799072,"totalarea":75.6810596,"new_mean":0.0058451}},{"type":"MultiPolygon","arcs":[[[59,60]],[[61]]],"properties":{"name":"Al Hudaydah","gaul_code":32742,"targetarea":120.5879365,"totpop":571016.41135,"country_id":"YEM","targetpop":544315.663788,"totalarea":203.9803583,"new_mean":0.0084842}},{"type":"MultiPolygon","arcs":[[[62]],[[63]],[[64,65]]],"properties":{"name":"Zabid","gaul_code":32760,"targetarea":11.8705112,"totpop":242158.465747,"country_id":"YEM","targetpop":13935.7647705,"totalarea":663.5785122,"new_mean":0.0090147}},{"type":"MultiPolygon","arcs":[[[66,67]],[[68]]],"properties":{"name":"Dhamar","gaul_code":32814,"targetarea":42.0668777,"totpop":257565.496765,"country_id":"YEM","targetpop":179212.318237,"totalarea":257.4036569,"new_mean":0.0035204}},{"type":"MultiPolygon","arcs":[[[69,70]],[[71,72,73,74,-6,75,76,77,78,79]]],"properties":{"name":"Ibb","gaul_code":32890,"targetarea":117.0346862,"totpop":390891.914398,"country_id":"YEM","targetpop":311964.856323,"totalarea":225.1240843,"new_mean":0.0091355}},{"type":"MultiPolygon","arcs":[[[80]],[[81,82,83]],[[84,85]],[[86]]],"properties":{"name":"Khayran al","gaul_code":32865,"targetarea":16.3403278,"totpop":81588.1364746,"country_id":"YEM","targetpop":21989.6693726,"totalarea":107.4024,"new_mean":0.0079225}},{"type":"Polygon","arcs":[[87,88]],"properties":{"name":"An Nadirah","gaul_code":32880,"targetarea":20.491369,"totpop":131469.564529,"country_id":"YEM","targetpop":44293.3136597,"totalarea":334.2693184,"new_mean":0.0049986}},{"type":"MultiPolygon","arcs":[[[89,-57,90]],[[91]],[[92]]],"properties":{"name":"Ad Dali'","gaul_code":32704,"targetarea":12.2113172,"totpop":129848.004822,"country_id":"YEM","targetpop":14095.852478,"totalarea":368.4401014,"new_mean":0.0057839}},{"type":"MultiPolygon","arcs":[[[89,-57,90]],[[91]],[[92]]],"properties":{"name":"Ad Dali'","gaul_code":32704,"targetarea":12.2113172,"totpop":129848.004822,"country_id":"YEM","targetpop":14095.852478,"totalarea":368.4401014,"new_mean":0.0077276}},{"type":"MultiPolygon","arcs":[[[93]],[[94,-61]]],"properties":{"name":"Al Durrayhimi","gaul_code":32740,"targetarea":18.3799251,"totpop":113350.710793,"country_id":"YEM","targetpop":37843.2032471,"totalarea":631.2360259,"new_mean":0.0064953}},{"type":"Polygon","arcs":[[95]],"properties":{"name":"Yafi","gaul_code":32906,"targetarea":13.3208481,"totpop":107633.702312,"country_id":"YEM","targetpop":21478.6405029,"totalarea":250.8806118,"new_mean":0.0040696}},{"type":"Polygon","arcs":[[96,97,98,-82,99,100,-29]],"properties":{"name":"Aflah Al Yaman","gaul_code":32850,"targetarea":40.5739399,"totpop":89895.1113281,"country_id":"YEM","targetpop":76485.3526917,"totalarea":58.8584151,"new_mean":0.0094606}},{"type":"MultiPolygon","arcs":[[[101,102]],[[103]]],"properties":{"name":"Yarim","gaul_code":32893,"targetarea":60.9575629,"totpop":255909.997658,"country_id":"YEM","targetpop":144555.127747,"totalarea":551.587244,"new_mean":0.0051684}},{"type":"Polygon","arcs":[[104]],"properties":{"name":"Al Waz'ayah","gaul_code":32977,"targetarea":1.7061971,"totpop":104189.61586,"country_id":"YEM","targetpop":2859.4110718,"totalarea":486.8228252,"new_mean":0.0158527}},{"type":"MultiPolygon","arcs":[[[105,106]],[[107,108]],[[109,110,111]],[[112,113,114]],[[115]],[[116,117,118,119]]],"properties":{"name":"Sabir al Mawadim","gaul_code":32989,"targetarea":34.2727529,"totpop":169914.581779,"country_id":"YEM","targetpop":119529.74231,"totalarea":157.597591,"new_mean":0.0154435}},{"type":"Polygon","arcs":[[120,121,-15,122]],"properties":{"name":"Bani al Haith","gaul_code":32945,"targetarea":50.3823291,"totpop":190898.128418,"country_id":"YEM","targetpop":101890.989807,"totalarea":245.9514638,"new_mean":0.0046862}},{"type":"Polygon","arcs":[[123]],"properties":{"name":"Al Qra'i","gaul_code":32899,"targetarea":3.6341822,"totpop":58236.5577087,"country_id":"YEM","targetpop":6778.8380737,"totalarea":117.1236206,"new_mean":0.0042049}},{"type":"MultiPolygon","arcs":[[[124,125,-41,126]],[[127,128,129,130]],[[131,132,133,134,135,-43,136,137,138,-39,139,140,141,142]]],"properties":{"name":"Shara'b as Salaa","gaul_code":32992,"targetarea":108.8285999,"totpop":191614.129227,"country_id":"YEM","targetpop":145629.725647,"totalarea":172.7911343,"new_mean":0.0178896}},{"type":"MultiPolygon","arcs":[[[143,144]],[[145]]],"properties":{"name":"Maqrib 'Ans","gaul_code":32818,"targetarea":7.3839028,"totpop":75532.0654984,"country_id":"YEM","targetpop":10239.664917,"totalarea":212.08194,"new_mean":0.0069002}},{"type":"Polygon","arcs":[[-3,146,147]],"properties":{"name":"Rada'","gaul_code":32730,"targetarea":19.0516838,"totpop":90447.82131,"country_id":"YEM","targetpop":60453.0176392,"totalarea":235.9011631,"new_mean":0.0060973}},{"type":"Polygon","arcs":[[148,149,150]],"properties":{"name":"Tarjan","gaul_code":32904,"targetarea":2.8577119,"totpop":154740.758563,"country_id":"YEM","targetpop":3432.4382324,"totalarea":1279.4799352,"new_mean":0.0062847}},{"type":"Polygon","arcs":[[151]],"properties":{"name":"At Tawilah","gaul_code":32785,"targetarea":7.5391379,"totpop":86907.7784195,"country_id":"YEM","targetpop":10438.4855347,"totalarea":231.830155,"new_mean":0.0076966}},{"type":"Polygon","arcs":[[152,153]],"properties":{"name":"Dhubab","gaul_code":32981,"targetarea":1.6354629,"totpop":69330.2204962,"country_id":"YEM","targetpop":1875.5153809,"totalarea":1517.5893,"new_mean":0.0108404}},{"type":"MultiPolygon","arcs":[[[154,155,156,157,158,159]],[[160,161]]],"properties":{"name":"Mabyan","gaul_code":32870,"targetarea":35.7378279,"totpop":113407.898277,"country_id":"YEM","targetpop":54147.40448,"totalarea":190.2347812,"new_mean":0.0101412}},{"type":"MultiPolygon","arcs":[[[162,163,-16,-122]],[[164]]],"properties":{"name":"Hamdan","gaul_code":32948,"targetarea":20.4531444,"totpop":183624.133593,"country_id":"YEM","targetpop":69553.7243652,"totalarea":600.2092768,"new_mean":0.0039244}},{"type":"Polygon","arcs":[[165]],"properties":{"name":"Al Khukhah","gaul_code":32744,"targetarea":1.8199696,"totpop":51279.019743,"country_id":"YEM","targetpop":1773.8250732,"totalarea":463.8798856,"new_mean":0.0097642}},{"type":"Polygon","arcs":[[166,167]],"properties":{"name":"Al Rujum","gaul_code":32784,"targetarea":21.9951722,"totpop":124728.880447,"country_id":"YEM","targetpop":27525.7221069,"totalarea":365.8462072,"new_mean":0.0078763}},{"type":"Polygon","arcs":[[168,169,170,171,-119]],"properties":{"name":"Mashra'ah wa Had","gaul_code":32986,"targetarea":33.2201552,"totpop":215768.583801,"country_id":"YEM","targetpop":203458.368591,"totalarea":53.0049323,"new_mean":0.0165139}},{"type":"Polygon","arcs":[[172]],"properties":{"name":"'Ataq","gaul_code":32958,"targetarea":3.4403957,"totpop":58412.78798,"country_id":"YEM","targetpop":4627.6121826,"totalarea":1629.6171746,"new_mean":0.0024091}},{"type":"Polygon","arcs":[[173]],"properties":{"name":"Jihanah","gaul_code":32949,"targetarea":3.1621516,"totpop":74744.0149221,"country_id":"YEM","targetpop":5639.2637329,"totalarea":550.2620899,"new_mean":0.0046497}},{"type":"MultiPolygon","arcs":[[[174,-27,175]],[[176,177,-98]]],"properties":{"name":"Kuhlan ash Shara","gaul_code":32869,"targetarea":17.9098953,"totpop":64166.2728882,"country_id":"YEM","targetpop":31363.3334961,"totalarea":72.6320386,"new_mean":0.0063831}},{"type":"Polygon","arcs":[[178]],"properties":{"name":"Harad","gaul_code":32863,"targetarea":2.206601,"totpop":117655.308207,"country_id":"YEM","targetpop":3294.2677002,"totalarea":761.7391344,"new_mean":0.0056438}},{"type":"MultiPolygon","arcs":[[[179]],[[180]],[[181]]],"properties":{"name":"Bahil","gaul_code":32754,"targetarea":15.3478544,"totpop":270159.572068,"country_id":"YEM","targetpop":19490.5835571,"totalarea":1686.0239158,"new_mean":0.0078543}},{"type":"MultiPolygon","arcs":[[[182]],[[183,184]]],"properties":{"name":"As Sabrah","gaul_code":32881,"targetarea":13.8017129,"totpop":116566.540215,"country_id":"YEM","targetpop":18771.9628296,"totalarea":316.5450914,"new_mean":0.0080166}},{"type":"MultiPolygon","arcs":[[[185]],[[186]],[[187]],[[188]]],"properties":{"name":"Al Marawi'ah","gaul_code":32747,"targetarea":16.8149529,"totpop":204903.141117,"country_id":"YEM","targetpop":22016.951416,"totalarea":741.8275961,"new_mean":0.0067857}},{"type":"Polygon","arcs":[[189]],"properties":{"name":"Kusmah","gaul_code":32951,"targetarea":29.1744163,"totpop":125062.085529,"country_id":"YEM","targetpop":47220.1700439,"totalarea":312.3407559,"new_mean":0.0115659}},{"type":"Polygon","arcs":[[190]],"properties":{"name":"Ad Dahi","gaul_code":32739,"targetarea":2.2398408,"totpop":98245.3705978,"country_id":"YEM","targetpop":2960.0256348,"totalarea":283.6029825,"new_mean":0.0086266}},{"type":"Polygon","arcs":[[191]],"properties":{"name":"Al Haymah ad Dak","gaul_code":32933,"targetarea":2.2814723,"totpop":127349.846142,"country_id":"YEM","targetpop":2855.2064209,"totalarea":476.0717474,"new_mean":0.0074834}},{"type":"Polygon","arcs":[[192]],"properties":{"name":"Saqayn","gaul_code":32931,"targetarea":4.6352283,"totpop":78046.9330101,"country_id":"YEM","targetpop":5531.963501,"totalarea":469.0536551,"new_mean":0.0049924}},{"type":"MultiPolygon","arcs":[[[193]],[[194]]],"properties":{"name":"Jaharan","gaul_code":32817,"targetarea":12.6287677,"totpop":136438.165424,"country_id":"YEM","targetpop":19934.0823975,"totalarea":383.2793125,"new_mean":0.0038145}},{"type":"Polygon","arcs":[[195]],"properties":{"name":"Jabal ash Sharq","gaul_code":32816,"targetarea":1.9774841,"totpop":96238.6721687,"country_id":"YEM","targetpop":3150.6957398,"totalarea":429.6619894,"new_mean":0.0071731}},{"type":"Polygon","arcs":[[196]],"properties":{"name":"Ash Sha'ir","gaul_code":32884,"targetarea":1.8609826,"totpop":59618.9142151,"country_id":"YEM","targetpop":3619.1135254,"totalarea":128.9970453,"new_mean":0.0066749}},{"type":"MultiPolygon","arcs":[[[197]],[[198]],[[199]]],"properties":{"name":"Arhab","gaul_code":32940,"targetarea":18.3621272,"totpop":139112.521103,"country_id":"YEM","targetpop":29707.1126099,"totalarea":1432.8478561,"new_mean":0.003048}},{"type":"Polygon","arcs":[[200,201]],"properties":{"name":"Kharif","gaul_code":32804,"targetarea":3.7822926,"totpop":68479.4022083,"country_id":"YEM","targetpop":5513.0697022,"totalarea":266.1023456,"new_mean":0.0032363}},{"type":"Polygon","arcs":[[202,203]],"properties":{"name":"AS Safra'","gaul_code":32919,"targetarea":5.2299217,"totpop":75769.0975742,"country_id":"YEM","targetpop":12248.1547852,"totalarea":1648.8143446,"new_mean":0.0025399}},{"type":"Polygon","arcs":[[204,205]],"properties":{"name":"Wasab as Safil","gaul_code":32821,"targetarea":5.6829565,"totpop":207218.486343,"country_id":"YEM","targetpop":11022.2388306,"totalarea":785.0357086,"new_mean":0.0071498}},{"type":"Polygon","arcs":[[204,205]],"properties":{"name":"Wasab as Safil","gaul_code":32821,"targetarea":5.6829565,"totpop":207218.486343,"country_id":"YEM","targetpop":11022.2388306,"totalarea":785.0357086,"new_mean":0.0114362}},{"type":"Polygon","arcs":[[206,207,208]],"properties":{"name":"'Amran","gaul_code":32790,"targetarea":32.9576132,"totpop":121728.678871,"country_id":"YEM","targetpop":78781.2649536,"totalarea":128.6489633,"new_mean":0.0045139}},{"type":"Polygon","arcs":[[209]],"properties":{"name":"Maqbanah","gaul_code":32985,"targetarea":2.182055,"totpop":124189.379665,"country_id":"YEM","targetpop":4431.0115356,"totalarea":1310.9811035,"new_mean":0.018927}},{"type":"Polygon","arcs":[[210]],"properties":{"name":"Al tial","gaul_code":32938,"targetarea":7.424893,"totpop":60946.1819429,"country_id":"YEM","targetpop":11325.0853882,"totalarea":469.6044515,"new_mean":0.0045836}},{"type":"MultiPolygon","arcs":[[[-24,211]],[[-22,212,213]]],"properties":{"name":"Sanhan wa Bani B","gaul_code":32956,"targetarea":4.8891871,"totpop":72113.3788605,"country_id":"YEM","targetpop":8552.6137085,"totalarea":545.5695872,"new_mean":0.0044025}},{"type":"Polygon","arcs":[[214]],"properties":{"name":"Al Days","gaul_code":32825,"targetarea":6.8363157,"totpop":49947.7377687,"country_id":"YEM","targetpop":8052.9963684,"totalarea":1778.4382107,"new_mean":0.0045338}},{"type":"Polygon","arcs":[[215]],"properties":{"name":"Ash Shar","gaul_code":32830,"targetarea":17.9382076,"totpop":76060.1998503,"country_id":"YEM","targetpop":20775.3741436,"totalarea":1419.5770839,"new_mean":0.0052786}},{"type":"Polygon","arcs":[[216]],"properties":{"name":"'Abs","gaul_code":32849,"targetarea":11.0290995,"totpop":210547.990151,"country_id":"YEM","targetpop":11771.3790283,"totalarea":1660.9358049,"new_mean":0.0084041}},{"type":"Polygon","arcs":[[217]],"properties":{"name":"Khamir","gaul_code":32803,"targetarea":8.5184901,"totpop":135621.829945,"country_id":"YEM","targetpop":13040.9696655,"totalarea":509.487908,"new_mean":0.0042965}},{"type":"MultiPolygon","arcs":[[[218]],[[219,-67]]],"properties":{"name":"'Ans","gaul_code":32810,"targetarea":12.2942886,"totpop":203190.210567,"country_id":"YEM","targetpop":21938.8021851,"totalarea":843.3807987,"new_mean":0.0035519}},{"type":"MultiPolygon","arcs":[[[-89,220]],[[221,-102]]],"properties":{"name":"As Saddah","gaul_code":32882,"targetarea":23.9899112,"totpop":121378.64444,"country_id":"YEM","targetpop":47446.8651733,"totalarea":266.7425841,"new_mean":0.0047027}},{"type":"Polygon","arcs":[[222]],"properties":{"name":"At Tahir","gaul_code":32921,"targetarea":1.8975207,"totpop":35885.2268867,"country_id":"YEM","targetpop":3828.3399658,"totalarea":173.7630515,"new_mean":0.0131826}},{"type":"Polygon","arcs":[[223,224,225,226,227,228]],"properties":{"name":"As Silw","gaul_code":32979,"targetarea":72.8221891,"totpop":213199.017982,"country_id":"YEM","targetpop":207744.230164,"totalarea":79.303005,"new_mean":0.0061324}},{"type":"MultiPolygon","arcs":[[[229,-132,230,-142,231]],[[232,-128,233]],[[234,235]]],"properties":{"name":"Mudhaykhrah","gaul_code":32892,"targetarea":46.5241321,"totpop":113083.146576,"country_id":"YEM","targetpop":53417.0372314,"totalarea":115.5399847,"new_mean":0.0187976}},{"type":"Polygon","arcs":[[236]],"properties":{"name":"Az Zaydiyah","gaul_code":32752,"targetarea":4.6054515,"totpop":143994.428394,"country_id":"YEM","targetpop":6019.9422607,"totalarea":544.6993238,"new_mean":0.007761}},{"type":"Polygon","arcs":[[237,-206]],"properties":{"name":"Al Ja'fariyah","gaul_code":32935,"targetarea":5.610966,"totpop":107861.565365,"country_id":"YEM","targetpop":8998.1050415,"totalarea":287.8432488,"new_mean":0.0161418}},{"type":"Polygon","arcs":[[238]],"properties":{"name":"Al Hada","gaul_code":32812,"targetarea":7.2604341,"totpop":227291.271572,"country_id":"YEM","targetpop":12906.9788208,"totalarea":1821.2224586,"new_mean":0.0042524}},{"type":"Polygon","arcs":[[238]],"properties":{"name":"Al Hada","gaul_code":32812,"targetarea":7.2604341,"totpop":227291.271572,"country_id":"YEM","targetpop":12906.9788208,"totalarea":1821.2224586,"new_mean":0.0044066}},{"type":"Polygon","arcs":[[239]],"properties":{"name":"Hufash","gaul_code":32787,"targetarea":7.7036915,"totpop":60023.6898422,"country_id":"YEM","targetpop":8861.1620483,"totalarea":155.664398,"new_mean":0.0109613}},{"type":"Polygon","arcs":[[-4,240,241,242,243,244]],"properties":{"name":"Dhi as Sufal","gaul_code":32886,"targetarea":54.9687798,"totpop":246250.529877,"country_id":"YEM","targetpop":146677.779602,"totalarea":185.7353177,"new_mean":0.0156006}},{"type":"Polygon","arcs":[[245]],"properties":{"name":"Al Qanawis","gaul_code":32749,"targetarea":6.3522243,"totpop":117624.063473,"country_id":"YEM","targetpop":9245.3031616,"totalarea":387.6463561,"new_mean":0.0092677}},{"type":"Polygon","arcs":[[246]],"properties":{"name":"Marib","gaul_code":32915,"targetarea":3.542527,"totpop":114290.17773,"country_id":"YEM","targetpop":4425.788147,"totalarea":9574.1038959,"new_mean":0.0009391}},{"type":"MultiPolygon","arcs":[[[247]],[[248]],[[249,-204,250]]],"properties":{"name":"Sahar","gaul_code":32930,"targetarea":34.8992042,"totpop":317194.880655,"country_id":"YEM","targetpop":93060.0474243,"totalarea":1092.792235,"new_mean":0.0033903}},{"type":"MultiPolygon","arcs":[[[251,252,-72]],[[253]]],"properties":{"name":"Al Makhadir","gaul_code":32877,"targetarea":39.2460882,"totpop":159879.648636,"country_id":"YEM","targetpop":81553.7541504,"totalarea":207.5612117,"new_mean":0.0076674}},{"type":"MultiPolygon","arcs":[[[254,-228,255]],[[256]]],"properties":{"name":"Dimnat Khadir","gaul_code":32982,"targetarea":12.5578803,"totpop":83843.3958511,"country_id":"YEM","targetpop":23619.3113403,"totalarea":429.7330521,"new_mean":0.0062821}},{"type":"Polygon","arcs":[[257,-145]],"properties":{"name":"'Utamah","gaul_code":32811,"targetarea":26.4629823,"totpop":225078.704193,"country_id":"YEM","targetpop":35279.7167358,"totalarea":453.1098214,"new_mean":0.0113201}},{"type":"MultiPolygon","arcs":[[[258,-244]],[[259,-9]],[[-77,260]]],"properties":{"name":"As Sayyani","gaul_code":32883,"targetarea":37.3030006,"totpop":157751.097397,"country_id":"YEM","targetpop":59940.7267151,"totalarea":232.6165613,"new_mean":0.0115661}},{"type":"MultiPolygon","arcs":[[[261]],[[262,263]],[[264,-225,265,266,267,268,269,270]]],"properties":{"name":"Al Mawsit","gaul_code":32975,"targetarea":71.6150852,"totpop":186675.171539,"country_id":"YEM","targetpop":100054.993774,"totalarea":209.7657657,"new_mean":0.0091676}},{"type":"Polygon","arcs":[[271,-202]],"properties":{"name":"Raydah","gaul_code":32806,"targetarea":5.8256875,"totpop":93511.7821617,"country_id":"YEM","targetpop":7399.4324951,"totalarea":284.6927935,"new_mean":0.004222}},{"type":"MultiPolygon","arcs":[[[272]],[[273]],[[274,275,-155,276]],[[277,-14,278]],[[279,-161,280,-157,281]]],"properties":{"name":"Bani al 'Awam","gaul_code":32861,"targetarea":86.0813276,"totpop":209827.55246,"country_id":"YEM","targetpop":135633.774841,"totalarea":187.0020721,"new_mean":0.0082172}},{"type":"Polygon","arcs":[[-31,282,283]],"properties":{"name":"Ash Shahil","gaul_code":32856,"targetarea":10.8141772,"totpop":56804.3565216,"country_id":"YEM","targetpop":17706.2174683,"totalarea":111.6575169,"new_mean":0.0076032}},{"type":"MultiPolygon","arcs":[[[284,-169,-118]],[[285,-140,-38]],[[286,-242]]],"properties":{"name":"At Ta'ziyah","gaul_code":32980,"targetarea":86.713737,"totpop":875991.458345,"country_id":"YEM","targetpop":754912.17215,"totalarea":652.0741899,"new_mean":0.014357}},{"type":"MultiPolygon","arcs":[[[287,-55,288,289,290,-71]],[[-73,-253,291]]],"properties":{"name":"Hubaysh","gaul_code":32889,"targetarea":56.7924974,"totpop":154923.417145,"country_id":"YEM","targetpop":78618.855835,"totalarea":225.5047047,"new_mean":0.009815}},{"type":"Polygon","arcs":[[292,-151,293]],"properties":{"name":"Tawr Al Bahah","gaul_code":32905,"targetarea":1.0306771,"totpop":77257.7795053,"country_id":"YEM","targetpop":1799.0290527,"totalarea":808.6202459,"new_mean":0.0103007}},{"type":"Polygon","arcs":[[294,295]],"properties":{"name":"Al Matwn","gaul_code":32767,"targetarea":1.7613221,"totpop":41904.6846809,"country_id":"YEM","targetpop":1986.7824707,"totalarea":269.856437,"new_mean":0.0002672}},{"type":"MultiPolygon","arcs":[[[296]],[[-21,297,-213]],[[-19,298]],[[-17,-164,299]]],"properties":{"name":"Bani Matar","gaul_code":32944,"targetarea":20.3538538,"totpop":139219.410156,"country_id":"YEM","targetpop":36125.1011353,"totalarea":1078.2520054,"new_mean":0.0043135}},{"type":"MultiPolygon","arcs":[[[-130,300]],[[301,-134,302]],[[-7,-75,303]],[[304]],[[-290,305]]],"properties":{"name":"Al 'Udayn","gaul_code":32876,"targetarea":38.108046,"totpop":228134.96711,"country_id":"YEM","targetpop":60566.7459106,"totalarea":349.1139989,"new_mean":0.0156408}},{"type":"Polygon","arcs":[[306,-208,307]],"properties":{"name":"Jabal \"Iyal Yazi","gaul_code":32802,"targetarea":1.6161962,"totpop":104629.429642,"country_id":"YEM","targetpop":2077.0545044,"totalarea":408.2602579,"new_mean":0.0046573}},{"type":"MultiPolygon","arcs":[[[308,-46]],[[309,310]],[[311]],[[312,313]]],"properties":{"name":"Sayun","gaul_code":32842,"targetarea":46.5430676,"totpop":146552.881164,"country_id":"YEM","targetpop":68848.9141541,"totalarea":816.8688188,"new_mean":0.0016114}},{"type":"MultiPolygon","arcs":[[[314,-154]],[[315]],[[316]],[[317]]],"properties":{"name":"Mawza'","gaul_code":32988,"targetarea":17.9617511,"totpop":176389.39739,"country_id":"YEM","targetpop":27736.3136597,"totalarea":838.4085402,"new_mean":0.0133795}},{"type":"Polygon","arcs":[[-176,-33,318]],"properties":{"name":"Al Maftah","gaul_code":32853,"targetarea":16.8779353,"totpop":60215.1899414,"country_id":"YEM","targetpop":34033.6610718,"totalarea":79.7454263,"new_mean":0.006665}},{"type":"MultiPolygon","arcs":[[[319,-270]],[[320]],[[321,322]],[[323,324,325]]],"properties":{"name":"Taizz","gaul_code":32993,"targetarea":30.3080941,"totpop":169218.160492,"country_id":"YEM","targetpop":44400.5470581,"totalarea":338.1632909,"new_mean":0.0168869}},{"type":"MultiPolygon","arcs":[[[326]],[[-66,327]]],"properties":{"name":"Bayt al Faqih","gaul_code":32755,"targetarea":13.9898378,"totpop":378511.112543,"country_id":"YEM","targetpop":22172.5327148,"totalarea":1619.4982285,"new_mean":0.0088146}},{"type":"Polygon","arcs":[[-91,-59,328]],"properties":{"name":"Al Azariq","gaul_code":32705,"targetarea":0.9039738,"totpop":74898.1254482,"country_id":"YEM","targetpop":1048.9174805,"totalarea":422.2774448,"new_mean":0.006381}},{"type":"MultiPolygon","arcs":[[[329,330,331,332]],[[333,334]]],"properties":{"name":"Al Mukalla","gaul_code":32826,"targetarea":83.2290081,"totpop":213885.496263,"country_id":"YEM","targetpop":132930.246025,"totalarea":1492.2554896,"new_mean":0.0067973}},{"type":"Polygon","arcs":[[-120,-172,335,-324,336,-322,337,338,339,-106,340,-109,341,-111,342,-114,343]],"properties":{"name":"Al Misrak","gaul_code":32976,"targetarea":72.893272,"totpop":177257.421143,"country_id":"YEM","targetpop":173788.599854,"totalarea":77.2459471,"new_mean":0.0171937}},{"type":"Polygon","arcs":[[344,345]],"properties":{"name":"Al Bayda","gaul_code":32716,"targetarea":10.2940075,"totpop":82189.2390213,"country_id":"YEM","targetpop":37129.098999,"totalarea":291.2309723,"new_mean":0.0033303}},{"type":"Polygon","arcs":[[-101,346,-283,-30]],"properties":{"name":"Qufl Sharra","gaul_code":32873,"targetarea":23.7143139,"totpop":95342.5806503,"country_id":"YEM","targetpop":42383.1452637,"totalarea":179.9623937,"new_mean":0.0093465}},{"type":"MultiPolygon","arcs":[[[347]],[[-45,348]]],"properties":{"name":"Al Qatn","gaul_code":32827,"targetarea":7.3174542,"totpop":120957.125479,"country_id":"YEM","targetpop":9222.0162353,"totalarea":4146.4783019,"new_mean":0.0015939}},{"type":"Polygon","arcs":[[-256,-227,349,-294,-150,350]],"properties":{"name":"Hayfan","gaul_code":32983,"targetarea":97.8769344,"totpop":256815.52998,"country_id":"YEM","targetpop":203104.137817,"totalarea":180.4894527,"new_mean":0.0055214}},{"type":"Polygon","arcs":[[-256,-227,349,-294,-150,350]],"properties":{"name":"Hayfan","gaul_code":32983,"targetarea":97.8769344,"totpop":256815.52998,"country_id":"YEM","targetpop":203104.137817,"totalarea":180.4894527,"new_mean":0.0056876}},{"type":"Polygon","arcs":[[-264,351]],"properties":{"name":"Ash Shamataayn","gaul_code":32974,"targetarea":3.8985976,"totpop":57860.5957422,"country_id":"YEM","targetpop":3901.4356079,"totalarea":617.97746,"new_mean":0.0130675}},{"type":"Polygon","arcs":[[352]],"properties":{"name":"Ghayl Bawazar","gaul_code":32833,"targetarea":2.525341,"totpop":98238.9622996,"country_id":"YEM","targetpop":3950.8405151,"totalarea":1949.1001353,"new_mean":0.0060575}},{"type":"MultiPolygon","arcs":[[[353]],[[354]],[[355]],[[356]]],"properties":{"name":"Mawiyah","gaul_code":32987,"targetarea":12.5672998,"totpop":180837.608532,"country_id":"YEM","targetpop":19591.5768433,"totalarea":676.4011372,"new_mean":0.0073945}},{"type":"Polygon","arcs":[[357]],"properties":{"name":"Al Jarrahi","gaul_code":32743,"targetarea":10.28815,"totpop":161468.490697,"country_id":"YEM","targetpop":16481.4724121,"totalarea":735.3932745,"new_mean":0.0089519}},{"type":"MultiPolygon","arcs":[[[-224,358,-266]],[[359,-339,360,-268]]],"properties":{"name":"Sami'","gaul_code":32990,"targetarea":26.2700036,"totpop":58135.0068893,"country_id":"YEM","targetpop":34851.4084778,"totalarea":63.0967882,"new_mean":0.0084557}},{"type":"MultiPolygon","arcs":[[[361,-79]],[[362,-184]],[[363]]],"properties":{"name":"Ba'dan","gaul_code":32885,"targetarea":28.9626554,"totpop":171521.074188,"country_id":"YEM","targetpop":40406.772583,"totalarea":272.7831877,"new_mean":0.0077594}},{"type":"MultiPolygon","arcs":[[[364,-123,-26]],[[365]]],"properties":{"name":"Bani Hushaysh","gaul_code":32943,"targetarea":10.5286693,"totpop":73590.8034935,"country_id":"YEM","targetpop":19007.3186035,"totalarea":334.6584546,"new_mean":0.0039633}},{"type":"MultiPolygon","arcs":[[[-135,-302,366]],[[367]]],"properties":{"name":"Far' al 'udayn","gaul_code":32887,"targetarea":7.8602076,"totpop":141006.658913,"country_id":"YEM","targetpop":11678.8261414,"totalarea":362.194676,"new_mean":0.011817}},{"type":"Polygon","arcs":[[368]],"properties":{"name":"Al Maqatrah","gaul_code":32896,"targetarea":8.3309356,"totpop":81448.0382843,"country_id":"YEM","targetpop":10575.6213379,"totalarea":405.3331463,"new_mean":0.0099551}},{"type":"MultiPolygon","arcs":[[[-53,369]],[[370]]],"properties":{"name":"Al Hutah","gaul_code":32895,"targetarea":16.4217414,"totpop":189382.82348,"country_id":"YEM","targetpop":45266.5250854,"totalarea":2539.566699,"new_mean":0.0043408}},{"type":"Polygon","arcs":[[371]],"properties":{"name":"Duran","gaul_code":32815,"targetarea":7.6786164,"totpop":182101.884075,"country_id":"YEM","targetpop":16235.0091553,"totalarea":989.3146537,"new_mean":0.0052757}},{"type":"MultiPolygon","arcs":[[[372]],[[373]],[[374]]],"properties":{"name":"Al Radmah","gaul_code":32879,"targetarea":14.598336,"totpop":104778.181015,"country_id":"YEM","targetpop":23919.8242188,"totalarea":250.6000055,"new_mean":0.0043503}},{"type":"Polygon","arcs":[[375,-168]],"properties":{"name":"Al Mahwit","gaul_code":32783,"targetarea":17.2085492,"totpop":122391.162716,"country_id":"YEM","targetpop":33087.1756592,"totalarea":312.5662784,"new_mean":0.0091022}},{"type":"Polygon","arcs":[[-171,376,-325,-336]],"properties":{"name":"Jabal Habashy","gaul_code":32984,"targetarea":2.5776831,"totpop":53492.5308905,"country_id":"YEM","targetpop":4549.2657471,"totalarea":327.843939,"new_mean":0.0178084}},{"type":"Polygon","arcs":[[-159,377]],"properties":{"name":"Ash Shqadarah","gaul_code":32857,"targetarea":12.9165214,"totpop":75786.5981445,"country_id":"YEM","targetpop":15076.5526123,"totalarea":152.1452962,"new_mean":0.0099148}},{"type":"MultiPolygon","arcs":[[[378]],[[379]]],"properties":{"name":"Wasab al 'All","gaul_code":32820,"targetarea":27.3968235,"totpop":252541.491585,"country_id":"YEM","targetpop":32572.621521,"totalarea":586.7352362,"new_mean":0.0087883}},{"type":"Polygon","arcs":[[380,-296]],"properties":{"name":"Az Zaahir","gaul_code":32769,"targetarea":1.8539432,"totpop":35923.5162487,"country_id":"YEM","targetpop":3373.2831421,"totalarea":321.5768776,"new_mean":0.0010506}},{"type":"Polygon","arcs":[[381,-308,-207]],"properties":{"name":"Ayal Surayah","gaul_code":32796,"targetarea":19.1421117,"totpop":107281.361973,"country_id":"YEM","targetpop":51935.1251221,"totalarea":199.8756363,"new_mean":0.0052893}},{"type":"MultiPolygon","arcs":[[[382]],[[383]]],"properties":{"name":"Washhah","gaul_code":32875,"targetarea":11.0515756,"totpop":157766.851583,"country_id":"YEM","targetpop":13564.1091919,"totalarea":1111.8494942,"new_mean":0.0056891}},{"type":"Polygon","arcs":[[-332,384]],"properties":{"name":"Brwm waMayfa'","gaul_code":32831,"targetarea":39.4329451,"totpop":122377.263091,"country_id":"YEM","targetpop":73744.6740417,"totalarea":2114.4644955,"new_mean":0.0059214}},{"type":"Polygon","arcs":[[385,-346]],"properties":{"name":"Mukayras","gaul_code":32727,"targetarea":1.0521918,"totpop":86160.7593479,"country_id":"YEM","targetpop":7321.5605469,"totalarea":702.3937504,"new_mean":0.0033419}},{"type":"Polygon","arcs":[[386]],"properties":{"name":"Kuhlan 'Affar","gaul_code":32868,"targetarea":2.5143675,"totpop":67263.4438248,"country_id":"YEM","targetpop":3480.7680054,"totalarea":152.8350606,"new_mean":0.006151}},{"type":"Polygon","arcs":[[387]],"properties":{"name":"Kharb al Marashi","gaul_code":32771,"targetarea":3.0221014,"totpop":92777.3808193,"country_id":"YEM","targetpop":4440.1589356,"totalarea":526.4208381,"new_mean":0.0014771}},{"type":"MultiPolygon","arcs":[[[388]],[[-2,389,-147]]],"properties":{"name":"Al a'rsh","gaul_code":32719,"targetarea":5.3632088,"totpop":53981.2731285,"country_id":"YEM","targetpop":13649.7874146,"totalarea":160.3122737,"new_mean":0.0057318}},{"type":"MultiPolygon","arcs":[[[390,-311]],[[391,-313]]],"properties":{"name":"Tarym","gaul_code":32844,"targetarea":15.1474947,"totpop":114533.047638,"country_id":"YEM","targetpop":19664.3865356,"totalarea":3269.099712,"new_mean":0.0013787}},{"type":"Polygon","arcs":[[392,-85,393,-83,-99,-178]],"properties":{"name":"Aflah Al sham","gaul_code":32851,"targetarea":46.1488358,"totpop":92810.3586349,"country_id":"YEM","targetpop":81834.7591553,"totalarea":68.6033944,"new_mean":0.0080155}}]}},"arcs":[[[44.8730262,14.4140638],[44.8350577,14.4450303],[44.8212231,14.4283636],[44.8038685,14.4208384]],[[44.8038685,14.4208384],[44.8200951,14.4152174]],[[44.8200951,14.4152174],[44.8233299,14.4303799],[44.830822,14.4372702],[44.8458138,14.4354553],[44.8570595,14.4149122],[44.8730262,14.4140638]],[[44.1027065,13.8603659],[44.1112099,13.8498087],[44.1209853,13.857854]],[[44.1209853,13.857854],[44.1083324,13.8662502],[44.1027065,13.8603659]],[[44.2162097,13.9213144],[44.2161865,13.9334793],[44.1701279,13.9701014],[44.1514206,13.972415],[44.135025,13.9856577],[44.1171341,13.9739265],[44.1000023,13.9700022],[44.0934143,13.9567299]],[[44.0934143,13.9567299],[44.0937966,13.9522701]],[[44.0937966,13.9522701],[44.1128735,13.954214],[44.1232738,13.9072739],[44.1516972,13.8870842]],[[44.1516972,13.8870842],[44.1889648,13.9092369],[44.1952403,13.9104251]],[[44.1952403,13.9104251],[44.1965486,13.923318],[44.2162097,13.9213144]],[[45.522574,14.9486069],[45.4993806,14.9434108],[45.4882641,14.9290594],[45.5166658,14.9245835],[45.522574,14.9486069]],[[44.2327423,15.3960209],[44.2262115,15.4003029],[44.2169838,15.4196758],[44.1946564,15.422801],[44.1886597,15.4195347],[44.1837349,15.4022455],[44.1701088,15.3908443],[44.1815186,15.3736382],[44.1771545,15.3687592],[44.1705742,15.3347273],[44.1901436,15.3256617],[44.1982918,15.3181524],[44.2325668,15.3156404],[44.229351,15.3366642],[44.2353935,15.3609715],[44.2327423,15.3960209]],[[43.6347949,15.6126004],[43.6450675,15.6273911],[43.6385194,15.6374466]],[[43.6385194,15.6374466],[43.6347949,15.6126004]],[[44.2553253,15.4421349],[44.2415581,15.4526958],[44.2388763,15.4801846],[44.2285156,15.4801359],[44.2224998,15.464468],[44.2055779,15.4428129],[44.1946793,15.4406023],[44.1655273,15.414957]],[[44.1655273,15.414957],[44.1537933,15.4053288],[44.1526833,15.3858967],[44.1444969,15.3664246],[44.1470299,15.3461695]],[[44.1470299,15.3461695],[44.157068,15.3359366]],[[44.157068,15.3359366],[44.1659008,15.3123073],[44.1592694,15.3098264]],[[44.1592694,15.3098264],[44.1628559,15.2928067]],[[44.1628559,15.2928067],[44.1882641,15.2878485],[44.1959877,15.2766646]],[[44.1959877,15.2766646],[44.1996269,15.2717686]],[[44.1996269,15.2717686],[44.2210274,15.2702675],[44.2382385,15.2566588]],[[44.2382385,15.2566588],[44.2469229,15.2544297],[44.2439119,15.2410264],[44.2482285,15.2234568]],[[44.2482285,15.2234568],[44.2552449,15.2214346]],[[44.2552449,15.2214346],[44.263557,15.2411362],[44.2583324,15.2829168],[44.2690177,15.2856614],[44.2697646,15.2902014],[44.2528637,15.3120184],[44.264908,15.330512],[44.2549633,15.3748398],[44.2696811,15.3850018],[44.2661462,15.395198],[44.2486807,15.3932521],[44.2600499,15.4203369]],[[44.2600499,15.4203369],[44.2553253,15.4421349]],[[43.4397926,16.006712],[43.4353919,16.0081452]],[[43.4353919,16.0081452],[43.4385896,15.9825303],[43.4313365,15.9790956]],[[43.4313365,15.9790956],[43.4225273,15.9516134],[43.4227448,15.9247522],[43.4152641,15.9258642]],[[43.4152641,15.9258642],[43.4159126,15.9127741]],[[43.4159126,15.9127741],[43.4169789,15.9098067]],[[43.4169789,15.9098067],[43.4591462,15.9275742],[43.4699528,15.9532045]],[[43.4699528,15.9532045],[43.4630394,15.9576015],[43.4580307,15.9814396],[43.4397926,16.006712]],[[43.7833324,13.6412502],[43.7779212,13.6336528],[43.7809257,13.6326651],[43.7833324,13.6412502]],[[43.8499991,13.7079168],[43.8411827,13.7037246],[43.849469,13.7060257],[43.8499991,13.7079168]],[[43.7716625,13.7685207],[43.7641755,13.7542181],[43.7749991,13.7495835],[43.7716625,13.7685207]],[[43.8395037,13.8020494],[43.8125805,13.786998],[43.7957836,13.7873398],[43.7875805,13.7450059],[43.8210278,13.7287786],[43.8122875,13.7203802],[43.8336254,13.7121649],[43.8485994,13.7430446],[43.8707511,13.7199937],[43.8792472,13.7375067],[43.8958324,13.7202459],[43.9002475,13.7248395]],[[43.9002475,13.7248395],[43.9053841,13.7320013]],[[43.9053841,13.7320013],[43.9038227,13.7476013]],[[43.9038227,13.7476013],[43.8943109,13.7535978]],[[43.8943109,13.7535978],[43.8745069,13.7596727],[43.8682682,13.7641946],[43.8479881,13.7692862],[43.8410721,13.7805223],[43.8395037,13.8020494]],[[43.8363527,13.8347578],[43.8253246,13.8208034],[43.8045564,13.8458034],[43.793391,13.8533636],[43.7788403,13.8358424],[43.7381827,13.8382879],[43.7295564,13.8316432],[43.7591625,13.8188014],[43.7916658,13.8221136],[43.8405921,13.8171294]],[[43.8405921,13.8171294],[43.8363527,13.8347578]],[[48.6467153,15.9043439],[48.6534008,15.8946518],[48.6700674,15.8961818],[48.6882641,15.9029852],[48.7146801,15.9201971],[48.698876,15.9311102],[48.6624991,15.9158351],[48.6536096,15.9195677]],[[48.6536096,15.9195677],[48.6467153,15.9043439]],[[48.7774644,15.9206891],[48.7869339,15.9461517],[48.7907187,15.9729541]],[[48.7907187,15.9729541],[48.7748526,15.9702093],[48.7546215,15.944957],[48.7212881,15.9309108],[48.7541006,15.919306],[48.7623363,15.9295802],[48.7774644,15.9206891]],[[45.7312003,14.8120713],[45.7209626,14.8330633],[45.7082999,14.8080348],[45.7249991,14.7995835],[45.7312003,14.8120713]],[[45.4032543,13.1343369],[45.3703767,13.1528346],[45.3467439,13.1208604],[45.3706534,13.1108628],[45.3793611,13.1133123],[45.3916658,13.1079168],[45.4032543,13.1343369]],[[44.8974936,12.7686081],[44.8778637,12.7636786],[44.8721996,12.7447577],[44.8882218,12.7427361],[44.8994826,12.7468893],[44.8974936,12.7686081]],[[44.8443773,12.7757353],[44.8237529,12.7580087],[44.8416658,12.7495835],[44.859016,12.7656886],[44.8443773,12.7757353]],[[44.9437917,12.9243615],[44.9482901,12.8882147],[44.9369294,12.8791286],[44.9400707,12.8538926],[44.9046215,12.8437607],[44.9126944,12.8178493],[44.9615661,12.8259712],[44.9871604,12.8227036],[44.9961417,12.8446519],[45.0082348,12.8352891],[45.0160911,12.8160374],[45.0294726,12.8003868],[45.0188708,12.7898767],[45.0051913,12.7951776],[44.9769482,12.789212],[44.9778323,12.7781944],[44.9982009,12.7651828],[45.0061146,12.7540473],[45.0277341,12.7500201],[45.0407882,12.7539032],[45.0439216,12.7624587],[45.0568025,12.7617051],[45.0546789,12.7787943],[45.0430572,12.7865796],[45.0478899,12.819986],[45.0572908,12.8496852],[45.0387686,12.8811834],[45.070895,12.8771873],[45.0751999,12.8855251],[45.0708813,12.8969793],[45.0537589,12.8948472],[45.0458324,12.9136379],[45.0208324,12.9105291],[45.0080132,12.9363837]],[[45.0080132,12.9363837],[44.9953423,12.9294786],[44.9613914,12.92906],[44.9437917,12.9243615]],[[43.7999991,14.7662502],[43.8094388,14.7626812],[43.8070661,14.7642654],[43.7999991,14.7662502]],[[44.0212888,14.028884],[44.0120773,14.0452757],[44.0229912,14.0461035],[44.035453,14.0553369]],[[44.035453,14.0553369],[43.9960603,14.0404567],[44.0212888,14.028884]],[[44.7322922,13.7055187],[44.7282566,13.7138215]],[[44.7282566,13.7138215],[44.7250906,13.6959496]],[[44.7250906,13.6959496],[44.7322922,13.7055187]],[[43.0474143,14.8077037],[43.0293123,14.7952459],[43.0115388,14.7959499],[42.9756176,14.8700913],[42.9436701,14.8617191],[42.9406696,14.8421792],[42.9293114,14.8244331],[42.9348055,14.8131044],[42.9263365,14.8028801],[42.9393926,14.7882403],[42.9563956,14.7294053],[42.9915792,14.7245953]],[[42.9915792,14.7245953],[43.0075989,14.7446852],[43.0292587,14.7582912],[43.0420685,14.7738495],[43.0474143,14.8077037]],[[42.874757,14.8799403],[42.8749076,14.8982266],[42.8813807,14.9047946],[42.8690304,14.9140116],[42.8650687,14.8936534],[42.874757,14.8799403]],[[43.3326326,14.1982692],[43.313671,14.2107163],[43.305533,14.1927638],[43.3249991,14.1829168],[43.3326326,14.1982692]],[[43.0906976,14.194641],[43.0859692,14.2112005],[43.0770119,14.2000158],[43.0906976,14.194641]],[[43.3042591,14.3409858],[43.3087393,14.3291001],[43.3196931,14.3298895],[43.3361807,14.339293],[43.3317551,14.351034]],[[43.3317551,14.351034],[43.3042591,14.3409858]],[[44.3798542,14.5212991],[44.3952103,14.5206451],[44.4159241,14.5274296],[44.4320602,14.5363331],[44.4406846,14.5469277]],[[44.4406846,14.5469277],[44.4255525,14.5701645],[44.3843416,14.5807399],[44.3632641,14.5467759],[44.3798542,14.5212991]],[[44.3605785,14.64372],[44.3380362,14.6239447],[44.3666658,14.6079168],[44.3605785,14.64372]],[[44.0807098,14.0254233],[44.108658,14.0406073],[44.1068691,14.0497327]],[[44.1068691,14.0497327],[44.0974655,14.0393753],[44.081501,14.0346489],[44.0807098,14.0254233]],[[44.1915696,14.0576539],[44.1683502,14.0637512],[44.1667748,14.0692072],[44.172142,14.1058855],[44.1646957,14.1206827]],[[44.1646957,14.1206827],[44.1425552,14.0870743],[44.1337627,14.0779454]],[[44.1337627,14.0779454],[44.1495434,14.0795518],[44.1639477,14.030451],[44.1616039,14.0075018],[44.1027498,14.0135036],[44.1170564,13.9885076],[44.0752857,13.9687779]],[[44.0752857,13.9687779],[44.0934143,13.9567299]],[[44.2162097,13.9213144],[44.2348787,13.9194118],[44.2375593,13.9132249]],[[44.2375593,13.9132249],[44.2622032,13.9085608],[44.2701336,13.8950636]],[[44.2701336,13.8950636],[44.3002509,13.8919918],[44.3006953,13.8934907],[44.2787751,13.9116969],[44.2647452,13.9285874],[44.2505545,13.9327518],[44.2469236,13.9338173],[44.227294,13.9395778],[44.2300121,13.9662746],[44.2409356,13.9694794]],[[44.2409356,13.9694794],[44.2489399,13.9882538]],[[44.2489399,13.9882538],[44.2240714,13.9740098],[44.1983878,14.0049261],[44.1841137,14.0378241],[44.1915696,14.0576539]],[[43.3666658,15.9745835],[43.378561,15.9851107],[43.3823599,15.9977101],[43.3497256,15.9875446],[43.3491058,15.9854022],[43.3666658,15.9745835]],[[43.385059,16.0054352],[43.3839417,16.0283508]],[[43.3839417,16.0283508],[43.38266,16.0407119]],[[43.38266,16.0407119],[43.371809,16.0320257],[43.3629548,16.0147446],[43.385059,16.0054352]],[[43.3821825,16.055709],[43.3815531,16.0897892]],[[43.3815531,16.0897892],[43.3716951,16.073554],[43.3821825,16.055709]],[[43.3626619,16.1265122],[43.3470531,16.1186712],[43.3666658,16.1079168],[43.3626619,16.1265122]],[[44.4156701,14.1119468],[44.4450675,14.0946519],[44.4916658,14.0829168],[44.4754386,14.1127712],[44.4514531,14.1293308]],[[44.4514531,14.1293308],[44.4471855,14.1226988],[44.4239883,14.1181679],[44.4156701,14.1119468]],[[44.7349855,13.6947903],[44.7442862,13.714708],[44.7336417,13.7276108],[44.7282566,13.7138215]],[[44.7322922,13.7055187],[44.7349855,13.6947903]],[[44.7562654,13.7455348],[44.7472973,13.7607163],[44.734781,13.7359889],[44.7499991,13.7329168],[44.7562654,13.7455348]],[[44.7166658,13.8162502],[44.7087512,13.8577325],[44.7026135,13.8575598],[44.6959952,13.8354071],[44.7166658,13.8162502]],[[43.0126619,14.6181789],[42.9970531,14.6103379],[43.0166658,14.5995835],[43.0126619,14.6181789]],[[42.9915792,14.7245953],[43.0036938,14.7375596],[43.0489737,14.7589341],[43.0623363,14.7872422],[43.0731599,14.7972682],[43.0659126,14.8194739],[43.0644138,14.8194028],[43.0474143,14.8077037]],[[45.2522289,13.868423],[45.2317211,13.8780625],[45.221516,13.8298976],[45.2416658,13.8245835],[45.2522289,13.868423]],[[43.4313365,15.9790956],[43.4139802,15.9708766],[43.4046215,16.0066107],[43.4259268,16.0236598],[43.4368192,16.0372633]],[[43.4368192,16.0372633],[43.4346924,16.0394516]],[[43.4346924,16.0394516],[43.424099,16.0337372],[43.3839417,16.0283508]],[[43.385059,16.0054352],[43.391031,16.0029201],[43.3865714,15.9671901],[43.3707207,15.9504546]],[[43.3707207,15.9504546],[43.3789749,15.9505205],[43.4084587,15.9268761],[43.4152641,15.9258642]],[[44.3523357,14.1888595],[44.3484344,14.2081566],[44.3622208,14.2219065]],[[44.3622208,14.2219065],[44.386962,14.2421494],[44.3589509,14.2661118],[44.3260733,14.2235093],[44.2880362,14.1941514],[44.3038728,14.1864243],[44.3228018,14.1892197],[44.3499991,14.1829168],[44.3523357,14.1888595]],[[44.3948396,14.2797389],[44.416031,14.2927923],[44.398697,14.3174709],[44.3720043,14.3277614],[44.3551912,14.2784246],[44.3916658,14.2745835],[44.3948396,14.2797389]],[[43.7799958,13.2601873],[43.7725089,13.2458848],[43.7833324,13.2412502],[43.7799958,13.2601873]],[[44.0770451,13.4463852],[44.087716,13.4207915]],[[44.087716,13.4207915],[44.0879965,13.421061],[44.0943881,13.4379085],[44.0770451,13.4463852]],[[44.0529165,13.476077],[44.0621248,13.4939601],[44.0525832,13.4958237]],[[44.0525832,13.4958237],[44.0576363,13.4892702],[44.0529165,13.476077]],[[44.0333324,13.4995835],[44.0318436,13.4942726]],[[44.0318436,13.4942726],[44.0356934,13.4991224]],[[44.0356934,13.4991224],[44.0333324,13.4995835]],[[44.0333324,13.4995835],[44.0391683,13.5163066]],[[44.0391683,13.5163066],[44.0239258,13.5094652],[44.0200691,13.4921694],[44.0281549,13.4917524]],[[44.0281549,13.4917524],[44.0333324,13.4995835]],[[44.0885896,13.523965],[44.0721996,13.5094305],[44.0916658,13.4995835],[44.0885896,13.523965]],[[44.0400834,13.5208658],[44.0451488,13.5461045],[44.0548494,13.5530625],[44.0649893,13.5793564],[44.1048494,13.5947292],[44.1071084,13.6005813]],[[44.1071084,13.6005813],[44.0905418,13.6043787],[44.0533066,13.5803947],[44.0374336,13.562808],[44.0084114,13.5660143]],[[44.0084114,13.5660143],[44.0084152,13.5596724],[44.0203285,13.5286655]],[[44.0203285,13.5286655],[44.0400834,13.5208658]],[[44.2612112,15.4493259],[44.2503735,15.4659775],[44.2559724,15.4909409],[44.2361482,15.5196518],[44.220572,15.5059637],[44.1996248,15.4461818],[44.1864249,15.4531479],[44.1896964,15.4677231],[44.1669211,15.4825583],[44.1601461,15.4815871],[44.1396313,15.4674261],[44.1364249,15.4531073],[44.1700675,15.4405137],[44.1649676,15.4248664]],[[44.1649676,15.4248664],[44.1655273,15.414957]],[[44.2553253,15.4421349],[44.2612112,15.4493259]],[[45.1633292,13.801854],[45.1558422,13.7875514],[45.1666658,13.7829168],[45.1633292,13.801854]],[[43.8916658,13.7912502],[43.879182,13.7850409],[43.8557934,13.7964626],[43.8499991,13.8079168]],[[43.8499991,13.8079168],[43.8395037,13.8020494]],[[43.8943109,13.7535978],[43.8967764,13.7704535],[43.8916658,13.7912502]],[[43.9074951,13.8202928],[43.9344101,13.8325729],[43.9400472,13.8415607]],[[43.9400472,13.8415607],[43.9374465,13.8688382],[43.9359994,13.8700227],[43.9163115,13.8729324],[43.911166,13.8699148],[43.8923202,13.8519885]],[[43.8923202,13.8519885],[43.8852119,13.8364325],[43.8728563,13.826492]],[[43.8728563,13.826492],[43.8984366,13.8189561],[43.9074951,13.8202928]],[[43.9301507,13.7940831],[43.9249039,13.7940235],[43.9117259,13.8003775]],[[43.9117259,13.8003775],[43.8633292,13.8185614],[43.8501456,13.8344468],[43.8613953,13.8437892]],[[43.8613953,13.8437892],[43.8688469,13.8704615],[43.8628235,13.8877134]],[[43.8628235,13.8877134],[43.8446674,13.8777352]],[[43.8446674,13.8777352],[43.8475903,13.8489772],[43.8363527,13.8347578]],[[43.8405921,13.8171294],[43.8499991,13.8079168]],[[43.8499991,13.8079168],[43.8866528,13.7985093],[43.8916658,13.7912502]],[[43.8916658,13.7912502],[43.9117341,13.7860988],[43.9038227,13.7476013]],[[43.9053841,13.7320013],[43.9080086,13.7326046]],[[43.9080086,13.7326046],[43.9161287,13.7404119],[43.9576488,13.7122666],[43.9707511,13.7336981],[43.9463961,13.7937452]],[[43.9463961,13.7937452],[43.9306508,13.7940887]],[[43.9306508,13.7940887],[43.9448884,13.7664089],[43.9249991,13.7745835],[43.9301507,13.7940831]],[[44.0791096,14.4959417],[44.1127921,14.4948634],[44.12871,14.5032822],[44.085673,14.508665]],[[44.085673,14.508665],[44.0791096,14.4959417]],[[44.1640453,14.542597],[44.1481762,14.5272772],[44.1666658,14.5245835],[44.1640453,14.542597]],[[44.8200951,14.4152174],[44.8240572,14.3973577]],[[44.8240572,14.3973577],[44.8583324,14.3912502],[44.8786124,14.4095078],[44.8730262,14.4140638]],[[44.3146866,13.2226801],[44.3174156,13.2370993]],[[44.3174156,13.2370993],[44.3041725,13.231699],[44.3057289,13.220314]],[[44.3057289,13.220314],[44.3146866,13.2226801]],[[43.7554028,15.5148667],[43.7221996,15.4980698],[43.7371085,15.4848537],[43.7458487,15.4891261],[43.7583324,15.4829168],[43.7554028,15.5148667]],[[43.4933021,13.2613597],[43.5083324,13.2579168],[43.5145994,13.2652049]],[[43.5145994,13.2652049],[43.4933021,13.2613597]],[[43.559588,15.6117301],[43.5644509,15.6378802]],[[43.5644509,15.6378802],[43.5644488,15.6379244]],[[43.5644488,15.6379244],[43.5620804,15.6679401],[43.5475319,15.6845495]],[[43.5475319,15.6845495],[43.5102965,15.6741809],[43.510697,15.6706366],[43.5385896,15.6539577],[43.5227802,15.6326354]],[[43.5227802,15.6326354],[43.5491253,15.6112317]],[[43.5491253,15.6112317],[43.559588,15.6117301]],[[43.5575382,15.708526],[43.567131,15.7185335],[43.5875145,15.7268746]],[[43.5875145,15.7268746],[43.5767244,15.753213],[43.5564607,15.7318141],[43.5534822,15.7116562],[43.5575382,15.708526]],[[44.1649676,15.4248664],[44.163085,15.4190903],[44.1326651,15.4318629],[44.1281729,15.4118516],[44.1450675,15.3716375],[44.1339746,15.3521478]],[[44.1339746,15.3521478],[44.1470299,15.3461695]],[[44.1312491,15.5338649],[44.096516,15.528327],[44.1249991,15.5079168],[44.1312491,15.5338649]],[[43.2576651,13.8191025],[43.2380362,13.8088161],[43.2499991,13.7995835],[43.2576651,13.8191025]],[[43.5642246,15.464213],[43.5704418,15.4796494],[43.5982576,15.4687119],[43.6257153,15.4898952],[43.5860017,15.5138454],[43.5712556,15.4947373],[43.5542669,15.4972468]],[[43.5542669,15.4972468],[43.5582542,15.471632],[43.5642246,15.464213]],[[44.0084114,13.5660143],[43.9918289,13.5727129],[43.9676437,13.5912485],[43.9481882,13.5948272]],[[43.9481882,13.5948272],[43.9420238,13.5636582],[43.9541658,13.5612616],[43.9868155,13.5677109],[43.9798494,13.5363958],[43.9697094,13.5204168],[43.9813142,13.5021348],[43.9792248,13.4915598]],[[43.9792248,13.4915598],[43.9851952,13.4912786]],[[43.9851952,13.4912786],[43.9900665,13.5015707],[43.9796982,13.5136433],[43.9865952,13.5267458],[44.0150909,13.521821],[44.0203285,13.5286655]],[[46.846044,14.5317897],[46.8161775,14.5442002],[46.8227693,14.5282293],[46.846044,14.5317897]],[[44.4788565,15.2358099],[44.4552237,15.2202296],[44.4833324,15.2162502],[44.4788565,15.2358099]],[[43.4978089,15.994661],[43.4859854,16.0041286],[43.4888663,16.027269],[43.444335,16.0366237],[43.4464021,16.0200384],[43.4353919,16.0081452]],[[43.4397926,16.006712],[43.455349,16.0073948],[43.4692421,15.9991398],[43.4978089,15.994661]],[[43.4368192,16.0372633],[43.4480244,16.0486766]],[[43.4480244,16.0486766],[43.4346924,16.0394516]],[[43.0609692,16.4278672],[43.0462882,16.4137396],[43.0666658,16.4079168],[43.0609692,16.4278672]],[[42.9205232,15.0024766],[42.9020067,14.9902693],[42.9055772,14.9856665],[42.9249991,14.9829168],[42.9205232,15.0024766]],[[43.2749991,15.0495835],[43.2549307,15.0309922],[43.2678702,15.0122422],[43.2749991,15.0495835]],[[43.2749991,15.0495835],[43.2971996,15.052383],[43.3027986,15.0634507],[43.3138663,15.0690496],[43.3140616,15.0857163],[43.2787426,15.0681626],[43.2749991,15.0495835]],[[44.4185822,13.8957173],[44.4329093,13.8944321],[44.4271313,13.9116237],[44.3879548,13.8992295],[44.4067557,13.884179],[44.4185822,13.8957173]],[[44.3707683,13.9391266],[44.3708153,13.9514542],[44.34673,13.9702582]],[[44.34673,13.9702582],[44.3414379,13.9466294],[44.3666658,13.9329168],[44.3707683,13.9391266]],[[43.1107576,14.8138291],[43.1082185,14.8270046],[43.0892406,14.8111639],[43.1083324,14.8079168],[43.1107576,14.8138291]],[[43.1666658,14.8412502],[43.1486482,14.8386256],[43.163964,14.8227606],[43.1666658,14.8412502]],[[43.1666658,14.8412502],[43.1831209,14.8338771],[43.2031729,14.861522],[43.1707673,14.8694281],[43.1666658,14.8412502]],[[43.2243318,14.9107692],[43.2047029,14.9004827],[43.2166658,14.8912502],[43.2243318,14.9107692]],[[43.667933,14.6058803],[43.6383455,14.6169541],[43.6132641,14.5884425],[43.6304516,14.5620347],[43.6666658,14.5579168],[43.672753,14.582693],[43.6715237,14.6026759],[43.667933,14.6058803]],[[43.3969295,15.1879858],[43.3946858,15.1916678],[43.3797029,15.1838161],[43.3916658,15.1745835],[43.3969295,15.1879858]],[[43.9333324,15.2579168],[43.9249991,15.269542],[43.9166658,15.2579168],[43.9333324,15.2579168]],[[43.5437003,16.8784735],[43.512727,16.8679876],[43.5333324,16.8495835],[43.5437003,16.8784735]],[[44.30288,14.8066392],[44.2692862,14.801675],[44.2717927,14.7847601],[44.3083324,14.7745835],[44.30288,14.8066392]],[[44.2812491,14.9019313],[44.2720531,14.8871364],[44.2916658,14.8829168],[44.2812491,14.9019313]],[[43.9562491,14.6519313],[43.9470531,14.6371364],[43.9666658,14.6329168],[43.9562491,14.6519313]],[[44.4469002,14.001215],[44.4465769,14.0259454],[44.4387849,14.0054876],[44.4469002,14.001215]],[[44.2508825,15.5829168],[44.2583324,15.5908365],[44.2583324,15.5995835],[44.2333324,15.5995835],[44.2333324,15.5829168],[44.2508825,15.5829168]],[[44.1541983,15.6103542],[44.147281,15.5861273],[44.1833324,15.5829168],[44.1804353,15.6066269],[44.1708324,15.6015448],[44.1541983,15.6103542]],[[44.238671,15.6372869],[44.2272777,15.6529852],[44.2049307,15.6318711],[44.2333324,15.6245835],[44.238671,15.6372869]],[[44.0579664,15.8150342],[44.0704906,15.8262274],[44.0406241,15.8368475],[44.0372983,15.8290572]],[[44.0372983,15.8290572],[44.0579664,15.8150342]],[[43.7717016,16.8983947],[43.7868806,16.9047349],[43.7778637,16.9571152],[43.7742542,16.9564935]],[[43.7742542,16.9564935],[43.7806129,16.9410343],[43.7700729,16.9187717],[43.7717016,16.8983947]],[[43.5290275,14.3669019],[43.5301098,14.3620754],[43.5666658,14.3579168],[43.5739412,14.3752386],[43.5643503,14.3773955]],[[43.5643503,14.3773955],[43.5469399,14.3676338],[43.5290275,14.3669019]],[[43.9344641,15.6387473],[43.9461899,15.6496],[43.9572906,15.6694813],[43.9594841,15.6952009],[43.9801292,15.7262154]],[[43.9801292,15.7262154],[43.96055,15.7237877]],[[43.96055,15.7237877],[43.9545564,15.7033636],[43.9163403,15.6797959],[43.8878897,15.6561956],[43.9344641,15.6387473]],[[43.705712,13.4509303],[43.6898429,13.4356105],[43.7083324,13.4329168],[43.705712,13.4509303]],[[44.4083324,15.3829168],[44.4472973,15.3877915],[44.4451326,15.4052191],[44.4240876,15.4026027],[44.4083324,15.3829168]],[[44.2482285,15.2234568],[44.2499991,15.2162502],[44.2552449,15.2214346]],[[44.1996269,15.2717686],[44.1996934,15.2712988]],[[44.1996934,15.2712988],[44.2036775,15.2655299],[44.2382385,15.2566588]],[[49.8263988,14.8018571],[49.8468253,14.8110947],[49.8531729,14.8265977],[49.8053376,14.8116969],[49.8263988,14.8018571]],[[49.6298243,14.7534666],[49.636962,14.768362],[49.6110017,14.7865464],[49.5713695,14.7475286],[49.5997032,14.7427159],[49.6298243,14.7534666]],[[43.205533,16.0141221],[43.1851879,16.0284409],[43.1881664,15.9912502],[43.1880037,15.968248],[43.1999991,15.9579168],[43.205533,16.0141221]],[[43.9460115,16.006513],[43.9382641,15.9900213],[43.9666658,15.9745835],[43.9742504,16.005451],[43.9624991,16.0028143],[43.9460115,16.006513]],[[44.4749991,14.5162502],[44.4806957,14.4962998],[44.4953767,14.5104274],[44.4749991,14.5162502]],[[44.3798542,14.5212991],[44.384602,14.5140081],[44.4083324,14.5079168],[44.4165844,14.5198797],[44.4501293,14.5324245],[44.4406846,14.5469277]],[[44.4514531,14.1293308],[44.4382641,14.1461818],[44.3997712,14.1529852],[44.3805167,14.1251003],[44.4156701,14.1119468]],[[44.3523357,14.1888595],[44.3622208,14.2219065]],[[43.2793285,16.7765122],[43.2637198,16.7686712],[43.2833324,16.7579168],[43.2793285,16.7765122]],[[44.1707172,13.3874794],[44.1568565,13.3591137]],[[44.1568565,13.3591137],[44.156086,13.3261185],[44.1643372,13.3171711],[44.194149,13.3162298],[44.2072495,13.3115956]],[[44.2072495,13.3115956],[44.2165025,13.3114069]],[[44.2165025,13.3114069],[44.2254333,13.3344412],[44.235508,13.3432789],[44.2549248,13.3706179],[44.2622719,13.3727417]],[[44.2622719,13.3727417],[44.257304,13.3785594]],[[44.257304,13.3785594],[44.2464998,13.3783392],[44.224798,13.3877295],[44.2235904,13.388252],[44.1867667,13.4041855],[44.1707172,13.3874794]],[[43.9416658,13.8079168],[43.9166658,13.7985215],[43.9117259,13.8003775]],[[43.9301507,13.7940831],[43.9306508,13.7940887]],[[43.9463961,13.7937452],[43.9416658,13.8079168]],[[43.9416658,13.8245835],[43.9400472,13.8415607]],[[43.9074951,13.8202928],[43.9271313,13.8188706],[43.9416658,13.8245835]],[[43.9416658,13.8079168],[43.9544099,13.8128159],[43.9673655,13.796643],[43.9785,13.7964746],[43.9697908,13.8120835],[43.9796215,13.819957],[43.997102,13.8810654],[43.9943161,13.9034131],[43.9605433,13.8986752],[43.964143,13.8696925],[43.9525219,13.8711411],[43.9568025,13.8367051],[43.9416658,13.8245835]],[[43.9416658,13.8245835],[43.9416658,13.8079168]],[[43.0201651,15.3446722],[42.9963696,15.3242213],[43.0249991,15.3162502],[43.0201651,15.3446722]],[[43.5643503,14.3773955],[43.5246736,14.3863185],[43.5290275,14.3669019]],[[44.4684399,14.783458],[44.4552237,14.7946519],[44.4465974,14.7623927],[44.4749991,14.7579168],[44.4684399,14.783458]],[[43.4269034,15.3829128],[43.4016918,15.3772609],[43.4085115,15.3468817],[43.4166658,15.3412502],[43.4269034,15.3829128]],[[44.1027065,13.8603659],[44.0918774,13.8338893],[44.1142244,13.796841],[44.1013128,13.7754434]],[[44.1013128,13.7754434],[44.129921,13.7528276],[44.1555844,13.747463]],[[44.1555844,13.747463],[44.1683813,13.760138]],[[44.1683813,13.760138],[44.1619377,13.8006372],[44.1488766,13.8205586]],[[44.1488766,13.8205586],[44.1448559,13.8061427],[44.1467439,13.7934352],[44.1224926,13.79702],[44.1405275,13.8428917],[44.1403571,13.8499268],[44.1209853,13.857854]],[[43.1447745,15.4798162],[43.1612947,15.4896144],[43.1423982,15.5110174],[43.1302237,15.4813625],[43.1447745,15.4798162]],[[45.338557,15.4041977],[45.331835,15.4113185],[45.3215974,15.3910223],[45.3333324,15.3829168],[45.338557,15.4041977]],[[43.7166658,16.8579168],[43.7078767,16.8863673],[43.6960603,16.8642767],[43.7166658,16.8579168]],[[43.7333324,16.9245835],[43.7104483,16.9128769],[43.7142244,16.9037502],[43.7078767,16.8883571],[43.7296866,16.8973496],[43.7333324,16.9245835]],[[43.7333324,16.9245835],[43.7381176,16.9210272],[43.7470369,16.8880926],[43.7717016,16.8983947]],[[43.7742542,16.9564935],[43.7403962,16.9506618],[43.7333324,16.9245835]],[[44.1915696,14.0576539],[44.2037751,14.0958034],[44.2233878,14.1120835],[44.20371,14.1284246],[44.2046215,14.137409],[44.1918936,14.1479884],[44.1611703,14.1448545]],[[44.1611703,14.1448545],[44.1646957,14.1206827]],[[44.1472032,14.2012236],[44.1461599,14.2004196],[44.1427445,14.1970041],[44.1432084,14.1931573],[44.1472032,14.2012236]],[[44.2870041,13.3244914],[44.2790356,13.3790024],[44.257304,13.3785594]],[[44.2622719,13.3727417],[44.2771759,13.3709984],[44.2765999,13.3572292],[44.2671623,13.3552818],[44.2870041,13.3244914]],[[44.1888663,13.4634507],[44.1638663,13.4638494],[44.1732576,13.4446234],[44.1999991,13.4412502],[44.1888663,13.4634507]],[[44.085673,14.508665],[44.0458813,14.5136419],[44.0028311,14.5103623],[44.0052074,14.4912502],[44.0015942,14.4622259],[44.0166658,14.4579168],[44.0370434,14.4875433],[44.0517732,14.4993434],[44.0791096,14.4959417]],[[44.1683813,13.760138],[44.1722322,13.7651271],[44.1691397,13.7860581],[44.1880362,13.8115464],[44.1952953,13.8413153],[44.1624991,13.8364691],[44.1536775,13.8377712],[44.1488766,13.8205586]],[[44.1516972,13.8870842],[44.1761873,13.8696885],[44.1978018,13.8718939],[44.1952403,13.9104251]],[[44.2375593,13.9132249],[44.2454744,13.894957],[44.2701336,13.8950636]],[[44.1249991,13.2662502],[44.0778311,13.2603501],[44.0701221,13.2540053],[44.086453,13.2510292],[44.1061038,13.2534735],[44.1170931,13.2563815],[44.1249991,13.2662502]],[[44.0578753,13.2601813],[44.055533,13.271784],[44.0088212,13.2718753]],[[44.0088212,13.2718753],[44.0302658,13.2620611],[44.0578753,13.2601813]],[[44.1249991,13.2662502],[44.1347102,13.2564815],[44.1460279,13.2570157],[44.1455883,13.2785101],[44.1625805,13.3125067],[44.2072495,13.3115956]],[[44.1568565,13.3591137],[44.1395321,13.3656214]],[[44.1395321,13.3656214],[44.1287745,13.3637266]],[[44.1287745,13.3637266],[44.1048293,13.3627891]],[[44.1048293,13.3627891],[44.1201488,13.3530625],[44.1534822,13.3442694],[44.1462231,13.3273748],[44.1295238,13.3379787],[44.1130199,13.3347153],[44.1048494,13.3461045],[44.0916658,13.3495835],[44.0811677,13.3373927],[44.0607977,13.3467227]],[[44.0607977,13.3467227],[44.0433246,13.3467661]],[[44.0433246,13.3467661],[44.0416658,13.3412502],[44.0556306,13.3247585],[44.0833324,13.3185492],[44.1014802,13.3226141],[44.1207836,13.292951],[44.1249991,13.2662502]],[[44.0372983,15.8290572],[44.0293936,15.8105413],[44.0416658,15.7995835],[44.0579664,15.8150342]],[[43.6083324,15.5579168],[43.6033859,15.545322],[43.612788,15.54475],[43.6083324,15.5579168]],[[43.6478669,15.5787379],[43.6370597,15.6008896],[43.630533,15.5718817],[43.6416658,15.5662502],[43.6478669,15.5787379]],[[43.6166658,15.6245835],[43.604182,15.6307928],[43.5950024,15.6263128],[43.5833324,15.6412502]],[[43.5833324,15.6412502],[43.5786938,15.6304184],[43.5644509,15.6378802]],[[43.559588,15.6117301],[43.5776847,15.6066432],[43.5615876,15.5963323],[43.5550772,15.5820013],[43.5717439,15.5713323],[43.5872887,15.5470516],[43.5875441,15.5470242],[43.5916658,15.5745835],[43.5815909,15.5796779],[43.5972973,15.6107163],[43.5971996,15.5857163],[43.5916658,15.5745835],[43.6151195,15.5775417],[43.6145336,15.5954168],[43.6083975,15.6079657],[43.6166658,15.6245835]],[[43.6166658,15.6245835],[43.6347949,15.6126004]],[[43.6385194,15.6374466],[43.6202953,15.6654323],[43.6166658,15.6245835]],[[43.5833324,15.6412502],[43.5701488,15.6533229],[43.569921,15.6807318],[43.6093253,15.674909],[43.6344941,15.7166418],[43.630967,15.7195333],[43.6124991,15.7222642],[43.5907218,15.7190456],[43.5875145,15.7268746]],[[43.5575382,15.708526],[43.5663891,15.7016953],[43.5547029,15.6865464],[43.5475319,15.6845495]],[[43.5644488,15.6379244],[43.5833324,15.6412502]],[[43.4159126,15.9127741],[43.3817711,15.8996468],[43.3716316,15.8888197],[43.3699036,15.8774662],[43.3757375,15.8682421]],[[43.3757375,15.8682421],[43.3953767,15.8708766],[43.399283,15.9023504],[43.4169789,15.9098067]],[[44.1071084,13.6005813],[44.1155916,13.6225571],[44.1534822,13.6497178],[44.1388175,13.677208],[44.118033,13.6482082],[44.0986319,13.6342922],[44.087141,13.6182725],[44.0591788,13.6005153],[44.0074861,13.6236517],[43.9819327,13.6074204],[43.9518546,13.6133652],[43.9481882,13.5948272]],[[43.9002475,13.7248395],[43.9080086,13.7326046]],[[44.1013128,13.7754434],[44.098697,13.7711086],[44.1341951,13.7232326],[44.1555844,13.747463]],[[44.1068691,14.0497327],[44.0946931,14.1118475],[44.0700837,14.0613836],[44.054003,14.0623439],[44.035453,14.0553369]],[[44.0212888,14.028884],[44.0226435,14.0282167]],[[44.0226435,14.0282167],[44.0406151,14.0218487],[44.0444062,14.009644]],[[44.0444062,14.009644],[44.0457904,14.0092166],[44.0511777,14.0092343],[44.0807098,14.0254233]],[[44.1611703,14.1448545],[44.1557934,14.144306],[44.1462231,14.1116969],[44.1371085,14.1041367],[44.1337627,14.0779454]],[[44.2900613,13.2149299],[44.3014314,13.2090724],[44.3146866,13.2226801]],[[44.3057289,13.220314],[44.2900613,13.2149299]],[[44.522306,16.2684766],[44.5333324,16.2662502],[44.5400219,16.2797186],[44.5318808,16.2825249]],[[44.5318808,16.2825249],[44.522306,16.2684766]],[[44.0284008,15.2461818],[44.0445466,15.2573227],[44.0305167,15.2696518],[44.0081371,15.2372422],[44.0249991,15.2329168],[44.0284008,15.2461818]],[[44.1959877,15.2766646],[44.1996934,15.2712988]],[[44.1592694,15.3098264],[44.1382641,15.3019679],[44.1628559,15.2928067]],[[44.1339746,15.3521478],[44.0965974,15.3448512],[44.103531,15.3276719],[44.1208324,15.3278143],[44.157068,15.3359366]],[[43.8923202,13.8519885],[43.8630362,13.8293849],[43.8728563,13.826492]],[[43.8645563,13.8907665],[43.8628235,13.8877134]],[[43.8613953,13.8437892],[43.8723298,13.8772039],[43.8645563,13.8907665]],[[44.0752857,13.9687779],[44.0666658,13.9662502],[44.0794913,13.9508123],[44.0937966,13.9522701]],[[44.0333324,13.9579168],[44.0402172,13.9758205],[44.0014639,13.9806423],[43.9438305,13.9706081],[43.9783682,13.9560532],[43.9796866,13.9454168],[43.9756339,13.9129054],[44.008186,13.9535386],[44.0333324,13.9579168]],[[44.0226435,14.0282167],[44.0372712,14.0118475],[44.0444062,14.009644]],[[43.9813011,15.7282657],[43.9643383,15.7366969],[43.96055,15.7237877]],[[43.9801292,15.7262154],[43.9813011,15.7282657]],[[48.7774644,15.9206891],[48.8083324,15.9162502],[48.8163077,15.9441676],[48.8453767,15.9564113],[48.8215648,15.9782904],[48.7907187,15.9729541]],[[49.0171137,15.9854235],[49.0040844,15.9783433],[48.9892732,15.9949285],[48.9710603,15.9668524],[48.9999991,15.9579168],[49.0051941,15.9628962]],[[49.0051941,15.9628962],[49.0171137,15.9854235]],[[48.9346833,16.0027655],[48.9213695,15.9877793],[48.9499991,15.9829168],[48.9346833,16.0027655]],[[49.01707,16.0446242],[48.9746189,16.0562749]],[[48.9746189,16.0562749],[48.9723949,16.0390203],[49.0083324,16.0329168],[49.01707,16.0446242]],[[43.5145994,13.2652049],[43.5249014,13.2704168],[43.5034008,13.2812974],[43.4933021,13.2613597]],[[43.5659985,13.3024359],[43.5463695,13.2921494],[43.5583324,13.2829168],[43.5659985,13.3024359]],[[43.6333324,13.3745835],[43.613378,13.3688787],[43.6275056,13.35421],[43.6333324,13.3745835]],[[43.6333324,13.3745835],[43.6643057,13.3798447],[43.686962,13.4013332],[43.6697734,13.4083279],[43.6682349,13.408954],[43.6618643,13.4115464],[43.6333324,13.3745835]],[[43.4699528,15.9532045],[43.4978089,15.994661]],[[44.0607977,13.3467227],[44.0478344,13.361762],[44.0433246,13.3467661]],[[43.9749991,13.4079168],[43.9638663,13.3857163],[43.9527986,13.3801174],[43.9527172,13.3384507],[43.9700186,13.3728704],[44.0039379,13.3560044],[44.0111319,13.3772853],[43.9889314,13.3885158],[43.9749991,13.4079168]],[[44.0503775,13.4121585],[44.0246696,13.4132395],[44.0170637,13.4230774]],[[44.0170637,13.4230774],[44.0214509,13.4064438],[44.0503775,13.4121585]],[[44.015971,13.4272202],[44.0151482,13.4427023],[44.0073586,13.4678354],[43.9923859,13.4819489]],[[43.9923859,13.4819489],[43.9906273,13.4757204],[43.9748361,13.4693481]],[[43.9748361,13.4693481],[43.9729972,13.4600409],[44.0056143,13.4664862],[44.015971,13.4272202]],[[43.0562003,14.3204046],[43.0468253,14.3396063],[43.0341664,14.3334261],[43.0442048,14.3108465],[43.0562003,14.3204046]],[[43.3317551,14.351034],[43.3251944,14.3684393],[43.2978018,14.3581162],[43.3042591,14.3409858]],[[44.7250906,13.6959496],[44.7349855,13.6947903]],[[49.1749991,14.5495835],[49.1545401,14.5360662],[49.143212,14.5386053],[49.1499991,14.5662502]],[[49.1499991,14.5662502],[49.1199698,14.5621486],[49.1035473,14.5444281],[49.0701084,14.528642]],[[49.0701084,14.528642],[49.0925304,14.5128122]],[[49.0925304,14.5128122],[49.1069815,14.5284084],[49.1286556,14.522809],[49.1703767,14.5061875],[49.1749991,14.5495835]],[[49.1749991,14.5495835],[49.1967439,14.5528346],[49.2200314,14.5630448],[49.2340184,14.5729131],[49.244921,14.6057643],[49.2009105,14.6195013],[49.2072256,14.5970363],[49.1789704,14.604979],[49.1541658,14.5941025],[49.1499991,14.5662502]],[[49.1499991,14.5662502],[49.1687003,14.5741074],[49.1749991,14.5495835]],[[43.9851952,13.4912786],[43.9923859,13.4819489]],[[44.015971,13.4272202],[44.0170637,13.4230774]],[[44.0503775,13.4121585],[44.0570623,13.4129876]],[[44.0570623,13.4129876],[44.084192,13.4174047]],[[44.084192,13.4174047],[44.087716,13.4207915]],[[44.0770451,13.4463852],[44.045686,13.4620347],[44.0529165,13.476077]],[[44.0525832,13.4958237],[44.0356934,13.4991224]],[[44.0318436,13.4942726],[44.0281549,13.4917524]],[[44.0391683,13.5163066],[44.0400834,13.5208658]],[[45.5900687,13.9824944],[45.5739086,14.0072861],[45.5528637,13.9970119],[45.5471996,13.9777858],[45.5680159,13.9762867]],[[45.5680159,13.9762867],[45.5900687,13.9824944]],[[43.3707207,15.9504546],[43.3728181,15.9336248],[43.3548982,15.8708481],[43.3757375,15.8682421]],[[48.5076651,15.8607692],[48.4880362,15.8504827],[48.4999991,15.8412502],[48.5076651,15.8607692]],[[48.6536096,15.9195677],[48.6228344,15.9324896],[48.6132641,15.922199],[48.6417471,15.9115464],[48.6467153,15.9043439]],[[44.2165025,13.3114069],[44.2540844,13.2865138],[44.2207511,13.2538315],[44.2125805,13.2423529],[44.2780916,13.2210964],[44.2900613,13.2149299]],[[44.3174156,13.2370993],[44.3124177,13.236998],[44.3042471,13.2621649],[44.2790518,13.2703436],[44.2883129,13.3155381],[44.2870041,13.3244914]],[[44.0088212,13.2718753],[44.0275544,13.2607367],[44.0578753,13.2601813]],[[49.4895824,14.8519313],[49.4803865,14.8371364],[49.4999991,14.8329168],[49.4895824,14.8519313]],[[44.3499991,13.6412502],[44.3090649,13.6479722],[44.3343253,13.6209539],[44.3499991,13.6412502]],[[44.2166658,13.6579168],[44.2231599,13.6469671],[44.2531078,13.6541774],[44.2166658,13.6579168]],[[44.2611482,13.6779771],[44.2465974,13.6652044],[44.2749991,13.6579168],[44.2611482,13.6779771]],[[44.1910422,13.669146],[44.1876619,13.6848455],[44.1769383,13.6794586],[44.1910422,13.669146]],[[43.4099275,14.1362249],[43.3835278,14.1495835],[43.3654613,14.1407578],[43.3820466,14.1198716],[43.3999991,14.1162502],[43.4099275,14.1362249]],[[44.1707172,13.3874794],[44.1542471,13.3703355],[44.1395321,13.3656214]],[[44.1287745,13.3637266],[44.1294262,13.3956772],[44.112255,13.3868312],[44.084192,13.4174047]],[[44.0570623,13.4129876],[44.0832022,13.3765203],[44.1048293,13.3627891]],[[44.2409356,13.9694794],[44.2721182,13.9786281],[44.269921,14.0002712],[44.2489399,13.9882538]],[[44.3707683,13.9391266],[44.3815746,13.9554836],[44.378238,13.9704168],[44.3851879,14.0014349],[44.3499991,13.9935492],[44.3368969,13.996487],[44.3301787,13.9831801],[44.3375407,13.9774325],[44.34673,13.9702582]],[[44.2900219,14.0213853],[44.2726228,14.027383],[44.2638663,14.0118475],[44.2833324,14.0079168],[44.2900219,14.0213853]],[[44.2600499,15.4203369],[44.2679027,15.4390448],[44.2612112,15.4493259]],[[44.2765762,15.4843706],[44.2721996,15.4697576],[44.2999991,15.4662502],[44.3104972,15.4873846],[44.2887988,15.4920464],[44.2765762,15.4843706]],[[43.8645563,13.8907665],[43.8584464,13.9014268],[43.8440258,13.884048],[43.8446674,13.8777352]],[[43.9042542,13.9927693],[43.8971996,13.9718817],[43.9083324,13.9662502],[43.9146475,13.9789414],[43.9055979,13.9926674],[43.9042542,13.9927693]],[[44.1688224,13.2203666],[44.1732738,13.2112575],[44.1568025,13.2029282],[44.1833324,13.1995835],[44.1861319,13.2134507],[44.2089672,13.2200425],[44.1944652,13.227383],[44.1883292,13.2395208],[44.1739917,13.2325223],[44.1688224,13.2203666]],[[45.0080132,12.9363837],[44.9433585,12.9278428],[44.9437917,12.9243615]],[[44.9034496,13.0719183],[44.8722159,13.0866237],[44.8629548,13.0494574],[44.8916658,13.0412502],[44.9034496,13.0719183]],[[44.2081046,14.7756374],[44.18024,14.7860174],[44.1718904,14.7618963],[44.1999991,14.7579168],[44.2081046,14.7756374]],[[44.6083324,14.1995835],[44.612434,14.1805202],[44.6316701,14.1725271],[44.6331887,14.1731653],[44.6236482,14.1962876],[44.6083324,14.1995835]],[[44.6083324,14.1995835],[44.6052074,14.2251369],[44.5806143,14.2209255],[44.5900219,14.2031602],[44.6083324,14.1995835]],[[44.5197745,14.3115667],[44.4961417,14.2881821],[44.5249991,14.2829168],[44.5197745,14.3115667]],[[43.5542669,15.4972468],[43.536962,15.4876206],[43.5297029,15.478213],[43.4963695,15.4689316],[43.5037589,15.461408],[43.5187979,15.4636297],[43.5583324,15.4495835],[43.5642246,15.464213]],[[43.9792248,13.4915598],[43.9748361,13.4693481]],[[43.5227802,15.6326354],[43.5047029,15.6082546],[43.5205232,15.5946844],[43.5416658,15.5995835],[43.5491253,15.6112317]],[[43.7709952,14.2765122],[43.7553865,14.2686712],[43.7749991,14.2579168],[43.7709952,14.2765122]],[[43.872753,14.3267523],[43.8723461,14.3460882],[43.8565746,14.3558009],[43.8426586,14.3514634],[43.8495108,14.3294215],[43.8331534,14.3193385],[43.8190421,14.2779486],[43.8333324,14.2745835],[43.8365876,14.2969956],[43.8536612,14.2916815],[43.872753,14.3267523]],[[44.5318808,16.2825249],[44.5226228,16.2857163],[44.522306,16.2684766]],[[43.9344641,15.6387473],[43.9833324,15.6329168],[43.9674958,15.6989935],[43.9813011,15.7282657]],[[43.4083324,16.2745835],[43.4132641,16.2779852],[43.4200675,16.3147161],[43.3996085,16.3101263],[43.4083324,16.2745835]],[[43.3916658,16.3495835],[43.3973624,16.3296331],[43.4120434,16.3437607],[43.3916658,16.3495835]],[[49.0701084,14.528642],[49.0536937,14.5208929],[49.0376618,14.5035915],[49.0123363,14.4872422],[49.0043285,14.4515773],[49.0225088,14.4372422],[49.0815303,14.5050728],[49.0925304,14.5128122]],[[45.5680159,13.9762867],[45.5916658,13.9745835],[45.5900687,13.9824944]],[[43.6895824,15.7519313],[43.6803865,15.7371364],[43.6999991,15.7329168],[43.6895824,15.7519313]],[[44.2499991,16.5912502],[44.254003,16.5726548],[44.2696117,16.5804958],[44.2499991,16.5912502]],[[44.7743318,14.4191025],[44.7547029,14.4088161],[44.7666658,14.3995835],[44.7743318,14.4191025]],[[44.8038685,14.4208384],[44.8048982,14.4007716],[44.8240572,14.3973577]],[[49.0051941,15.9628962],[49.0296866,15.97414],[49.0286449,15.9916896],[49.0171137,15.9854235]],[[49.01707,16.0446242],[49.0298331,16.0617254],[49.0275707,16.0770859],[48.9746189,16.0562749]],[[43.4480244,16.0486766],[43.4447908,16.0745835],[43.4465486,16.0887274],[43.4288728,16.086526],[43.4066886,16.0995672],[43.3957673,16.1131984],[43.3815531,16.0897892]],[[43.3821825,16.055709],[43.38266,16.0407119]]],"bbox":[42.8650687,12.7427361,49.8531729,16.9571152]}