{"type":"Topology","objects":{"foo":{"type":"GeometryCollection","geometries":[{"type":"MultiPolygon","arcs":[[[0,1,2]],[[3,4,5,6,7,8]]],"properties":{"name":"Porto-novo","gaul_code":5922,"targetarea":45.5697149,"totpop":323985.625793,"country_id":"BEN","targetpop":323985.625793,"new_mean":0.0395935,"totalarea":49.7192739}},{"type":"Polygon","arcs":[[9,10,11,12,13,14,15]],"properties":{"name":"Bohicon","gaul_code":5931,"targetarea":158.6727275,"totpop":227852.185593,"country_id":"BEN","targetpop":227428.674896,"new_mean":0.0403657,"totalarea":161.1182414}},{"type":"MultiPolygon","arcs":[[[16,17,18]],[[19,20]],[[21,22,23]],[[24,25,26,27]]],"properties":{"name":"So-ava","gaul_code":5880,"targetarea":88.1130331,"totpop":85282.6453123,"country_id":"BEN","targetpop":83902.4475098,"new_mean":0.0396091,"totalarea":184.6606511}},{"type":"MultiPolygon","arcs":[[[28,29,30]],[[31]],[[32]]],"properties":{"name":"Aplahoue","gaul_code":5898,"targetarea":238.4934509,"totpop":203166.660652,"country_id":"BEN","targetpop":118941.905197,"new_mean":0.0464351,"totalarea":909.2020686}},{"type":"MultiPolygon","arcs":[[[33,34,-19]],[[-7,35,36,-28,37,38,-2,39]]],"properties":{"name":"Aguegue","gaul_code":5917,"targetarea":71.9458319,"totpop":46856.4494362,"country_id":"BEN","targetpop":44321.1481171,"new_mean":0.0485377,"totalarea":128.1939814}},{"type":"MultiPolygon","arcs":[[[40,41]],[[42,43,44,45,46,47,48]]],"properties":{"name":"Allada","gaul_code":5877,"targetarea":255.2613934,"totpop":152595.926697,"country_id":"BEN","targetpop":126799.358566,"new_mean":0.0443683,"totalarea":382.5836436}},{"type":"Polygon","arcs":[[-23,49,50,51,-18,52,-21,53]],"properties":{"name":"Cotonou","gaul_code":5908,"targetarea":69.1631885,"totpop":773399.482132,"country_id":"BEN","targetpop":773399.482132,"new_mean":0.0387539,"totalarea":80.6344189}},{"type":"Polygon","arcs":[[54,55,56,57,58,-50,-22,59,-26,60]],"properties":{"name":"Abomey-calavi","gaul_code":5876,"targetarea":488.5182062,"totpop":1026050.26351,"country_id":"BEN","targetpop":1018284.56541,"new_mean":0.0416947,"totalarea":535.3527246}},{"type":"MultiPolygon","arcs":[[[61,62]],[[63,64,65]],[[66,67,68,69,70,71,72,73,74]]],"properties":{"name":"Lalo","gaul_code":5902,"targetarea":225.7430005,"totpop":161579.82296,"country_id":"BEN","targetpop":117917.75499,"new_mean":0.0422175,"totalarea":455.1963417}},{"type":"MultiPolygon","arcs":[[[75,76,77,78,79]],[[80,-44,81,82,83,84,85,86]]],"properties":{"name":"Kpomasse","gaul_code":5878,"targetarea":134.5127426,"totpop":88006.6514626,"country_id":"BEN","targetpop":61076.7642975,"new_mean":0.0456782,"totalarea":292.033603}},{"type":"MultiPolygon","arcs":[[[87]],[[88]],[[89,-61,90,91,92,93]]],"properties":{"name":"Adjohoun","gaul_code":5916,"targetarea":137.5224946,"totpop":92893.0680542,"country_id":"BEN","targetpop":61796.5796661,"new_mean":0.0458292,"totalarea":321.3096306}},{"type":"Polygon","arcs":[[-9,94,-3,-39,95,-34,-52,96,97]],"properties":{"name":"Seme-kpodji","gaul_code":5923,"targetarea":205.7957017,"totpop":459602.829567,"country_id":"BEN","targetpop":458481.118713,"new_mean":0.0456451,"totalarea":224.2224412}},{"type":"Polygon","arcs":[[98,99,100,101]],"properties":{"name":"Ifangni","gaul_code":5925,"targetarea":206.8403185,"totpop":162926.605225,"country_id":"BEN","targetpop":160602.060822,"new_mean":0.0407656,"totalarea":216.4713573}},{"type":"MultiPolygon","arcs":[[[102]],[[103]],[[104]],[[105]],[[106]],[[107]],[[108]]],"properties":{"name":"Savalou","gaul_code":5896,"targetarea":37.6713413,"totpop":180510.947468,"country_id":"BEN","targetpop":14522.0441284,"new_mean":0.0585902,"totalarea":2663.4302938}},{"type":"MultiPolygon","arcs":[[[109]],[[110]],[[111,112]]],"properties":{"name":"Dassa","gaul_code":5893,"targetarea":24.262108,"totpop":123542.063692,"country_id":"BEN","targetpop":8788.6107788,"new_mean":0.0564667,"totalarea":1692.7087561}},{"type":"Polygon","arcs":[[113,-29,114,115,116]],"properties":{"name":"Djakotome","gaul_code":5899,"targetarea":190.9057388,"totpop":164560.542747,"country_id":"BEN","targetpop":156742.550446,"new_mean":0.0431415,"totalarea":226.446955}},{"type":"Polygon","arcs":[[117,-79,118,-77,119,-85,120,121,-58,122,123]],"properties":{"name":"Ouidah","gaul_code":5879,"targetarea":287.9423635,"totpop":279392.587819,"country_id":"BEN","targetpop":273381.24899,"new_mean":0.0460326,"totalarea":356.5113106}},{"type":"Polygon","arcs":[[124,-117,125,-73]],"properties":{"name":"Toviklin","gaul_code":5903,"targetarea":129.2627879,"totpop":106783.06012,"country_id":"BEN","targetpop":106783.06012,"new_mean":0.0382558,"totalarea":129.2627876}},{"type":"MultiPolygon","arcs":[[[126]],[[127]],[[128]]],"properties":{"name":"Toffo","gaul_code":5881,"targetarea":26.2787089,"totpop":64359.7343254,"country_id":"BEN","targetpop":11885.5613251,"new_mean":0.037617,"totalarea":486.8177063}},{"type":"Polygon","arcs":[[129,130,-5,131,-101]],"properties":{"name":"Avrankou","gaul_code":5919,"targetarea":76.9843007,"totpop":121562.365936,"country_id":"BEN","targetpop":121562.365936,"new_mean":0.0403015,"totalarea":76.9843006}},{"type":"MultiPolygon","arcs":[[[-48,132,133,-56,134]],[[135,136,137]]],"properties":{"name":"Ze","gaul_code":5883,"targetarea":125.1914276,"totpop":128369.105431,"country_id":"BEN","targetpop":53068.4363556,"new_mean":0.044702,"totalarea":627.560447}},{"type":"MultiPolygon","arcs":[[[138]],[[139,140,141,-30,-114,-125,-72,142],[143]]],"properties":{"name":"Klouekanme","gaul_code":5901,"targetarea":243.0660543,"totpop":136093.973335,"country_id":"BEN","targetpop":109419.953262,"new_mean":0.0467709,"totalarea":381.6316141}},{"type":"MultiPolygon","arcs":[[[144,145,146,147]],[[148]],[[149,150]],[[151,152,153,154],[155]]],"properties":{"name":"Athieme","gaul_code":5909,"targetarea":113.4308531,"totpop":67371.2394428,"country_id":"BEN","targetpop":45929.0417175,"new_mean":0.0491503,"totalarea":216.5573728}},{"type":"MultiPolygon","arcs":[[[156,157]],[[158]],[[159]],[[160]],[[161,162]]],"properties":{"name":"Pobe","gaul_code":5927,"targetarea":163.7299334,"totpop":149298.40657,"country_id":"BEN","targetpop":93383.3331299,"new_mean":0.0413748,"totalarea":426.7418087}},{"type":"MultiPolygon","arcs":[[[163,164,165]],[[166,167,168]],[[169]],[[170]],[[171]],[[172]]],"properties":{"name":"Ketou","gaul_code":5926,"targetarea":72.4777376,"totpop":201068.453768,"country_id":"BEN","targetpop":32291.6678619,"new_mean":0.0478011,"totalarea":1796.9030235}},{"type":"MultiPolygon","arcs":[[[173]],[[174,175,176,177,-137,178]],[[179]],[[180,181,182]],[[183,184]]],"properties":{"name":"Ouinhi","gaul_code":5934,"targetarea":97.7139983,"totpop":86850.9247818,"country_id":"BEN","targetpop":42706.1928558,"new_mean":0.0432936,"totalarea":345.0554484}},{"type":"MultiPolygon","arcs":[[[185,186,-121],[187]],[[188]],[[189,190,191]]],"properties":{"name":"Grand-popo","gaul_code":5912,"targetarea":141.4563279,"totpop":83943.414433,"country_id":"BEN","targetpop":58010.0338712,"new_mean":0.0520237,"totalarea":288.0445399}},{"type":"MultiPolygon","arcs":[[[-176,192,193]],[[-181,194]],[[195,-168,196,-165]],[[197,198]]],"properties":{"name":"Zangnanado","gaul_code":5936,"targetarea":72.2705888,"totpop":81379.6004577,"country_id":"BEN","targetpop":27829.2218933,"new_mean":0.0451851,"totalarea":558.4579689}},{"type":"MultiPolygon","arcs":[[[199]],[[-10,200,201,202]]],"properties":{"name":"Za-kpota","gaul_code":5935,"targetarea":255.8939995,"totpop":170854.436981,"country_id":"BEN","targetpop":147219.44072,"new_mean":0.042632,"totalarea":388.6074895}},{"type":"MultiPolygon","arcs":[[[203,-145]],[[-191,204,205,206,207,-154,208,-147,209],[210],[211]]],"properties":{"name":"Houeyogbe","gaul_code":5913,"targetarea":230.353558,"totpop":128600.584064,"country_id":"BEN","targetpop":112120.733795,"new_mean":0.044795,"totalarea":304.3028287}},{"type":"Polygon","arcs":[[-206,212,-186,-84,213,214]],"properties":{"name":"Come","gaul_code":5911,"targetarea":138.7827692,"totpop":91697.6741238,"country_id":"BEN","targetpop":88863.6236725,"new_mean":0.0441926,"totalarea":172.3202919}},{"type":"Polygon","arcs":[[-132,-4,-98,215,-102]],"properties":{"name":"Adjara","gaul_code":5915,"targetarea":70.0418565,"totpop":149691.09193,"country_id":"BEN","targetpop":149347.139801,"new_mean":0.0411359,"totalarea":72.2670874}},{"type":"MultiPolygon","arcs":[[[216,217,218]],[[219,-179,-136]]],"properties":{"name":"Bonou","gaul_code":5920,"targetarea":31.6070475,"totpop":46866.5742416,"country_id":"BEN","targetpop":13046.9975128,"new_mean":0.0422219,"totalarea":252.183712}},{"type":"MultiPolygon","arcs":[[[220,-65]],[[221,-68]],[[-194,222,-177]],[[-15,223,224]]],"properties":{"name":"Zogbodome","gaul_code":5937,"targetarea":73.0610374,"totpop":126143.297035,"country_id":"BEN","targetpop":37249.0110016,"new_mean":0.0461951,"totalarea":831.7897845}},{"type":"MultiPolygon","arcs":[[[-124,225]],[[226]],[[-45,-81,227]],[[-47,228,-133]]],"properties":{"name":"Tori-bossito","gaul_code":5882,"targetarea":27.2409677,"totpop":50863.8576202,"country_id":"BEN","targetpop":11122.2868195,"new_mean":0.045732,"totalarea":327.648718}},{"type":"Polygon","arcs":[[229,-92,230,-36,-6,-131]],"properties":{"name":"Akpro-misserete","gaul_code":5918,"targetarea":80.2517194,"totpop":111364.110199,"country_id":"BEN","targetpop":111364.110199,"new_mean":0.0403822,"totalarea":80.2517194}},{"type":"MultiPolygon","arcs":[[[231]],[[232,233,234,235,236,237,238,239,240,241,242,243,244,-150,245,-152,246]]],"properties":{"name":"Lokossa","gaul_code":5914,"targetarea":220.088418,"totpop":133814.565079,"country_id":"BEN","targetpop":122866.781189,"new_mean":0.0457188,"totalarea":270.3240179}},{"type":"MultiPolygon","arcs":[[[-217,247,248,-158,249],[250]],[[251]],[[-184,252,-163,253]]],"properties":{"name":"Adja-ouere","gaul_code":5924,"targetarea":239.8085096,"totpop":148272.191635,"country_id":"BEN","targetpop":104324.02948,"new_mean":0.0400582,"totalarea":452.4009923}},{"type":"MultiPolygon","arcs":[[[254,-141]],[[255]],[[256,257,-70,258,-224,-14]]],"properties":{"name":"Agbangnizoun","gaul_code":5930,"targetarea":152.1415666,"totpop":96118.0847511,"country_id":"BEN","targetpop":79386.369339,"new_mean":0.042961,"totalarea":227.1673804}},{"type":"MultiPolygon","arcs":[[[-243,259]],[[260,-241,261]],[[-74,-126,-116,262,263,-239,264,-237,265,-235,266]]],"properties":{"name":"Dogbo-tota","gaul_code":5900,"targetarea":229.5341755,"totpop":137591.699982,"country_id":"BEN","targetpop":122747.729095,"new_mean":0.0427826,"totalarea":299.1490708}},{"type":"Polygon","arcs":[[-231,-91,-25,-37]],"properties":{"name":"Dangbo","gaul_code":5921,"targetarea":156.2521837,"totpop":119022.801773,"country_id":"BEN","targetpop":118598.384918,"new_mean":0.0463322,"totalarea":157.2961093}},{"type":"Polygon","arcs":[[267,268,-257,-13]],"properties":{"name":"Abomey","gaul_code":5929,"targetarea":98.3706395,"totpop":85636.7086411,"country_id":"BEN","targetpop":79055.2060394,"new_mean":0.0411571,"totalarea":150.3588126}},{"type":"MultiPolygon","arcs":[[[269]],[[270,-202]],[[271,-198,272]]],"properties":{"name":"Cove","gaul_code":5932,"targetarea":54.8518416,"totpop":57676.9722118,"country_id":"BEN","targetpop":26044.7826843,"new_mean":0.0449446,"totalarea":434.915289}},{"type":"MultiPolygon","arcs":[[[273,-93,-230,-130,-100]],[[274]],[[275]],[[276,-248,-219]]],"properties":{"name":"Sakete","gaul_code":5928,"targetarea":180.9128673,"totpop":145288.134789,"country_id":"BEN","targetpop":97696.9999084,"new_mean":0.0395713,"totalarea":425.0334791}},{"type":"MultiPolygon","arcs":[[[-43,277,-207,-215,278,-82]],[[-42,279]],[[-63,280]],[[281,-233]]],"properties":{"name":"Bopa","gaul_code":5910,"targetarea":132.3299907,"totpop":108371.777763,"country_id":"BEN","targetpop":66322.4623108,"new_mean":0.0476702,"totalarea":373.1632977}},{"type":"MultiPolygon","arcs":[[[282,-268,-12]],[[283]],[[284]]],"properties":{"name":"Djidja","gaul_code":5933,"targetarea":31.7519899,"totpop":157884.568861,"country_id":"BEN","targetpop":11380.1535187,"new_mean":0.0524468,"totalarea":2187.7911979}},{"type":"MultiPolygon","arcs":[[[285]],[[286]]],"properties":{"name":"Ouake","gaul_code":5907,"targetarea":93.1824626,"totpop":103787.356537,"country_id":"BEN","targetpop":34215.0660095,"new_mean":0.0659509,"totalarea":649.713116}},{"type":"Polygon","arcs":[[287]],"properties":{"name":"Perere","gaul_code":5889,"targetarea":10.1179887,"totpop":107265.353653,"country_id":"BEN","targetpop":3707.1199951,"new_mean":0.067961,"totalarea":2063.7673284}},{"type":"Polygon","arcs":[[288]],"properties":{"name":"Nikki","gaul_code":5887,"targetarea":13.1047359,"totpop":203034.763351,"country_id":"BEN","targetpop":5413.1660156,"new_mean":0.0580976,"totalarea":3264.5379494}},{"type":"MultiPolygon","arcs":[[[289]],[[290]],[[291]],[[292]]],"properties":{"name":"Kandi","gaul_code":5863,"targetarea":65.4676436,"totpop":264249.80186,"country_id":"BEN","targetpop":29628.2387238,"new_mean":0.0301799,"totalarea":3492.0808803}},{"type":"MultiPolygon","arcs":[[[293]],[[294]],[[295]],[[296]],[[297]],[[298]],[[299,300]]],"properties":{"name":"Tchaourou","gaul_code":5891,"targetarea":51.2303554,"totpop":347690.2516,"country_id":"BEN","targetpop":20994.4470596,"new_mean":0.0643849,"totalarea":6771.1445886}},{"type":"MultiPolygon","arcs":[[[301]],[[302]],[[303]],[[304]],[[305]],[[306]],[[307]],[[308]]],"properties":{"name":"Djougou","gaul_code":5905,"targetarea":90.9210501,"totpop":324070.924539,"country_id":"BEN","targetpop":43892.2160034,"new_mean":0.0649548,"totalarea":3922.8565787}},{"type":"Polygon","arcs":[[309]],"properties":{"name":"Tanguieta","gaul_code":5874,"targetarea":7.624064,"totpop":107303.020317,"country_id":"BEN","targetpop":2728.8597107,"new_mean":0.0579663,"totalarea":5568.7854168}},{"type":"MultiPolygon","arcs":[[[310,311]],[[312]]],"properties":{"name":"Ndali","gaul_code":5886,"targetarea":23.1379576,"totpop":158926.164713,"country_id":"BEN","targetpop":12499.1127167,"new_mean":0.0657706,"totalarea":3679.4831722}},{"type":"Polygon","arcs":[[313]],"properties":{"name":"Pehonko","gaul_code":5873,"targetarea":8.8836121,"totpop":97770.8571568,"country_id":"BEN","targetpop":3954.2231598,"new_mean":0.0595171,"totalarea":2012.9016973}},{"type":"MultiPolygon","arcs":[[[314]],[[315]],[[316]]],"properties":{"name":"Bembereke","gaul_code":5884,"targetarea":12.8157291,"totpop":165024.5753,"country_id":"BEN","targetpop":4789.5036011,"new_mean":0.0564441,"totalarea":3335.2772329}},{"type":"Polygon","arcs":[[317]],"properties":{"name":"Kopargo","gaul_code":5906,"targetarea":9.9672241,"totpop":85692.9674416,"country_id":"BEN","targetpop":4039.8723297,"new_mean":0.0708189,"totalarea":881.9825109}},{"type":"Polygon","arcs":[[318]],"properties":{"name":"Natitingou","gaul_code":5872,"targetarea":46.5615833,"totpop":125732.067215,"country_id":"BEN","targetpop":23269.0824585,"new_mean":0.0715588,"totalarea":1356.2443678}},{"type":"Polygon","arcs":[[319]],"properties":{"name":"Segbana","gaul_code":5866,"targetarea":3.4003258,"totpop":139743.507096,"country_id":"BEN","targetpop":2065.4688568,"new_mean":0.0311206,"totalarea":4677.0735738}},{"type":"Polygon","arcs":[[-311,320,-301,321]],"properties":{"name":"Parakou","gaul_code":5888,"targetarea":339.7431072,"totpop":346887.987331,"country_id":"BEN","targetpop":325772.680862,"new_mean":0.0623019,"totalarea":473.7975098}},{"type":"Polygon","arcs":[[322]],"properties":{"name":"Materi","gaul_code":5871,"targetarea":19.1287072,"totpop":146031.648048,"country_id":"BEN","targetpop":7641.7783051,"new_mean":0.0410781,"totalarea":1763.7648881}},{"type":"MultiPolygon","arcs":[[[323]],[[324]]],"properties":{"name":"Kouande","gaul_code":5870,"targetarea":13.0874615,"totpop":148398.231493,"country_id":"BEN","targetpop":5266.8046417,"new_mean":0.0709071,"totalarea":3249.6431347}},{"type":"MultiPolygon","arcs":[[[325]],[[326]],[[327]]],"properties":{"name":"Bassila","gaul_code":5904,"targetarea":16.3186334,"totpop":197955.164809,"country_id":"BEN","targetpop":6510.449707,"new_mean":0.0668211,"totalarea":5631.3167582}},{"type":"MultiPolygon","arcs":[[[328]],[[329]],[[330]]],"properties":{"name":"Malanville","gaul_code":5865,"targetarea":87.8233519,"totpop":227763.708047,"country_id":"BEN","targetpop":37244.9236908,"new_mean":0.0237724,"totalarea":3263.4550705}},{"type":"MultiPolygon","arcs":[[[331]],[[332]]],"properties":{"name":"Sinende","gaul_code":5890,"targetarea":5.6743342,"totpop":118427.414547,"country_id":"BEN","targetpop":2268.9024658,"new_mean":0.0497153,"totalarea":2249.5502886}},{"type":"Polygon","arcs":[[333]],"properties":{"name":"Kerou","gaul_code":5868,"targetarea":2.5765508,"totpop":133890.862372,"country_id":"BEN","targetpop":1185.2537537,"new_mean":0.0391814,"totalarea":3883.3163959}},{"type":"MultiPolygon","arcs":[[[334]],[[335]],[[336]],[[337]],[[338]],[[339]],[[340]]],"properties":{"name":"Banikoara","gaul_code":5861,"targetarea":92.3004049,"totpop":333849.971598,"country_id":"BEN","targetpop":35677.2668152,"new_mean":0.0283549,"totalarea":4386.1606283}},{"type":"Polygon","arcs":[[341]],"properties":{"name":"Save","gaul_code":5897,"targetarea":9.0423689,"totpop":101598.225905,"country_id":"BEN","targetpop":3263.2141266,"new_mean":0.0548314,"totalarea":2269.1147659}},{"type":"Polygon","arcs":[[342]],"properties":{"name":"Bante","gaul_code":5892,"targetarea":9.4039763,"totpop":127086.266296,"country_id":"BEN","targetpop":3760.0774384,"new_mean":0.0658291,"totalarea":2651.9618065}},{"type":"MultiPolygon","arcs":[[[343,-113]],[[344]],[[345]],[[346]],[[347]]],"properties":{"name":"Glazoue","gaul_code":5894,"targetarea":45.0166687,"totpop":150912.375694,"country_id":"BEN","targetpop":17123.4745941,"new_mean":0.0566339,"totalarea":1760.4504991}},{"type":"MultiPolygon","arcs":[[[348]],[[349]],[[350]],[[351]],[[352]]],"properties":{"name":"Ouesse","gaul_code":5895,"targetarea":29.65852,"totpop":178123.214962,"country_id":"BEN","targetpop":11699.1065826,"new_mean":0.0596668,"totalarea":2976.2342242}}]}},"arcs":[[[2.5950569,6.4521074],[2.5905806,6.4517095]],[[2.5905806,6.4517095],[2.590838,6.4502091]],[[2.590838,6.4502091],[2.5950569,6.4521074]],[[2.658622,6.4436002],[2.6637959,6.4562688],[2.6554279,6.4874291],[2.6300869,6.5117912]],[[2.6300869,6.5117912],[2.6101401,6.5277519]],[[2.6101401,6.5277519],[2.5867651,6.4998608],[2.580482,6.4960842]],[[2.580482,6.4960842],[2.5860136,6.4730431]],[[2.5860136,6.4730431],[2.6158402,6.4582581]],[[2.6158402,6.4582581],[2.6234601,6.4585571],[2.658622,6.4436002]],[[2.1987066,7.1280256],[2.1797481,7.157321],[2.172981,7.1885619],[2.160521,7.1976032],[2.1482379,7.1988821],[2.118654,7.1874199],[2.107636,7.1904831],[2.0992391,7.213994],[2.0869846,7.2657293]],[[2.0869846,7.2657293],[2.0626228,7.2563613]],[[2.0626228,7.2563613],[2.05039,7.2301941],[2.034075,7.2189441]],[[2.034075,7.2189441],[2.024986,7.2002559],[2.0375681,7.1901059],[2.038008,7.170732],[2.0279081,7.1589799],[2.030576,7.15202]],[[2.030576,7.15202],[2.0574019,7.1324029]],[[2.0574019,7.1324029],[2.0838239,7.1237178],[2.122026,7.1289749],[2.158766,7.127605],[2.1976372,7.1239751]],[[2.1976372,7.1239751],[2.1987066,7.1280256]],[[2.4465241,6.3985989],[2.441488,6.3978546]],[[2.441488,6.3978546],[2.4457159,6.3974128]],[[2.4457159,6.3974128],[2.4465241,6.3985989]],[[2.4058804,6.4005469],[2.3915195,6.4061916],[2.3764457,6.4039631]],[[2.3764457,6.4039631],[2.4058804,6.4005469]],[[2.3665901,6.40802],[2.3662801,6.4057608]],[[2.3662801,6.4057608],[2.368658,6.4053402]],[[2.368658,6.4053402],[2.3665901,6.40802]],[[2.5006471,6.5172248],[2.477433,6.5240588],[2.435303,6.548737],[2.429477,6.5658369],[2.4219551,6.609241],[2.415396,6.6333961]],[[2.415396,6.6333961],[2.4020841,6.5994301],[2.3958449,6.5672898],[2.4034309,6.5475421],[2.404067,6.5141978],[2.4002349,6.4969702],[2.3820209,6.466661],[2.3777243,6.4533482]],[[2.3777243,6.4533482],[2.4171705,6.4679429],[2.4310865,6.5019598],[2.4728671,6.4855373],[2.4878248,6.4877468],[2.4966827,6.4824045]],[[2.4966827,6.4824045],[2.495301,6.4998779],[2.5006471,6.5172248]],[[1.6552731,6.900904],[1.668931,6.9180679],[1.705196,6.9238029],[1.729143,6.9472919],[1.731872,6.9655328]],[[1.731872,6.9655328],[1.7409427,7.0342519]],[[1.7409427,7.0342519],[1.7008456,7.0543524],[1.6834465,7.0769069],[1.7100579,7.0948797],[1.7206698,7.0689724],[1.7385898,7.0921942],[1.7350579,7.1161078],[1.7472649,7.1471625],[1.7333326,7.1579169],[1.7114576,7.1325303],[1.6873202,7.1460028],[1.6792636,7.1279649],[1.6645012,7.1451076],[1.6510084,7.1142198],[1.6631666,7.1037502],[1.6531894,7.0951483],[1.6561679,7.0580755],[1.6407773,7.0402157],[1.6420319,6.9945731],[1.6211256,6.9874416],[1.6511874,6.9082302],[1.6552731,6.900904]],[[1.6550611,7.2291367],[1.6376313,7.2362735],[1.6380261,7.2182839],[1.6499993,7.2162502],[1.6550611,7.2291367]],[[1.6444654,7.3538519],[1.6355424,7.3558665],[1.6363467,7.2973554],[1.6444654,7.3538519]],[[2.4457159,6.3974128],[2.4631707,6.3959323]],[[2.4631707,6.3959323],[2.4465241,6.3985989]],[[2.580482,6.4960842],[2.56567,6.5042038],[2.5492539,6.525105]],[[2.5492539,6.525105],[2.5305619,6.5414619],[2.521699,6.5406308],[2.5006471,6.5172248]],[[2.4966827,6.4824045],[2.5143059,6.4717759],[2.5322584,6.4485093],[2.5465162,6.4375108],[2.5450003,6.4273075]],[[2.5450003,6.4273075],[2.570338,6.4381962],[2.590838,6.4502091]],[[2.5905806,6.4517095],[2.5666659,6.4495835],[2.5738599,6.4775905],[2.5860136,6.4730431]],[[2.0077853,6.6786421],[2.0130201,6.6796739],[2.0258131,6.6618272],[2.0499993,6.6579169],[2.0454094,6.686343],[2.025144,6.6903482]],[[2.025144,6.6903482],[2.0077853,6.6786421]],[[1.9935476,6.6487349],[1.986587,6.6270881]],[[1.986587,6.6270881],[1.995068,6.6109319],[2.0176301,6.5861478]],[[2.0176301,6.5861478],[2.0439291,6.5827432],[2.0620306,6.5928644]],[[2.0620306,6.5928644],[2.0769824,6.6033057],[2.0828459,6.6072166],[2.0891757,6.6163763],[2.1017446,6.6135586],[2.1151763,6.6117489],[2.1232051,6.6124874]],[[2.1232051,6.6124874],[2.1804509,6.621376],[2.191622,6.6215029]],[[2.191622,6.6215029],[2.2197859,6.613081],[2.2356999,6.6170049],[2.2474339,6.627769],[2.2479801,6.6375852],[2.21854,6.6634459],[2.2149538,6.6811895]],[[2.2149538,6.6811895],[2.2028639,6.7120835],[2.2067538,6.7245835],[2.2027499,6.737466],[2.2187065,6.760199],[2.2190725,6.7610266],[2.1948398,6.754739],[2.1863274,6.729739],[2.1696607,6.7777614],[2.1611809,6.7538153],[2.1640455,6.7446153],[2.1442864,6.7378851],[2.1490064,6.7227036],[2.1374993,6.7191188],[2.1214999,6.7240993],[2.1134921,6.7110948],[2.0999993,6.7079169],[2.0916659,6.7079169],[2.0697421,6.7044623],[2.0727043,6.6912502],[2.0679355,6.6700018],[2.0749993,6.6412502],[2.053401,6.6295152],[2.0465976,6.6196519],[2.0331047,6.6128485],[2.0215976,6.6295152],[1.9973463,6.6385891],[1.9935476,6.6487349]],[[2.3662801,6.4057608],[2.3586306,6.3454116]],[[2.3586306,6.3454116],[2.4320305,6.3439113],[2.4707512,6.3538316],[2.4979143,6.3551619]],[[2.4979143,6.3551619],[2.494153,6.371264],[2.4696391,6.3732748],[2.4428329,6.3787832],[2.4457159,6.3974128]],[[2.441488,6.3978546],[2.4205885,6.3947658],[2.4058804,6.4005469]],[[2.3764457,6.4039631],[2.368658,6.4053402]],[[2.4070125,6.661675],[2.3977043,6.6587754],[2.3639804,6.6860948],[2.3334713,6.6493463]],[[2.3334713,6.6493463],[2.3339529,6.6398239],[2.3164512,6.6012376],[2.3160789,6.5998926],[2.3059311,6.5782552],[2.2738906,6.5623]],[[2.2738906,6.5623],[2.2805168,6.5537502],[2.2617343,6.5295152],[2.2506503,6.4998846],[2.228401,6.4711818],[2.2190793,6.4548487]],[[2.2190793,6.4548487],[2.2227941,6.4397478],[2.208797,6.4044032],[2.216939,6.3951612],[2.2238491,6.3762479],[2.237906,6.3652692],[2.2598059,6.3641248],[2.2678771,6.35917],[2.2710277,6.339228]],[[2.2710277,6.339228],[2.3586306,6.3454116]],[[2.3665901,6.40802],[2.3586093,6.418362],[2.3702964,6.4273816],[2.3711497,6.430801],[2.3675937,6.4548448],[2.3777243,6.4533482]],[[2.415396,6.6333961],[2.4070125,6.661675]],[[2.0320427,6.723835],[2.0290846,6.7412298],[2.0163066,6.732316]],[[2.0163066,6.732316],[2.0320427,6.723835]],[[1.9999993,6.8829169],[2.0037102,6.8532904],[2.0328443,6.8458767],[2.0537102,6.8760891],[2.0282708,6.8868068],[2.041259,6.9089097],[2.032537,6.9141392]],[[2.032537,6.9141392],[2.0105276,6.9154848]],[[2.0105276,6.9154848],[2.014078,6.8869411],[1.9999993,6.8829169]],[[1.9999993,6.8829169],[1.9948886,6.9037136],[1.9968986,6.9208797]],[[1.9968986,6.9208797],[1.99022,6.924367],[1.9879266,6.9546414]],[[1.9879266,6.9546414],[1.9691236,6.9616726],[1.96063,6.9995649]],[[1.96063,6.9995649],[1.9458542,7.0172841]],[[1.9458542,7.0172841],[1.9226906,6.9883591]],[[1.9226906,6.9883591],[1.914251,6.9621701],[1.880213,6.933989],[1.865193,6.9358521]],[[1.865193,6.9358521],[1.873243,6.9073982],[1.8581001,6.8780031],[1.859308,6.8533769],[1.851033,6.8324628]],[[1.851033,6.8324628],[1.867955,6.828506],[1.8907327,6.8180777]],[[1.8907327,6.8180777],[1.9153801,6.8605902],[1.9827467,6.8472805],[1.995149,6.8794379],[1.9999993,6.8829169]],[[2.0249993,6.3745835],[2.0153908,6.3438476]],[[2.0153908,6.3438476],[2.0385033,6.3421539]],[[2.0385033,6.3421539],[2.0212883,6.3470729],[2.0359693,6.3612006],[2.0413356,6.3424071]],[[2.0413356,6.3424071],[2.05739,6.351882],[2.0716,6.3731189],[2.0579367,6.4064948]],[[2.0579367,6.4064948],[2.054703,6.3948797],[2.045149,6.3875108],[2.0465162,6.3782416],[2.0249993,6.3745835]],[[2.0291899,6.5647232],[2.0176301,6.5861478]],[[1.986587,6.6270881],[1.9802721,6.6188798],[1.9786966,6.5958723]],[[1.9786966,6.5958723],[1.9846347,6.6032904],[1.996386,6.5874131],[1.9916822,6.5495835],[1.9984856,6.4949326],[1.9842603,6.4611599],[1.965315,6.4289455],[1.9499993,6.3912502],[1.9418646,6.3977653]],[[1.9418646,6.3977653],[1.945381,6.3774719],[1.962842,6.3533111],[1.960806,6.3451838]],[[1.960806,6.3451838],[1.9751114,6.3399043]],[[1.9751114,6.3399043],[1.9781731,6.3556911],[2.0024081,6.3465562],[2.0092929,6.3609523],[1.9803053,6.3774766],[1.9870273,6.3894151],[2.0030266,6.3776109],[2.0249993,6.3745835]],[[2.0249993,6.3745835],[2.0213697,6.3876206],[1.9944654,6.3986314],[1.9978183,6.4213242],[1.9716301,6.4174587],[2.0021152,6.4409776],[2.0198886,6.4179551],[2.0442376,6.4495144],[2.0306471,6.4782131],[2.0249993,6.4579169],[2.0053215,6.4705145],[2.0223788,6.4954169],[2.0088697,6.5151353],[2.022151,6.5454169],[2.0166659,6.5579169],[2.0291899,6.5647232]],[[2.5610995,6.7021796],[2.5381178,6.6834255],[2.5499993,6.6745835],[2.5610995,6.7021796]],[[2.4416659,6.6829169],[2.4377434,6.7105536],[2.4218905,6.6874375],[2.4416659,6.6829169]],[[2.4416659,6.6829169],[2.4336907,6.6699855],[2.4070125,6.661675]],[[2.415396,6.6333961],[2.449435,6.627347],[2.4667571,6.620707],[2.4991714,6.6162142],[2.5050777,6.6155273],[2.529233,6.6179481],[2.558434,6.6284332],[2.564182,6.6337481]],[[2.564182,6.6337481],[2.5727601,6.6429009]],[[2.5727601,6.6429009],[2.5707077,6.6952481]],[[2.5707077,6.6952481],[2.5705722,6.6678697],[2.5489902,6.6289089],[2.5293124,6.6705878],[2.5043287,6.6714829],[2.5290032,6.6959051],[2.5123528,6.695246],[2.4947421,6.7303575],[2.4960116,6.7622341],[2.4725904,6.7785915],[2.461246,6.7310248],[2.462662,6.6952907],[2.4583326,6.6829169],[2.4583326,6.6745835],[2.4583326,6.6829169],[2.4416659,6.6829169]],[[2.6158402,6.4582581],[2.5950569,6.4521074]],[[2.5450003,6.4273075],[2.5471184,6.4075832],[2.5108967,6.412461],[2.4955389,6.4051481],[2.4916659,6.3912502],[2.4631707,6.3959323]],[[2.4979143,6.3551619],[2.6375806,6.3620021],[2.7095434,6.3707007],[2.7062812,6.4256048]],[[2.7062812,6.4256048],[2.6821489,6.4358902],[2.6723111,6.4346619],[2.658622,6.4436002]],[[2.720289,6.507771],[2.729331,6.5344257],[2.742933,6.5454283],[2.753123,6.570467],[2.7446461,6.5838313],[2.735971,6.6086941],[2.7314279,6.630785],[2.752459,6.6656818],[2.7865901,6.6947899],[2.7859781,6.7233071],[2.7897029,6.7389331],[2.786294,6.75458],[2.778713,6.7592001],[2.7690482,6.75455],[2.7452467,6.7199449],[2.7280592,6.7206244],[2.7140123,6.7357871]],[[2.7140123,6.7357871],[2.7001481,6.7319131],[2.6637349,6.6945271],[2.662667,6.6430159],[2.6558909,6.6163869]],[[2.6558909,6.6163869],[2.6777029,6.5863948],[2.6922369,6.5605402],[2.699121,6.514307]],[[2.699121,6.514307],[2.720289,6.507771]],[[1.6688469,7.8361883],[1.6460605,7.8251857],[1.6749993,7.8162502],[1.6688469,7.8361883]],[[2.0326653,7.9274359],[2.0130364,7.9171494],[2.0249993,7.9079169],[2.0326653,7.9274359]],[[2.0723788,7.9342637],[2.0565097,7.9189439],[2.0749993,7.9162502],[2.0723788,7.9342637]],[[1.995149,7.9127712],[2.0094882,7.9230495],[1.9834628,7.9613959],[1.9618157,7.9377712],[1.948567,7.9192897],[1.9916659,7.9079169],[1.995149,7.9127712]],[[1.6362786,8.0049668],[1.6527988,8.0140244],[1.6353952,8.0370311],[1.6362786,8.0049668]],[[1.9809934,8.067983],[1.9715976,8.0493557],[1.9833326,8.0412502],[1.9885572,8.0625311],[1.9832421,8.0681615],[1.9809934,8.067983]],[[1.6640455,8.167597],[1.6481764,8.1522772],[1.6666659,8.1495835],[1.6640455,8.167597]],[[2.2245435,7.6947007],[2.2127271,7.6726101],[2.2333326,7.6662502],[2.2245435,7.6947007]],[[2.1950676,7.7628485],[2.2132642,7.7696519],[2.2200676,7.7860988],[2.1670728,7.7997015],[2.1758619,7.7604966],[2.1916659,7.7495835],[2.1950676,7.7628485]],[[2.192157,7.8536023],[2.1881829,7.8413845],[2.2049207,7.8383259]],[[2.2049207,7.8383259],[2.192157,7.8536023]],[[1.7604181,6.9554791],[1.7504261,6.9623809],[1.731872,6.9655328]],[[1.6552731,6.900904],[1.6651523,6.8831895],[1.6378085,6.8451076],[1.6035637,6.8036973],[1.6128573,6.7956854],[1.6117518,6.7819547]],[[1.6117518,6.7819547],[1.6470619,6.785058],[1.6748821,6.7917552],[1.687821,6.8009892],[1.700232,6.8221221],[1.758509,6.8264818],[1.770023,6.8528848]],[[1.770023,6.8528848],[1.767231,6.8829241],[1.759781,6.8944998],[1.762548,6.9058032],[1.751838,6.9208798],[1.769443,6.9270129],[1.7604181,6.9554791]],[[2.1822539,6.4373693],[2.1789218,6.4253811],[2.1600741,6.449791],[2.0945956,6.4649644],[2.0619622,6.420954],[2.0579367,6.4064948]],[[2.0413356,6.3424071],[2.0385033,6.3421539]],[[2.0153908,6.3438476],[1.9719719,6.3237168],[1.9751114,6.3399043]],[[1.960806,6.3451838],[1.958467,6.3351212],[1.966733,6.3242202],[1.979457,6.3174071],[1.9682177,6.2964465]],[[1.9682177,6.2964465],[2.0125807,6.3036688],[2.1040846,6.3204982],[2.1921868,6.3327989],[2.2710277,6.339228]],[[2.2190793,6.4548487],[2.2059075,6.4317694],[2.1875457,6.4394808]],[[2.1875457,6.4394808],[2.1822539,6.4373693]],[[1.865193,6.9358521],[1.838452,6.9492011],[1.812156,6.9431839],[1.801121,6.9441609],[1.784763,6.9597211],[1.7604181,6.9554791]],[[1.770023,6.8528848],[1.79865,6.847259],[1.822415,6.838644],[1.851033,6.8324628]],[[2.1904941,6.8204372],[2.1677564,6.8279852],[2.1549309,6.7957261],[2.1833326,6.7912502],[2.1904941,6.8204372]],[[2.2418938,6.859459],[2.2309563,6.8696519],[2.2215976,6.8446519],[2.2108391,6.8281276],[2.2333326,6.8245835],[2.2418938,6.859459]],[[2.2660832,6.9411472],[2.2552239,6.9146958],[2.2697747,6.9131496],[2.2862948,6.9229478],[2.2692529,6.9422502],[2.2660832,6.9411472]],[[2.6558909,6.6163869],[2.6459219,6.6155748],[2.6287811,6.6252608]],[[2.6287811,6.6252608],[2.6039701,6.5762],[2.6183479,6.5576839],[2.6101401,6.5277519]],[[2.6300869,6.5117912],[2.6495309,6.5264421],[2.657608,6.5389228],[2.6740439,6.5376949],[2.699121,6.514307]],[[2.191622,6.6215029],[2.2084854,6.6037853]],[[2.2084854,6.6037853],[2.2208326,6.6065537],[2.2374993,6.6028143],[2.2512851,6.6059068],[2.2617343,6.5779852],[2.2738906,6.5623]],[[2.3334713,6.6493463],[2.3270338,6.6597927],[2.3027662,6.6427476],[2.2833326,6.6579169],[2.2574862,6.6470648],[2.2417148,6.6699245],[2.276871,6.6830796],[2.2833326,6.6579169],[2.3044426,6.6617255],[2.31219,6.6724147],[2.2955234,6.6867743],[2.2878085,6.7006171],[2.3171542,6.7137152],[2.2912102,6.7451076],[2.2583326,6.7245835],[2.2495598,6.7049912],[2.2652011,6.6953558],[2.2365064,6.679739],[2.2269036,6.6641587],[2.2149538,6.6811895]],[[2.4040663,6.9447373],[2.41011,6.9551792]],[[2.41011,6.9551792],[2.40419,6.9566856]],[[2.40419,6.9566856],[2.4040663,6.9447373]],[[1.8916659,7.0162502],[1.9083326,7.0162502],[1.9083326,7.0245835],[1.8916659,7.0245835],[1.8916659,7.0162502]],[[1.8916659,7.0162502],[1.8635572,7.024079],[1.8798495,7.0366563],[1.8782545,7.0473985],[1.8978183,7.0445095],[1.8932773,7.0752468],[1.8779171,7.0911704]],[[1.8779171,7.0911704],[1.8744071,7.1052661],[1.8654047,7.1143588]],[[1.8654047,7.1143588],[1.8299797,7.1091254],[1.8213697,7.0782131],[1.7786288,7.0626206],[1.7620761,7.0544297],[1.7409427,7.0342519]],[[1.9226906,6.9883591],[1.9153639,6.97921],[1.8993482,6.9893947],[1.8916659,7.0162502]],[[1.8499993,7.0245835],[1.8364088,7.0280707],[1.8364739,7.0457871],[1.846858,7.0617132],[1.8433586,7.0772609],[1.8592278,7.0808213],[1.8663079,7.0492621],[1.8499993,7.0245835]],[[1.7814786,6.480361],[1.7850865,6.5103634]],[[1.7850865,6.5103634],[1.7839974,6.5152297]],[[1.7839974,6.5152297],[1.7738434,6.5305499]],[[1.7738434,6.5305499],[1.7621086,6.5208034],[1.7583326,6.5079169],[1.7814786,6.480361]],[[1.6213697,6.6292873],[1.6088443,6.6199524],[1.6097235,6.6061569],[1.6333326,6.5995835],[1.6213697,6.6292873]],[[1.631189,6.6659555],[1.602837,6.666285]],[[1.602837,6.666285],[1.6116692,6.6513129],[1.6305006,6.6605088],[1.631189,6.6659555]],[[1.7681606,6.6127989],[1.732782,6.6142859],[1.708977,6.6181951],[1.686591,6.625535],[1.679808,6.6459479],[1.661921,6.6713409],[1.6463986,6.6700987]],[[1.6463986,6.6700987],[1.6451978,6.6619655],[1.6576653,6.6081366],[1.6451653,6.587409],[1.6554329,6.5776691],[1.66302,6.5838819],[1.6759061,6.579978],[1.666023,6.5629549],[1.673389,6.555829],[1.6839679,6.5604329],[1.695709,6.543189],[1.726578,6.5781805],[1.7676511,6.5627496]],[[1.7676511,6.5627496],[1.7708364,6.5944813]],[[1.7708364,6.5944813],[1.7564609,6.5977036],[1.7681606,6.6127989]],[[1.66372,6.6288031],[1.6729159,6.643598],[1.6833326,6.6245835],[1.66372,6.6288031]],[[2.7188973,6.9533319],[2.7212883,6.9958767],[2.7032708,7.0034735],[2.7145989,7.0227484],[2.7459954,7.0188421],[2.7537102,7.0469143],[2.7333326,7.0443793],[2.7080071,7.0475287],[2.6796217,7.0366237],[2.634028,7.0248481]],[[2.634028,7.0248481],[2.640605,6.9899492],[2.6540909,6.957736],[2.6729441,6.9506569],[2.6975591,6.9495778],[2.7188973,6.9533319]],[[2.7479159,7.0852647],[2.73872,7.0704698],[2.7583326,7.0662502],[2.7479159,7.0852647]],[[2.7693027,7.1612005],[2.7546217,7.1470729],[2.7749993,7.1412502],[2.7693027,7.1612005]],[[2.7346835,7.1694322],[2.7213697,7.154446],[2.7499993,7.1495835],[2.7346835,7.1694322]],[[2.6196156,7.1400256],[2.6247551,7.1233791],[2.6680331,7.1123195],[2.7206047,7.1583156],[2.6434075,7.2035142],[2.6210605,7.1785142],[2.6134216,7.1767369]],[[2.6134216,7.1767369],[2.631217,7.1722522],[2.6196156,7.1400256]],[[2.5249993,7.2162502],[2.5215141,7.217229]],[[2.5215141,7.217229],[2.5234275,7.2134945]],[[2.5234275,7.2134945],[2.5249993,7.2162502]],[[2.5249993,7.2162502],[2.5361809,7.2226263],[2.5258131,7.2501369],[2.4967492,7.2584989]],[[2.4967492,7.2584989],[2.5186194,7.2228789]],[[2.5186194,7.2228789],[2.5249993,7.2162502]],[[2.6295077,7.3537176],[2.6301099,7.3779811],[2.5909335,7.3923692],[2.5787265,7.370482],[2.5879387,7.3453518],[2.5711418,7.3152329],[2.6050611,7.3297268],[2.6249993,7.3079169],[2.6295077,7.3537176]],[[2.7630364,7.420954],[2.74733,7.4330796],[2.7213697,7.4235825],[2.7381503,7.3957546],[2.7475169,7.3946096],[2.7475781,7.417439],[2.7630364,7.420954]],[[2.5888176,7.455333],[2.5707024,7.4641791],[2.5471998,7.4522853],[2.5661451,7.4410915],[2.5888176,7.455333]],[[2.7179517,7.4937201],[2.6965976,7.4735378],[2.7249993,7.4662502],[2.7179517,7.4937201]],[[2.4749993,7.0245835],[2.4617343,7.0211818],[2.4549309,6.9808946],[2.4814771,6.9981838],[2.4749993,7.0245835]],[[2.4227653,6.9560983],[2.4420077,6.9745835],[2.4290846,6.9870021],[2.4128085,7.037173],[2.406479,7.0370457]],[[2.406479,7.0370457],[2.409821,7.00495],[2.403883,6.9969091]],[[2.403883,6.9969091],[2.4037209,6.996354]],[[2.4037209,6.996354],[2.4041657,6.9744368],[2.4041532,6.9585678],[2.40419,6.9566856]],[[2.41011,6.9551792],[2.4227653,6.9560983]],[[2.4499993,7.1079169],[2.4544752,7.0883571],[2.478108,7.1039374],[2.4499993,7.1079169]],[[2.4216815,7.1739924],[2.410466,7.1597371],[2.419081,7.1435561],[2.416281,7.1305981],[2.4279301,7.1133981],[2.4243541,7.105433],[2.4092791,7.1044192],[2.4125459,7.0912251],[2.4284661,7.0830951],[2.4269399,7.0713542]],[[2.4269399,7.0713542],[2.4499993,7.1079169]],[[2.4499993,7.1079169],[2.4604973,7.1506659],[2.4499993,7.1579169],[2.4568189,7.1716213],[2.4333326,7.1745835],[2.4249993,7.1745835],[2.4216815,7.1739924]],[[2.5302506,7.1294299],[2.5183534,7.1702059]],[[2.5183534,7.1702059],[2.4796217,7.175023],[2.4928704,7.1361965],[2.5058098,7.1378078],[2.5036451,7.1204169],[2.5083326,7.0829169],[2.5219719,7.0971869],[2.5211581,7.1299709],[2.5302506,7.1294299]],[[1.960806,6.3451838],[1.932925,6.363399],[1.91758,6.3605628],[1.847376,6.3677292],[1.8437686,6.3694792]],[[1.8437686,6.3694792],[1.8295566,6.336697],[1.8115064,6.3288723],[1.8287753,6.3145209],[1.7973369,6.2924557],[1.799336,6.2805581],[1.7814956,6.2813373],[1.7664869,6.2708034],[1.748978,6.271112],[1.7365631,6.264667],[1.7098421,6.2571959],[1.680403,6.2544818],[1.6682049,6.2475991],[1.645669,6.2480931],[1.629565,6.2423673],[1.6281404,6.2288295],[1.678627,6.2404919],[1.688512,6.2455568],[1.7125864,6.2473667],[1.8441724,6.2762518],[1.9682177,6.2964465]],[[1.8486321,6.2954047],[1.8449049,6.3120835],[1.8477044,6.3245835],[1.8437655,6.3421494],[1.8708326,6.3482204],[1.8963372,6.3464667],[1.9367343,6.3360988],[1.9296868,6.3277004],[1.9036126,6.3335476],[1.8882642,6.3113186],[1.878401,6.3045152],[1.8749993,6.2912502],[1.8486321,6.2954047]],[[1.8083326,6.4662502],[1.7888176,6.4739243],[1.7991041,6.4542873],[1.8083326,6.4662502]],[[1.8083326,6.4662502],[1.8196351,6.45686]],[[1.8196351,6.45686],[1.8135141,6.4766133]],[[1.8135141,6.4766133],[1.8083326,6.4662502]],[[2.406479,7.0370457],[2.4028964,7.0369737],[2.4037032,6.9972268]],[[2.4037032,6.9972268],[2.403883,6.9969091]],[[2.4216815,7.1739924],[2.3976392,7.1697088],[2.416845,7.1186061],[2.4006178,7.090294],[2.4269399,7.0713542]],[[2.5215141,7.217229],[2.5186194,7.2228789]],[[2.4967492,7.2584989],[2.4886386,7.2442775],[2.4606438,7.2295111],[2.4681796,7.2095119],[2.4874993,7.2167954],[2.5186191,7.2050645],[2.5234275,7.2134945]],[[2.3701171,7.2259914],[2.3670923,7.1850137]],[[2.3670923,7.1850137],[2.3697421,7.1981268],[2.3916659,7.1829169],[2.404703,7.1865464],[2.4184889,7.2202419],[2.399332,7.2519964],[2.3869622,7.2615464],[2.3700188,7.2835028],[2.354703,7.2754828],[2.3715162,7.2625108],[2.3691724,7.2467311],[2.3800611,7.228681],[2.3701171,7.2259914]],[[2.277636,7.1445339],[2.262955,7.1304063],[2.2833326,7.1245835],[2.277636,7.1445339]],[[2.1987066,7.1280256],[2.2035474,7.1463609],[2.2166659,7.1437689],[2.2339836,7.1471909],[2.2529778,7.1737087],[2.2666659,7.154625],[2.2793775,7.1723496],[2.2872877,7.1518174],[2.2973032,7.1657836],[2.2966354,7.1709554],[2.2776685,7.1957912],[2.2874178,7.199551]],[[2.2874178,7.199551],[2.2804389,7.2159529],[2.2793312,7.2306178]],[[2.2793312,7.2306178],[2.2696445,7.217125],[2.2478997,7.2474798],[2.2282382,7.2615668],[2.231705,7.2791367],[2.2083326,7.2829169],[2.1999993,7.2829169],[2.1831047,7.2764227],[2.1693189,7.2874619],[2.1740553,7.3254746],[2.1621249,7.3105739],[2.1272779,7.3149115],[2.0869846,7.2657293]],[[1.7814786,6.480361],[1.7901034,6.4879462],[1.7850865,6.5103634]],[[1.8196351,6.45686],[1.8253673,6.4400049]],[[1.8253673,6.4400049],[1.84428,6.437748],[1.86309,6.4527049],[1.886987,6.4774151],[1.909008,6.4845901],[1.918761,6.503262],[1.944128,6.502646]],[[1.944128,6.502646],[1.953176,6.5091591],[1.95214,6.5243888],[1.932429,6.5570102],[1.902549,6.5814762],[1.8929189,6.604836],[1.872143,6.6301055]],[[1.872143,6.6301055],[1.8662753,6.6072292],[1.8310702,6.5940578],[1.8056308,6.5997585],[1.7956047,6.6142808],[1.7868482,6.5908921],[1.7708364,6.5944813]],[[1.7676511,6.5627496],[1.7763339,6.5594875],[1.7871086,6.5415676],[1.7738434,6.5305499]],[[1.7839974,6.5152297],[1.8166659,6.4912502],[1.8166659,6.4829169],[1.8135141,6.4766133]],[[1.8999993,6.5162502],[1.8964999,6.4884507],[1.8849765,6.4946763],[1.8999993,6.5162502]],[[1.8749993,6.5079169],[1.8596835,6.5112128],[1.849511,6.5358669],[1.8708977,6.5269802],[1.8749993,6.5079169]],[[1.8253673,6.4400049],[1.8300611,6.424022],[1.8513176,6.3868923],[1.8437686,6.3694792]],[[1.9418646,6.3977653],[1.9337721,6.4042466],[1.9277011,6.4529649],[1.9609912,6.4945775]],[[1.9609912,6.4945775],[1.944128,6.502646]],[[2.7062812,6.4256048],[2.7098046,6.447069],[2.6999993,6.4495835],[2.7141726,6.4619481],[2.7193019,6.482934],[2.720289,6.507771]],[[2.55441,6.8642669],[2.5531982,6.8710554]],[[2.5531982,6.8710554],[2.5547404,6.8613256]],[[2.5547404,6.8613256],[2.55441,6.8642669]],[[2.4040663,6.9447373],[2.4036614,6.9245835],[2.4380038,6.9079169],[2.4374016,6.8783514],[2.4499993,6.8662502],[2.4707349,6.9268459],[2.4290846,6.9370021],[2.4227653,6.9560983]],[[2.032537,6.9141392],[2.0089348,6.9282904],[2.0105276,6.9154848]],[[1.9968986,6.9208797],[1.9879266,6.9546414]],[[2.4037032,6.9972268],[2.4037209,6.996354]],[[2.0574019,7.1324029],[2.047143,7.1191211],[2.033783,7.090673],[2.0281064,7.0709789]],[[2.0281064,7.0709789],[2.0382642,7.0779852],[2.0612786,7.1113185],[2.0888827,7.1012477],[2.0999993,7.0579169],[2.1215162,7.0544379],[2.1289055,7.044131],[2.1499016,7.057453],[2.1366041,7.078388],[2.138427,7.104267],[2.1268059,7.1126003],[2.1965162,7.1197292],[2.1976372,7.1239751]],[[2.1875457,6.4394808],[2.1833326,6.4412502],[2.1822539,6.4373693]],[[2.1833326,6.5162502],[2.1280592,6.5128241],[2.1326165,6.4925441],[2.1586907,6.4795152],[2.1833326,6.5162502]],[[2.0291899,6.5647232],[2.0506503,6.5763861],[2.0620306,6.5928644]],[[2.1232051,6.6124874],[2.1416659,6.6083482],[2.1814771,6.6172715],[2.2037916,6.6027329],[2.2084854,6.6037853]],[[2.6287811,6.6252608],[2.5829079,6.6460671],[2.5727601,6.6429009]],[[2.564182,6.6337481],[2.5618961,6.6102338],[2.5758941,6.5853601],[2.5758929,6.5760779],[2.55844,6.5288401],[2.5492539,6.525105]],[[1.5916659,6.6829169],[1.5998365,6.7028143],[1.5748964,6.6899716],[1.5916659,6.6829169]],[[1.8230588,6.6957991],[1.8249,6.7207971],[1.8546833,6.7386297]],[[1.8546833,6.7386297],[1.8523919,6.7502305],[1.8304702,6.7659453]],[[1.8304702,6.7659453],[1.7978067,6.750295]],[[1.7978067,6.750295],[1.7999993,6.7329169],[1.7805331,6.7427639],[1.7893826,6.7506115]],[[1.7893826,6.7506115],[1.778145,6.7541838],[1.771947,6.7437582],[1.75212,6.7247958],[1.741733,6.7220292],[1.7165789,6.7235551]],[[1.7165789,6.7235551],[1.7083326,6.7079169],[1.6984381,6.7162058]],[[1.6984381,6.7162058],[1.667096,6.7124978]],[[1.667096,6.7124978],[1.6590543,6.7121539]],[[1.6590543,6.7121539],[1.6254467,6.7116844]],[[1.6254467,6.7116844],[1.6249993,6.7079169],[1.617693,6.7115486]],[[1.617693,6.7115486],[1.6028761,6.7118971]],[[1.6028761,6.7118971],[1.6176262,6.6895778],[1.5916659,6.6829169]],[[1.5916659,6.6829169],[1.602837,6.666285]],[[1.631189,6.6659555],[1.6333326,6.6829169],[1.6249993,6.6829169],[1.6333326,6.6829169],[1.6463986,6.6700987]],[[1.7681606,6.6127989],[1.7799309,6.6279852],[1.8023267,6.6672227],[1.7916659,6.6745835],[1.8036126,6.6963487],[1.8230588,6.6957991]],[[2.55441,6.8642669],[2.610275,6.8711548],[2.6624401,6.852469],[2.6770301,6.8655329],[2.684556,6.8868871],[2.7059707,6.9030805]],[[2.7059707,6.9030805],[2.7097486,6.9095078],[2.7404694,6.9182916],[2.7474176,6.9276761],[2.7269349,6.930419],[2.7189034,6.9382496],[2.7188973,6.9533319]],[[2.634028,7.0248481],[2.6044589,7.0134833],[2.5937004,7.0000515],[2.5969882,6.9736802],[2.6221347,6.9535305],[2.5953769,6.9458767],[2.5620435,6.92921],[2.5515292,6.9160793],[2.5124993,6.9209336],[2.5036812,6.9198387],[2.5058308,6.8975737],[2.5426425,6.8820624],[2.5499993,6.8912502],[2.5740553,6.9171413],[2.5680982,6.8692043],[2.5531982,6.8710554]],[[2.6775383,6.9108465],[2.6638665,6.9388495],[2.6805331,6.9384507],[2.6775383,6.9108465]],[[2.5828769,7.103034],[2.5710605,7.0809434],[2.5916659,7.0745835],[2.5828769,7.103034]],[[2.5302506,7.1294299],[2.5537102,7.128034],[2.5796217,7.146133],[2.5968905,7.1451076],[2.6126132,7.1627061],[2.6196156,7.1400256]],[[2.6134216,7.1767369],[2.5872714,7.1706529],[2.5833326,7.1662502],[2.5493971,7.1815741],[2.5280103,7.1690049],[2.5183534,7.1702059]],[[1.8779171,7.0911704],[1.881705,7.116767],[1.8654047,7.1143588]],[[1.9052564,7.1406317],[1.8888665,7.1260972],[1.9083326,7.1162502],[1.9052564,7.1406317]],[[2.030576,7.15202],[2.029429,7.1377811],[2.0172789,7.1284108],[1.987039,7.1187401],[1.97379,7.11976],[1.964473,7.1475711],[1.95186,7.1552219],[1.9309198,7.1605315]],[[1.9309198,7.1605315],[1.9316236,7.1548814],[1.912955,7.139944],[1.9288404,7.1281927],[1.9402011,7.1296047],[1.938248,7.0935288],[1.9202629,7.0791286],[1.9222486,7.0632391],[1.9147457,7.0504799],[1.9162202,7.0443264],[1.9313958,7.0462144],[1.9458542,7.0172841]],[[1.96063,6.9995649],[1.957356,7.0141709],[1.9786126,7.0094061],[1.9867343,7.0211818],[2.0132642,7.0363185],[2.0281064,7.0709789]],[[1.617693,6.7115486],[1.5999993,6.7162502],[1.6028761,6.7118971]],[[1.6583326,6.7162502],[1.6359856,6.7188991],[1.6254467,6.7116844]],[[1.6590543,6.7121539],[1.6583326,6.7162502]],[[1.6117518,6.7819547],[1.6108879,6.7712266],[1.6535312,6.7321763],[1.6583326,6.7162502]],[[1.6583326,6.7162502],[1.667096,6.7124978]],[[1.6984381,6.7162058],[1.6937818,6.7311631],[1.7093092,6.7563503],[1.7448398,6.7442409],[1.7384921,6.7360948],[1.7198398,6.729739],[1.7165789,6.7235551]],[[1.7893826,6.7506115],[1.7978067,6.750295]],[[1.8304702,6.7659453],[1.8513665,6.7815415],[1.8583326,6.8079169],[1.8703118,6.8213405],[1.8907327,6.8180777]],[[2.034075,7.2189441],[2.0089741,7.2338328],[1.9974381,7.2322859]],[[1.9974381,7.2322859],[1.9947258,7.2228054],[1.9527825,7.2051337],[1.9378736,7.1865179],[1.9275221,7.1878078],[1.9309198,7.1605315]],[[2.3583326,7.1579169],[2.3635275,7.1501032],[2.3651119,7.1560129],[2.3583326,7.1579169]],[[2.2874178,7.199551],[2.2967766,7.2031602],[2.2967603,7.2209336],[2.2793312,7.2306178]],[[2.3583326,7.1579169],[2.3670923,7.1850137]],[[2.3701171,7.2259914],[2.3520338,7.2494126],[2.3137688,7.2437567],[2.304703,7.2130072],[2.3422193,7.162405],[2.3583326,7.1579169]],[[2.7140123,6.7357871],[2.7054192,6.7450629],[2.667203,6.7630967],[2.6373528,6.7619126],[2.628759,6.7711818],[2.6043287,6.7693508],[2.6211581,6.7537502],[2.6123365,6.7455755],[2.6034172,6.7266791],[2.6046379,6.6958075],[2.5947747,6.6789089],[2.5793124,6.6955878],[2.5707077,6.6952481]],[[2.612662,6.8348456],[2.5970533,6.8270046],[2.6166659,6.8162502],[2.612662,6.8348456]],[[2.7164869,6.8744167],[2.6965976,6.8608628],[2.7249993,6.8412502],[2.7164869,6.8744167]],[[2.5547404,6.8613256],[2.5894524,6.8514024],[2.6341952,6.8569647],[2.6807447,6.8229519],[2.7037102,6.839944],[2.6800123,6.8589178],[2.7059707,6.9030805]],[[1.9935476,6.6487349],[1.9799309,6.6529852],[1.9511223,6.6330959],[1.9238274,6.6392157],[1.9132642,6.6545152],[1.89969,6.663882],[1.8796542,6.6593898],[1.872143,6.6301055]],[[1.9609912,6.4945775],[1.9772291,6.5148749],[1.9687004,6.5833848],[1.9786966,6.5958723]],[[2.025144,6.6903482],[2.0029778,6.6947292],[2.0077853,6.6786421]],[[2.0163066,6.732316],[2.004703,6.7242214],[2.0333326,6.7162502],[2.0320427,6.723835]],[[1.8230588,6.6957991],[1.8374993,6.692947],[1.845149,6.7127712],[1.8579745,6.7219672],[1.8546833,6.7386297]],[[2.0626228,7.2563613],[2.0475579,7.2505682],[2.0258293,7.2776922],[2.0037102,7.25421],[1.9974381,7.2322859]],[[1.9369296,7.3608059],[1.9213697,7.3485825],[1.9416659,7.3329169],[1.9369296,7.3608059]],[[2.0833326,7.4912502],[2.0833326,7.5162502],[2.0666659,7.5162502],[2.0666659,7.4912502],[2.0833326,7.4912502]],[[1.3953769,9.5458766],[1.4133456,9.5704942],[1.3913079,9.6032904],[1.3712883,9.5782904],[1.354524,9.5648667],[1.3462883,9.5417181],[1.3833326,9.5162502],[1.3953769,9.5458766]],[[1.420442,9.6958034],[1.4371086,9.7145208],[1.4119133,9.7354559],[1.41372,9.7532253],[1.4059563,9.761697],[1.3865715,9.717007],[1.387955,9.7034247],[1.3770501,9.6943589],[1.3635668,9.6957339],[1.3693041,9.6615019],[1.3665817,9.6484603],[1.3871086,9.636697],[1.4105136,9.6291367],[1.420442,9.6958034]],[[3.0052727,9.7954697],[2.9895663,9.8279852],[2.9715976,9.7902044],[2.9999993,9.7829168],[3.0052727,9.7954697]],[[3.2251458,9.9332953],[3.2142571,9.952383],[3.1849765,9.9380804],[3.1942538,9.9190741],[3.2166659,9.9162502],[3.2251458,9.9332953]],[[2.8859693,11.0528672],[2.8712883,11.0387396],[2.8916659,11.0329168],[2.8859693,11.0528672]],[[2.9083326,11.0995835],[2.878108,11.087409],[2.8885572,11.070075],[2.9202955,11.0691514],[2.9083326,11.0995835]],[[2.870442,11.1124701],[2.8869133,11.126146],[2.860953,11.136697],[2.8378899,11.1130438],[2.8666659,11.1079168],[2.870442,11.1124701]],[[2.9083326,11.0995835],[2.9717441,11.1048854],[2.9681308,11.1499497],[2.9218092,11.1638942],[2.8998691,11.1384141],[2.9083326,11.0995835]],[[2.6109693,8.8278672],[2.5962883,8.8137396],[2.6166659,8.8079168],[2.6109693,8.8278672]],[[2.618733,8.8797267],[2.5978508,8.9192002],[2.58872,8.9025335],[2.5770338,8.8961289],[2.5906243,8.8676214],[2.6083326,8.8579168],[2.618733,8.8797267]],[[2.5895826,8.9519313],[2.5803866,8.9371364],[2.5999993,8.9329168],[2.5895826,8.9519313]],[[2.502636,8.9862005],[2.487955,8.9720729],[2.5083326,8.9662502],[2.502636,8.9862005]],[[2.5666659,9.1079168],[2.5666659,9.1329168],[2.5499993,9.1329168],[2.5499993,9.1079168],[2.5666659,9.1079168]],[[2.2812167,9.2057969],[2.2478834,9.2060939],[2.2601392,9.1933986],[2.2833326,9.1912502],[2.2812167,9.2057969]],[[2.733296,9.2846254],[2.7437004,9.2830877],[2.7555657,9.2984605],[2.752929,9.3162502],[2.756054,9.3373887],[2.7395977,9.3401849]],[[2.7395977,9.3401849],[2.7397389,9.321578],[2.7315171,9.3088808],[2.7428429,9.2978086],[2.733296,9.2846254]],[[2.0645826,9.443598],[2.0553866,9.4288031],[2.0749993,9.4245835],[2.0645826,9.443598]],[[1.628108,9.4532334],[1.6044752,9.4298488],[1.6333326,9.4245835],[1.628108,9.4532334]],[[2.0359693,9.4695339],[2.0212883,9.4554063],[2.0416659,9.4495835],[2.0359693,9.4695339]],[[1.9142083,9.5522731],[1.8965976,9.5287624],[1.9333326,9.5245835],[1.9142083,9.5522731]],[[1.670149,9.6711045],[1.7030429,9.6797837],[1.6934075,9.7285386],[1.6477695,9.7363958],[1.6261874,9.7062892],[1.6333326,9.6701361],[1.6666659,9.6662502],[1.670149,9.6711045]],[[2.027636,9.7528672],[2.012955,9.7387396],[2.0333326,9.7329168],[2.027636,9.7528672]],[[1.9583326,9.7329168],[1.9583326,9.7579168],[1.9416659,9.7579168],[1.9416659,9.7329168],[1.9583326,9.7329168]],[[1.7966464,9.9011826],[1.769677,9.914822],[1.7638665,9.8778957],[1.7999993,9.8745835],[1.7966464,9.9011826]],[[1.2861158,10.6302923],[1.2626458,10.6440497],[1.2555331,10.6177638],[1.2749993,10.6079168],[1.2861158,10.6302923]],[[2.6014088,9.4413048],[2.6196179,9.4342642],[2.6475911,9.3987551],[2.6760161,9.3800402],[2.6962708,9.3881247]],[[2.6962708,9.3881247],[2.6501295,9.4080552],[2.6342766,9.4467881],[2.6014088,9.4413048]],[[2.7313795,9.8624253],[2.7189771,9.877383],[2.7055331,9.8535142],[2.7249993,9.8495835],[2.7313795,9.8624253]],[[2.0117506,10.2359279],[1.9824537,10.2445786],[1.9885084,10.2205755],[2.0166659,10.2162502],[2.0117506,10.2359279]],[[2.7422193,9.9678208],[2.7263827,9.9857936],[2.7137851,9.9598781],[2.7333326,9.9495835],[2.7422193,9.9678208]],[[2.6479159,10.0519313],[2.63872,10.0371364],[2.6583326,10.0329168],[2.6479159,10.0519313]],[[2.6864251,10.2434719],[2.6549309,10.2214015],[2.6749993,10.2162502],[2.6864251,10.2434719]],[[1.5583326,9.8495835],[1.5302727,9.8453884],[1.5491366,9.817833],[1.5697258,9.8236151],[1.5583326,9.8495835]],[[1.3907057,10.2654282],[1.4159823,10.3084173],[1.3935214,10.3391465],[1.3546217,10.3295396],[1.364843,10.2473659],[1.3999993,10.2412502],[1.3907057,10.2654282]],[[3.552636,11.3028672],[3.537955,11.2887396],[3.5583326,11.2829168],[3.552636,11.3028672]],[[2.6014088,9.4413048],[2.5717766,9.4234361],[2.5525872,9.3913397],[2.5058749,9.3982448],[2.4942864,9.3433579],[2.4972323,9.3234645],[2.5463697,9.295954],[2.5749993,9.2588649],[2.6083326,9.2495835],[2.6312505,9.2621835],[2.6457939,9.2681373],[2.6614093,9.2731218],[2.6906894,9.282532],[2.7062004,9.2886297],[2.733296,9.2846254]],[[2.7395977,9.3401849],[2.7051425,9.3460394],[2.6962708,9.3881247]],[[1.089957,10.7009832],[1.1055006,10.7117173],[1.0971835,10.7279852],[1.0715976,10.7113185],[1.053401,10.7045151],[1.0465976,10.6801092],[1.0666659,10.6662502],[1.089957,10.7009832]],[[1.4887525,10.0041693],[1.4726555,10.0152899],[1.4549309,9.9985378],[1.4833326,9.9912502],[1.4887525,10.0041693]],[[1.703108,10.3214829],[1.7148593,10.3284572],[1.6916171,10.3526841],[1.6802239,10.3207708],[1.6999993,10.3162502],[1.703108,10.3214829]],[[1.7263502,8.9860988],[1.7130364,8.9711126],[1.7416659,8.9662502],[1.7263502,8.9860988]],[[1.6791334,9.0080715],[1.6553541,9.027912],[1.6633456,8.9962388],[1.6833326,8.9912502],[1.6791334,9.0080715]],[[1.4529615,9.3610296],[1.4214511,9.34796],[1.4416659,9.3329168],[1.4529615,9.3610296]],[[3.2426099,11.7299953],[3.2189446,11.7446519],[3.2049309,11.7152044],[3.2333326,11.7079168],[3.2426099,11.7299953]],[[3.4770989,11.8170721],[3.4632642,11.7923447],[3.4999993,11.7829168],[3.4770989,11.8170721]],[[3.4333326,11.8662502],[3.41833,11.8786097],[3.4030499,11.8774996],[3.38361,11.8863897],[3.3666659,11.8829168],[3.3615553,11.8621201],[3.3615064,11.8451849],[3.3718254,11.8206488],[3.3645826,11.7883734],[3.3939283,11.7773911],[3.4072421,11.7803737],[3.394677,11.8209092],[3.4141757,11.8413763],[3.4507805,11.8331732],[3.4617343,11.841478],[3.440136,11.856391],[3.4333326,11.8662502]],[[2.3859693,10.3528672],[2.3712883,10.3387396],[2.3916659,10.3329168],[2.3859693,10.3528672]],[[2.452636,10.4528672],[2.437955,10.4387396],[2.4583326,10.4329168],[2.452636,10.4528672]],[[2.1277662,10.8438462],[2.1047844,10.8250921],[2.1166659,10.8162502],[2.1277662,10.8438462]],[[2.3033196,11.1629217],[2.3171868,11.1836859],[2.2730624,11.202912],[2.2905754,11.1475164],[2.2999993,11.1412502],[2.3033196,11.1629217]],[[2.3209954,11.2098456],[2.3053866,11.2020046],[2.3249993,11.1912502],[2.3209954,11.2098456]],[[2.3916659,11.2329168],[2.3944654,11.227383],[2.4179355,11.221784],[2.4084303,11.2412502],[2.3916659,11.2329168]],[[2.3916659,11.2329168],[2.3916659,11.2495835],[2.3666659,11.2495835],[2.3666659,11.2329168],[2.3499993,11.2329168],[2.3583977,11.2163193],[2.3916659,11.2329168]],[[2.3729159,11.2852647],[2.36372,11.2704697],[2.3833326,11.2662502],[2.3729159,11.2852647]],[[2.5116529,11.3339382],[2.4716301,11.3445786],[2.4550123,11.3195786],[2.4116529,11.3129217],[2.3946282,11.296015],[2.4008782,11.2712022],[2.4503573,11.2875799],[2.4642896,11.3085475],[2.4961744,11.3005153],[2.5116529,11.3339382]],[[2.5522454,11.4781968],[2.5163404,11.5029852],[2.5218905,11.4781927],[2.5069003,11.4678371],[2.5333326,11.4495835],[2.5522454,11.4781968]],[[2.4966139,8.0532904],[2.4709954,8.0319647],[2.5083326,8.0162502],[2.4966139,8.0532904]],[[1.8952955,8.4198797],[1.8874993,8.4478786],[1.8756015,8.4051459],[1.9083326,8.3995835],[1.8952955,8.4198797]],[[2.2049207,7.8383259],[2.2227695,7.8452093],[2.2050448,7.8579169],[2.2217603,7.8699001],[2.2195631,7.8809719],[2.1997877,7.8770615],[2.192157,7.8536023]],[[2.2166659,7.9912502],[2.2372063,7.9367254],[2.2468092,7.9374945],[2.2454745,7.9539821],[2.26219,7.9866074],[2.2166659,7.9912502]],[[2.3026848,7.986933],[2.305761,7.9959133],[2.2914706,8.0110174],[2.2802239,7.978563],[2.3083326,7.9745835],[2.3026848,7.986933]],[[2.2166659,7.9912502],[2.2128085,8.0123928],[2.1748528,8.0238226],[2.1628085,8.0152045],[2.2166659,7.9912502]],[[2.1983554,8.2213853],[2.1809563,8.227383],[2.1721998,8.2118475],[2.1916659,8.2079169],[2.1983554,8.2213853]],[[2.435953,8.5025376],[2.4016269,8.5116237],[2.4054192,8.4812038],[2.4583326,8.4745835],[2.435953,8.5025376]],[[2.6035963,8.5858058],[2.5880364,8.5735825],[2.6083326,8.5579169],[2.6035963,8.5858058]],[[2.5659661,8.5899359],[2.5470045,8.602383],[2.5388665,8.5844305],[2.5583326,8.5745835],[2.5659661,8.5899359]],[[2.5943027,8.6945339],[2.5796217,8.6804063],[2.5999993,8.6745835],[2.5943027,8.6945339]],[[2.6043287,8.7598456],[2.58872,8.7520046],[2.6083326,8.7412502],[2.6043287,8.7598456]]],"bbox":[1.0465976,6.2288295,3.5583326,11.8863897]}