{"type":"Topology","objects":{"foo":{"type":"GeometryCollection","geometries":[{"type":"MultiPolygon","arcs":[[[0]],[[1]],[[2]],[[3]]],"properties":{"name":"Administrative unit not available","gaul_code":5855,"targetarea":68.5298101,"totpop":134593.36344,"country_id":"BLZ","targetpop":46854.8523464,"totalarea":3695.0736999,"new_mean":0.0241691}},{"type":"Polygon","arcs":[[4]],"properties":{"name":"Administrative unit not available","gaul_code":5860,"targetarea":3.3409248,"totpop":37565.2705402,"country_id":"BLZ","targetpop":1099.7288933,"totalarea":4408.3804448,"new_mean":0.0234274}},{"type":"Polygon","arcs":[[5]],"properties":{"name":"Administrative unit not available","gaul_code":5859,"targetarea":8.9075752,"totpop":47508.6238948,"country_id":"BLZ","targetpop":3952.2034073,"totalarea":2481.0384238,"new_mean":0.0242055}},{"type":"MultiPolygon","arcs":[[[6]],[[7]],[[8]],[[9]]],"properties":{"name":"Administrative unit not available","gaul_code":5856,"targetarea":39.9489765,"totpop":96330.3175051,"country_id":"BLZ","targetpop":19356.8635406,"totalarea":5139.9649235,"new_mean":0.0229376}},{"type":"Polygon","arcs":[[10]],"properties":{"name":"Administrative unit not available","gaul_code":5858,"targetarea":9.1628285,"totpop":45152.6576459,"country_id":"BLZ","targetpop":3157.9746552,"totalarea":4493.7865243,"new_mean":0.0233771}},{"type":"MultiPolygon","arcs":[[[11]],[[12]]],"properties":{"name":"Administrative unit not available","gaul_code":5857,"targetarea":21.9554476,"totpop":51962.6036704,"country_id":"BLZ","targetpop":11476.757843,"totalarea":2000.5282949,"new_mean":0.0234368}}]}},"arcs":[[[-88.4000004,17.4745835],[-88.3951989,17.4379014],[-88.3794763,17.4684027],[-88.4000004,17.4745835]],[[-88.2937585,17.4852646],[-88.3029545,17.4704697],[-88.2833337,17.4662501],[-88.2937585,17.4852646]],[[-88.2126083,17.5176563],[-88.2388757,17.538882],[-88.246558,17.4771063],[-88.2255707,17.4873257],[-88.1972198,17.4801998],[-88.1849213,17.485508],[-88.1756053,17.4993298],[-88.1883552,17.5193778],[-88.2126083,17.5176563]],[[-88.2960697,17.5289862],[-88.2658658,17.5559671],[-88.2771595,17.5623842],[-88.329403,17.5785141],[-88.3481856,17.5887233],[-88.3622644,17.5855413],[-88.3379561,17.5638209],[-88.3232426,17.5317612],[-88.2960697,17.5289862]],[[-88.8003464,16.1010914],[-88.81071,16.1107163],[-88.8194665,16.0951808],[-88.8038366,16.0920248],[-88.8003464,16.1010914]],[[-88.2211429,16.986229],[-88.2536299,16.9598781],[-88.216667,16.9495835],[-88.2211429,16.986229]],[[-89.1284021,17.0696518],[-89.1215987,17.0897161],[-89.1457716,17.0842951],[-89.1457159,17.0502215],[-89.1284021,17.0696518]],[[-89.0632653,17.1461818],[-89.0469486,17.1574448],[-89.0382653,17.1753769],[-89.0562748,17.1863185],[-89.0950687,17.1485377],[-89.066667,17.1412501],[-89.0632653,17.1461818]],[[-89.0035648,17.2687078],[-89.0112064,17.2471543],[-89.0000004,17.2412501],[-89.0035648,17.2687078]],[[-88.7473311,17.259695],[-88.7945967,17.2697292],[-88.8118168,17.2580511],[-88.788184,17.2363958],[-88.7583337,17.2329168],[-88.7473311,17.259695]],[[-88.5530603,18.0802272],[-88.564486,18.1114731],[-88.5785567,18.0633978],[-88.5583337,18.0579168],[-88.5530603,18.0802272]],[[-88.3895951,18.3771722],[-88.3860703,18.3866138],[-88.3631383,18.3993239],[-88.3936771,18.419957],[-88.4265222,18.3789414],[-88.3895951,18.3771722]],[[-88.3861407,18.4911152],[-88.3964301,18.4958999],[-88.4119633,18.4825547],[-88.3833337,18.4745835],[-88.3861407,18.4911152]]],"bbox":[-89.1457716,16.0920248,-88.1756053,18.4958999]}