{"type":"Topology","objects":{"foo":{"type":"GeometryCollection","geometries":[{"type":"Polygon","arcs":[[0]],"properties":{"name":"Kalikhola","gaul_code":6058,"targetarea":1.1326261,"totpop":3271.4225721,"country_id":"BTN","targetpop":543.0230408,"totalarea":102.6485021,"new_mean":0.0219371}},{"type":"Polygon","arcs":[[1,2]],"properties":{"name":"Gelephu","gaul_code":6056,"targetarea":24.1146931,"totpop":14735.2084637,"country_id":"BTN","targetpop":12010.7992554,"totalarea":55.1066796,"new_mean":0.0203259}},{"type":"Polygon","arcs":[[3,4]],"properties":{"name":"Tsento","gaul_code":6006,"targetarea":0.5411816,"totpop":6890.6291428,"country_id":"BTN","targetpop":0,"totalarea":598.6895462,"new_mean":0.0138649}},{"type":"MultiPolygon","arcs":[[[5]],[[6,7,8,9,10,11,12]]],"properties":{"name":"Biru","gaul_code":6037,"targetarea":11.634385,"totpop":8352.1975632,"country_id":"BTN","targetpop":4022.2692413,"totalarea":48.3157527,"new_mean":0.0178339}},{"type":"Polygon","arcs":[[13,14]],"properties":{"name":"Bakuli","gaul_code":6025,"targetarea":1.2533307,"totpop":7215.3234558,"country_id":"BTN","targetpop":304.6744385,"totalarea":172.5023088,"new_mean":0.0177185}},{"type":"Polygon","arcs":[[15]],"properties":{"name":"Kanglung","gaul_code":6087,"targetarea":2.4375313,"totpop":7794.8654499,"country_id":"BTN","targetpop":907.580719,"totalarea":59.9791597,"new_mean":0.0138685}},{"type":"Polygon","arcs":[[16,17]],"properties":{"name":"Shapa","gaul_code":6005,"targetarea":1.0195003,"totpop":5721.8458376,"country_id":"BTN","targetpop":230.1295624,"totalarea":72.3978529,"new_mean":0.0111964}},{"type":"Polygon","arcs":[[18,19]],"properties":{"name":"Lungnyi","gaul_code":6003,"targetarea":0.633893,"totpop":2255.8952627,"country_id":"BTN","targetpop":240.4708405,"totalarea":56.5572635,"new_mean":0.0113267}},{"type":"MultiPolygon","arcs":[[[20,21]],[[22,23,24]]],"properties":{"name":"Toepaisa","gaul_code":6076,"targetarea":0.8968281,"totpop":3320.6736164,"country_id":"BTN","targetpop":97.0878525,"totalarea":92.5239673,"new_mean":0.0158692}},{"type":"Polygon","arcs":[[25,26,27,28]],"properties":{"name":"Bapisa","gaul_code":6067,"targetarea":5.7757308,"totpop":4418.1078949,"country_id":"BTN","targetpop":1754.3209839,"totalarea":24.1806013,"new_mean":0.0166472}},{"type":"Polygon","arcs":[[29,30]],"properties":{"name":"Gase Tshogom","gaul_code":6123,"targetarea":0.0875372,"totpop":2961.2059541,"country_id":"BTN","targetpop":0,"totalarea":27.1285724,"new_mean":0.0150075}},{"type":"Polygon","arcs":[[-25,31,32,33,34,35,36,37,38,39,40,-21,41]],"properties":{"name":"Chang","gaul_code":6068,"targetarea":109.4868326,"totpop":111641.68726,"country_id":"BTN","targetpop":101237.134705,"totalarea":185.5350864,"new_mean":0.0111621}},{"type":"Polygon","arcs":[[-25,31,32,33,34,35,36,37,38,39,40,-21,41]],"properties":{"name":"Chang","gaul_code":6068,"targetarea":109.4868326,"totpop":111641.68726,"country_id":"BTN","targetpop":101237.134705,"totalarea":185.5350864,"new_mean":0.0089255}},{"type":"MultiPolygon","arcs":[[[-12,42]],[[-10,43,44]]],"properties":{"name":"Sibsu","gaul_code":6049,"targetarea":7.577033,"totpop":6651.9106903,"country_id":"BTN","targetpop":2633.4090729,"totalarea":29.823452,"new_mean":0.0200642}},{"type":"Polygon","arcs":[[45,-29,46,-30,47,48,49,50]],"properties":{"name":"Thedtsho","gaul_code":6131,"targetarea":18.3101743,"totpop":10710.8838882,"country_id":"BTN","targetpop":8857.9646606,"totalarea":28.9224325,"new_mean":0.0145352}},{"type":"Polygon","arcs":[[51]],"properties":{"name":"Dala","gaul_code":5947,"targetarea":0.2116109,"totpop":12124.700531,"country_id":"BTN","targetpop":321.4999084,"totalarea":165.0673221,"new_mean":0.0204403}},{"type":"Polygon","arcs":[[52,53,-49]],"properties":{"name":"Ruepaisa","gaul_code":6129,"targetarea":0.5397948,"totpop":2705.3424881,"country_id":"BTN","targetpop":377.2609253,"totalarea":154.8136967,"new_mean":0.0144358}},{"type":"Polygon","arcs":[[54,55,56]],"properties":{"name":"Dzomma","gaul_code":6017,"targetarea":0.0152248,"totpop":2052.9066124,"country_id":"BTN","targetpop":0,"totalarea":18.5194597,"new_mean":0.0134337}},{"type":"Polygon","arcs":[[-3,57]],"properties":{"name":"Bhur","gaul_code":6052,"targetarea":5.2134359,"totpop":5275.1290297,"country_id":"BTN","targetpop":2758.391571,"totalarea":57.3877653,"new_mean":0.0211653}},{"type":"Polygon","arcs":[[58]],"properties":{"name":"Hastina pur","gaul_code":6029,"targetarea":4.5765112,"totpop":5870.5994766,"country_id":"BTN","targetpop":2130.5997315,"totalarea":251.6292829,"new_mean":0.0190132}},{"type":"Polygon","arcs":[[59,60]],"properties":{"name":"Chhubu","gaul_code":6016,"targetarea":0.1093438,"totpop":2602.3657634,"country_id":"BTN","targetpop":0,"totalarea":85.1044885,"new_mean":0.0091323}},{"type":"Polygon","arcs":[[61,62,63,64,65]],"properties":{"name":"Kikhorthang","gaul_code":6110,"targetarea":4.0730359,"totpop":2903.3458843,"country_id":"BTN","targetpop":1150.3429565,"totalarea":16.9653219,"new_mean":0.0177683}},{"type":"Polygon","arcs":[[66,67,68]],"properties":{"name":"Dopshari","gaul_code":6000,"targetarea":2.1984178,"totpop":3928.5443993,"country_id":"BTN","targetpop":629.5367126,"totalarea":34.7117443,"new_mean":0.0112112}},{"type":"Polygon","arcs":[[69]],"properties":{"name":"Katsho","gaul_code":5970,"targetarea":0.5210626,"totpop":4169.0208855,"country_id":"BTN","targetpop":221.6548767,"totalarea":40.0724548,"new_mean":0.0123004}},{"type":"Polygon","arcs":[[70,-44,-9,71]],"properties":{"name":"Bangra","gaul_code":6036,"targetarea":1.1862774,"totpop":7647.1913848,"country_id":"BTN","targetpop":267.1871338,"totalarea":184.3311115,"new_mean":0.0160273}},{"type":"Polygon","arcs":[[70,-44,-9,71]],"properties":{"name":"Bangra","gaul_code":6036,"targetarea":1.1862774,"totpop":7647.1913848,"country_id":"BTN","targetpop":267.1871338,"totalarea":184.3311115,"new_mean":0.0176559}},{"type":"Polygon","arcs":[[72,73,-19,74,-18,75,76,77,-69]],"properties":{"name":"Wangchang","gaul_code":6007,"targetarea":15.7922416,"totpop":10633.8951225,"country_id":"BTN","targetpop":7787.4001465,"totalarea":32.427921,"new_mean":0.0120638}},{"type":"MultiPolygon","arcs":[[[-40,78]],[[-38,79]]],"properties":{"name":"Mewang","gaul_code":6073,"targetarea":0.8007075,"totpop":9056.7010888,"country_id":"BTN","targetpop":0,"totalarea":211.3475051,"new_mean":0.0114234}},{"type":"Polygon","arcs":[[80]],"properties":{"name":"Samrang","gaul_code":6033,"targetarea":14.8512176,"totpop":10867.0194751,"country_id":"BTN","targetpop":5141.0007477,"totalarea":115.0237773,"new_mean":0.0176816}},{"type":"MultiPolygon","arcs":[[[81]],[[82,83]]],"properties":{"name":"Pagli","gaul_code":6047,"targetarea":3.64489,"totpop":13389.5560608,"country_id":"BTN","targetpop":1877.7665863,"totalarea":126.670784,"new_mean":0.0181166}},{"type":"Polygon","arcs":[[-65,84]],"properties":{"name":"Chanautre","gaul_code":6106,"targetarea":0.0676633,"totpop":2505.2901306,"country_id":"BTN","targetpop":240.2126007,"totalarea":23.2629966,"new_mean":0.0177799}},{"type":"MultiPolygon","arcs":[[[-46,85,86,-26]],[[-57,87,88]]],"properties":{"name":"Lingmukha","gaul_code":6021,"targetarea":0.9458585,"totpop":1273.3860436,"country_id":"BTN","targetpop":114.2793655,"totalarea":23.3413343,"new_mean":0.0157131}},{"type":"MultiPolygon","arcs":[[[-36,89]],[[-34,90]],[[-32,-24,91]]],"properties":{"name":"Kawang","gaul_code":6071,"targetarea":4.483015,"totpop":6953.4424017,"country_id":"BTN","targetpop":2826.9416504,"totalarea":290.0433077,"new_mean":0.0120323}},{"type":"MultiPolygon","arcs":[[[92,93]],[[94,95]],[[96,97]]],"properties":{"name":"Talo","gaul_code":6023,"targetarea":1.419484,"totpop":2206.1457081,"country_id":"BTN","targetpop":0,"totalarea":28.9468762,"new_mean":0.0168895}},{"type":"Polygon","arcs":[[98,99,-63]],"properties":{"name":"Tshokhana","gaul_code":6115,"targetarea":0.5913089,"totpop":2456.2970047,"country_id":"BTN","targetpop":0,"totalarea":13.0677231,"new_mean":0.0160688}},{"type":"Polygon","arcs":[[100,-84]],"properties":{"name":"Samtse","gaul_code":6048,"targetarea":0.3970047,"totpop":5064.6023474,"country_id":"BTN","targetpop":0,"totalarea":109.1323299,"new_mean":0.0180526}},{"type":"Polygon","arcs":[[101,102,103,104,105,106,107,108]],"properties":{"name":"Phuentsholing","gaul_code":5953,"targetarea":38.5338656,"totpop":34442.521101,"country_id":"BTN","targetpop":22654.24086,"totalarea":138.2593826,"new_mean":0.0195733}},{"type":"Polygon","arcs":[[101,102,103,104,105,106,107,108]],"properties":{"name":"Phuentsholing","gaul_code":5953,"targetarea":38.5338656,"totpop":34442.521101,"country_id":"BTN","targetpop":22654.24086,"totalarea":138.2593826,"new_mean":0.0208313}},{"type":"Polygon","arcs":[[109]],"properties":{"name":"Mongar","gaul_code":5990,"targetarea":1.0070189,"totpop":8646.3239422,"country_id":"BTN","targetpop":502.2256775,"totalarea":74.1228564,"new_mean":0.0176307}},{"type":"Polygon","arcs":[[110,-4,111,-73,-68]],"properties":{"name":"Lamgong","gaul_code":6002,"targetarea":9.4577827,"totpop":7437.1642342,"country_id":"BTN","targetpop":3977.0388947,"totalarea":46.1755304,"new_mean":0.0123034}},{"type":"Polygon","arcs":[[-15,112]],"properties":{"name":"Orong","gaul_code":6032,"targetarea":2.3887978,"totpop":11254.3724461,"country_id":"BTN","targetpop":855.3059692,"totalarea":292.7564253,"new_mean":0.0164295}},{"type":"Polygon","arcs":[[113]],"properties":{"name":"Gozhing","gaul_code":5957,"targetarea":0.5230826,"totpop":3659.2688198,"country_id":"BTN","targetpop":205.7810364,"totalarea":25.0961534,"new_mean":0.018274}},{"type":"MultiPolygon","arcs":[[[-105,114]],[[-103,115]]],"properties":{"name":"Tadhing","gaul_code":6050,"targetarea":8.9501293,"totpop":20134.3464785,"country_id":"BTN","targetpop":13585.8561096,"totalarea":105.0907938,"new_mean":0.0195135}},{"type":"MultiPolygon","arcs":[[[-107,116]],[[-109,117]]],"properties":{"name":"Bhalujora","gaul_code":5943,"targetarea":3.0019763,"totpop":9927.7327271,"country_id":"BTN","targetpop":559.5615387,"totalarea":76.8169891,"new_mean":0.018482}},{"type":"MultiPolygon","arcs":[[[118,-95,119,-93,120,-27,-87,121,-88,-56,122]],[[123,124,-97,125]],[[126,-61,127]]],"properties":{"name":"Guma","gaul_code":6019,"targetarea":10.115819,"totpop":8123.4584961,"country_id":"BTN","targetpop":4868.823349,"totalarea":32.0734869,"new_mean":0.0103635}},{"type":"Polygon","arcs":[[128,-72,-8]],"properties":{"name":"Tendruk","gaul_code":6051,"targetarea":0.0099546,"totpop":5143.2702637,"country_id":"BTN","targetpop":0,"totalarea":124.8145531,"new_mean":0.0171416}},{"type":"Polygon","arcs":[[-54,129,-50]],"properties":{"name":"Phang Yue","gaul_code":6127,"targetarea":0.314842,"totpop":1806.0037117,"country_id":"BTN","targetpop":0,"totalarea":30.9572536,"new_mean":0.0104785}},{"type":"Polygon","arcs":[[130,-99,-62]],"properties":{"name":"Goseling","gaul_code":6109,"targetarea":0.3300375,"totpop":1872.9594345,"country_id":"BTN","targetpop":217.1014252,"totalarea":9.3967455,"new_mean":0}},{"type":"Polygon","arcs":[[131,-77]],"properties":{"name":"Hungre","gaul_code":6001,"targetarea":0.3456432,"totpop":840.5393372,"country_id":"BTN","targetpop":0,"totalarea":3.4009276,"new_mean":0}}]}},"arcs":[[[89.8536681,26.7079612],[89.8591919,26.7076302],[89.8628922,26.7107544],[89.863739,26.7146912],[89.8626633,26.7213173],[89.8604793,26.7251],[89.8535471,26.7099879],[89.8536681,26.7079612]],[[90.4688857,26.868287],[90.4861145,26.859354],[90.4993242,26.8494609],[90.5048492,26.8613958],[90.5141591,26.9078313],[90.5116688,26.9204168],[90.5143381,26.9339015],[90.4753514,26.9178794]],[[90.4753514,26.9178794],[90.4787064,26.9133568],[90.4796906,26.9102631],[90.4796677,26.9036198],[90.4807358,26.9010086],[90.4830627,26.8929138],[90.4839401,26.8877811],[90.4838028,26.8848877],[90.4794922,26.8796558],[90.4752274,26.8764534],[90.4688857,26.868287]],[[89.3766635,27.4379144],[89.379303,27.4380932],[89.384758,27.4416218],[89.387595,27.4445514]],[[89.387595,27.4445514],[89.3713694,27.441596],[89.3766635,27.4379144]],[[88.9249989,27.0412501],[88.9278472,27.0310898],[88.9351552,27.0383977],[88.9249989,27.0412501]],[[88.9249989,27.0412501],[88.9210601,27.0706528],[88.8905789,27.075544]],[[88.8905789,27.075544],[88.889325,27.0745416]],[[88.889325,27.0745416],[88.8851132,27.0724536],[88.8786789,27.0683117]],[[88.8786789,27.0683117],[88.8943405,27.0579109],[88.8973797,27.0531676]],[[88.8973797,27.0531676],[88.8985995,27.051756]],[[88.8985995,27.051756],[88.9013672,27.049942],[88.9044113,27.0493889],[88.9115295,27.0494251],[88.9126968,27.0468044],[88.9130249,27.0435848],[88.9164429,27.0417118],[88.9178619,27.0390472],[88.9170914,27.037817],[88.9113464,27.0352917],[88.9102097,27.0339413],[88.9135284,27.0320568],[88.9154587,27.0300446],[88.915802,27.0270882],[88.9141235,27.0260792],[88.9093475,27.0250015],[88.9055634,27.0229397],[88.9050369,27.0210762],[88.9073139,27.0128273]],[[88.9073139,27.0128273],[88.9098785,27.0130885],[88.9204416,27.03747],[88.9249989,27.0412501]],[[91.6236954,26.8113537],[91.6352158,26.8132229],[91.644028,26.8114176],[91.6429351,26.8202581],[91.6209276,26.8144919]],[[91.6209276,26.8144919],[91.6236954,26.8113537]],[[91.5135894,27.2822983],[91.4971994,27.2677638],[91.5166656,27.2579168],[91.5135894,27.2822983]],[[89.4538055,27.3698282],[89.4666656,27.3662501],[89.4709491,27.3771378]],[[89.4709491,27.3771378],[89.4649963,27.3764439],[89.4561157,27.3708611],[89.4538055,27.3698282]],[[89.4382886,27.3757689],[89.4364319,27.3791504],[89.4349747,27.3804569],[89.4307404,27.3864937],[89.4274216,27.3846798],[89.4243255,27.3814852]],[[89.4243255,27.3814852],[89.4382886,27.3757689]],[[89.7451107,27.4796489],[89.7447739,27.4770641],[89.7459717,27.4746361],[89.7490293,27.4722429]],[[89.7490293,27.4722429],[89.7451107,27.4796489]],[[89.7359531,27.4888169],[89.7200347,27.5035629],[89.7182838,27.4998526]],[[89.7182838,27.4998526],[89.7190857,27.4972363]],[[89.7190857,27.4972363],[89.7204208,27.4956169],[89.7276535,27.4926853],[89.7317581,27.489399],[89.7359531,27.4888169]],[[89.8941116,27.4953289],[89.8940353,27.4973526],[89.8921127,27.5004749],[89.889946,27.5023155]],[[89.889946,27.5023155],[89.8874817,27.5004692],[89.8849258,27.4998379],[89.8843079,27.4985256],[89.8807449,27.4967899],[89.8787003,27.4970551],[89.8744202,27.5000267],[89.870964,27.5016174],[89.8666992,27.5005169],[89.8651576,27.5007977]],[[89.8651576,27.5007977],[89.8759267,27.4921738],[89.8887359,27.4761704],[89.8874679,27.4659889]],[[89.8874679,27.4659889],[89.8899994,27.4675655],[89.8934555,27.4685993],[89.8983841,27.468338],[89.9012451,27.4695969],[89.902832,27.4712124],[89.9027634,27.4735413],[89.8985672,27.4783287],[89.8978729,27.4825096],[89.8962936,27.4877529],[89.8964767,27.4908714],[89.8941116,27.4953289]],[[89.9136124,27.432292],[89.9085595,27.4331256]],[[89.9085595,27.4331256],[89.9139963,27.4292099],[89.9136124,27.432292]],[[89.7190857,27.4972363],[89.7159275,27.4948595]],[[89.7159275,27.4948595],[89.7102494,27.4828276]],[[89.7102494,27.4828276],[89.7081223,27.4755135],[89.7085114,27.4717484],[89.707222,27.4688263],[89.7030573,27.4675873]],[[89.7030573,27.4675873],[89.7006174,27.4624171],[89.6980356,27.4621423]],[[89.6980356,27.4621423],[89.6944199,27.454525],[89.6914291,27.4523029],[89.6845016,27.4514065],[89.6791,27.4516335],[89.6733856,27.4537811],[89.6694489,27.4545746],[89.6562805,27.4536285],[89.6501923,27.4535427],[89.6414795,27.4528141],[89.636322,27.4530926],[89.6303406,27.452528],[89.6188278,27.4523869],[89.6139297,27.4505386],[89.6095007,27.4499948]],[[89.6095007,27.4499948],[89.5822255,27.4404363],[89.5993016,27.4246181]],[[89.5993016,27.4246181],[89.6058273,27.4209633],[89.611763,27.4198074],[89.6152802,27.4172516],[89.6164551,27.4132957],[89.6173395,27.4071888]],[[89.6173395,27.4071888],[89.6246734,27.3992661],[89.6306798,27.3937043]],[[89.6306798,27.3937043],[89.6333466,27.3919678],[89.6367564,27.3880777]],[[89.6367564,27.3880777],[89.6433583,27.3819646],[89.6666656,27.3745834],[89.6706695,27.3789088],[89.7006011,27.3930323],[89.7623362,27.4470932],[89.7490293,27.4722429]],[[89.7451107,27.4796489],[89.7444,27.4809921],[89.7359531,27.4888169]],[[88.8985995,27.051756],[88.8944976,27.0115219],[88.9073139,27.0128273]],[[88.8786789,27.0683117],[88.8785248,27.0682564]],[[88.8785248,27.0682564],[88.8817215,27.0573292],[88.8819293,27.0547438],[88.8973797,27.0531676]],[[89.9020093,27.5018538],[89.8978958,27.4994831],[89.8941116,27.4953289]],[[89.8874679,27.4659889],[89.8854481,27.4497706],[89.9085595,27.4331256]],[[89.9136124,27.432292],[89.9131382,27.4360987]],[[89.9131382,27.4360987],[89.90979,27.437109],[89.9099808,27.4397488],[89.9085083,27.4425564],[89.9106445,27.4445724],[89.9117584,27.4516315],[89.9115067,27.4531422]],[[89.9115067,27.4531422],[89.9120636,27.457262],[89.9169312,27.4615593],[89.9195464,27.4632752]],[[89.9195464,27.4632752],[89.9269348,27.4803851],[89.9286523,27.4843626],[89.9332834,27.4950872],[89.9020093,27.5018538]],[[89.7565226,26.726521],[89.7549957,26.7351873],[89.7516812,26.7288555],[89.7565226,26.726521]],[[89.9131382,27.4360987],[89.9119455,27.4456731],[89.916577,27.4563986]],[[89.916577,27.4563986],[89.9115067,27.4531422]],[[89.8858595,27.5170749],[89.8852082,27.5200817]],[[89.8852082,27.5200817],[89.8844528,27.5189362]],[[89.8844528,27.5189362],[89.8858595,27.5170749]],[[90.4753514,26.9178794],[90.4663075,26.9141627],[90.4729807,26.8803655],[90.4661982,26.8696804],[90.4688857,26.868287]],[[92.1143674,26.8992975],[92.1115223,26.9031764],[92.0954742,26.8691717],[92.0853276,26.8597692],[92.0961075,26.8636093],[92.1016693,26.8627758],[92.1079297,26.8582749],[92.1125296,26.8897148],[92.1143674,26.8992975]],[[89.857399,27.5779123],[89.8554839,27.5847438],[89.8535095,27.5827693]],[[89.8535095,27.5827693],[89.857399,27.5779123]],[[90.1339892,27.0211832],[90.1317368,27.023243],[90.130043,27.0232029],[90.1294403,27.0172234],[90.128418,27.0146103],[90.1270981,27.0135403]],[[90.1270981,27.0135403],[90.1294937,27.0108376],[90.1292114,27.0090122],[90.1258621,27.0028934],[90.1231384,27.0009861],[90.1210445,27.0004742]],[[90.1210445,27.0004742],[90.1195037,26.9959499]],[[90.1195037,26.9959499],[90.1220398,26.9953442],[90.1255016,26.9936032]],[[90.1255016,26.9936032],[90.1416656,26.9912501],[90.1384918,27.0130722],[90.1339892,27.0211832]],[[89.433612,27.4076955],[89.4213694,27.4376206],[89.4114412,27.4452787]],[[89.4114412,27.4452787],[89.4132156,27.4416714],[89.4159164,27.4376068],[89.4181671,27.4369831],[89.4207687,27.4329853],[89.4234238,27.422821],[89.4203873,27.4166203],[89.4183273,27.414257]],[[89.4183273,27.414257],[89.424614,27.4095554],[89.4306717,27.4072495],[89.433612,27.4076955]],[[89.2971506,27.3764104],[89.2898427,27.3691025],[89.2999989,27.3662501],[89.2971506,27.3764104]],[[88.8890738,27.0757855],[88.8720692,27.0785141],[88.8711216,27.0734377],[88.8785248,27.0682564]],[[88.889325,27.0745416],[88.8890738,27.0757855]],[[89.4183273,27.414257],[89.4127197,27.4172573],[89.4057617,27.4190922],[89.4049052,27.4182749]],[[89.4049052,27.4182749],[89.4131825,27.4125188],[89.4094879,27.3875595],[89.4243255,27.3814852]],[[89.4382886,27.3757689],[89.4506662,27.3707016],[89.4538055,27.3698282]],[[89.4709491,27.3771378],[89.4745595,27.3863144],[89.4536285,27.3948797],[89.4524442,27.3955939]],[[89.4524442,27.3955939],[89.4481125,27.3961849],[89.4447937,27.3991184],[89.4412689,27.3998432],[89.4354095,27.4037876],[89.4344862,27.4064246]],[[89.4344862,27.4064246],[89.433612,27.4076955]],[[89.6306798,27.3937043],[89.6367564,27.3880777]],[[89.5993016,27.4246181],[89.6126617,27.4122421],[89.6173395,27.4071888]],[[91.9339676,26.8605423],[91.9356599,26.866279],[91.9256825,26.8594142],[91.871874,26.8615476],[91.8833389,26.857851],[91.8888626,26.8522282],[91.8898926,26.8331852],[91.8884735,26.819376],[91.891983,26.8125591],[91.9005051,26.8099861],[91.9067764,26.8050671],[91.912941,26.8042774],[91.9151154,26.8091507],[91.9108963,26.8232975],[91.9162827,26.8323746],[91.9159012,26.8371868],[91.9040298,26.8502541],[91.9092789,26.8549633],[91.9174576,26.8555985],[91.9239044,26.8538952],[91.9307556,26.8561077],[91.9339676,26.8605423]],[[89.2383327,26.8197612],[89.2320464,26.8216538],[89.1999989,26.8190781],[89.1719553,26.8213323],[89.1473462,26.8109669],[89.1503372,26.8111439],[89.1717529,26.8180103],[89.1809463,26.8186226],[89.1918335,26.8160858],[89.2123108,26.8164711],[89.2383327,26.8197612]],[[89.0982435,26.8612143],[89.1061325,26.8382587],[89.1115799,26.8272209],[89.1140289,26.8268824],[89.1038075,26.8451848],[89.1051747,26.8622299],[89.1039054,26.8634601]],[[89.1039054,26.8634601],[89.0982435,26.8612143]],[[90.1195037,26.9959499],[90.1190256,26.994546],[90.1255016,26.9936032]],[[89.9020093,27.5018538],[89.8890917,27.5046487]],[[89.8890917,27.5046487],[89.889946,27.5023155]],[[89.8844528,27.5189362],[89.8815994,27.5150204],[89.8823318,27.5119877],[89.884201,27.5096016],[89.8879301,27.5075148]],[[89.8879301,27.5075148],[89.8858595,27.5170749]],[[89.6980356,27.4621423],[89.6206695,27.4539088],[89.6095007,27.4499948]],[[89.7102494,27.4828276],[89.7030573,27.4675873]],[[89.7182838,27.4998526],[89.7159275,27.4948595]],[[89.8631156,27.5079589],[89.8658142,27.5084076],[89.8663712,27.5097637],[89.8666458,27.5145912],[89.8657704,27.5172581]],[[89.8657704,27.5172581],[89.8631156,27.5079589]],[[89.8692083,27.5293],[89.8734589,27.5336914],[89.8768768,27.5364552],[89.879715,27.5404892],[89.8797226,27.5433025],[89.8767166,27.5453758],[89.8746233,27.5482679]],[[89.8746233,27.5482679],[89.8692083,27.5293]],[[89.8733376,27.5495834],[89.8697281,27.5516109],[89.863472,27.5518265],[89.8583323,27.5531228]],[[89.8583323,27.5531228],[89.8583323,27.5495834],[89.8733376,27.5495834]],[[90.1270981,27.0135403],[90.1256607,27.0140289]],[[90.1256607,27.0140289],[90.1210445,27.0004742]],[[89.1039054,26.8634601],[89.0952541,26.8718445],[89.0955429,26.8690739],[89.0982435,26.8612143]],[[89.4420471,26.8839739],[89.4466135,26.8967067],[89.4063791,26.8943059],[89.376952,26.904861],[89.3507802,26.9032985],[89.3457872,26.8973963]],[[89.3457872,26.8973963],[89.3470078,26.895937],[89.3468018,26.8907337],[89.342041,26.8861618],[89.3415298,26.8829956],[89.3421478,26.8813972],[89.3459799,26.879007]],[[89.3459799,26.879007],[89.3499591,26.8792444]],[[89.3499591,26.8792444],[89.3540344,26.8800354],[89.359375,26.8843536],[89.3613739,26.8852196],[89.3702011,26.887413],[89.3734207,26.8887444],[89.3794937,26.8892002],[89.3840408,26.889061],[89.3887177,26.8864307],[89.3890152,26.8783188],[89.3859863,26.8726025],[89.380806,26.8562527]],[[89.380806,26.8562527],[89.3822784,26.8550968],[89.3961868,26.8381824],[89.4090347,26.8426018],[89.4260025,26.8388176]],[[89.4260025,26.8388176],[89.4306443,26.8482225]],[[89.4306443,26.8482225],[89.429426,26.8487818],[89.4349485,26.8641805]],[[89.4349485,26.8641805],[89.4330063,26.8713493],[89.4329147,26.8743019],[89.4366531,26.8785057],[89.4420471,26.8839739]],[[91.2080507,27.2178478],[91.2049957,27.2351873],[91.1979239,27.2216778],[91.1989066,27.2202861],[91.2056168,27.2174129],[91.2080507,27.2178478]],[[89.4114412,27.4452787],[89.4076487,27.448204],[89.387595,27.4445514]],[[89.3766635,27.4379144],[89.4049052,27.4182749]],[[91.6209276,26.8144919],[91.5738108,26.8021469],[91.5502327,26.8030817],[91.5739365,26.7993698],[91.5831375,26.799818],[91.6153412,26.8099976],[91.6236954,26.8113537]],[[89.9554839,26.9347438],[89.948176,26.9274358],[89.9583323,26.9245834],[89.9554839,26.9347438]],[[89.3499591,26.8792444],[89.3682769,26.880337],[89.3789377,26.8751857],[89.3343947,26.8468648],[89.3355408,26.8467846],[89.3709793,26.8606205],[89.3758774,26.8601265],[89.380806,26.8562527]],[[89.3457872,26.8973963],[89.3293935,26.8780177],[89.3459799,26.879007]],[[89.4260025,26.8388176],[89.4300232,26.8379211],[89.4453659,26.8385258],[89.4515076,26.8334846],[89.4575958,26.8190117],[89.4608172,26.8165483],[89.4543935,26.8373194],[89.4306443,26.8482225]],[[89.4349485,26.8641805],[89.4420471,26.8839739]],[[89.8749989,27.5495834],[89.8746233,27.5482679]],[[89.8692083,27.5293],[89.8657704,27.5172581]],[[89.8631156,27.5079589],[89.8618316,27.5034612],[89.8651576,27.5007977]],[[89.8890917,27.5046487],[89.8879301,27.5075148]],[[89.8852082,27.5200817],[89.8796213,27.5458766],[89.8749989,27.5495834]],[[89.8749989,27.5495834],[89.8664868,27.566558],[89.8649742,27.5695743],[89.8638661,27.571784],[89.8583323,27.5745834]],[[89.8583323,27.5745834],[89.8583323,27.5531228]],[[89.8733376,27.5495834],[89.8749989,27.5495834]],[[89.8583323,27.5745834],[89.857399,27.5779123]],[[89.8535095,27.5827693],[89.848176,27.5774358],[89.8583323,27.5745834]],[[88.8905789,27.075544],[88.8890738,27.0757855]],[[89.916577,27.4563986],[89.9195464,27.4632752]],[[90.1339892,27.0211832],[90.1303375,27.0277613],[90.1256607,27.0140289]],[[89.4524442,27.3955939],[89.4344862,27.4064246]]],"bbox":[88.8711216,26.7076302,92.1143674,27.5847438]}