{"type":"Topology","objects":{"foo":{"type":"GeometryCollection","geometries":[{"type":"Polygon","arcs":[[0]],"properties":{"name":"Catio","gaul_code":17104,"targetarea":1.718423,"totpop":28852.3775538,"country_id":"GNB","targetpop":629.7115479,"totalarea":636.5984172,"new_mean":0.0119892}},{"type":"Polygon","arcs":[[1]],"properties":{"name":"Gabu","gaul_code":17088,"targetarea":23.2160547,"totpop":107414.158294,"country_id":"GNB","targetpop":8821.5502625,"totalarea":2210.049366,"new_mean":0.0105975}},{"type":"Polygon","arcs":[[2,3,4]],"properties":{"name":"Safim","gaul_code":17076,"targetarea":19.6833782,"totpop":29413.5896292,"country_id":"GNB","targetpop":11382.0107574,"totalarea":169.563763,"new_mean":0.0062225}},{"type":"Polygon","arcs":[[5,6]],"properties":{"name":"Nhacra","gaul_code":17096,"targetarea":3.7033193,"totpop":12230.5224867,"country_id":"GNB","targetpop":1745.110733,"totalarea":262.768948,"new_mean":0.0073067}},{"type":"Polygon","arcs":[[7]],"properties":{"name":"Canchungo","gaul_code":17085,"targetarea":9.8758159,"totpop":47256.1799167,"country_id":"GNB","targetpop":2633.6638794,"totalarea":659.1122929,"new_mean":0.0058512}},{"type":"Polygon","arcs":[[8]],"properties":{"name":"Mansaba","gaul_code":17094,"targetarea":1.1402691,"totpop":60869.5363598,"country_id":"GNB","targetpop":416.4060516,"totalarea":1219.1332053,"new_mean":0.0071555}},{"type":"Polygon","arcs":[[9,-7,10,-3,11]],"properties":{"name":"Sector Autonomo De Bissau","gaul_code":17101,"targetarea":83.3710165,"totpop":507763.122009,"country_id":"GNB","targetpop":507763.122009,"totalarea":83.3854022,"new_mean":0.0068432}},{"type":"Polygon","arcs":[[12]],"properties":{"name":"Bigene","gaul_code":17081,"targetarea":1.1397739,"totpop":62662.708465,"country_id":"GNB","targetpop":422.8992462,"totalarea":958.0005171,"new_mean":0.0056376}},{"type":"MultiPolygon","arcs":[[[13]],[[14]],[[-5,15,-12]]],"properties":{"name":"Prabis","gaul_code":17074,"targetarea":82.8585638,"totpop":56197.7966185,"country_id":"GNB","targetpop":44657.4883881,"totalarea":158.7308231,"new_mean":0.0074904}},{"type":"MultiPolygon","arcs":[[[16]],[[17]]],"properties":{"name":"Quinhamel","gaul_code":17075,"targetarea":18.9283348,"totpop":47725.9626702,"country_id":"GNB","targetpop":6517.0948944,"totalarea":449.449214,"new_mean":0.0072299}},{"type":"MultiPolygon","arcs":[[[18]],[[19]]],"properties":{"name":"Bafata","gaul_code":17068,"targetarea":49.055194,"totpop":86159.3212242,"country_id":"GNB","targetpop":23799.9535828,"totalarea":781.0327881,"new_mean":0.0096634}},{"type":"Polygon","arcs":[[20]],"properties":{"name":"Bissora","gaul_code":17092,"targetarea":12.2819219,"totpop":77486.0445023,"country_id":"GNB","targetpop":4197.2008972,"totalarea":1201.0123746,"new_mean":0.0069179}}]}},"arcs":[[[-15.2533372,11.2935207],[-15.2608242,11.2792181],[-15.2500007,11.2745835],[-15.2533372,11.2935207]],[[-14.2015143,12.294245],[-14.2531908,12.3031398],[-14.2594408,12.275263],[-14.2126634,12.2613389],[-14.2039232,12.2628444],[-14.1916673,12.2579168],[-14.2015143,12.294245]],[[-15.6532803,11.8567495],[-15.6361704,11.88867],[-15.6187696,11.9166203],[-15.611452,11.9313341]],[[-15.611452,11.9313341],[-15.6212572,11.9186346],[-15.6396328,11.9213486],[-15.6536302,11.9032131],[-15.6717292,11.8958034],[-15.6584642,11.8620469],[-15.6856961,11.8581748]],[[-15.6856961,11.8581748],[-15.6674204,11.8548498],[-15.6532803,11.8567495]],[[-15.5532409,11.8953012],[-15.5750495,11.9314561],[-15.6009935,11.9448797],[-15.6095405,11.9338098]],[[-15.6095405,11.9338098],[-15.5992603,11.9405699],[-15.5797901,11.9309597],[-15.5771999,11.92237],[-15.5588408,11.8969755],[-15.5532409,11.8953012]],[[-16.0299323,12.0545151],[-16.020069,12.0613185],[-16.0132656,12.0778794],[-16.0484707,12.0863185],[-16.0392747,12.0453558],[-16.0299323,12.0545151]],[[-15.1700039,12.301854],[-15.1774909,12.2875514],[-15.1666673,12.2829168],[-15.1700039,12.301854]],[[-15.6638632,11.7976084],[-15.6583061,11.8006811],[-15.6457357,11.8185806],[-15.6341925,11.8272619],[-15.6174097,11.8293476],[-15.6021175,11.8373919],[-15.5959759,11.8482943],[-15.5739326,11.8734589],[-15.5549898,11.8875351],[-15.5532409,11.8953012]],[[-15.6095405,11.9338098],[-15.611452,11.9313341]],[[-15.6532803,11.8567495],[-15.6584301,11.8453503],[-15.6638632,11.7976084]],[[-15.7950039,12.4185207],[-15.8024909,12.4042181],[-15.7916673,12.3995835],[-15.7950039,12.4185207]],[[-15.7750007,11.7912502],[-15.7569831,11.7938747],[-15.7722988,11.8097398],[-15.7750007,11.7912502]],[[-15.7750007,11.7912502],[-15.7860684,11.7968491],[-15.7944668,11.8134507],[-15.8111335,11.8138495],[-15.8019701,11.7950913],[-15.8146979,11.7790757],[-15.8057461,11.7607611],[-15.7954723,11.7586469],[-15.7768937,11.7706494],[-15.7750007,11.7912502]],[[-15.6856961,11.8581748],[-15.719304,11.8533962],[-15.7288255,11.8191717],[-15.7623867,11.8462876],[-15.7786302,11.8380072],[-15.7411139,11.787405],[-15.7049503,11.7970009],[-15.6638632,11.7976084]],[[-15.8948086,11.7867051],[-15.8991055,11.8058213],[-15.9277025,11.7994085],[-15.9481452,11.7697902],[-15.908334,11.7662502],[-15.8948086,11.7867051]],[[-15.7378587,11.9101629],[-15.7524909,11.9029608],[-15.733334,11.8995835],[-15.7378587,11.9101629]],[[-14.685613,12.1593204],[-14.6791673,12.1435695],[-14.6623867,12.1460516],[-14.6416673,12.1412502],[-14.6130378,12.1796087],[-14.6235195,12.2032131],[-14.6797044,12.1959539],[-14.6869636,12.1865464],[-14.7024583,12.1745835],[-14.691617,12.1662134],[-14.685613,12.1593204]],[[-14.533806,12.3237331],[-14.5538255,12.3357163],[-14.5611335,12.3118475],[-14.5416673,12.3079168],[-14.533806,12.3237331]],[[-15.4355801,12.2243597],[-15.4393887,12.2413315],[-15.4667487,12.2351955],[-15.4598151,12.2042385],[-15.4416673,12.1995835],[-15.4355801,12.2243597]]],"bbox":[-16.0484707,11.2745835,-14.1916673,12.4185207]}