{"type":"Topology","objects":{"foo":{"type":"GeometryCollection","geometries":[{"type":"MultiPolygon","arcs":[[[0]],[[1]]],"properties":{"name":"Guerou","gaul_code":19496,"targetarea":31.4999305,"totpop":52223.9276856,"country_id":"MRT","targetpop":13020.0903931,"new_mean":0.0155433,"totalarea":2630.9845984}},{"type":"Polygon","arcs":[[2]],"properties":{"name":"Atar","gaul_code":19491,"targetarea":33.478478,"totpop":39418.9538585,"country_id":"MRT","targetpop":14568.7631226,"new_mean":0.0106085,"totalarea":25400.5870513}},{"type":"Polygon","arcs":[[3]],"properties":{"name":"Bababe","gaul_code":19500,"targetarea":18.4354285,"totpop":36174.1266813,"country_id":"MRT","targetpop":6167.7944794,"new_mean":0.011937,"totalarea":822.3718055}},{"type":"Polygon","arcs":[[4]],"properties":{"name":"Nouakchott","gaul_code":19522,"targetarea":240.9519414,"totpop":1353219.19183,"country_id":"MRT","targetpop":1334996.21199,"new_mean":0.0150623,"totalarea":1501.8447375}},{"type":"MultiPolygon","arcs":[[[5]],[[6]],[[7]],[[8]]],"properties":{"name":"Maghama","gaul_code":19507,"targetarea":35.2337254,"totpop":87093.1555592,"country_id":"MRT","targetpop":12393.3419495,"new_mean":0.0115986,"totalarea":2404.0792638}},{"type":"MultiPolygon","arcs":[[[9]],[[10]]],"properties":{"name":"M Bagne","gaul_code":19502,"targetarea":17.5452123,"totpop":47325.2754126,"country_id":"MRT","targetpop":7518.4510956,"new_mean":0.0114807,"totalarea":632.906064}},{"type":"Polygon","arcs":[[11]],"properties":{"name":"Kaedi","gaul_code":19505,"targetarea":95.3389347,"totpop":147911.144759,"country_id":"MRT","targetpop":46974.7670746,"new_mean":0.0094554,"totalarea":4239.0001436}},{"type":"Polygon","arcs":[[12,13]],"properties":{"name":"Rosso","gaul_code":19534,"targetarea":28.4147664,"totpop":47912.5543716,"country_id":"MRT","targetpop":14158.1253204,"new_mean":0.012294,"totalarea":1292.6989807}},{"type":"Polygon","arcs":[[14]],"properties":{"name":"Boghe","gaul_code":19501,"targetarea":26.6364082,"totpop":75972.0490232,"country_id":"MRT","targetpop":11183.1730042,"new_mean":0.0112031,"totalarea":1569.0336747}},{"type":"Polygon","arcs":[[15]],"properties":{"name":"Akjoujt","gaul_code":19521,"targetarea":7.9703067,"totpop":26347.5293974,"country_id":"MRT","targetpop":2585.050293,"new_mean":0.0108232,"totalarea":44710.2207077}},{"type":"MultiPolygon","arcs":[[[16]],[[17]]],"properties":{"name":"Aioun Al Atrous","gaul_code":19517,"targetarea":48.8347768,"totpop":80194.1340873,"country_id":"MRT","targetpop":29289.9813232,"new_mean":0.0170619,"totalarea":17698.9840502}},{"type":"MultiPolygon","arcs":[[[18]],[[19]],[[20]],[[21]],[[22]]],"properties":{"name":"Bassikounou","gaul_code":19512,"targetarea":86.5276539,"totpop":207029.383524,"country_id":"MRT","targetpop":30522.0782166,"new_mean":0.0190102,"totalarea":16566.4483912}},{"type":"MultiPolygon","arcs":[[[23]],[[24]]],"properties":{"name":"F Derik","gaul_code":19527,"targetarea":55.6593563,"totpop":56485.6914947,"country_id":"MRT","targetpop":33532.6136475,"new_mean":0.0000982,"totalarea":172161.427658}},{"type":"Polygon","arcs":[[25]],"properties":{"name":"Magta-lahjar","gaul_code":19503,"targetarea":5.1482559,"totpop":64906.3282018,"country_id":"MRT","targetpop":1760.9395447,"new_mean":0.0116957,"totalarea":13778.5130475}},{"type":"Polygon","arcs":[[26]],"properties":{"name":"Aleg","gaul_code":19499,"targetarea":50.7834821,"totpop":138921.43389,"country_id":"MRT","targetpop":22996.66716,"new_mean":0.0114832,"totalarea":16311.4885617}},{"type":"Polygon","arcs":[[-14,27]],"properties":{"name":"Keur Massene","gaul_code":19530,"targetarea":7.9353905,"totpop":38265.7754474,"country_id":"MRT","targetpop":2675.243515,"new_mean":0.0152743,"totalarea":2595.8801734}},{"type":"Polygon","arcs":[[28]],"properties":{"name":"Kiffa","gaul_code":19498,"targetarea":55.7029203,"totpop":132200.341049,"country_id":"MRT","targetpop":37418.6656342,"new_mean":0.0141465,"totalarea":10824.3236699}},{"type":"Polygon","arcs":[[29]],"properties":{"name":"Nema","gaul_code":19514,"targetarea":21.2088989,"totpop":104769.722144,"country_id":"MRT","targetpop":28505.7702637,"new_mean":0.0168682,"totalarea":9927.1021086}},{"type":"Polygon","arcs":[[30]],"properties":{"name":"Nouadhibou","gaul_code":19504,"targetarea":84.4726433,"totpop":153771.327892,"country_id":"MRT","targetpop":146887.00737,"new_mean":0.0214701,"totalarea":17105.0962031}},{"type":"MultiPolygon","arcs":[[[31]],[[32]]],"properties":{"name":"Selibaby","gaul_code":19510,"targetarea":64.7800612,"totpop":252395.419944,"country_id":"MRT","targetpop":36346.2306366,"new_mean":0.0177543,"totalarea":7130.2221586}},{"type":"Polygon","arcs":[[33]],"properties":{"name":"Tintane","gaul_code":19520,"targetarea":42.7154708,"totpop":128896.892604,"country_id":"MRT","targetpop":19250.5677948,"new_mean":0.0194039,"totalarea":10636.1236591}},{"type":"Polygon","arcs":[[34]],"properties":{"name":"M Bout","gaul_code":19506,"targetarea":11.4970755,"totpop":119754.409824,"country_id":"MRT","targetpop":4208.2787476,"new_mean":0.0117159,"totalarea":5482.8927989}},{"type":"Polygon","arcs":[[35]],"properties":{"name":"Timbedra","gaul_code":19516,"targetarea":12.1146023,"totpop":95201.5171138,"country_id":"MRT","targetpop":5327.5782013,"new_mean":0.0216287,"totalarea":11472.8522278}},{"type":"Polygon","arcs":[[36]],"properties":{"name":"Tidjikja","gaul_code":19525,"targetarea":4.8689282,"totpop":35276.5723067,"country_id":"MRT","targetpop":1648.9095917,"new_mean":0.008559,"totalarea":19022.3971041}},{"type":"Polygon","arcs":[[37]],"properties":{"name":"Boutilimit","gaul_code":19529,"targetarea":15.6031451,"totpop":67201.8998907,"country_id":"MRT","targetpop":6187.9273224,"new_mean":0.0129828,"totalarea":32399.7183021}}]}},"arcs":[[[-11.7312686,16.813171],[-11.730209,16.8316758],[-11.762875,16.8294215],[-11.7786302,16.8156113],[-11.7344276,16.8081026],[-11.7312686,16.813171]],[[-11.8218268,16.8130723],[-11.7865078,16.819428],[-11.7801602,16.8302272],[-11.8456875,16.8525579],[-11.8531745,16.8120184],[-11.8250007,16.8079168],[-11.8218268,16.8130723]],[[-13.0218431,20.5465968],[-13.0543626,20.5456772],[-13.0724942,20.535818],[-13.0705899,20.5037501],[-13.0725104,20.4714707],[-13.0666673,20.4662501],[-13.01211,20.5286972],[-13.0218431,20.5465968]],[[-13.9347337,16.3463161],[-13.966586,16.369957],[-13.9787116,16.3508896],[-13.9296882,16.3116318],[-13.908334,16.3079168],[-13.9347337,16.3463161]],[[-15.908334,18.1495835],[-15.93711,18.1450303],[-16.0300851,18.1374231],[-16.0246811,18.0792465],[-16.0228577,18.0319119],[-16.0251134,17.9847946],[-15.9432298,17.9725978],[-15.9245124,18.0157619],[-15.8954434,18.0283636],[-15.8826667,18.0437607],[-15.8919115,18.1345322],[-15.908334,18.1495835]],[[-12.8560156,15.2533629],[-12.8841957,15.2658142],[-12.8944668,15.2444525],[-12.8500007,15.2412502],[-12.8560156,15.2533629]],[[-12.8534024,15.3295151],[-12.8656257,15.3482692],[-12.8867357,15.3408839],[-12.8500007,15.3162502],[-12.8534024,15.3295151]],[[-12.9288906,15.396312],[-12.945541,15.386526],[-12.9431104,15.3571713],[-12.9293527,15.3459105],[-12.8916673,15.3412502],[-12.9149421,15.3632065],[-12.9288906,15.396312]],[[-12.8466153,15.5193833],[-12.8772305,15.5279119],[-12.8616543,15.504568],[-12.8416673,15.4995835],[-12.8466153,15.5193833]],[[-13.7884598,16.143259],[-13.7654491,16.1441485],[-13.7613451,16.1539129],[-13.7778652,16.1792791],[-13.7940436,16.1863185],[-13.8094896,16.1450587],[-13.7884598,16.143259]],[[-13.7526211,16.2592637],[-13.7684902,16.2439438],[-13.7500007,16.2412502],[-13.7526211,16.2592637]],[[-13.3880703,16.2008774],[-13.3865241,16.2200058],[-13.4271003,16.2232651],[-13.4378587,16.2039821],[-13.4364102,16.185993],[-13.5032559,16.1913641],[-13.5868659,16.1389959],[-13.5272999,16.1273899],[-13.5060701,16.1312008],[-13.4857197,16.1460495],[-13.4627774,16.1360988],[-13.4447272,16.157042],[-13.3880703,16.2008774]],[[-15.8191404,16.5081693],[-15.8084097,16.5080395],[-15.7715213,16.4945612],[-15.7546393,16.5264715],[-15.7876634,16.5369248],[-15.8041999,16.5456732],[-15.812685,16.5391674]],[[-15.812685,16.5391674],[-15.8191404,16.5081693]],[[-14.2230475,16.5890529],[-14.2402676,16.6195013],[-14.2812507,16.6079819],[-14.2949225,16.5857407],[-14.27069,16.5834503],[-14.2550788,16.5713323],[-14.2230475,16.5890529]],[[-14.3608893,19.7542628],[-14.3848639,19.7613185],[-14.4034024,19.7373927],[-14.3750007,19.7329168],[-14.3608893,19.7542628]],[[-9.9173347,16.4941025],[-9.9369636,16.4838161],[-9.9250007,16.4745835],[-9.9173347,16.4941025]],[[-9.5853197,16.6348944],[-9.5649746,16.647431],[-9.573666,16.6753647],[-9.6121752,16.6884832],[-9.641,16.6795029],[-9.6531745,16.6451442],[-9.6256192,16.6281601],[-9.5916673,16.6245835],[-9.5853197,16.6348944]],[[-5.5047045,15.5292873],[-5.4984056,15.5718735],[-5.5417325,15.5865464],[-5.5368822,15.5537502],[-5.5393562,15.5370754],[-5.508334,15.5245835],[-5.5047045,15.5292873]],[[-5.7380378,15.6376206],[-5.7199063,15.651618],[-5.7223965,15.66848],[-5.7921394,15.6803289],[-5.7774258,15.6428737],[-5.7416674,15.6329168],[-5.7380378,15.6376206]],[[-5.6286303,15.6626206],[-5.6433926,15.6865464],[-5.6595385,15.6471177],[-5.6250007,15.6412502],[-5.6286303,15.6626206]],[[-5.9300463,15.8692287],[-5.9688646,15.8863185],[-5.9615567,15.853742],[-5.9250007,15.8495835],[-5.9300463,15.8692287]],[[-5.7163744,16.5868638],[-5.7639981,16.594957],[-5.7635912,16.5658677],[-5.7000007,16.5579168],[-5.7163744,16.5868638]],[[-12.4294766,22.742007],[-12.4414557,22.7607285],[-12.4843919,22.764179],[-12.5058763,22.7456691],[-12.5345873,22.7051906],[-12.5039883,22.7041001],[-12.458334,22.6912501],[-12.4294766,22.742007]],[[-12.297364,22.8778672],[-12.3120449,22.8637395],[-12.2916673,22.8579168],[-12.297364,22.8778672]],[[-13.0888679,17.5051173],[-13.0857429,17.5190496],[-13.1186367,17.5029852],[-13.0916673,17.4995835],[-13.0888679,17.5051173]],[[-13.8972663,17.0704168],[-13.889291,17.0936224],[-13.9199551,17.0830918],[-13.9312018,17.064118],[-13.9552904,17.0498439],[-13.9711432,17.0552882],[-13.9864427,17.0457464],[-13.9746426,17.011408],[-13.9468919,17.0131496],[-13.9197761,17.0193507],[-13.8885586,17.0450872],[-13.8972663,17.0704168]],[[-15.812685,16.5391674],[-15.8438483,16.5152736],[-15.8375898,16.5034542],[-15.8191404,16.5081693]],[[-11.4458991,16.6540268],[-11.4540046,16.6440171],[-11.4149421,16.587234],[-11.383334,16.5829168],[-11.3785489,16.5880723],[-11.3381843,16.6071315],[-11.3810228,16.6468288],[-11.4287279,16.6449407],[-11.4458991,16.6540268]],[[-7.2375821,16.6038315],[-7.2211758,16.6195908],[-7.3001635,16.6286688],[-7.3124193,16.6041977],[-7.2416674,16.5995835],[-7.2375821,16.6038315]],[[-17.04533,20.7901363],[-17.0279045,20.8437996],[-17.0290508,20.8566704],[-17.0475273,20.8733044],[-17.0518284,20.8900928],[-17.042923,20.9079647],[-17.0174618,20.9133472],[-17.0103855,20.9507523],[-17.0029526,20.9663315],[-17.0087414,20.9796848],[-17.0016842,21.0131836],[-17.0203783,21.0117579],[-17.044304,20.9918808],[-17.0617155,20.9381487],[-17.0664097,20.9018551],[-17.0664973,20.8529374],[-17.0530117,20.7923406],[-17.04533,20.7901363]],[[-12.4237962,14.9190741],[-12.4472826,14.928213],[-12.4556244,14.9200477],[-12.4517732,14.8929667],[-12.4416673,14.8912502],[-12.4237962,14.9190741]],[[-12.1713711,15.1292873],[-12.1548509,15.1420314],[-12.1463711,15.1617498],[-12.1870287,15.2198797],[-12.2202969,15.194013],[-12.2106778,15.1289455],[-12.1750007,15.1245835],[-12.1713711,15.1292873]],[[-10.1461433,16.3623927],[-10.1204759,16.3784694],[-10.1190111,16.4139023],[-10.1812181,16.4089056],[-10.2121914,16.3642604],[-10.1500007,16.3579168],[-10.1461433,16.3623927]],[[-12.5618008,16.0208522],[-12.58628,16.0365464],[-12.5952969,15.9992213],[-12.5666673,15.9912502],[-12.5618008,16.0208522]],[[-8.1416674,16.2579168],[-8.1767097,16.2519639],[-8.2036302,16.2376735],[-8.1496426,16.2292873],[-8.1416674,16.2579168]],[[-11.4166673,18.5412501],[-11.4166673,18.5579168],[-11.4416673,18.5579168],[-11.4416673,18.5412501],[-11.4166673,18.5412501]],[[-14.6741543,17.5608099],[-14.6966152,17.5698797],[-14.7202969,17.5242213],[-14.6916673,17.5162501],[-14.6741543,17.5608099]]],"bbox":[-17.0664973,14.8912502,-5.4984056,22.8778672]}