{"type":"Topology","objects":{"foo":{"type":"GeometryCollection","geometries":[{"type":"Polygon","arcs":[[0,1,2,3,4]],"properties":{"name":"Administrative unit not available","gaul_code":24967,"targetarea":235.5913038,"totpop":587674.594151,"country_id":"QAT","targetpop":518551.304798,"new_mean":0,"totalarea":1083.9912638}},{"type":"MultiPolygon","arcs":[[[5,6]],[[7,8]],[[9]],[[10,11,12,13,14,15,-9]]],"properties":{"name":"Administrative unit not available","gaul_code":24971,"targetarea":132.7564529,"totpop":297219.548351,"country_id":"QAT","targetpop":222319.006042,"new_mean":0,"totalarea":424.6842206}},{"type":"Polygon","arcs":[[16,17]],"properties":{"name":"Administrative unit not available","gaul_code":24969,"targetarea":10.3418179,"totpop":44626.5722172,"country_id":"QAT","targetpop":8735.5614929,"new_mean":0,"totalarea":1076.2566604}},{"type":"MultiPolygon","arcs":[[[18]],[[-7,19]],[[20,21,22,-4,23,-2,24,-14]]],"properties":{"name":"Administrative unit not available","gaul_code":24968,"targetarea":466.3449127,"totpop":2886711.73386,"country_id":"QAT","targetpop":2800004.73886,"new_mean":0,"totalarea":848.1307178}},{"type":"Polygon","arcs":[[25]],"properties":{"name":"Administrative unit not available","gaul_code":24965,"targetarea":2.3637781,"totpop":83391.9897599,"country_id":"QAT","targetpop":2204.0241089,"new_mean":0,"totalarea":2318.6384598}},{"type":"MultiPolygon","arcs":[[[26]],[[27,-18,28,-12],[29],[30]],[[31]]],"properties":{"name":"Administrative unit not available","gaul_code":24966,"targetarea":447.1511378,"totpop":834889.063757,"country_id":"QAT","targetpop":670414.35387,"new_mean":0,"totalarea":1066.2305959}},{"type":"MultiPolygon","arcs":[[[-22,32]],[[33]]],"properties":{"name":"Administrative unit not available","gaul_code":24970,"targetarea":15.4157186,"totpop":74885.6668157,"country_id":"QAT","targetpop":23161.8899536,"new_mean":0,"totalarea":3878.5001312}},{"type":"Polygon","arcs":[[34,-15,-25,-1]],"properties":{"name":"Administrative unit not available","gaul_code":24963,"targetarea":98.8516357,"totpop":1877106.64746,"country_id":"QAT","targetpop":1875823.38631,"new_mean":0,"totalarea":126.7076216}}]}},"arcs":[[[51.5770568,25.2393468],[51.5443115,25.21558]],[[51.5443115,25.21558],[51.5488471,25.204157]],[[51.5488471,25.204157],[51.581542,25.1957667],[51.5666657,25.1829168],[51.538264,25.1873927],[51.544111,25.2020913]],[[51.544111,25.2020913],[51.432587,25.1534495]],[[51.432587,25.1534495],[51.4730134,25.1518458],[51.5183259,25.1830266],[51.5294424,25.1620306],[51.5083324,25.1412501],[51.5290355,25.1365504],[51.5763988,25.1424423],[51.5597647,25.0692002],[51.5240876,25.0736394],[51.5401032,25.0319484],[51.5197745,24.9913681],[51.5217601,24.9755234],[51.5411937,24.9599513],[51.5780101,24.9606715],[51.601643,24.9745672],[51.6358226,25.0130966],[51.6244812,25.0332832],[51.6117829,25.0756292],[51.569335,25.0542099],[51.5728995,25.0829005],[51.6283031,25.1062404],[51.623065,25.1483393],[51.6186905,25.1586933],[51.6274567,25.2055302],[51.5973524,25.2350399],[51.5879717,25.2376597],[51.5770568,25.2393468]],[[51.3438905,25.3967208],[51.3486644,25.4263413],[51.3401683,25.4366237],[51.3258782,25.4027291]],[[51.3258782,25.4027291],[51.3438905,25.3967208]],[[51.4583324,25.4245834],[51.4681957,25.4444402],[51.4534984,25.4523829],[51.4499991,25.4245834]],[[51.4499991,25.4245834],[51.4583324,25.4245834]],[[51.3469229,25.498965],[51.3305329,25.4844305],[51.3499991,25.4745834],[51.3469229,25.498965]],[[51.4499991,25.4245834],[51.4212881,25.4145208],[51.4145265,25.5510426]],[[51.4145265,25.5510426],[51.4050915,25.5511602]],[[51.4050915,25.5511602],[51.3959952,25.5119248],[51.362792,25.4904892],[51.3620108,25.4537501],[51.3794587,25.4455104],[51.3676098,25.4231023],[51.404003,25.3893743],[51.3964392,25.3791923]],[[51.3964392,25.3791923],[51.4022598,25.3772507],[51.4087105,25.3523502],[51.4471703,25.3580894]],[[51.4471703,25.3580894],[51.5179424,25.3835421]],[[51.5179424,25.3835421],[51.4956045,25.3883774],[51.4629548,25.401089],[51.4953767,25.4181381],[51.4583324,25.4245834]],[[51.3960882,25.8312035],[51.3802237,25.8535914],[51.3462393,25.8432032],[51.3457677,25.8312383]],[[51.3457677,25.8312383],[51.3960882,25.8312035]],[[51.3260407,25.1363063],[51.313264,25.1217758],[51.3333324,25.1079168],[51.3260407,25.1363063]],[[51.3258782,25.4027291],[51.3197454,25.4047748],[51.3086761,25.4084672],[51.3046215,25.3935084],[51.3416657,25.3829168],[51.3438905,25.3967208]],[[51.3964392,25.3791923],[51.3900381,25.3705755],[51.3706696,25.3785914],[51.3541657,25.3699204],[51.2639639,25.3699773],[51.2456534,25.386937],[51.2460114,25.3955633],[51.2228995,25.4191798],[51.1793285,25.4209051],[51.1945954,25.3879257],[51.2051586,25.3781398],[51.2243643,25.3374375],[51.2626456,25.3372543],[51.2706696,25.3202581],[51.2784413,25.3184072],[51.2940157,25.3146982],[51.3123363,25.3035914],[51.3606111,25.280809],[51.3372387,25.244603],[51.3168521,25.2454095]],[[51.3168521,25.2454095],[51.3390198,25.1781502],[51.3279583,25.1724931]],[[51.3279583,25.1724931],[51.3624991,25.17025],[51.4052237,25.1719467],[51.3876618,25.1387599],[51.4207022,25.153921],[51.432587,25.1534495]],[[51.544111,25.2020913],[51.5488471,25.204157]],[[51.5443115,25.21558],[51.5253792,25.2521496],[51.5102615,25.2510395],[51.4471703,25.3580894]],[[50.7895824,25.4352646],[50.7803864,25.4204697],[50.7999991,25.4162501],[50.7895824,25.4352646]],[[51.4580493,25.5504999],[51.4495433,25.578034],[51.4377269,25.5559433],[51.4552501,25.5505348],[51.4580493,25.5504999]],[[51.4145265,25.5510426],[51.410725,25.627798],[51.4540355,25.6455877],[51.5180004,25.6437119],[51.5383129,25.662527],[51.5258255,25.6827564],[51.5239037,25.6951574],[51.5457349,25.7033522],[51.5622712,25.7186712],[51.562733,25.7305492],[51.5349827,25.7487361],[51.5085114,25.7347275],[51.4876456,25.778921],[51.4626618,25.7872421],[51.3949861,25.8033595],[51.3960882,25.8312035]],[[51.3457677,25.8312383],[51.3444327,25.7809352],[51.3621573,25.7474554],[51.371223,25.6428614],[51.3703441,25.6205633],[51.4035635,25.5897853],[51.4050915,25.5511602]],[[51.3833324,25.7412501],[51.3717439,25.7486679],[51.3795564,25.7858709],[51.3833324,25.7412501],[51.3916657,25.7329168],[51.4112784,25.7221624],[51.3956696,25.7143214],[51.3916657,25.7329168],[51.3833324,25.7412501]],[[51.4249991,25.7162501],[51.4521475,25.7222967],[51.4740713,25.6918361],[51.4569001,25.6711655],[51.4429353,25.7033636],[51.4355459,25.6937648],[51.4395824,25.6541367],[51.4056469,25.6737696],[51.421223,25.6866969],[51.4249991,25.7162501]],[[51.4139568,25.9148729],[51.4211417,25.8714707],[51.4435375,25.8568914],[51.46385,25.8863185],[51.4875479,25.8762884],[51.5200674,25.8279851],[51.5450674,25.8295151],[51.5773754,25.8416],[51.5829092,25.8662501],[51.5781403,25.8874537],[51.582634,25.9084339],[51.5751114,25.9192238],[51.5478554,25.9237823],[51.5214157,25.9425278],[51.5216659,25.9490369],[51.4885368,25.9509926],[51.4761772,25.9463005],[51.4504929,25.9456768],[51.4329255,25.9492579],[51.4138597,25.9199727],[51.4139568,25.9148729]],[[51.3168521,25.2454095],[51.298876,25.2461207],[51.3123363,25.2035914],[51.3279583,25.1724931]],[[51.2405569,25.3179782],[51.2388154,25.3179585],[51.2213695,25.308816],[51.2333324,25.2995835],[51.2405569,25.3179782]],[[51.5770568,25.2393468],[51.5592601,25.2686468],[51.5705643,25.2801189],[51.529007,25.2905674],[51.5051749,25.3000473],[51.539029,25.320604],[51.5308495,25.3282013],[51.5303612,25.3642979],[51.5332861,25.3802208],[51.5179424,25.3835421]]],"bbox":[50.7803864,24.9599513,51.6358226,25.9509926]}