{"type":"Topology","objects":{"foo":{"type":"GeometryCollection","geometries":[{"type":"MultiPolygon","arcs":[[[0]],[[1]]],"properties":{"name":"Dvokodvweni","gaul_code":25956,"targetarea":6.0489188,"totpop":33255.138588,"country_id":"SWZ","targetpop":2163.1421051,"new_mean":0.0288856,"totalarea":579.8653858}},{"type":"MultiPolygon","arcs":[[[2]],[[3]],[[4,5,6,7,8]],[[9]],[[10]]],"properties":{"name":"Mafutseni","gaul_code":25971,"targetarea":9.1583716,"totpop":22053.9484329,"country_id":"SWZ","targetpop":3293.6431122,"new_mean":0.0239162,"totalarea":241.1577466}},{"type":"Polygon","arcs":[[11]],"properties":{"name":"Mhlume","gaul_code":25961,"targetarea":0.5266976,"totpop":19090.7504551,"country_id":"SWZ","targetpop":193.4789276,"new_mean":0.0371568,"totalarea":759.1706449}},{"type":"Polygon","arcs":[[12,13]],"properties":{"name":"Ndzingeni","gaul_code":25951,"targetarea":1.5004547,"totpop":23737.5786028,"country_id":"SWZ","targetpop":644.1884003,"new_mean":0.0386204,"totalarea":350.9052902}},{"type":"Polygon","arcs":[[14]],"properties":{"name":"Lavumisa","gaul_code":25985,"targetarea":0.7181778,"totpop":5828.5854282,"country_id":"SWZ","targetpop":425.9163055,"new_mean":0.0428764,"totalarea":316.7257082}},{"type":"MultiPolygon","arcs":[[[15]],[[16]],[[17,18]]],"properties":{"name":"Lamgabhi","gaul_code":25969,"targetarea":11.3845801,"totpop":15548.9425426,"country_id":"SWZ","targetpop":3683.6130219,"new_mean":0.0347899,"totalarea":120.6661016}},{"type":"Polygon","arcs":[[19,20,21,22,23,24,25]],"properties":{"name":"Ludzeludze","gaul_code":25970,"targetarea":37.4693514,"totpop":34049.0777092,"country_id":"SWZ","targetpop":21229.4879456,"new_mean":0.030577,"totalarea":174.6221554}},{"type":"Polygon","arcs":[[26,27,28]],"properties":{"name":"Motjane","gaul_code":25950,"targetarea":32.7840968,"totpop":32966.0040216,"country_id":"SWZ","targetpop":13490.8857269,"new_mean":0.022727,"totalarea":321.6414337}},{"type":"Polygon","arcs":[[29,30,31,-8]],"properties":{"name":"Mthongwaneni","gaul_code":25978,"targetarea":6.6722133,"totpop":17767.1735353,"country_id":"SWZ","targetpop":2320.5756836,"new_mean":0.0356405,"totalarea":272.1368709}},{"type":"Polygon","arcs":[[-19,32]],"properties":{"name":"Mhlambanyatsi","gaul_code":25976,"targetarea":3.0001755,"totpop":10800.8004603,"country_id":"SWZ","targetpop":1081.2150726,"new_mean":0.0357249,"totalarea":479.5509075}},{"type":"MultiPolygon","arcs":[[[33,34]],[[35,36]]],"properties":{"name":"Maseyisini","gaul_code":25986,"targetarea":9.4308378,"totpop":21448.695591,"country_id":"SWZ","targetpop":3367.4709015,"new_mean":0.0233547,"totalarea":201.0271604}},{"type":"Polygon","arcs":[[37,-29,38]],"properties":{"name":"Nkaba","gaul_code":25952,"targetarea":0.7678994,"totpop":16248.8679299,"country_id":"SWZ","targetpop":850.7567444,"new_mean":0.0287385,"totalarea":409.7880411}},{"type":"MultiPolygon","arcs":[[[39]],[[40]]],"properties":{"name":"Pigg's Peak","gaul_code":25954,"targetarea":4.641421,"totpop":19757.0781343,"country_id":"SWZ","targetpop":1473.6566162,"new_mean":0.0438695,"totalarea":481.4747986}},{"type":"Polygon","arcs":[[41]],"properties":{"name":"Mtsambama","gaul_code":25989,"targetarea":2.9085555,"totpop":17863.4108448,"country_id":"SWZ","targetpop":1158.8598328,"new_mean":0.0381968,"totalarea":275.5809248}},{"type":"Polygon","arcs":[[42]],"properties":{"name":"Mkhiweni","gaul_code":25977,"targetarea":0.6222473,"totpop":25330.4271266,"country_id":"SWZ","targetpop":238.2231598,"new_mean":0.0303542,"totalarea":418.7985551}},{"type":"MultiPolygon","arcs":[[[43,44,45]],[[46,47]]],"properties":{"name":"Hhukwini","gaul_code":25943,"targetarea":2.8480593,"totpop":10450.9883862,"country_id":"SWZ","targetpop":1317.7659302,"new_mean":0.0301376,"totalarea":161.6578975}},{"type":"MultiPolygon","arcs":[[[-31,48,49]],[[50,51]]],"properties":{"name":"Nhlambeni","gaul_code":25980,"targetarea":0.7662694,"totpop":13786.8866963,"country_id":"SWZ","targetpop":341.2892761,"new_mean":0.0251624,"totalarea":223.091208}},{"type":"Polygon","arcs":[[52,-25,53,54,-51,55]],"properties":{"name":"Kwaluseni","gaul_code":25968,"targetarea":24.8070545,"totpop":38147.4804764,"country_id":"SWZ","targetpop":37396.6959229,"new_mean":0.0268573,"totalarea":27.2676606}},{"type":"Polygon","arcs":[[56]],"properties":{"name":"Siphofaneni","gaul_code":25964,"targetarea":6.8434305,"totpop":26252.8791342,"country_id":"SWZ","targetpop":2096.3301086,"new_mean":0.0330906,"totalarea":525.5256284}},{"type":"MultiPolygon","arcs":[[[57]],[[58]],[[59]]],"properties":{"name":"Timpisini","gaul_code":25955,"targetarea":3.9287977,"totpop":9555.0607317,"country_id":"SWZ","targetpop":1464.4495239,"new_mean":0.0341743,"totalarea":89.4977773}},{"type":"MultiPolygon","arcs":[[[60,-26,61,-6]],[[62]]],"properties":{"name":"Kukhanyeni","gaul_code":25967,"targetarea":19.9429121,"totpop":37387.4625416,"country_id":"SWZ","targetpop":13698.6949158,"new_mean":0.0275751,"totalarea":236.4750713}},{"type":"Polygon","arcs":[[63]],"properties":{"name":"Lugongolweni","gaul_code":25960,"targetarea":5.6214874,"totpop":14051.4968033,"country_id":"SWZ","targetpop":1539.5785523,"new_mean":0.0406072,"totalarea":457.4983557}},{"type":"Polygon","arcs":[[-62,-53,64,-49,-30,-7]],"properties":{"name":"Manzini","gaul_code":25975,"targetarea":40.1340196,"totpop":56837.8064957,"country_id":"SWZ","targetpop":56279.3805847,"new_mean":0.0263694,"totalarea":42.8698054}},{"type":"Polygon","arcs":[[65]],"properties":{"name":"Nkilongo","gaul_code":25963,"targetarea":3.6623093,"totpop":14939.8101048,"country_id":"SWZ","targetpop":782.4360504,"new_mean":0.034487,"totalarea":470.8819436}},{"type":"MultiPolygon","arcs":[[[66]],[[67]]],"properties":{"name":"Lomahasha","gaul_code":25958,"targetarea":8.8561783,"totpop":22743.4225788,"country_id":"SWZ","targetpop":4519.1776886,"new_mean":0.0430762,"totalarea":325.2576591}},{"type":"MultiPolygon","arcs":[[[68]],[[69]],[[-54,-24,70]],[[71,72,-22]]],"properties":{"name":"Mahlanya","gaul_code":25973,"targetarea":11.3011343,"totpop":19177.840189,"country_id":"SWZ","targetpop":3110.1634216,"new_mean":0.0291128,"totalarea":151.782098}},{"type":"Polygon","arcs":[[73]],"properties":{"name":"Hlane","gaul_code":25957,"targetarea":0.5251118,"totpop":8861.144206,"country_id":"SWZ","targetpop":264.4056702,"new_mean":0.0258924,"totalarea":468.0802076}},{"type":"Polygon","arcs":[[74,-36,75,-34]],"properties":{"name":"Mbangweni","gaul_code":25988,"targetarea":18.4402108,"totpop":26768.8015499,"country_id":"SWZ","targetpop":9318.9784393,"new_mean":0.0317022,"totalarea":271.7781743}},{"type":"Polygon","arcs":[[76]],"properties":{"name":"Ntfonjeni","gaul_code":25953,"targetarea":9.497378,"totpop":24547.6344385,"country_id":"SWZ","targetpop":2768.6373596,"new_mean":0.0350853,"totalarea":296.1156874}},{"type":"MultiPolygon","arcs":[[[-21,77,-72]],[[-45,78,79]]],"properties":{"name":"Lobamba","gaul_code":25944,"targetarea":49.3940703,"totpop":28798.9903297,"country_id":"SWZ","targetpop":20969.9550323,"new_mean":0.0309977,"totalarea":126.6797449}},{"type":"MultiPolygon","arcs":[[[80]],[[81,-13]],[[82]],[[83]]],"properties":{"name":"Mayiwane","gaul_code":25947,"targetarea":3.7043003,"totpop":16970.831583,"country_id":"SWZ","targetpop":1294.2330322,"new_mean":0.0323007,"totalarea":191.5898648}},{"type":"Polygon","arcs":[[-28,84,-79,-44,85,-48,86,-39]],"properties":{"name":"Mbabane","gaul_code":25948,"targetarea":68.6167209,"totpop":67742.9893513,"country_id":"SWZ","targetpop":63880.4893951,"new_mean":0.0360582,"totalarea":102.9302391}}]}},"arcs":[[[31.7304842,-26.4069268],[31.7231762,-26.4142266],[31.7333325,-26.417083],[31.7304842,-26.4069268]],[[31.7795564,-26.4125339],[31.7621085,-26.4049655],[31.7486645,-26.3887708],[31.7378898,-26.4125501],[31.7833325,-26.417083],[31.7795564,-26.4125339]],[[31.5083325,-26.5087497],[31.5026847,-26.4980319],[31.4864189,-26.5032236],[31.4903896,-26.5064191],[31.5083325,-26.5087497]],[[31.4666658,-26.492083],[31.46798,-26.496769],[31.4735246,-26.4982332],[31.4666658,-26.492083]],[[31.4666658,-26.492083],[31.4713859,-26.469972],[31.4537367,-26.4710246]],[[31.4537367,-26.4710246],[31.4468002,-26.4777031]],[[31.4468002,-26.4777031],[31.4543171,-26.4897404]],[[31.4543171,-26.4897404],[31.4588657,-26.4928957]],[[31.4588657,-26.4928957],[31.4666658,-26.492083]],[[31.4971508,-26.4485934],[31.4898429,-26.4558932],[31.4999992,-26.4587497],[31.4971508,-26.4485934]],[[31.5193025,-26.4304701],[31.5046215,-26.4445895],[31.5249992,-26.4504163],[31.5193025,-26.4304701]],[[31.8221508,-26.0485934],[31.8148429,-26.0558932],[31.8249992,-26.0587497],[31.8221508,-26.0485934]],[[31.5111604,-25.9267194],[31.4967657,-25.9246469]],[[31.4967657,-25.9246469],[31.5083325,-25.9337497],[31.5111604,-25.9267194]],[[31.980192,-27.1825922],[31.9725089,-27.1957777],[31.9796893,-27.198855],[31.980192,-27.1825922]],[[31.1318381,-26.5902171],[31.1245597,-26.5811292],[31.0956535,-26.5633802],[31.0712882,-26.5843193],[31.1286143,-26.5914926],[31.1318381,-26.5902171]],[[31.0804842,-26.5485934],[31.0731762,-26.5558932],[31.0833325,-26.5587497],[31.0804842,-26.5485934]],[[31.0176889,-26.5374158],[31.0333325,-26.542083],[31.0280404,-26.5229051]],[[31.0280404,-26.5229051],[31.0165863,-26.532959],[31.0176889,-26.5374158]],[[31.3409546,-26.4629583],[31.321158,-26.464137],[31.3205721,-26.4543714],[31.3372713,-26.4394544],[31.3122876,-26.4381768],[31.2973787,-26.4214857],[31.278938,-26.4376803],[31.2615437,-26.4553648]],[[31.2615437,-26.4553648],[31.2622414,-26.461235],[31.2493858,-26.4704132]],[[31.2493858,-26.4704132],[31.2496566,-26.4728675]],[[31.2496566,-26.4728675],[31.2713198,-26.4839725],[31.2754451,-26.4858661],[31.2808334,-26.4951982]],[[31.2808334,-26.4951982],[31.297163,-26.4893284]],[[31.297163,-26.4893284],[31.2969036,-26.4813499],[31.3033905,-26.4794655],[31.3354702,-26.4787846]],[[31.3354702,-26.4787846],[31.3409546,-26.4629583]],[[31.1283308,-26.2791693],[31.1168774,-26.2805921],[31.0861157,-26.2559665],[31.0712882,-26.2374525],[31.0537101,-26.2300469],[31.0266919,-26.2141615],[30.9960803,-26.2103543],[30.992597,-26.2170894],[30.9979484,-26.2260186],[31.0444653,-26.2393161],[31.0639152,-26.2724053],[31.0619295,-26.2883314],[31.0796216,-26.2957858],[31.0887031,-26.3203475]],[[31.0887031,-26.3203475],[31.0953655,-26.3159142],[31.081934,-26.2898712],[31.0853596,-26.2719746],[31.098423,-26.2729702],[31.1122723,-26.2786026],[31.1151142,-26.2897949],[31.1248169,-26.2909889],[31.1299095,-26.2817554]],[[31.1299095,-26.2817554],[31.1283308,-26.2791693]],[[31.4543171,-26.4897404],[31.4494019,-26.493021],[31.4271889,-26.490181],[31.4120502,-26.4957886],[31.3970642,-26.5041485],[31.3893375,-26.5128441],[31.3863678,-26.5408459]],[[31.3863678,-26.5408459],[31.3864424,-26.5409594]],[[31.3864424,-26.5409594],[31.3998038,-26.5118421],[31.428938,-26.4960137],[31.4588657,-26.4928957]],[[31.0280404,-26.5229051],[30.9971997,-26.5293958],[31.0051912,-26.5435153],[31.0176889,-26.5374158]],[[31.2284986,-27.1254057],[31.2234936,-27.122448],[31.2012271,-27.131048]],[[31.2012271,-27.131048],[31.2249992,-27.1337497],[31.2284986,-27.1254057]],[[31.1754608,-27.1131417],[31.1594639,-27.0880108],[31.1725684,-27.0802256]],[[31.1725684,-27.0802256],[31.1396476,-27.0720146],[31.1556144,-27.0965426],[31.1434562,-27.1049329],[31.1754608,-27.1131417]],[[31.1513421,-26.2776796],[31.1283308,-26.2791693]],[[31.1299095,-26.2817554],[31.1513421,-26.2776796]],[[31.2388175,-25.9819268],[31.2315096,-25.9892266],[31.2416658,-25.992083],[31.2388175,-25.9819268]],[[31.2497225,-25.9466078],[31.2376619,-25.9698744],[31.2666658,-25.9754163],[31.2497225,-25.9466078]],[[31.32941,-26.956113],[31.3135571,-26.9792331],[31.3333325,-26.9837497],[31.32941,-26.956113]],[[31.4804842,-26.3152601],[31.4731762,-26.3225599],[31.4833325,-26.3254163],[31.4804842,-26.3152601]],[[31.1687012,-26.3511596],[31.1634808,-26.3443909],[31.1559525,-26.3494072],[31.1611958,-26.3621483],[31.1593666,-26.3684578]],[[31.1593666,-26.3684578],[31.163531,-26.3677417]],[[31.163531,-26.3677417],[31.1687012,-26.3511596]],[[31.1749426,-26.3421266],[31.18177,-26.336655],[31.177461,-26.3215489]],[[31.177461,-26.3215489],[31.1749426,-26.3421266]],[[31.3863678,-26.5408459],[31.3862845,-26.5413036]],[[31.3862845,-26.5413036],[31.3864424,-26.5409594]],[[31.3358487,-26.5194913],[31.3248367,-26.5253067],[31.3133074,-26.5349073]],[[31.3133074,-26.5349073],[31.3358487,-26.5194913]],[[31.3480061,-26.5109989],[31.3350792,-26.4921799],[31.3354702,-26.4787846]],[[31.297163,-26.4893284],[31.3025723,-26.4973545],[31.2918243,-26.5050354],[31.2800713,-26.5091782],[31.2864304,-26.5205676]],[[31.2864304,-26.5205676],[31.3133074,-26.5349073]],[[31.3358487,-26.5194913],[31.3480061,-26.5109989]],[[31.686132,-26.6948825],[31.7007641,-26.6764661],[31.6787426,-26.6642835],[31.6721997,-26.7031182],[31.6833325,-26.7087497],[31.686132,-26.6948825]],[[31.4221508,-25.7735934],[31.4148429,-25.7808932],[31.4249992,-25.7837497],[31.4221508,-25.7735934]],[[31.4204744,-25.7565036],[31.4058423,-25.7637057],[31.4249992,-25.767083],[31.4204744,-25.7565036]],[[31.4696138,-25.7481023],[31.4626828,-25.7437298],[31.4471997,-25.7552422],[31.4749992,-25.7587497],[31.4696138,-25.7481023]],[[31.4537367,-26.4710246],[31.4379549,-26.4719658],[31.4088859,-26.4516615],[31.3868644,-26.4636244],[31.3583325,-26.4619235],[31.3409546,-26.4629583]],[[31.3354702,-26.4787846],[31.3526192,-26.4783001],[31.3838558,-26.4849358],[31.3909359,-26.4817734],[31.4024849,-26.4713173],[31.4156837,-26.4725971],[31.4291248,-26.4773788],[31.4437943,-26.4749451],[31.4468002,-26.4777031]],[[31.4138175,-26.4319268],[31.4065096,-26.4392266],[31.4166658,-26.442083],[31.4138175,-26.4319268]],[[31.9526684,-26.4297214],[31.9209139,-26.4466077],[31.9583325,-26.4587497],[31.9526684,-26.4297214]],[[31.3480061,-26.5109989],[31.3516919,-26.5084242],[31.3790989,-26.551521],[31.3841813,-26.5458868],[31.3862845,-26.5413036]],[[31.9465161,-26.7708753],[31.9395337,-26.7634535],[31.9297029,-26.7911797],[31.9416658,-26.8004163],[31.9465161,-26.7708753]],[[31.9888175,-26.1319268],[31.9815096,-26.1392266],[31.9916658,-26.142083],[31.9888175,-26.1319268]],[[32.0117342,-26.003818],[32.0227586,-25.9962078],[32.0041084,-25.9903049],[31.9903125,-25.9669366],[31.9799308,-26.001458],[32.0083325,-26.0087497],[32.0117342,-26.003818]],[[31.2721508,-26.5402601],[31.2648429,-26.5475599],[31.2749992,-26.5504163],[31.2721508,-26.5402601]],[[31.2056958,-26.5208428],[31.1901684,-26.5136813],[31.1799308,-26.5339775],[31.1916658,-26.542083],[31.2056958,-26.5208428]],[[31.2808334,-26.4951982],[31.2543937,-26.5188245],[31.2635896,-26.5219333],[31.2864304,-26.5205676]],[[31.2493858,-26.4704132],[31.2436385,-26.4695512]],[[31.2436385,-26.4695512],[31.2496566,-26.4728675]],[[31.6471508,-26.4069268],[31.6398429,-26.4142266],[31.6499992,-26.417083],[31.6471508,-26.4069268]],[[31.2284986,-27.1254057],[31.2304191,-27.1208265],[31.2197745,-27.1134779],[31.2227856,-27.1000664],[31.1784008,-27.0886813],[31.1725684,-27.0802256]],[[31.1754608,-27.1131417],[31.1848624,-27.1155531],[31.1950675,-27.130348],[31.2012271,-27.131048]],[[31.3249992,-25.8754163],[31.3376619,-25.8807386],[31.3629712,-25.864251],[31.3700675,-25.8500827],[31.3291495,-25.8592542],[31.3249992,-25.8754163]],[[31.2615437,-26.4553648],[31.237727,-26.4662936],[31.2436385,-26.4695512]],[[31.1593666,-26.3684578],[31.1494713,-26.373581]],[[31.1494713,-26.373581],[31.158479,-26.4050794],[31.1918286,-26.4599785],[31.2162106,-26.4669528],[31.2178344,-26.4644949],[31.2307609,-26.4358656],[31.1962882,-26.3791191],[31.1629549,-26.3695895],[31.163531,-26.3677417]],[[31.4823,-25.9206211],[31.4793286,-25.906821],[31.4692029,-25.9119102],[31.4823,-25.9206211]],[[31.5111604,-25.9267194],[31.5194327,-25.9061537],[31.4967657,-25.9246469]],[[31.5054842,-25.8652601],[31.4981762,-25.8725599],[31.5083325,-25.8754163],[31.5054842,-25.8652601]],[[31.4971508,-25.8485934],[31.4898429,-25.8558932],[31.4999992,-25.8587497],[31.4971508,-25.8485934]],[[31.0887031,-26.3203475],[31.1010245,-26.3536716],[31.1124992,-26.3551038],[31.1430981,-26.3512952],[31.1494713,-26.373581]],[[31.1687012,-26.3511596],[31.1749426,-26.3421266]],[[31.177461,-26.3215489],[31.1702954,-26.2964287],[31.1714322,-26.2872604],[31.1670895,-26.2796359],[31.1513421,-26.2776796]]],"bbox":[30.992597,-27.198855,32.0227586,-25.7437298]}