{"type":"Topology","objects":{"foo":{"type":"GeometryCollection","geometries":[{"type":"MultiPolygon","arcs":[[[0]],[[1]]],"properties":{"name":"Leo-mbassa","gaul_code":65556,"targetarea":1.8555589,"totpop":54193.2416306,"country_id":"TCD","targetpop":741.4716644,"new_mean":0.0277768,"totalarea":424.5077317}},{"type":"Polygon","arcs":[[2,3]],"properties":{"name":"Nderguigui","gaul_code":65628,"targetarea":27.4144846,"totpop":37521.4398003,"country_id":"TCD","targetpop":8605.5428314,"new_mean":0.0224986,"totalarea":306.2637853}},{"type":"Polygon","arcs":[[4]],"properties":{"name":"Biramanda","gaul_code":65408,"targetarea":2.5069843,"totpop":23257.9265022,"country_id":"TCD","targetpop":879.9305725,"new_mean":0.0187312,"totalarea":167.2449136}},{"type":"Polygon","arcs":[[5,6]],"properties":{"name":"Dodinda","gaul_code":65454,"targetarea":2.8716468,"totpop":35833.3127365,"country_id":"TCD","targetpop":913.5309601,"new_mean":0.0231302,"totalarea":316.8079}},{"type":"Polygon","arcs":[[7]],"properties":{"name":"Kachimel-abeche","gaul_code":65501,"targetarea":2.8014683,"totpop":74524.8973503,"country_id":"TCD","targetpop":956.7728119,"new_mean":0.0201697,"totalarea":1143.2172769}},{"type":"Polygon","arcs":[[8,9,10]],"properties":{"name":"Afrouk","gaul_code":65354,"targetarea":0.173973,"totpop":28395.10709,"country_id":"TCD","targetpop":0,"new_mean":0.0286517,"totalarea":626.8768654}},{"type":"Polygon","arcs":[[11,12,13]],"properties":{"name":"Tamion-ngolo","gaul_code":65675,"targetarea":5.31256,"totpop":29738.1834221,"country_id":"TCD","targetpop":1503.1497498,"new_mean":0.0218295,"totalarea":252.4160568}},{"type":"MultiPolygon","arcs":[[[14,15,16]],[[17,18]]],"properties":{"name":"Lere-tchad","gaul_code":65557,"targetarea":67.1544213,"totpop":103821.930562,"country_id":"TCD","targetpop":26715.9441299,"new_mean":0.022035,"totalarea":927.5435143}},{"type":"MultiPolygon","arcs":[[[19]],[[20]]],"properties":{"name":"Nassian","gaul_code":65626,"targetarea":6.980541,"totpop":34278.4680901,"country_id":"TCD","targetpop":2073.3810425,"new_mean":0.0227176,"totalarea":271.8413681}},{"type":"MultiPolygon","arcs":[[[21]],[[22]]],"properties":{"name":"Gounou-gaya","gaul_code":65487,"targetarea":9.2175811,"totpop":34190.4514923,"country_id":"TCD","targetpop":2665.8991089,"new_mean":0.0245967,"totalarea":261.9152965}},{"type":"Polygon","arcs":[[23]],"properties":{"name":"Koumra","gaul_code":65546,"targetarea":4.7817115,"totpop":88217.656456,"country_id":"TCD","targetpop":1201.5460968,"new_mean":0.0255483,"totalarea":1089.7244071}},{"type":"MultiPolygon","arcs":[[[24,25,26]],[[27,28]]],"properties":{"name":"Bebedjia","gaul_code":65379,"targetarea":14.9111052,"totpop":54263.7503281,"country_id":"TCD","targetpop":4346.0477142,"new_mean":0.0218374,"totalarea":478.6336804}},{"type":"Polygon","arcs":[[29]],"properties":{"name":"Beti","gaul_code":65403,"targetarea":3.7551661,"totpop":61842.0210609,"country_id":"TCD","targetpop":891.0826263,"new_mean":0.026929,"totalarea":530.0857964}},{"type":"Polygon","arcs":[[30,-10,31,32]],"properties":{"name":"Ndjamena","gaul_code":65629,"targetarea":350.8222308,"totpop":1401734.32407,"country_id":"TCD","targetpop":1398340.71579,"new_mean":0.0243643,"totalarea":393.5684046}},{"type":"Polygon","arcs":[[33,34]],"properties":{"name":"Nankesse","gaul_code":65625,"targetarea":14.405032,"totpop":14920.5803757,"country_id":"TCD","targetpop":4449.2595825,"new_mean":0.0238823,"totalarea":69.6440961}},{"type":"Polygon","arcs":[[35,36]],"properties":{"name":"Molou","gaul_code":65607,"targetarea":2.7771065,"totpop":150766.392607,"country_id":"TCD","targetpop":774.5475006,"new_mean":0.0243453,"totalarea":2351.239468}},{"type":"Polygon","arcs":[[37]],"properties":{"name":"Bongor","gaul_code":65416,"targetarea":35.8358509,"totpop":43847.4541206,"country_id":"TCD","targetpop":13282.2472992,"new_mean":0.0238845,"totalarea":939.171221}},{"type":"MultiPolygon","arcs":[[[38]],[[39]],[[-4,40]]],"properties":{"name":"Bedjondo","gaul_code":65385,"targetarea":34.401698,"totpop":44454.4732971,"country_id":"TCD","targetpop":10710.4020844,"new_mean":0.020706,"totalarea":247.5863282}},{"type":"MultiPolygon","arcs":[[[41,42,-12]],[[43]]],"properties":{"name":"Lai","gaul_code":65552,"targetarea":16.7281198,"totpop":19577.3912678,"country_id":"TCD","targetpop":4315.0869141,"new_mean":0.0245405,"totalarea":138.452841}},{"type":"Polygon","arcs":[[44,-29]],"properties":{"name":"Besseye","gaul_code":65402,"targetarea":1.9998228,"totpop":13051.0048103,"country_id":"TCD","targetpop":760.1669769,"new_mean":0.0191122,"totalarea":144.5496237}},{"type":"Polygon","arcs":[[45,-37]],"properties":{"name":"Guergne","gaul_code":65492,"targetarea":34.4656948,"totpop":82910.4800968,"country_id":"TCD","targetpop":14771.7213287,"new_mean":0.0226501,"totalarea":1000.0666944}},{"type":"Polygon","arcs":[[46]],"properties":{"name":"Mani","gaul_code":65572,"targetarea":2.9252685,"totpop":132747.067831,"country_id":"TCD","targetpop":1151.6558838,"new_mean":0.0283811,"totalarea":2918.9720684}},{"type":"Polygon","arcs":[[47]],"properties":{"name":"Delbian","gaul_code":65437,"targetarea":52.2629179,"totpop":58526.6826363,"country_id":"TCD","targetpop":15680.7727966,"new_mean":0.0185769,"totalarea":358.8788551}},{"type":"Polygon","arcs":[[48,49]],"properties":{"name":"Saar","gaul_code":65656,"targetarea":2.0029455,"totpop":11005.0830956,"country_id":"TCD","targetpop":484.4307556,"new_mean":0.0191219,"totalarea":88.4573111}},{"type":"MultiPolygon","arcs":[[[50]],[[51,52,53]]],"properties":{"name":"Kelo","gaul_code":65512,"targetarea":16.2728481,"totpop":14990.9552612,"country_id":"TCD","targetpop":4085.7437744,"new_mean":0.0206247,"totalarea":71.6907893}},{"type":"Polygon","arcs":[[54,55,-26]],"properties":{"name":"Beladjia","gaul_code":65393,"targetarea":7.1900922,"totpop":10923.1540298,"country_id":"TCD","targetpop":2136.6496735,"new_mean":0.0225753,"totalarea":71.8118536}},{"type":"Polygon","arcs":[[56,57]],"properties":{"name":"Koutoutou","gaul_code":65548,"targetarea":0.8698092,"totpop":13911.1746674,"country_id":"TCD","targetpop":219.7830811,"new_mean":0.0178263,"totalarea":109.842346}},{"type":"Polygon","arcs":[[58]],"properties":{"name":"Bedaya","gaul_code":65384,"targetarea":9.2052408,"totpop":50897.1901684,"country_id":"TCD","targetpop":2639.363205,"new_mean":0.0326609,"totalarea":632.7620014}},{"type":"Polygon","arcs":[[59,60]],"properties":{"name":"Youe","gaul_code":65696,"targetarea":3.4229236,"totpop":28624.4840887,"country_id":"TCD","targetpop":755.7142029,"new_mean":0.0262553,"totalarea":242.7411976}},{"type":"MultiPolygon","arcs":[[[61,62]],[[-17,63,64]]],"properties":{"name":"Guegou","gaul_code":65490,"targetarea":4.124537,"totpop":7788.7751503,"country_id":"TCD","targetpop":1157.9706726,"new_mean":0.0187195,"totalarea":66.0904676}},{"type":"MultiPolygon","arcs":[[[65]],[[-53,66]]],"properties":{"name":"Lele","gaul_code":65555,"targetarea":22.3892073,"totpop":109060.968775,"country_id":"TCD","targetpop":6181.3557434,"new_mean":0.0221441,"totalarea":1142.1386887}},{"type":"MultiPolygon","arcs":[[[67]],[[-43,68,-13]]],"properties":{"name":"Bere-tchad","gaul_code":65396,"targetarea":22.6336653,"totpop":51747.4208603,"country_id":"TCD","targetpop":6757.6140747,"new_mean":0.0234992,"totalarea":394.7427778}},{"type":"Polygon","arcs":[[69,-35,70,71]],"properties":{"name":"Mango","gaul_code":65570,"targetarea":27.6179974,"totpop":18689.809166,"country_id":"TCD","targetpop":10163.9024353,"new_mean":0.0230188,"totalarea":104.9037496}},{"type":"Polygon","arcs":[[72]],"properties":{"name":"Djoumane","gaul_code":65451,"targetarea":3.083975,"totpop":16392.1402225,"country_id":"TCD","targetpop":711.7763214,"new_mean":0.0241786,"totalarea":138.0434058}},{"type":"Polygon","arcs":[[73,-72]],"properties":{"name":"Doba","gaul_code":65452,"targetarea":34.6945819,"totpop":39792.1386528,"country_id":"TCD","targetpop":12786.2941742,"new_mean":0.0284091,"totalarea":269.2722506}},{"type":"Polygon","arcs":[[74,75,76,77]],"properties":{"name":"Mbaikoro","gaul_code":65585,"targetarea":31.1230829,"totpop":35211.3687344,"country_id":"TCD","targetpop":13214.6968384,"new_mean":0.0249579,"totalarea":313.5170641}},{"type":"Polygon","arcs":[[78,79,-76]],"properties":{"name":"Mballa","gaul_code":65588,"targetarea":29.536307,"totpop":101590.552956,"country_id":"TCD","targetpop":12476.7247009,"new_mean":0.022227,"totalarea":789.4878389}},{"type":"MultiPolygon","arcs":[[[80]],[[81,82,83]],[[84,85]]],"properties":{"name":"Malboum/hollom","gaul_code":65567,"targetarea":52.3248917,"totpop":105259.0978,"country_id":"TCD","targetpop":16289.2534637,"new_mean":0.0247456,"totalarea":871.3733785}},{"type":"Polygon","arcs":[[-16,86,-63,87,-64]],"properties":{"name":"Bipare","gaul_code":65406,"targetarea":15.1231247,"totpop":10521.3076859,"country_id":"TCD","targetpop":4636.9386444,"new_mean":0.0199836,"totalarea":52.8208816}},{"type":"MultiPolygon","arcs":[[[88]],[[89,-11,-31,90]]],"properties":{"name":"Kadada","gaul_code":65502,"targetarea":56.6773974,"totpop":67061.9181709,"country_id":"TCD","targetpop":29503.7169189,"new_mean":0.0220326,"totalarea":889.6016422}},{"type":"Polygon","arcs":[[-49,91,-57,92]],"properties":{"name":"Benoye","gaul_code":65395,"targetarea":26.423756,"totpop":47271.9156113,"country_id":"TCD","targetpop":7394.5676727,"new_mean":0.0182558,"totalarea":351.1807245}},{"type":"Polygon","arcs":[[-80,93,94,95,96,-77]],"properties":{"name":"Moundou/koutou","gaul_code":65616,"targetarea":47.7641736,"totpop":41168.4277115,"country_id":"TCD","targetpop":20136.6422882,"new_mean":0.022697,"totalarea":195.4052823}},{"type":"MultiPolygon","arcs":[[[97,98]],[[99]],[[100,-60]],[[-82,101,102]],[[103,-86]]],"properties":{"name":"Fianga","gaul_code":65468,"targetarea":38.6909577,"totpop":54086.8763123,"country_id":"TCD","targetpop":12101.5433655,"new_mean":0.0255874,"totalarea":280.54357}},{"type":"Polygon","arcs":[[-97,104,-95,105,-78]],"properties":{"name":"Boro","gaul_code":65418,"targetarea":51.4776657,"totpop":45713.7703743,"country_id":"TCD","targetpop":20545.9026489,"new_mean":0.0238488,"totalarea":476.8333982}},{"type":"Polygon","arcs":[[106]],"properties":{"name":"Bao","gaul_code":65373,"targetarea":4.367144,"totpop":21941.6369171,"country_id":"TCD","targetpop":1529.0640411,"new_mean":0.0179748,"totalarea":127.8570053}},{"type":"Polygon","arcs":[[-91,-33,107]],"properties":{"name":"El-fass","gaul_code":65463,"targetarea":8.2994573,"totpop":58411.6164656,"country_id":"TCD","targetpop":4266.9481811,"new_mean":0.0262037,"totalarea":879.4565396}},{"type":"MultiPolygon","arcs":[[[-98,108]],[[-103,109,-83]]],"properties":{"name":"Kera","gaul_code":65514,"targetarea":25.017018,"totpop":52231.5314188,"country_id":"TCD","targetpop":9024.2402496,"new_mean":0.0247107,"totalarea":465.0804815}},{"type":"Polygon","arcs":[[110,-19]],"properties":{"name":"Lagon","gaul_code":65551,"targetarea":4.5429667,"totpop":110490.140844,"country_id":"TCD","targetpop":1351.7048035,"new_mean":0.0241668,"totalarea":1807.1019419}},{"type":"Polygon","arcs":[[111]],"properties":{"name":"Ham","gaul_code":65494,"targetarea":3.165042,"totpop":14627.3681793,"country_id":"TCD","targetpop":696.2359314,"new_mean":0.0254587,"totalarea":146.2684749}},{"type":"Polygon","arcs":[[-27,-56,112]],"properties":{"name":"Mbikou","gaul_code":65590,"targetarea":0.4108745,"totpop":19920.4785309,"country_id":"TCD","targetpop":0,"new_mean":0.0214683,"totalarea":208.8991116}},{"type":"Polygon","arcs":[[113,-7]],"properties":{"name":"Boye-bessao","gaul_code":65424,"targetarea":8.4832196,"totpop":33862.4227691,"country_id":"TCD","targetpop":2397.3731079,"new_mean":0.0384706,"totalarea":710.1958069}},{"type":"Polygon","arcs":[[114]],"properties":{"name":"Kome/ndobele","gaul_code":65534,"targetarea":2.2733473,"totpop":51171.7618065,"country_id":"TCD","targetpop":659.2858887,"new_mean":0.0423641,"totalarea":916.2095039}}]}},"arcs":[[[15.7916659,9.8329168],[15.7999992,9.8245835],[15.7999992,9.8303753],[15.7937606,9.8329168],[15.7916659,9.8329168]],[[15.7916659,9.8329168],[15.7896292,9.840182],[15.7870491,9.8413087],[15.7916659,9.8329168]],[[17.1806325,8.6826828],[17.1778963,8.6993353],[17.1829419,8.7334255],[17.1513501,8.7448797],[17.129703,8.6963405],[17.1694932,8.6800542]],[[17.1694932,8.6800542],[17.1806325,8.6826828]],[[16.1390454,9.0342637],[16.1231763,9.0189439],[16.1416659,9.0162502],[16.1390454,9.0342637]],[[15.8827121,8.4449862],[15.8779452,8.4613185],[15.8514149,8.4229028]],[[15.8514149,8.4229028],[15.8620005,8.4350004],[15.8827121,8.4449862]],[[20.8526359,13.8528672],[20.8379549,13.8387396],[20.8583325,13.8329168],[20.8526359,13.8528672]],[[15.0566671,12.2261423],[15.0453821,12.2252499]],[[15.0453821,12.2252499],[15.0489998,12.2250004]],[[15.0489998,12.2250004],[15.0566671,12.2261423]],[[16.2887588,9.3537991],[16.2811203,9.3646479],[16.2772503,9.3795118]],[[16.2772503,9.3795118],[16.2590534,9.3664184]],[[16.2590534,9.3664184],[16.2916659,9.3412502],[16.2887588,9.3537991]],[[14.1028408,9.6370627],[14.1284172,9.6481553],[14.1081698,9.6649806],[14.0925038,9.6560068]],[[14.0925038,9.6560068],[14.1011,9.6408749]],[[14.1011,9.6408749],[14.1028408,9.6370627]],[[14.2838552,9.6373986],[14.2726229,9.6416001],[14.2689608,9.6579168],[14.2746737,9.6834173],[14.2492017,9.6891302],[14.2117342,9.6795152],[14.1965975,9.6696519],[14.1549309,9.6589626],[14.1628898,9.6324977],[14.1916659,9.6389512],[14.2128736,9.6381008],[14.2284009,9.6279852],[14.253965,9.6268973]],[[14.253965,9.6268973],[14.2838552,9.6373986]],[[16.7293286,8.9431789],[16.7137199,8.9353379],[16.7333325,8.9245835],[16.7293286,8.9431789]],[[16.6945305,8.9782049],[16.6709953,8.9666367],[16.6999992,8.9495835],[16.6945305,8.9782049]],[[15.5859693,9.6278672],[15.5712883,9.6137396],[15.5916659,9.6079168],[15.5859693,9.6278672]],[[15.5251131,9.6347153],[15.5082837,9.6526841],[15.4968905,9.6207708],[15.5166659,9.6162502],[15.5251131,9.6347153]],[[17.435367,8.8868068],[17.4043937,8.876321],[17.4249992,8.8579168],[17.435367,8.8868068]],[[16.3924713,8.6935746],[16.403938,8.6956529],[16.4370109,8.7166896],[16.4215464,8.7205333]],[[16.4215464,8.7205333],[16.4060001,8.717],[16.385828,8.7013111]],[[16.385828,8.7013111],[16.3924713,8.6935746]],[[16.4514951,8.7276605],[16.4471997,8.7195624],[16.4833325,8.7162502],[16.4776866,8.7392341]],[[16.4776866,8.7392341],[16.4514951,8.7276605]],[[16.9647453,8.4446478],[16.9459953,8.4317124],[16.9833325,8.4245835],[16.9647453,8.4446478]],[[15.1599998,12.0690002],[15.1309996,12.0979996],[15.0900002,12.1520004],[15.0559998,12.1920004],[15.0489998,12.2250004]],[[15.0453821,12.2252499],[14.9961418,12.2117743],[14.905299,12.191136],[14.9100265,12.1818113],[14.8924665,12.167798],[14.8957272,12.1521473],[14.9032106,12.150527],[14.9335747,12.1139002],[14.9464312,12.1081305],[14.9672241,12.0919914],[14.9805517,12.0903597],[14.9889755,12.0954065],[14.994606,12.1073637],[15.009346,12.112401],[15.0268745,12.1050072],[15.0380859,12.0962439],[15.0347719,12.0690985],[15.049963,12.0646992],[15.0611038,12.0415907],[15.0530643,12.0275002],[15.0397081,12.0241661],[15.0582275,12.0037508],[15.0778484,12.0017347],[15.086854,11.9894571],[15.1124917,11.987418],[15.1371328,11.9867179]],[[15.1371328,11.9867179],[15.1379995,12.0109997],[15.1470003,12.0439997],[15.1599998,12.0690002]],[[16.8286657,8.7277726],[16.8206047,8.7368475],[16.8127271,8.7539862],[16.8048332,8.7618475],[16.796108,8.6859551]],[[16.796108,8.6859551],[16.8101597,8.6983442],[16.8286657,8.7277726]],[[22.2166805,13.5083094],[22.2129224,13.5209865],[22.2009432,13.5194972],[22.1913085,13.507475]],[[22.1913085,13.507475],[22.2166805,13.5083094]],[[15.4180982,10.2536362],[15.383593,10.3094427],[15.3367668,10.3201808],[15.3387613,10.2990837],[15.3556976,10.2907524],[15.3670282,10.2716265],[15.3783751,10.2589417],[15.3934517,10.2510748],[15.4096498,10.230093],[15.4180982,10.2536362]],[[17.1999992,8.6079168],[17.2026197,8.5899033],[17.2184888,8.6052232],[17.1999992,8.6079168]],[[17.1999992,8.6079168],[17.2201327,8.6260524],[17.2224439,8.6487534],[17.2097648,8.6780015],[17.1962232,8.661697],[17.1803215,8.648493],[17.1686516,8.5960638],[17.1794426,8.5949652],[17.1999992,8.6079168]],[[17.1694932,8.6800542],[17.170149,8.6699245],[17.1833325,8.6662502],[17.1806325,8.6826828]],[[16.2887588,9.3537991],[16.2861158,9.3652085],[16.2887362,9.3829168],[16.2849927,9.4082586],[16.2675165,9.4138541]],[[16.2675165,9.4138541],[16.2717991,9.4051733],[16.2772503,9.3795118]],[[16.3204582,9.4083807],[16.2941073,9.4285142],[16.2966952,9.3849758],[16.3083325,9.3745835],[16.3204582,9.4083807]],[[16.4776866,8.7392341],[16.460188,8.7440497],[16.4514951,8.7276605]],[[22.1913085,13.507475],[22.1687004,13.4833848],[22.1731274,13.4477362],[22.2249992,13.4412502],[22.2164726,13.470953],[22.2218361,13.487957],[22.2166805,13.5083094]],[[14.9130363,12.3615464],[14.9202954,12.3749212],[14.9104681,12.3792276],[14.9130363,12.3615464]],[[16.1808911,9.0962876],[16.1775057,9.1191026],[16.1891594,9.1383978],[16.1868156,9.1541978],[16.2130363,9.1698797],[16.2202954,9.1878892],[16.190673,9.2032131],[16.1586581,9.1839056],[16.1645012,9.1443426],[16.1224276,9.0876003],[16.1499992,9.0829168],[16.1536776,9.0961045],[16.1808911,9.0962876]],[[16.3030872,9.0840793],[16.3235196,9.0772471]],[[16.3235196,9.0772471],[16.32876,9.0936844],[16.3287661,9.0937288],[16.3030872,9.0840793]],[[15.8249992,9.2995835],[15.8278889,9.3003951],[15.8263509,9.304405],[15.8249992,9.2995835]],[[15.8249992,9.2995835],[15.7998039,9.2943141],[15.787662,9.3215684],[15.8236985,9.3216041],[15.8242055,9.3270338],[15.7929354,9.3452582],[15.7709953,9.3063788],[15.7991108,9.2842153]],[[15.7991108,9.2842153],[15.8187788,9.2928703]],[[15.8187788,9.2928703],[15.8249992,9.2995835]],[[16.4215464,8.7205333],[16.3894361,8.7285142],[16.3710604,8.7001857],[16.3805957,8.6972415]],[[16.3805957,8.6972415],[16.385828,8.7013111]],[[16.2640233,9.0606321],[16.2605584,9.0738241]],[[16.2605584,9.0738241],[16.2583325,9.0662502],[16.2640233,9.0606321]],[[17.8749992,8.9245835],[17.8527173,8.9354396],[17.838785,8.9120469],[17.8684991,8.90557],[17.8713765,8.9071838],[17.8749992,8.9245835]],[[14.9844878,9.9018564],[14.9772027,9.9301945]],[[14.9772027,9.9301945],[14.962662,9.9087673],[14.9844878,9.9018564]],[[14.0554187,9.6053308],[14.0749992,9.5995835],[14.0787753,9.6124701],[14.0894341,9.6310748]],[[14.0894341,9.6310748],[14.0554187,9.6053308]],[[14.1011,9.6408749],[14.0898608,9.6314333]],[[14.0898608,9.6314333],[14.1028408,9.6370627]],[[15.79969,9.1305487],[15.7683586,9.1272609],[15.7775057,9.086461],[15.7999992,9.0829168],[15.8132642,9.0946519],[15.8200676,9.116478],[15.79969,9.1305487]],[[15.7991108,9.2842153],[15.8058423,9.2789089],[15.8187788,9.2928703]],[[16.1277987,9.3244248],[16.0963859,9.3360947],[16.0884921,9.3036851],[16.1166659,9.2995835],[16.1277987,9.3244248]],[[16.2675165,9.4138541],[16.2486971,9.4198797],[16.2562818,9.3685573],[16.2590534,9.3664184]],[[16.8714182,8.6796424],[16.8286657,8.7277726]],[[16.796108,8.6859551],[16.8168399,8.6656158]],[[16.8168399,8.6656158],[16.8287506,8.6670704],[16.8714182,8.6796424]],[[15.8202629,9.9024725],[15.804703,9.8902492],[15.8249992,9.8745835],[15.8202629,9.9024725]],[[16.8168399,8.6656158],[16.853938,8.6201808],[16.8749992,8.6079168],[16.878938,8.6289862],[16.8931633,8.6551621],[16.8714182,8.6796424]],[[16.1166532,8.5288066],[16.1202303,8.5309637],[16.1380052,8.6143502]],[[16.1380052,8.6143502],[16.1170006,8.6079998],[16.094141,8.5857124]],[[16.094141,8.5857124],[16.0769997,8.5690002]],[[16.0769997,8.5690002],[16.1087093,8.5345039],[16.1166532,8.5288066]],[[16.1380052,8.6143502],[16.1535148,8.6400661],[16.1124992,8.6340033],[16.0874992,8.6376979],[16.0675902,8.6347557]],[[16.0675902,8.6347557],[16.0744495,8.6158781],[16.094141,8.5857124]],[[15.3521639,9.9123846],[15.3211418,9.9190497],[15.3138664,9.8947577],[15.3416659,9.8912502],[15.3521639,9.9123846]],[[15.1526081,9.9415917],[15.1563396,9.904192]],[[15.1563396,9.904192],[15.1592587,9.8869674]],[[15.1592587,9.8869674],[15.1705884,9.8961493],[15.1959953,9.8863836],[15.2294426,9.9131374],[15.2305168,9.9532904],[15.1868645,9.9213975],[15.1880689,9.9116766],[15.1730298,9.90421],[15.1833326,9.9495835],[15.1526081,9.9415917]],[[15.1458553,9.97812],[15.1666659,9.9745835],[15.1692732,9.9839489],[15.142808,9.9945936]],[[15.142808,9.9945936],[15.1458553,9.97812]],[[14.0925038,9.6560068],[14.0788729,9.6542059],[14.0522453,9.6350409],[14.0554187,9.6053308]],[[14.0894341,9.6310748],[14.0898608,9.6314333]],[[15.1466626,12.1935207],[15.1391757,12.1792181],[15.1499992,12.1745835],[15.1466626,12.1935207]],[[15.1659353,12.0667745],[15.1705233,12.0985663],[15.1455233,12.1201076],[15.1346184,12.1327704],[15.1476229,12.1560899],[15.0730949,12.1893459],[15.0566671,12.2261423]],[[15.1599998,12.0690002],[15.1659353,12.0667745]],[[16.3030872,9.0840793],[16.2841626,9.076968],[16.2621411,9.07921],[16.2605584,9.0738241]],[[16.2640233,9.0606321],[16.2833325,9.0293198],[16.3138013,9.0467637],[16.3235196,9.0772471]],[[16.0675902,8.6347557],[16.0570467,8.6331976],[16.0463697,8.5948797],[16.0119621,8.5876206],[15.998632,8.5703517],[16.0032143,8.539377]],[[16.0032143,8.539377],[16.0304453,8.5521234]],[[16.0304453,8.5521234],[16.0451922,8.5587091]],[[16.0451922,8.5587091],[16.0769997,8.5690002]],[[15.0518022,9.7944437],[15.0651182,9.8103605]],[[15.0651182,9.8103605],[15.0564283,9.8271673],[15.0386385,9.8186672],[15.0475415,9.7950303],[15.0518022,9.7944437]],[[15.0458651,9.868183],[15.0220207,9.877912],[15.0300122,9.8462388],[15.0499992,9.8412502],[15.0458651,9.868183]],[[14.9844878,9.9018564],[14.9916659,9.8995835],[15.0204745,9.9268825],[14.9817701,9.9369248],[14.9772027,9.9301945]],[[15.1526081,9.9415917],[15.1306145,9.9358709],[15.121121,9.9030054]],[[15.121121,9.9030054],[15.13939,9.905201],[15.1563396,9.904192]],[[15.142808,9.9945936],[15.129361,9.9925515],[15.1276848,9.9812079],[15.1458553,9.97812]],[[16.0451922,8.5587091],[16.0499992,8.5495835],[16.0304453,8.5521234]],[[16.0032143,8.539377],[16.0054029,8.5245835],[16.0023755,8.5041774],[16.0083325,8.4995835],[16.0213697,8.5115464],[16.0347486,8.5288845],[16.0619621,8.5338161],[16.0391919,8.5162339],[16.0759921,8.5042873],[16.1166532,8.5288066]],[[16.0749992,9.0495835],[16.0710767,9.0772202],[16.0552238,9.0541042],[16.0749992,9.0495835]],[[15.1371328,11.9867179],[15.1468091,11.9874945],[15.1451652,12.0079168],[15.1470533,12.0315374],[15.1628085,12.0451076],[15.1659353,12.0667745]],[[15.0518022,9.7944437],[15.0749992,9.7912502],[15.0651182,9.8103605]],[[15.121121,9.9030054],[15.1120435,9.8875433],[15.1046216,9.856513],[15.1167961,9.8375433],[15.147688,9.8884059],[15.1592587,9.8869674]],[[14.253965,9.6268973],[14.3083326,9.6245835],[14.3049309,9.6295152],[14.2838552,9.6373986]],[[15.6855135,10.027855],[15.6627271,10.0168524],[15.6916659,10.0079168],[15.6855135,10.027855]],[[16.3805957,8.6972415],[16.3924713,8.6935746]],[[15.8514149,8.4229028],[15.8749992,8.4079169],[15.8859367,8.4339382],[15.8827121,8.4449862]],[[16.6859693,8.5112005],[16.6712883,8.4970729],[16.6916659,8.4912502],[16.6859693,8.5112005]]],"bbox":[14.0522453,8.4079169,22.2249992,13.8528672]}