{"type":"Topology","objects":{"foo":{"type":"GeometryCollection","geometries":[{"type":"MultiPolygon","arcs":[[[0]],[[1]]],"properties":{"name":"Administrative unit not available","gaul_code":68760,"targetarea":71.0645853,"totpop":43116.8087172,"country_id":"VIR","targetpop":31857.2996178,"new_mean":0.066182,"totalarea":220.2474429}},{"type":"Polygon","arcs":[[2]],"properties":{"name":"Administrative unit not available","gaul_code":68762,"targetarea":60.0708,"totpop":41882.8397385,"country_id":"VIR","targetpop":40524.2434473,"new_mean":0.0626182,"totalarea":90.4412494}},{"type":"Polygon","arcs":[[3]],"properties":{"name":"Administrative unit not available","gaul_code":68761,"targetarea":3.8415027,"totpop":2951.5241153,"country_id":"VIR","targetpop":1488.4021759,"new_mean":0.0612609,"totalarea":58.3276154}}]}},"arcs":[[[-64.8841232,17.7234726],[-64.8955978,17.6880194],[-64.8737564,17.6944275],[-64.8524475,17.6934814],[-64.8412704,17.6871471],[-64.8362274,17.6880035],[-64.8202654,17.6963714],[-64.811768,17.7039617],[-64.8128667,17.7224025],[-64.8626063,17.7117783],[-64.8841232,17.7234726]],[[-64.7061955,17.7542032],[-64.7133789,17.7548523],[-64.7297363,17.7679176],[-64.7392883,17.7703362],[-64.7407336,17.7745631],[-64.7618901,17.7614731],[-64.7935877,17.7488755],[-64.7783696,17.7375555],[-64.7840092,17.7047959],[-64.753766,17.7100023],[-64.7493973,17.7137699],[-64.7436684,17.7117406],[-64.7214441,17.7126938],[-64.7096766,17.7214503],[-64.6884526,17.7557358],[-64.7061955,17.7542032]],[[-64.9162602,18.3725408],[-64.9269739,18.3712088],[-64.9342194,18.3675308],[-64.9388202,18.3700641],[-64.9565516,18.3722682],[-64.9927115,18.357032],[-64.9875336,18.354599],[-64.9742279,18.3411312],[-64.9680939,18.3314171],[-64.9523087,18.3436337],[-64.9398956,18.3361435],[-64.9264297,18.3357563],[-64.9222107,18.3272114],[-64.9169693,18.3227882],[-64.892746,18.3174496],[-64.8810557,18.3113289],[-64.8740384,18.3122017],[-64.869339,18.3235989],[-64.8573227,18.3229942],[-64.8443832,18.3193932],[-64.8378448,18.3227577],[-64.8379888,18.3346691],[-64.8459167,18.3308907],[-64.8484344,18.3410244],[-64.8620567,18.3511706],[-64.9162602,18.3725408]],[[-64.7641525,18.3404608],[-64.7963546,18.3304306],[-64.7868958,18.3200607],[-64.7760162,18.3245163],[-64.77246,18.32192],[-64.7641525,18.3404608]]],"bbox":[-64.9927115,17.6871471,-64.6884526,18.3725408]}