{"type":"Topology","objects":{"foo":{"type":"GeometryCollection","geometries":[{"type":"MultiPolygon","arcs":[[[0]],[[1]],[[2]],[[3]],[[4]]],"properties":{"name":"Nchelenge","gaul_code":65203,"targetarea":60.9201606,"totpop":187355.633714,"country_id":"ZMB","targetpop":36550.9555817,"totalarea":3478.3157828,"new_mean":0.0179096}},{"type":"MultiPolygon","arcs":[[[5,6]],[[7,8]]],"properties":{"name":"Mungwi","gaul_code":65219,"targetarea":56.7135667,"totpop":243200.919518,"country_id":"ZMB","targetpop":26192.2748718,"totalarea":10173.8093693,"new_mean":0.0049378}},{"type":"Polygon","arcs":[[9]],"properties":{"name":"Luwingu","gaul_code":65214,"targetarea":2.2615061,"totpop":169399.436966,"country_id":"ZMB","targetpop":718.4501343,"totalarea":8808.0489917,"new_mean":0.0078639}},{"type":"Polygon","arcs":[[10]],"properties":{"name":"Chinsali","gaul_code":65210,"targetarea":18.0835596,"totpop":162462.506969,"country_id":"ZMB","targetpop":12239.6810608,"totalarea":15080.8950625,"new_mean":0.0044014}},{"type":"MultiPolygon","arcs":[[[11]],[[12]]],"properties":{"name":"Mkushi","gaul_code":65177,"targetarea":21.2986764,"totpop":358275.145958,"country_id":"ZMB","targetpop":11242.2771149,"totalarea":22651.3021486,"new_mean":0.0040017}},{"type":"MultiPolygon","arcs":[[[13]],[[14]],[[15]],[[16]],[[17]],[[18]],[[19]]],"properties":{"name":"Chienge","gaul_code":65198,"targetarea":60.6285729,"totpop":137208.823844,"country_id":"ZMB","targetpop":25749.4588318,"totalarea":3244.1770164,"new_mean":0.0132718}},{"type":"MultiPolygon","arcs":[[[20]],[[21]]],"properties":{"name":"Sesheke","gaul_code":65244,"targetarea":10.7598503,"totpop":128889.463946,"country_id":"ZMB","targetpop":5961.7170715,"totalarea":29889.4977213,"new_mean":0.0068281}},{"type":"MultiPolygon","arcs":[[[22,23,24]],[[25]],[[26,27,28,29]],[[30]]],"properties":{"name":"Ndola","gaul_code":65189,"targetarea":406.7047829,"totpop":583112.471382,"country_id":"ZMB","targetpop":502524.404144,"totalarea":1018.6862028,"new_mean":0.0043392}},{"type":"MultiPolygon","arcs":[[[31]],[[32]],[[33]]],"properties":{"name":"Choma","gaul_code":65228,"targetarea":87.0629685,"totpop":328167.721033,"country_id":"ZMB","targetpop":108674.722687,"totalarea":7014.0900088,"new_mean":0.0030449}},{"type":"Polygon","arcs":[[34]],"properties":{"name":"Chingola","gaul_code":65181,"targetarea":168.6724684,"totpop":281772.013941,"country_id":"ZMB","targetpop":205596.372925,"totalarea":1746.4746988,"new_mean":0.0108629}},{"type":"Polygon","arcs":[[35]],"properties":{"name":"Mpika","gaul_code":65216,"targetarea":57.8321986,"totpop":302454.215373,"country_id":"ZMB","targetpop":51918.2895355,"totalarea":40235.461385,"new_mean":0.0048879}},{"type":"MultiPolygon","arcs":[[[36]],[[37]]],"properties":{"name":"Mongu","gaul_code":65242,"targetarea":59.6808932,"totpop":210085.897912,"country_id":"ZMB","targetpop":63157.1988373,"totalarea":10360.0132406,"new_mean":0.0060678}},{"type":"MultiPolygon","arcs":[[[38]],[[39]]],"properties":{"name":"Siavonga","gaul_code":65237,"targetarea":37.013519,"totpop":140801.821425,"country_id":"ZMB","targetpop":23900.6739502,"totalarea":4291.5434388,"new_mean":0.0055893}},{"type":"Polygon","arcs":[[40]],"properties":{"name":"Mporokoso","gaul_code":65217,"targetarea":3.1709621,"totpop":141923.082773,"country_id":"ZMB","targetpop":985.7031708,"totalarea":12190.3938075,"new_mean":0.0150208}},{"type":"MultiPolygon","arcs":[[[41,42]],[[43]]],"properties":{"name":"Katete","gaul_code":65193,"targetarea":81.3013302,"totpop":338638.475952,"country_id":"ZMB","targetpop":66363.9690552,"totalarea":3920.450583,"new_mean":0.0028716}},{"type":"Polygon","arcs":[[44]],"properties":{"name":"Kaputa","gaul_code":65212,"targetarea":5.2230471,"totpop":189180.201972,"country_id":"ZMB","targetpop":3084.7819519,"totalarea":13041.6794029,"new_mean":0.0119554}},{"type":"MultiPolygon","arcs":[[[45,46]],[[47]],[[48]],[[49]]],"properties":{"name":"Mufulira","gaul_code":65188,"targetarea":132.2225439,"totpop":177631.024895,"country_id":"ZMB","targetpop":111709.487335,"totalarea":1134.8239415,"new_mean":0.0059428}},{"type":"MultiPolygon","arcs":[[[50]],[[51]],[[52,53,54]]],"properties":{"name":"Chongwe","gaul_code":65205,"targetarea":158.0447515,"totpop":246010.389874,"country_id":"ZMB","targetpop":81558.4621048,"totalarea":11534.9023431,"new_mean":0.0034362}},{"type":"MultiPolygon","arcs":[[[55,56,57,58]],[[59]],[[60,61,62]]],"properties":{"name":"Kafue","gaul_code":65206,"targetarea":373.4588003,"totpop":624565.956119,"country_id":"ZMB","targetpop":460438.875206,"totalarea":5549.5751956,"new_mean":0.0034647}},{"type":"Polygon","arcs":[[63]],"properties":{"name":"Serenje","gaul_code":65179,"targetarea":5.4682678,"totpop":209113.496731,"country_id":"ZMB","targetpop":2122.8977356,"totalarea":23269.4894634,"new_mean":0.0052737}},{"type":"MultiPolygon","arcs":[[[64]],[[65]],[[66]],[[67]]],"properties":{"name":"Mwense","gaul_code":65202,"targetarea":35.5375991,"totpop":137532.171138,"country_id":"ZMB","targetpop":16611.11092,"totalarea":6341.3315286,"new_mean":0.0150791}},{"type":"Polygon","arcs":[[68]],"properties":{"name":"Mbala","gaul_code":65215,"targetarea":30.002832,"totpop":301591.011647,"country_id":"ZMB","targetpop":24299.3790131,"totalarea":8793.4324338,"new_mean":0.0107969}},{"type":"Polygon","arcs":[[69]],"properties":{"name":"Mpongwe","gaul_code":65187,"targetarea":4.7274509,"totpop":129634.599721,"country_id":"ZMB","targetpop":2226.8500824,"totalarea":8327.8069591,"new_mean":0.0109325}},{"type":"Polygon","arcs":[[70]],"properties":{"name":"Mpulungu","gaul_code":65218,"targetarea":11.5084287,"totpop":136105.521417,"country_id":"ZMB","targetpop":7247.1988525,"totalarea":10507.6605266,"new_mean":0}},{"type":"Polygon","arcs":[[70]],"properties":{"name":"Mpulungu","gaul_code":65218,"targetarea":11.5084287,"totpop":136105.521417,"country_id":"ZMB","targetpop":7247.1988525,"totalarea":10507.6605266,"new_mean":0.0148571}},{"type":"MultiPolygon","arcs":[[[71,-53,72,-62]],[[73]],[[74]],[[75]],[[76]],[[77]],[[78]]],"properties":{"name":"Chibombo","gaul_code":65174,"targetarea":115.4039369,"totpop":416373.855595,"country_id":"ZMB","targetpop":105284.242874,"totalarea":13318.7163714,"new_mean":0.0028333}},{"type":"Polygon","arcs":[[79]],"properties":{"name":"Samfya","gaul_code":65204,"targetarea":13.3776248,"totpop":266906.143176,"country_id":"ZMB","targetpop":6580.4233093,"totalarea":10654.3636961,"new_mean":0.0066779}},{"type":"Polygon","arcs":[[79]],"properties":{"name":"Samfya","gaul_code":65204,"targetarea":13.3776248,"totpop":266906.143176,"country_id":"ZMB","targetpop":6580.4233093,"totalarea":10654.3636961,"new_mean":0.0090017}},{"type":"Polygon","arcs":[[80,81,82,-24,83,-46,84,85,86]],"properties":{"name":"Kitwe","gaul_code":65183,"targetarea":463.8343359,"totpop":702095.067514,"country_id":"ZMB","targetpop":656286.812469,"totalarea":880.8310399,"new_mean":0.0069606}},{"type":"Polygon","arcs":[[87]],"properties":{"name":"Kalomo","gaul_code":65231,"targetarea":11.0396437,"totpop":404545.070037,"country_id":"ZMB","targetpop":9280.1234131,"totalarea":13774.8484415,"new_mean":0.0019893}},{"type":"Polygon","arcs":[[88]],"properties":{"name":"Kaoma","gaul_code":65240,"targetarea":18.2773629,"totpop":222106.135142,"country_id":"ZMB","targetpop":10472.9701691,"totalarea":22629.7694563,"new_mean":0.0106649}},{"type":"MultiPolygon","arcs":[[[89]],[[90]]],"properties":{"name":"Livingstone","gaul_code":65233,"targetarea":107.6048149,"totpop":193109.69388,"country_id":"ZMB","targetpop":145475.95079,"totalarea":754.684285,"new_mean":0.0033778}},{"type":"MultiPolygon","arcs":[[[91]],[[92,93]],[[94,-94]],[[-25,-83,95]]],"properties":{"name":"Luanshya","gaul_code":65184,"targetarea":164.4913974,"totpop":166661.644087,"country_id":"ZMB","targetpop":102198.678741,"totalarea":939.3378735,"new_mean":0.0082543}},{"type":"MultiPolygon","arcs":[[[96]],[[-43,97]],[[98]],[[99]],[[100]]],"properties":{"name":"Petauke","gaul_code":65197,"targetarea":28.4783651,"totpop":485557.523936,"country_id":"ZMB","targetpop":12171.8194427,"totalarea":8386.0560659,"new_mean":0.002926}},{"type":"MultiPolygon","arcs":[[[-81,101]],[[-86,102]]],"properties":{"name":"Kalulushi","gaul_code":65182,"targetarea":175.000656,"totpop":162947.938374,"country_id":"ZMB","targetpop":99326.8179626,"totalarea":1111.059511,"new_mean":0.0110641}},{"type":"MultiPolygon","arcs":[[[103]],[[104]],[[105]],[[106]],[[107]]],"properties":{"name":"Mumbwa","gaul_code":65178,"targetarea":38.4829348,"totpop":326320.889382,"country_id":"ZMB","targetpop":23251.7231293,"totalarea":21765.3230197,"new_mean":0.0055244}},{"type":"MultiPolygon","arcs":[[[103]],[[104]],[[105]],[[106]],[[107]]],"properties":{"name":"Mumbwa","gaul_code":65178,"targetarea":38.4829348,"totpop":326320.889382,"country_id":"ZMB","targetpop":23251.7231293,"totalarea":21765.3230197,"new_mean":0.0074642}},{"type":"Polygon","arcs":[[108]],"properties":{"name":"Kapiri-Mposhi","gaul_code":65176,"targetarea":49.3968711,"totpop":205591.00937,"country_id":"ZMB","targetpop":37679.8154144,"totalarea":12174.3752466,"new_mean":0.0053846}},{"type":"MultiPolygon","arcs":[[[109,-28]],[[-30,110]]],"properties":{"name":"Masaiti","gaul_code":65186,"targetarea":68.6811913,"totpop":163876.410758,"country_id":"ZMB","targetpop":50353.7161407,"totalarea":3642.3936605,"new_mean":0.0106244}},{"type":"MultiPolygon","arcs":[[[-7,111]],[[-9,112]]],"properties":{"name":"Kasama","gaul_code":65213,"targetarea":110.0717114,"totpop":315908.05483,"country_id":"ZMB","targetpop":96518.5988464,"totalarea":10710.0143519,"new_mean":0.004702}},{"type":"Polygon","arcs":[[113]],"properties":{"name":"Nakonde","gaul_code":65220,"targetarea":44.6628062,"totpop":191119.862478,"country_id":"ZMB","targetpop":63392.2138214,"totalarea":4507.8629559,"new_mean":0.0054196}},{"type":"MultiPolygon","arcs":[[[114]],[[115]]],"properties":{"name":"Monze","gaul_code":65235,"targetarea":44.6103435,"totpop":217378.720211,"country_id":"ZMB","targetpop":44870.7695313,"totalarea":4701.2895972,"new_mean":0.0031863}},{"type":"Polygon","arcs":[[116]],"properties":{"name":"Solwezi","gaul_code":65226,"targetarea":167.6167918,"totpop":384141.433408,"country_id":"ZMB","targetpop":95566.8652954,"totalarea":29688.8095066,"new_mean":0.0145561}},{"type":"Polygon","arcs":[[117]],"properties":{"name":"Lukulu","gaul_code":65241,"targetarea":3.5014034,"totpop":127522.55955,"country_id":"ZMB","targetpop":1091.6181488,"totalarea":16017.0066351,"new_mean":0.0086471}},{"type":"MultiPolygon","arcs":[[[118]],[[119]]],"properties":{"name":"Kabwe","gaul_code":65175,"targetarea":128.1626991,"totpop":234404.939921,"country_id":"ZMB","targetpop":159568.340683,"totalarea":1598.8694831,"new_mean":0.0025521}},{"type":"Polygon","arcs":[[120]],"properties":{"name":"Gwembe","gaul_code":65229,"targetarea":1.9240125,"totpop":84980.4999561,"country_id":"ZMB","targetpop":724.4147339,"totalarea":4047.9762318,"new_mean":0.0046939}},{"type":"Polygon","arcs":[[121]],"properties":{"name":"Isoka","gaul_code":65211,"targetarea":27.0330708,"totpop":213657.152694,"country_id":"ZMB","targetpop":18086.4975739,"totalarea":9451.661487,"new_mean":0.0048388}},{"type":"MultiPolygon","arcs":[[[122]],[[123]],[[124]]],"properties":{"name":"Kawambwa","gaul_code":65199,"targetarea":30.4249017,"totpop":187675.625703,"country_id":"ZMB","targetpop":15713.8905029,"totalarea":9218.857655,"new_mean":0.0163961}},{"type":"MultiPolygon","arcs":[[[125]],[[126]],[[127]],[[128,-59]],[[-57,129]]],"properties":{"name":"Mazabuka","gaul_code":65234,"targetarea":101.9230785,"totpop":268392.711712,"country_id":"ZMB","targetpop":60158.7087631,"totalarea":6457.932085,"new_mean":0.0033539}},{"type":"Polygon","arcs":[[130]],"properties":{"name":"Kazungula","gaul_code":65232,"targetarea":6.3332601,"totpop":165735.626685,"country_id":"ZMB","targetpop":2822.3496552,"totalarea":18334.8278263,"new_mean":0.0033254}},{"type":"Polygon","arcs":[[-54,-72,-61,131]],"properties":{"name":"Lusaka","gaul_code":65208,"targetarea":387.2528237,"totpop":2645293.09151,"country_id":"ZMB","targetpop":2639650.01022,"totalarea":442.3235065,"new_mean":0.0029304}},{"type":"MultiPolygon","arcs":[[[132]],[[133]],[[134]],[[135]],[[136]],[[137]],[[138]]],"properties":{"name":"Chipata","gaul_code":65192,"targetarea":173.618856,"totpop":565132.054688,"country_id":"ZMB","targetpop":169219.223572,"totalarea":6107.51255,"new_mean":0.0036702}},{"type":"Polygon","arcs":[[139]],"properties":{"name":"Sinazongwe","gaul_code":65238,"targetarea":38.0200339,"totpop":129312.610802,"country_id":"ZMB","targetpop":25903.985321,"totalarea":4877.5365994,"new_mean":0.0045527}},{"type":"Polygon","arcs":[[140]],"properties":{"name":"Senanga","gaul_code":65243,"targetarea":14.6795236,"totpop":135994.428768,"country_id":"ZMB","targetpop":7137.8191223,"totalarea":15499.5414918,"new_mean":0.0069295}},{"type":"MultiPolygon","arcs":[[[141]],[[142]]],"properties":{"name":"Lundazi","gaul_code":65194,"targetarea":38.26347,"totpop":418068.940496,"country_id":"ZMB","targetpop":32133.9083862,"totalarea":13430.1334501,"new_mean":0.0030624}},{"type":"Polygon","arcs":[[143]],"properties":{"name":"Chama","gaul_code":65191,"targetarea":7.8961918,"totpop":185332.482787,"country_id":"ZMB","targetpop":4673.8827209,"totalarea":18121.1926723,"new_mean":0.0042176}},{"type":"Polygon","arcs":[[144]],"properties":{"name":"Chadiza","gaul_code":65190,"targetarea":11.6635105,"totpop":138267.544562,"country_id":"ZMB","targetpop":5492.2545471,"totalarea":2513.2212806,"new_mean":0.0031067}},{"type":"MultiPolygon","arcs":[[[145]],[[146]]],"properties":{"name":"Chililabombwe","gaul_code":65180,"targetarea":102.9043528,"totpop":117121.627911,"country_id":"ZMB","targetpop":71831.4654541,"totalarea":925.0102456,"new_mean":0.0120681}},{"type":"Polygon","arcs":[[147]],"properties":{"name":"Mwinilunga","gaul_code":65225,"targetarea":3.9845813,"totpop":206466.088735,"country_id":"ZMB","targetpop":1731.4441376,"totalarea":20845.209421,"new_mean":0.0165056}},{"type":"MultiPolygon","arcs":[[[148]],[[149]],[[150]],[[151]],[[152]],[[153]]],"properties":{"name":"Mansa","gaul_code":65200,"targetarea":179.675181,"totpop":735738.484096,"country_id":"ZMB","targetpop":144743.297775,"totalarea":9596.1633483,"new_mean":0.0070128}}]}},"arcs":[[[28.8032218,-9.737949],[28.8055167,-9.7277439],[28.7882316,-9.7136814],[28.7799308,-9.7514581],[28.8083325,-9.7587497],[28.8032218,-9.737949]],[[28.7395825,-9.4063979],[28.7303865,-9.4211928],[28.7499992,-9.4254164],[28.7395825,-9.4063979]],[[28.7536287,-9.3623793],[28.7631502,-9.3381606],[28.7610343,-9.3238783],[28.7731274,-9.282407],[28.767561,-9.2717869],[28.7510734,-9.2931573],[28.7369621,-9.304046],[28.7181307,-9.335532],[28.7446281,-9.371266],[28.7536287,-9.3623793]],[[28.8105135,-9.2304783],[28.787727,-9.2414809],[28.8166658,-9.2504164],[28.8105135,-9.2304783]],[[28.8632967,-9.1714369],[28.8573397,-9.1551202],[28.8257804,-9.1959975],[28.8416658,-9.2004164],[28.8632967,-9.1714369]],[[31.245267,-10.1799155],[31.250227,-10.1401137],[31.2353344,-10.1300469],[31.2274418,-10.148777]],[[31.2274418,-10.148777],[31.245267,-10.1799155]],[[31.221981,-9.9392983],[31.2317049,-9.961712],[31.2499992,-9.9670831],[31.2537752,-9.9542006],[31.2869295,-9.9337497],[31.2537752,-9.9132989],[31.2430167,-9.8766453],[31.2095369,-9.8549656],[31.2027052,-9.8738489]],[[31.2027052,-9.8738489],[31.2233524,-9.9074135],[31.221981,-9.9392983]],[[29.9276359,-10.2471368],[29.9129549,-10.2612563],[29.9333325,-10.2670831],[29.9276359,-10.2471368]],[[32.0952628,-10.5436618],[32.0770499,-10.5285251],[32.0601066,-10.5302504],[32.0462231,-10.5645277],[32.0833325,-10.5754164],[32.0952628,-10.5436618]],[[29.3955233,-13.9308526],[29.3718904,-13.9464369],[29.3999992,-13.9504164],[29.3955233,-13.9308526]],[[29.417561,-13.6045424],[29.3728019,-13.5970147],[29.3813468,-13.6351576],[29.4083325,-13.6420831],[29.417561,-13.6045424]],[[29.0537752,-9.0542006],[29.069563,-9.0410902],[29.0450187,-9.0216322],[29.0295565,-9.052752],[29.0537752,-9.0542006]],[[29.0749992,-8.9254164],[29.0930167,-8.9227878],[29.077701,-8.9069268],[29.0749992,-8.9254164]],[[29.0930818,-8.8807956],[29.0796867,-8.8726169],[29.0721997,-8.8947849],[29.0833325,-8.9004164],[29.0930818,-8.8807956]],[[29.0916658,-8.8587497],[29.1137361,-8.8417169],[29.1249992,-8.7754164],[29.1138664,-8.785003],[29.0916658,-8.8587497]],[[29.1594067,-8.7014906],[29.1721183,-8.6558526],[29.1649406,-8.6384535],[29.1459139,-8.6849216],[29.1380363,-8.7161798],[29.1499992,-8.7254164],[29.1594067,-8.7014906]],[[29.0609692,-8.5471368],[29.0462882,-8.5612563],[29.0666658,-8.5670831],[29.0609692,-8.5471368]],[[29.0083325,-8.5254164],[29.0083325,-8.5087497],[28.9894152,-8.5087497],[28.9833325,-8.5254164],[29.0083325,-8.5254164]],[[24.8327791,-17.4995131],[24.8138664,-17.5135756],[24.8416658,-17.517083],[24.8327791,-17.4995131]],[[24.3206535,-17.4772149],[24.2741203,-17.4554213],[24.2802889,-17.4798679],[24.3206535,-17.4772149]],[[28.3638044,-12.9195182],[28.3725415,-12.8993747],[28.3680612,-12.8874654]],[[28.3680612,-12.8874654],[28.3560982,-12.8927784],[28.3486977,-12.9055462]],[[28.3486977,-12.9055462],[28.3638044,-12.9195182]],[[28.527701,-12.8198988],[28.505533,-12.8282159],[28.5166658,-12.8420831],[28.527701,-12.8198988]],[[28.6272392,-12.8679037],[28.6051261,-12.8597833],[28.5799351,-12.8929195],[28.5440292,-12.8562946],[28.5391105,-12.8371107],[28.5131014,-12.8595066],[28.5114087,-12.8806736],[28.5294425,-12.879225],[28.5455233,-12.9048923],[28.5557772,-12.9137221],[28.5548331,-12.9587497],[28.547867,-13.0454115],[28.5877759,-13.0458917],[28.6084627,-13.0789239],[28.6274406,-13.0804457],[28.6688143,-13.0691257],[28.6500317,-13.1028008],[28.7083325,-13.1087497],[28.7127921,-13.0939304],[28.7703117,-13.0985528],[28.7719067,-13.0787774],[28.7463371,-13.0567559],[28.7448234,-13.0377699],[28.7669249,-13.0327465]],[[28.7669249,-13.0327465],[28.7548656,-13.0327091],[28.729496,-13.0231895],[28.7220707,-12.9869022],[28.6634693,-12.9885941],[28.652092,-12.9740133],[28.6703358,-12.9455299],[28.673351,-12.9206375]],[[28.673351,-12.9206375],[28.6621899,-12.9048923],[28.6569325,-12.8817607]],[[28.6569325,-12.8817607],[28.6341152,-12.8787918],[28.6272392,-12.8679037]],[[28.464475,-12.7512167],[28.4876945,-12.7894463],[28.5106925,-12.7865818],[28.4714699,-12.7421226],[28.464475,-12.7512167]],[[27.0024894,-16.7669528],[26.9685701,-16.7745619],[26.9382641,-16.8304538],[26.9749992,-16.8504164],[26.9784009,-16.8454847],[27.0280591,-16.8376641],[27.0367342,-16.8038181],[27.0569653,-16.7962497],[27.0310701,-16.7865573],[27.018033,-16.7894789],[27.0024894,-16.7669528]],[[27.2663891,-16.767197],[27.2441723,-16.755877],[27.2304516,-16.7801283],[27.2583325,-16.7837497],[27.2663891,-16.767197]],[[27.3755142,-16.494052],[27.3672279,-16.4994222],[27.3604313,-16.5075515],[27.3531464,-16.5117061],[27.3543937,-16.5342136],[27.3712069,-16.5278741],[27.3999992,-16.542083],[27.3755142,-16.494052]],[[27.8541658,-12.4851169],[27.8286124,-12.4868585],[27.8202791,-12.4989271],[27.7882804,-12.4917575],[27.7967602,-12.5295831],[27.7926261,-12.5480645],[27.8068026,-12.568613],[27.8215975,-12.5788181],[27.8285148,-12.5973321],[27.8413566,-12.5944512],[27.860367,-12.6075779],[27.8614087,-12.6302667],[27.8749992,-12.6337497],[27.8813631,-12.608945],[27.9132641,-12.5970147],[27.9334627,-12.5779066],[27.9282381,-12.5545831],[27.9357576,-12.5209893],[27.8945792,-12.4941745],[27.8541658,-12.4851169]],[[31.4787101,-11.8141371],[31.4513012,-11.7967136],[31.4317863,-11.8210951],[31.3989249,-11.8304864],[31.3784497,-11.8279392],[31.3834464,-11.8681329],[31.4416658,-11.8754164],[31.4454093,-11.8623467],[31.4671215,-11.8650486],[31.4787101,-11.8141371]],[[23.1703768,-15.2874525],[23.1866528,-15.2597507],[23.1703768,-15.2467136],[23.1629549,-15.2124525],[23.1520011,-15.1967136],[23.1379549,-15.2300469],[23.1212882,-15.2550469],[23.1052238,-15.2679131],[23.140022,-15.2957777],[23.1666659,-15.3004164],[23.1703768,-15.2874525]],[[23.1699211,-15.1170749],[23.1324373,-15.1226169],[23.1583325,-15.1670831],[23.1699211,-15.1170749]],[[28.7333325,-16.517083],[28.7122876,-16.512306],[28.695393,-16.5222426],[28.6953442,-16.5457858],[28.7544588,-16.5289076],[28.7618237,-16.5323486],[28.780529,-16.5143566],[28.7953861,-16.507118],[28.7462068,-16.5010023],[28.7333325,-16.517083]],[[28.8601055,-16.0384312],[28.8630525,-16.0185316],[28.8433097,-16.0048923],[28.8211417,-16.0422784],[28.8508962,-16.0461719],[28.8601055,-16.0384312]],[[30.1271801,-9.3638116],[30.1043937,-9.3748142],[30.1333325,-9.3837497],[30.1271801,-9.3638116]],[[31.7868638,-14.2508739],[31.7948396,-14.2085951],[31.7544913,-14.19485],[31.732063,-14.2018324],[31.7218253,-14.2284112],[31.7468253,-14.2369236],[31.7584651,-14.2463572]],[[31.7584651,-14.2463572],[31.7868638,-14.2508739]],[[32.0683748,-14.066139],[32.0871085,-14.0334323],[32.0682283,-14.028403],[32.0242667,-14.0413018],[32.0045564,-14.0757338],[32.0159334,-14.0946547],[32.0347648,-14.0719984],[32.0473624,-14.101043],[32.0666658,-14.1170831],[32.0821606,-14.1028008],[32.0683748,-14.066139]],[[29.6721997,-8.4615492],[29.6626456,-8.4559503],[29.655533,-8.4822361],[29.6749992,-8.4920831],[29.6721997,-8.4615492]],[[28.2412593,-12.7454046],[28.2519684,-12.7641716],[28.2719536,-12.7550801]],[[28.2719536,-12.7550801],[28.2412593,-12.7454046]],[[28.1735247,-12.6352862],[28.1999992,-12.6420831],[28.1929516,-12.6146172],[28.1728965,-12.6335642],[28.1735247,-12.6352862]],[[28.3034822,-12.5728611],[28.2664054,-12.5162123],[28.2042147,-12.5037448],[28.1812003,-12.508294],[28.1965161,-12.5455661],[28.2034822,-12.590252],[28.1798494,-12.5919529],[28.2090486,-12.6128757],[28.2284822,-12.6122328],[28.2960115,-12.5986911],[28.3034822,-12.5728611]],[[28.3326326,-12.48506],[28.313671,-12.4726169],[28.305533,-12.4905694],[28.3249992,-12.5004164],[28.3326326,-12.48506]],[[28.5640454,-15.3407403],[28.5481762,-15.356056],[28.5666658,-15.3587497],[28.5640454,-15.3407403]],[[28.6953768,-15.3374525],[28.7151359,-15.3216322],[28.672395,-15.3050469],[28.6462882,-15.3447442],[28.6916658,-15.3504164],[28.6953768,-15.3374525]],[[28.3031927,-15.2841959],[28.3095837,-15.2966776]],[[28.3095837,-15.2966776],[28.3435383,-15.3063602],[28.3538017,-15.3466311],[28.3636932,-15.3570757],[28.3902397,-15.3483496],[28.4069786,-15.3614035],[28.4066715,-15.3922634],[28.428035,-15.4102773]],[[28.428035,-15.4102773],[28.4499992,-15.3754164],[28.4712231,-15.3792006],[28.5001619,-15.390073],[28.5121085,-15.3625339],[28.5433423,-15.3489841],[28.5100578,-15.3299655],[28.4914868,-15.3523288],[28.4545565,-15.3042006],[28.4417798,-15.2966322],[28.4196932,-15.3324395],[28.3833325,-15.3287367],[28.3628247,-15.33082],[28.3462231,-15.3108331],[28.3708325,-15.3133396],[28.4182772,-15.3085056],[28.4366854,-15.2863457],[28.4048494,-15.2716322],[28.3460766,-15.2966973],[28.3085441,-15.2928724],[28.3031927,-15.2841959]],[[28.2486913,-15.8023157],[28.2272615,-15.8054782],[28.2086255,-15.759946],[28.2145011,-15.7202243],[28.1625643,-15.7302097],[28.1350252,-15.7317966],[28.1439112,-15.7622894]],[[28.1439112,-15.7622894],[28.1812818,-15.7895402]],[[28.1812818,-15.7895402],[28.2007967,-15.7975274],[28.2147599,-15.8208673]],[[28.2147599,-15.8208673],[28.2295609,-15.8205957],[28.2486913,-15.8023157]],[[28.0549796,-15.4322198],[28.0431144,-15.4556817],[28.0583325,-15.4587497],[28.0549796,-15.4322198]],[[28.4384473,-15.48804],[28.4335136,-15.4668236],[28.395031,-15.4699697],[28.3509312,-15.476984],[28.3485546,-15.4965744],[28.3342781,-15.4968452],[28.3307133,-15.4825096],[28.2981777,-15.4807177],[28.3025208,-15.5125322],[28.2849464,-15.5389271],[28.2606373,-15.5380077],[28.2322693,-15.5316696],[28.233778,-15.505228],[28.218811,-15.4766846],[28.2190266,-15.4557552],[28.2328873,-15.453104],[28.2238998,-15.4206781],[28.2217712,-15.3764658],[28.2395687,-15.3427906]],[[28.2395687,-15.3427906],[28.2052154,-15.3332945]],[[28.2052154,-15.3332945],[28.1954419,-15.3375339],[28.1533846,-15.3677992],[28.1527824,-15.4057142],[28.1333325,-15.4037367],[28.0968253,-15.4057549],[28.0739249,-15.3926364],[28.0462231,-15.4183526],[28.0801098,-15.4330499],[28.1430981,-15.4470228],[28.1537752,-15.4716322],[28.1631828,-15.4794447],[28.152229,-15.4985691],[28.1890942,-15.4948174],[28.2037752,-15.5141534],[28.1606763,-15.5135267],[28.1649406,-15.5375339],[28.1789705,-15.5206475],[28.2107414,-15.532586],[28.2369295,-15.5837497],[28.2179191,-15.6169528],[28.2482739,-15.6375339],[28.2659009,-15.6163099],[28.283007,-15.602101],[28.3037752,-15.5542006],[28.3168123,-15.5314385],[28.3462231,-15.5132989],[28.3545239,-15.4941582],[28.3958325,-15.4966729],[28.4264803,-15.4935479],[28.4384473,-15.48804]],[[30.2347322,-13.2148126],[30.2130363,-13.2358005],[30.2499992,-13.2420831],[30.2347322,-13.2148126]],[[28.7204419,-10.3831313],[28.6885571,-10.3552667],[28.6965649,-10.3958184],[28.7249992,-10.4004164],[28.7204419,-10.3831313]],[[28.6880851,-10.2841078],[28.6636873,-10.2637546],[28.6718904,-10.2962497],[28.6655428,-10.3214044],[28.6916658,-10.3254164],[28.6880851,-10.2841078]],[[28.6443026,-10.1554701],[28.6296216,-10.1695896],[28.6499992,-10.1754164],[28.6443026,-10.1554701]],[[28.6333325,-10.0670831],[28.6333325,-10.0920831],[28.6499992,-10.0920831],[28.6499992,-10.0670831],[28.6333325,-10.0670831]],[[31.3833325,-8.8337497],[31.3641919,-8.8108819],[31.34427,-8.823211],[31.3308911,-8.8789727],[31.3939607,-8.8601983],[31.3833325,-8.8337497]],[[28.4261534,-13.3434963],[28.4239724,-13.3425822],[28.4047843,-13.358237],[28.4166658,-13.3670831],[28.4261534,-13.3434963]],[[31.1355135,-8.7681166],[31.1157381,-8.7470147],[31.1049308,-8.7879083],[31.1416658,-8.7920831],[31.1355135,-8.7681166]],[[28.2395687,-15.3427906],[28.249876,-15.3430376],[28.251936,-15.3248224],[28.2600079,-15.319191],[28.2881489,-15.3173141],[28.3136673,-15.3103361],[28.3095837,-15.2966776]],[[28.3031927,-15.2841959],[28.2777661,-15.2429701],[28.2509432,-15.2165215],[28.2352042,-15.2528334],[28.2387687,-15.3129164],[28.2204419,-15.3208672],[28.2052154,-15.3332945]],[[28.2395825,-15.1397312],[28.2303865,-15.1545261],[28.2499992,-15.1587497],[28.2395825,-15.1397312]],[[28.2097973,-15.0218031],[28.1792472,-15.0436862],[28.1999992,-15.0504164],[28.2097973,-15.0218031]],[[28.1406079,-14.9841078],[28.1129549,-15.0100599],[28.1666658,-15.0254164],[28.1962882,-15.0133803],[28.1768058,-15.0053969],[28.1406079,-14.9841078]],[[28.3881502,-14.9740655],[28.3709627,-14.9643568],[28.3639477,-14.9886895],[28.3916658,-14.9920831],[28.3881502,-14.9740655]],[[28.0640454,-14.7657403],[28.0481763,-14.781056],[28.0666658,-14.7837497],[28.0640454,-14.7657403]],[[28.0729158,-14.6480645],[28.0637199,-14.6628594],[28.0833325,-14.6670831],[28.0729158,-14.6480645]],[[29.5630363,-11.354046],[29.5482739,-11.3384535],[29.5321281,-11.3778822],[29.5666658,-11.3837497],[29.5630363,-11.354046]],[[28.1149007,-12.7993705],[28.1402149,-12.8448277],[28.1564097,-12.8599634],[28.1647511,-12.8665237],[28.1803684,-12.8796511],[28.1834011,-12.8998814],[28.162611,-12.9142656],[28.1612329,-12.9468058]],[[28.1612329,-12.9468058],[28.178173,-12.9450779],[28.2116854,-12.9642754],[28.2485343,-12.9605157],[28.2621085,-12.9292006],[28.2737134,-12.9195652],[28.3270011,-12.9314304],[28.3441414,-12.9216048]],[[28.3441414,-12.9216048],[28.3486977,-12.9055462]],[[28.3680612,-12.8874654],[28.3613761,-12.8696954],[28.3639152,-12.8448337],[28.3147778,-12.8498386],[28.2954744,-12.8383803],[28.2878898,-12.8104831],[28.304768,-12.7964532],[28.295393,-12.7714695],[28.2719536,-12.7550801]],[[28.2412593,-12.7454046],[28.2363432,-12.7367278],[28.2381078,-12.7194115],[28.2402224,-12.6986614],[28.237802,-12.6957967],[28.2122713,-12.6871758],[28.2014315,-12.7121677],[28.1693188,-12.6735202],[28.1714579,-12.6525414]],[[28.1714579,-12.6525414],[28.1435184,-12.7104015],[28.1583233,-12.7349386],[28.1541042,-12.7480593],[28.1303493,-12.7655727]],[[28.1303493,-12.7655727],[28.1388664,-12.7698825],[28.1416658,-12.7920831],[28.1200024,-12.783945],[28.1149007,-12.7993705]],[[26.4968253,-17.0119235],[26.4750317,-17.0055759],[26.463492,-17.0382338],[26.4999992,-17.042083],[26.4968253,-17.0119235]],[[24.822867,-14.8379245],[24.814729,-14.8212497],[24.8230786,-14.8041355],[24.8007804,-14.7809502],[24.780533,-14.7989027],[24.7971997,-14.8198825],[24.8027987,-14.8476169],[24.8166658,-14.8504164],[24.822867,-14.8379245]],[[25.8474266,-17.9096603],[25.8602505,-17.930584],[25.8800936,-17.9344577],[25.8777824,-17.9117852],[25.8551587,-17.9140883],[25.8474266,-17.9096603]],[[25.9139966,-17.8481621],[25.9003735,-17.8134942],[25.8702954,-17.8051202],[25.8626945,-17.7952731],[25.8463696,-17.8051202],[25.8049634,-17.8138522],[25.7963696,-17.8578464],[25.8448885,-17.8953057],[25.8749992,-17.9004164],[25.9139966,-17.8481621]],[[28.342561,-13.0384535],[28.3287427,-13.0563653],[28.3092602,-13.0534844],[28.3131665,-13.0799086],[28.3025057,-13.0975681],[28.3053377,-13.116668],[28.3202954,-13.1207126],[28.3530591,-13.1073093],[28.3225415,-13.0837497],[28.3380363,-13.0717868],[28.342561,-13.0384535]],[[28.4749992,-13.0170831],[28.5015128,-13.0146254],[28.4898755,-13.0025811],[28.4749992,-13.0004164]],[[28.4749992,-13.0004164],[28.4749992,-13.0170831]],[[28.4749992,-13.0004164],[28.4721997,-12.9948825],[28.4473359,-12.9893129],[28.4311001,-12.9973837],[28.4249992,-13.0004164],[28.4301098,-13.0187514],[28.4464998,-13.0459242],[28.4408846,-13.0838718],[28.4119621,-13.0957126],[28.3864738,-13.1146091],[28.3628898,-13.111126],[28.3463696,-13.1335788],[28.3965161,-13.1541111],[28.3966951,-13.1979669],[28.435074,-13.1923028],[28.4630363,-13.1634535],[28.4702954,-13.1410821],[28.4536287,-13.1134535],[28.4463696,-13.0903497],[28.4883943,-13.073154],[28.4881828,-13.0541599],[28.4783032,-13.0465346],[28.4833325,-13.0337497],[28.4749992,-13.0170831]],[[28.3441414,-12.9216048],[28.3638044,-12.9195182]],[[31.3390454,-14.282407],[31.3231762,-14.2977227],[31.3416658,-14.3004164],[31.3390454,-14.282407]],[[31.7584651,-14.2463572],[31.7698396,-14.2555759],[31.7868638,-14.2508739]],[[31.3480298,-14.2602471],[31.3417635,-14.2322849],[31.3082511,-14.2398044],[31.3146801,-14.2684909],[31.3416658,-14.2754164],[31.3480298,-14.2602471]],[[31.2645825,-14.2313978],[31.2553865,-14.2461928],[31.2749992,-14.2504164],[31.2645825,-14.2313978]],[[31.2361971,-14.2051283],[31.2126619,-14.2166924],[31.2416658,-14.2337497],[31.2361971,-14.2051283]],[[28.1149007,-12.7993705],[28.0733553,-12.8173923],[28.0690259,-12.8598809],[28.0828744,-12.8765547],[28.0948843,-12.8815807],[28.1040356,-12.8705661],[28.1205558,-12.8800388],[28.1450675,-12.8775404],[28.1333325,-12.9087497],[28.1471183,-12.9127943],[28.1453768,-12.9298516],[28.1612329,-12.9468058]],[[28.1714579,-12.6525414],[28.1320955,-12.6903415],[28.0993156,-12.6869968],[28.1170565,-12.6560072],[28.0954419,-12.6466322],[28.0812492,-12.6138848],[28.0083325,-12.6254164],[28.032714,-12.6677016],[28.0742505,-12.6802097],[28.1128084,-12.7209405],[28.1213533,-12.7400974],[28.1333325,-12.7504164],[28.1333325,-12.7337497],[28.1333325,-12.7504164],[28.1303493,-12.7655727]],[[27.9166658,-15.5004164],[27.9204582,-15.5192071],[27.9416333,-15.5088637],[27.9334302,-15.4920831],[27.9166658,-15.5004164]],[[27.9166658,-15.5004164],[27.9109692,-15.4804701],[27.8962882,-15.4945896],[27.9166658,-15.5004164]],[[27.1930167,-15.1055678],[27.1797029,-15.1205499],[27.2083325,-15.1254164],[27.1930167,-15.1055678]],[[27.1950838,-15.0724053],[27.1657869,-15.0637546],[27.1718416,-15.0877618],[27.1999992,-15.0920831],[27.1950838,-15.0724053]],[[27.0615063,-15.0119236],[27.0912427,-14.9957452],[27.0846509,-14.9745863],[27.052994,-14.9639092],[27.038492,-15.0048597],[27.0615063,-15.0119236]],[[28.7050063,-13.9316777],[28.7018346,-13.9234809],[28.6788566,-13.9132256],[28.6696443,-13.8925876],[28.6522127,-13.8798923],[28.6634106,-13.9937432],[28.6999992,-14.0004164],[28.7054842,-13.9752374],[28.7050063,-13.9316777]],[[28.7669249,-13.0327465],[28.7955233,-13.0262465],[28.7809562,-13.0004896],[28.7561678,-13.0292738],[28.753824,-13.0130059],[28.7564282,-12.9805027],[28.7263501,-12.961655],[28.7128084,-12.9459405],[28.6813305,-12.9318943],[28.673351,-12.9206375]],[[28.6569325,-12.8817607],[28.6543123,-12.8702325],[28.6272392,-12.8679037]],[[31.2274418,-10.148777],[31.2212882,-10.1633803],[31.2065584,-10.1751723],[31.1704907,-10.1706882],[31.1178051,-10.2128269],[31.1546216,-10.2207859],[31.1620434,-10.2300469],[31.1911938,-10.2477553],[31.2101066,-10.2713718],[31.2333325,-10.2754164],[31.2370434,-10.2541192],[31.2464021,-10.2466241],[31.247395,-10.2129164],[31.245267,-10.1799155]],[[31.2027052,-9.8738489],[31.1962231,-9.8917657],[31.221981,-9.9392983]],[[32.7682877,-9.3179436],[32.7608528,-9.2964182],[32.7519264,-9.2848501],[32.7265277,-9.2763421],[32.7389152,-9.2974053],[32.7352042,-9.3272393],[32.7120434,-9.3457859],[32.7046215,-9.3612563],[32.7287101,-9.3624525],[32.7629549,-9.3550469],[32.8008618,-9.332765],[32.7838058,-9.318449],[32.7682877,-9.3179436]],[[27.4896476,-16.4377292],[27.4796867,-16.4226169],[27.4721997,-16.4447849],[27.4896476,-16.4377292]],[[27.4988273,-16.2691176],[27.4882641,-16.2538181],[27.4634757,-16.2386814],[27.4511222,-16.2868422],[27.4558423,-16.3078871],[27.4916658,-16.3170831],[27.5034009,-16.2954847],[27.5299308,-16.2886814],[27.5367342,-16.2667494],[27.5124992,-16.2721856],[27.4988273,-16.2691176]],[[26.4846671,-12.1113865],[26.4507153,-12.0671075],[26.3899406,-12.0547458],[26.3793286,-12.1214206],[26.3623201,-12.1207452],[26.363671,-12.1550225],[26.3210604,-12.1945163],[26.3809888,-12.2087904],[26.4416658,-12.2170831],[26.4458488,-12.2038751],[26.4843253,-12.1857191],[26.448339,-12.1687351],[26.4370597,-12.1448256],[26.4377921,-12.1262221],[26.4846671,-12.1113865]],[[23.2535962,-14.3808607],[23.2380363,-14.393084],[23.2583325,-14.4087497],[23.2535962,-14.3808607]],[[28.4121899,-14.3725193],[28.3885571,-14.3881036],[28.4166658,-14.3920831],[28.4121899,-14.3725193]],[[28.5204419,-14.3584323],[28.5037752,-14.3625339],[28.4884757,-14.3809584],[28.4486483,-14.3768975],[28.4212231,-14.3966322],[28.3977205,-14.406821],[28.3928865,-14.4542575],[28.4129549,-14.4709242],[28.4114087,-14.4860609],[28.4793937,-14.4791355],[28.4916658,-14.4837497],[28.5006665,-14.4598158],[28.5054354,-14.4129164],[28.502994,-14.3889092],[28.5204419,-14.3584323]],[[27.7807121,-16.6324069],[27.7648429,-16.6477227],[27.7833325,-16.6504164],[27.7807121,-16.6324069]],[[32.6450675,-10.1788181],[32.6761222,-10.1573744],[32.6693025,-10.1269626],[32.6138663,-10.1405775],[32.6329744,-10.1860854],[32.6450675,-10.1788181]],[[28.6918994,-10.0220982],[28.7083325,-10.0254164],[28.7182934,-10.0053643],[28.7023104,-9.9976169],[28.68988,-10.0196861],[28.6918994,-10.0220982]],[[28.7583325,-9.8420831],[28.7749992,-9.8337497],[28.7749992,-9.8087497],[28.7499992,-9.8087497],[28.7499992,-9.8420831],[28.7583325,-9.8420831]],[[29.0784009,-9.8121514],[29.0990063,-9.7979262],[29.0937166,-9.7742771],[29.0715975,-9.7886814],[29.0450675,-9.7954848],[29.0382641,-9.8076592],[29.0749992,-9.8170831],[29.0784009,-9.8121514]],[[27.6109692,-15.9888034],[27.5962882,-16.0029229],[27.6166658,-16.0087497],[27.6109692,-15.9888034]],[[28.1333325,-15.9420831],[28.143505,-15.9130791],[28.0959953,-15.9393487],[28.1208488,-15.9464613],[28.1333325,-15.9420831]],[[27.7249992,-15.8754164],[27.7741365,-15.8894545],[27.7973462,-15.8708754],[27.7932446,-15.8379164],[27.7968742,-15.8086765],[27.758658,-15.8233656],[27.7295402,-15.8197442],[27.7046216,-15.8467136],[27.6785962,-15.8625176],[27.6784497,-15.8895603],[27.7067374,-15.8860446],[27.7333325,-15.8920831],[27.7249992,-15.8754164]],[[28.2147599,-15.8208673],[28.2428703,-15.8544447],[28.2449699,-15.8382012],[28.2548169,-15.8131605],[28.2486913,-15.8023157]],[[28.1439112,-15.7622894],[28.147867,-15.775864],[28.1812818,-15.7895402]],[[25.289257,-17.7880059],[25.2921216,-17.764194],[25.2572257,-17.7785739],[25.2720532,-17.7867038],[25.289257,-17.7880059]],[[28.4384473,-15.48804],[28.4621085,-15.4771498],[28.4333325,-15.4504164],[28.4249992,-15.4504164],[28.4089022,-15.4360853],[28.428035,-15.4102773]],[[32.1576652,-13.8059014],[32.1380363,-13.8161797],[32.1499992,-13.8254164],[32.1576652,-13.8059014]],[[32.7416658,-13.7754164],[32.7473624,-13.7953627],[32.7620434,-13.7812432],[32.7416658,-13.7754164]],[[32.4302238,-13.7708021],[32.4132641,-13.7839776],[32.4249992,-13.7920831],[32.4302238,-13.7708021]],[[32.476464,-13.7301364],[32.4459139,-13.7520196],[32.4666658,-13.7587497],[32.476464,-13.7301364]],[[32.7943192,-13.7469702],[32.8037891,-13.7363274],[32.7800773,-13.7240167],[32.7867488,-13.7477271],[32.7943192,-13.7469702]],[[32.7416658,-13.6837497],[32.7416658,-13.6670831],[32.7166658,-13.6670831],[32.7166658,-13.6837497],[32.7416658,-13.6837497]],[[32.5499991,-13.6420831],[32.5466626,-13.6654066],[32.5791658,-13.661362],[32.5999991,-13.6639499],[32.6204581,-13.6614109],[32.6415519,-13.6877536],[32.6909008,-13.6957859],[32.7037101,-13.6583998],[32.6805005,-13.6189304],[32.6370434,-13.5883803],[32.6120434,-13.5633803],[32.5991853,-13.5328627],[32.5462882,-13.5257663],[32.5712882,-13.5457859],[32.5863273,-13.5645684],[32.5953768,-13.5991062],[32.5740714,-13.6161635],[32.5499991,-13.6420831]],[[27.2202954,-17.3707126],[27.2463696,-17.3634535],[27.2869621,-17.3380222],[27.1975252,-17.3301202],[27.1630363,-17.3538181],[27.2166658,-17.3754164],[27.2202954,-17.3707126]],[[23.3281242,-16.0951918],[23.3001294,-16.0802666],[23.2858228,-16.1002455],[23.2898267,-16.1205336],[23.3083325,-16.1254164],[23.3281242,-16.0951918]],[[33.3443025,-12.3971368],[33.3296215,-12.4112562],[33.3499991,-12.4170831],[33.3443025,-12.3971368]],[[33.186962,-12.3207126],[33.2009269,-12.3099297],[33.1946118,-12.2671238],[33.1571769,-12.2726495],[33.1380363,-12.307171],[33.1833325,-12.3254164],[33.186962,-12.3207126]],[[33.1715975,-11.2204848],[33.1535473,-11.1970147],[33.1382641,-11.2243259],[33.1749991,-11.2337497],[33.1715975,-11.2204848]],[[32.4450838,-14.0557387],[32.4157869,-14.0470879],[32.4218416,-14.0710951],[32.4499992,-14.0754164],[32.4450838,-14.0557387]],[[27.8277415,-12.4218647],[27.837076,-12.4097751],[27.8677889,-12.4143161],[27.8804028,-12.4045831],[27.8642082,-12.3920831],[27.889257,-12.372739],[27.8739249,-12.347324],[27.8624992,-12.3194024],[27.8282544,-12.3192722],[27.8321444,-12.3455987],[27.7992993,-12.3257826],[27.8054028,-12.3670831],[27.8012361,-12.3951999],[27.8228182,-12.3953383],[27.8204681,-12.4112016],[27.8277415,-12.4218647]],[[27.8268299,-12.2307682],[27.8135357,-12.2339201],[27.8198662,-12.2536268],[27.8089981,-12.2638798],[27.7754364,-12.2739439],[27.7648296,-12.2864933],[27.7437329,-12.2883396],[27.7541658,-12.3153904],[27.778645,-12.3105482],[27.7916658,-12.3254164],[27.8034822,-12.2872328],[27.8215161,-12.2636],[27.8268299,-12.2307682]],[[24.1859692,-11.1554701],[24.1712882,-11.1695896],[24.1916658,-11.1754164],[24.1859692,-11.1554701]],[[28.770507,-11.9469496],[28.7331697,-11.9167738],[28.7064282,-11.9847914],[28.7510408,-11.9781996],[28.7749992,-11.9837497],[28.770507,-11.9469496]],[[28.7229158,-11.6313978],[28.7137199,-11.6461928],[28.7333325,-11.6504164],[28.7229158,-11.6313978]],[[29.320865,-11.4901462],[29.2970206,-11.4804213],[29.3050122,-11.5120945],[29.3249992,-11.5170831],[29.320865,-11.4901462]],[[29.1943025,-11.2638034],[29.1796216,-11.2779229],[29.1999992,-11.2837497],[29.1943025,-11.2638034]],[[29.0605135,-11.2554783],[29.037727,-11.2664809],[29.0666658,-11.2754164],[29.0605135,-11.2554783]],[[28.8787752,-11.2958672],[28.8870434,-11.2792575],[28.9066235,-11.2591078],[28.9727693,-11.2444431],[28.9672029,-11.1897881],[28.9121085,-11.1799656],[28.8867993,-11.1494887],[28.8545565,-11.1882989],[28.8380688,-11.2019952],[28.8590975,-11.2579766],[28.8704419,-11.2966322],[28.8787752,-11.2958672]]],"bbox":[23.1052238,-17.9344577,33.3499991,-8.4559503]}