{"type":"Topology","objects":{"foo":{"type":"GeometryCollection","geometries":[{"type":"Polygon","arcs":[[0,1,2,3,4]],"properties":{"name":"Chichigalpa","gaul_code":22425,"targetarea":24.536634,"totpop":55989.64844,"country_id":"NIC","targetpop":14283.1084,"new_mean":0.1279366,"totalarea":191.8732402}},{"type":"Polygon","arcs":[[5,6,7,8]],"properties":{"name":"Villa Carlos Fonseca A","gaul_code":22495,"targetarea":5.9704789,"totpop":85077.24219,"country_id":"NIC","targetpop":7032.151367,"new_mean":0.1241941,"totalarea":602.8048324}},{"type":"Polygon","arcs":[[-3,9,10,11]],"properties":{"name":"Quezalguaque","gaul_code":22477,"targetarea":8.8540412,"totpop":14952.49805,"country_id":"NIC","targetpop":6308.817383,"new_mean":0.125646,"totalarea":87.531935}},{"type":"Polygon","arcs":[[12,13,14]],"properties":{"name":"Ticuantepe","gaul_code":22493,"targetarea":38.6825261,"totpop":45175.03125,"country_id":"NIC","targetpop":29891.48047,"new_mean":0.1187188,"totalarea":54.9096403}},{"type":"Polygon","arcs":[[-4,-12,15,16]],"properties":{"name":"Posoltega","gaul_code":22433,"targetarea":0.3039507,"totpop":17939.89063,"country_id":"NIC","targetpop":176.9634247,"new_mean":0.1177581,"totalarea":95.4079451}},{"type":"Polygon","arcs":[[17,-16,-11,18,19]],"properties":{"name":"Telica","gaul_code":22479,"targetarea":15.8043099,"totpop":33932.25,"country_id":"NIC","targetpop":10774.85449,"new_mean":0.1221418,"totalarea":397.872407}},{"type":"Polygon","arcs":[[20,21,22,-5,-17,-18]],"properties":{"name":"Chinandega","gaul_code":22426,"targetarea":58.2095615,"totpop":143701.2969,"country_id":"NIC","targetpop":37678.04297,"new_mean":0.1331514,"totalarea":772.1840153}},{"type":"MultiPolygon","arcs":[[[23,24,25,26,27,28]],[[29,30,31]]],"properties":{"name":"Granada","gaul_code":22459,"targetarea":11.7866614,"totpop":110196.3906,"country_id":"NIC","targetpop":5684.696777,"new_mean":0.1368609,"totalarea":524.2464561}},{"type":"Polygon","arcs":[[32,-9,33]],"properties":{"name":"Mateare","gaul_code":22490,"targetarea":38.7507473,"totpop":50978.91016,"country_id":"NIC","targetpop":25207.375,"new_mean":0.1414036,"totalarea":577.6883237}},{"type":"Polygon","arcs":[[34,35]],"properties":{"name":"Matagalpa","gaul_code":22508,"targetarea":49.6120239,"totpop":140333.2188,"country_id":"NIC","targetpop":34283.96484,"new_mean":0.1123605,"totalarea":602.3143539}},{"type":"Polygon","arcs":[[-7,36,37,38]],"properties":{"name":"San Rafael Del Sur","gaul_code":22492,"targetarea":0.8055588,"totpop":67894.88281,"country_id":"NIC","targetpop":1440.480713,"new_mean":0.1232395,"totalarea":363.6824688}},{"type":"Polygon","arcs":[[39,-35]],"properties":{"name":"Jinotega","gaul_code":22465,"targetarea":24.7807142,"totpop":108421,"country_id":"NIC","targetpop":13875.20508,"new_mean":0.0946555,"totalarea":946.3613547}},{"type":"Polygon","arcs":[[40,-22]],"properties":{"name":"El Viejo","gaul_code":22430,"targetarea":41.0728195,"totpop":87010.85938,"country_id":"NIC","targetpop":22498.24219,"new_mean":0.1372371,"totalarea":1337.538739}},{"type":"Polygon","arcs":[[41,42,43,-29]],"properties":{"name":"Diria","gaul_code":22457,"targetarea":4.8910142,"totpop":10718.44727,"country_id":"NIC","targetpop":3317.205566,"new_mean":0.1247326,"totalarea":23.5628536}},{"type":"Polygon","arcs":[[44,-14,45,46,47,48]],"properties":{"name":"La Concepcion","gaul_code":22497,"targetarea":35.589401,"totpop":38632.29688,"country_id":"NIC","targetpop":19985.75586,"new_mean":0.11508,"totalarea":63.3885784}},{"type":"Polygon","arcs":[[-47,49,-38,50,51,52]],"properties":{"name":"San Marcos","gaul_code":22424,"targetarea":2.1516384,"totpop":46153.04297,"country_id":"NIC","targetpop":1204.655762,"new_mean":0.112154,"totalarea":92.5592855}},{"type":"Polygon","arcs":[[-53,53,54,55,56,57,-48]],"properties":{"name":"Masatepe","gaul_code":22498,"targetarea":53.8280328,"totpop":38005.45313,"country_id":"NIC","targetpop":30033.50781,"new_mean":0.1148805,"totalarea":71.3176607}},{"type":"Polygon","arcs":[[58,-56,59,-43,60,61]],"properties":{"name":"Niquinohomo","gaul_code":22502,"targetarea":7.3695642,"totpop":11754.60254,"country_id":"NIC","targetpop":5172.425781,"new_mean":0.1205224,"totalarea":20.3494933}},{"type":"Polygon","arcs":[[62,63,-25,64,-31]],"properties":{"name":"Tisma","gaul_code":22504,"targetarea":11.8407743,"totpop":27811.92773,"country_id":"NIC","targetpop":6794.740234,"new_mean":0.1293176,"totalarea":110.3940086}},{"type":"Polygon","arcs":[[-19,-10,-2,65]],"properties":{"name":"Isla","gaul_code":22431,"targetarea":124.4505375,"totpop":193129.75,"country_id":"NIC","targetpop":96378.9375,"new_mean":0.1286433,"totalarea":849.6493503}},{"type":"Polygon","arcs":[[66,67,-15,-45,68]],"properties":{"name":"Nindiri","gaul_code":22501,"targetarea":77.3486199,"totpop":73836.65625,"country_id":"NIC","targetpop":50509.60156,"new_mean":0.1208161,"totalarea":122.133522}},{"type":"Polygon","arcs":[[69,-57,-59]],"properties":{"name":"Nandasmo","gaul_code":22500,"targetarea":16.8447776,"totpop":11864.31738,"country_id":"NIC","targetpop":11864.31738,"new_mean":0.1215537,"totalarea":16.8447776}},{"type":"Polygon","arcs":[[70,71,-67,72,-63,-30]],"properties":{"name":"Tipitapa","gaul_code":22494,"targetarea":6.093549,"totpop":122832.4375,"country_id":"NIC","targetpop":8058.51416,"new_mean":0.1359399,"totalarea":1051.897723}},{"type":"Polygon","arcs":[[73,-54,-52]],"properties":{"name":"Jinotepe","gaul_code":22421,"targetarea":4.9241959,"totpop":39544.53516,"country_id":"NIC","targetpop":2316.150879,"new_mean":0.1155725,"totalarea":209.3077856}},{"type":"Polygon","arcs":[[74]],"properties":{"name":"Esteli","gaul_code":22452,"targetarea":74.3518861,"totpop":129084.6953,"country_id":"NIC","targetpop":58455.12109,"new_mean":0.123681,"totalarea":720.2355853}},{"type":"Polygon","arcs":[[-34,-8,-39,-50,-46,-13,-68,-72,75]],"properties":{"name":"Managua","gaul_code":22489,"targetarea":536.1963964,"totpop":999311.5625,"country_id":"NIC","targetpop":891278.75,"new_mean":0.1313591,"totalarea":694.9314203}},{"type":"Polygon","arcs":[[-73,-69,-49,-58,-70,76,-26,-64]],"properties":{"name":"Masaya","gaul_code":22499,"targetarea":149.2677362,"totpop":122159.8203,"country_id":"NIC","targetpop":108809.0781,"new_mean":0.1263298,"totalarea":180.9394999}},{"type":"Polygon","arcs":[[-61,-42,-28,77]],"properties":{"name":"San Juan De Oriente","gaul_code":22503,"targetarea":5.8486849,"totpop":3967.390137,"country_id":"NIC","targetpop":3967.237549,"new_mean":0,"totalarea":5.8494741}},{"type":"Polygon","arcs":[[-62,-78,-27,-77]],"properties":{"name":"Catarina","gaul_code":22496,"targetarea":12.1836461,"totpop":8411.78125,"country_id":"NIC","targetpop":8312.40918,"new_mean":0,"totalarea":12.6972964}}]}},"arcs":[[[-87.1254272,12.5303259],[-87.1321182,12.5194931],[-87.1344986,12.5115356],[-87.14048,12.5001974],[-87.1387253,12.4968615],[-87.1309052,12.492363],[-87.1119843,12.4769821],[-87.1011124,12.4637508],[-87.0978241,12.457366]],[[-87.0978241,12.457366],[-87.0953751,12.4547663],[-87.0736008,12.4558878],[-87.058403,12.4602365],[-87.0483322,12.4672432],[-87.0391464,12.4768848],[-87.0309296,12.481246],[-87.008606,12.4896603]],[[-87.008606,12.4896603],[-86.9843826,12.5002918],[-86.9794159,12.5053511]],[[-86.9794159,12.5053511],[-86.982666,12.5120163],[-86.9965363,12.5256538],[-87.0013733,12.5344152],[-87.000412,12.5426683],[-87.001564,12.5503445],[-87.0089569,12.5710411],[-87.0080032,12.579874],[-86.9947968,12.5820503],[-86.9896774,12.5843563],[-86.9806519,12.5949659],[-86.9638977,12.6121998],[-86.9500351,12.6231899],[-86.9465027,12.62922],[-86.9460373,12.6460505],[-86.9389648,12.6603918]],[[-86.9389648,12.6603918],[-86.9464188,12.6697531],[-86.9542542,12.6762877],[-86.9634018,12.6650419],[-86.9773254,12.6503973],[-86.9871979,12.6423616],[-87.0054474,12.6215096],[-87.0136108,12.6136713],[-87.0269089,12.6096859],[-87.0327682,12.6065931],[-87.0399246,12.5978479],[-87.050415,12.5693979],[-87.0531158,12.5644732],[-87.0719376,12.550519],[-87.083046,12.5466185],[-87.0991669,12.5454826],[-87.1212997,12.5312748],[-87.1254272,12.5303259]],[[-86.519249,12.1581945],[-86.5198822,12.1493626],[-86.5175705,12.1429586],[-86.5209274,12.1366282],[-86.5346832,12.1322765],[-86.5402069,12.1275692],[-86.5468521,12.1162519],[-86.5669022,12.107996],[-86.5833893,12.0967817],[-86.5927429,12.0850916],[-86.5991898,12.0826998],[-86.6161346,12.0870352],[-86.6356125,12.0888968],[-86.6462936,12.0821276],[-86.660347,12.0798979],[-86.6680984,12.0705929],[-86.6675568,12.0628719],[-86.6605453,12.0482655],[-86.6557541,12.0310698],[-86.6604309,12.0218105],[-86.6707077,12.0135689],[-86.684432,12.004977],[-86.6792374,11.9934645],[-86.6743469,11.989068],[-86.6673508,11.9865046],[-86.6666718,11.9816704],[-86.637619,11.9527769],[-86.6216354,11.9253273],[-86.6200714,11.9110613],[-86.6143036,11.897234],[-86.5866165,11.8761597],[-86.5793916,11.8679102]],[[-86.5793916,11.8679102],[-86.575264,11.8736744],[-86.5754471,11.8816319],[-86.5816116,11.8889923],[-86.5877228,11.899456],[-86.5860138,11.9049492],[-86.5816269,11.9093561],[-86.5756226,11.9116564],[-86.5715942,11.9170895],[-86.5655746,11.9209213],[-86.552742,11.9218206],[-86.5463028,11.9207935],[-86.5410843,11.9170465],[-86.5318909,11.907176],[-86.5220261,11.9063749],[-86.5089493,11.9119635],[-86.5006638,11.9092903],[-86.4927444,11.9139748],[-86.4821091,11.9135885],[-86.4730835,11.920249],[-86.459877,11.9228048],[-86.4502716,11.9266844],[-86.4393616,11.9410629],[-86.4336777,11.9542856]],[[-86.4336777,11.9542856],[-86.4316483,11.9611855],[-86.4319687,11.9697132],[-86.4411545,11.9825191],[-86.4595718,12.0043993],[-86.4531784,12.0075388],[-86.3554001,12.0597715],[-86.3722763,12.074913],[-86.3820648,12.0850992],[-86.3904114,12.0976524],[-86.3957291,12.107728],[-86.3992386,12.1201553],[-86.4014664,12.1340876],[-86.4005127,12.1417723]],[[-86.4005127,12.1417723],[-86.4510803,12.1308746],[-86.4854355,12.1259203],[-86.4863358,12.1280012],[-86.4872971,12.1585474],[-86.4966202,12.1594429],[-86.519249,12.1581945]],[[-87.008606,12.4896603],[-87.0043182,12.4875097],[-86.9927292,12.487134],[-86.9827118,12.4895458],[-86.9619904,12.4989443],[-86.9478531,12.5021267],[-86.9315262,12.5036268],[-86.9222183,12.5007324],[-86.9150238,12.4956264],[-86.9052353,12.4781647],[-86.8984146,12.4730644],[-86.8878937,12.4741507]],[[-86.8878937,12.4741507],[-86.8881073,12.4833679],[-86.8864288,12.5059795],[-86.891983,12.5442171],[-86.8911057,12.5750618],[-86.8894043,12.5872259],[-86.8897934,12.5985708],[-86.8991241,12.637578]],[[-86.8991241,12.637578],[-86.9107437,12.620657],[-86.923851,12.6109238],[-86.937294,12.6039543],[-86.9397736,12.599926],[-86.9401855,12.5917883],[-86.938118,12.5707712],[-86.9385986,12.5579014],[-86.9406891,12.5403862],[-86.9449768,12.5290833],[-86.9497528,12.5223293],[-86.9597549,12.5149708],[-86.9794159,12.5053511]],[[-86.1991272,12.0409622],[-86.2087326,12.0374737],[-86.2286072,12.0204153],[-86.2461929,12.0041418],[-86.2609177,11.9858923]],[[-86.2609177,11.9858923],[-86.2268219,11.9558592],[-86.1829681,11.9749575]],[[-86.1829681,11.9749575],[-86.1721191,11.9947748],[-86.1652832,12.0042877],[-86.1670227,12.0075893],[-86.1791153,12.0207033],[-86.1935272,12.0337486],[-86.1991272,12.0409622]],[[-86.8991241,12.637578],[-86.8850098,12.6587286],[-86.8810043,12.6662312]],[[-86.8810043,12.6662312],[-86.9021606,12.6670542],[-86.9300537,12.6636696],[-86.9389648,12.6603918]],[[-86.8198013,12.7256088],[-86.8171616,12.7149363],[-86.8196259,12.7059841],[-86.82444,12.7011137],[-86.8351517,12.6953659],[-86.8436584,12.6850777],[-86.8500061,12.6804628],[-86.8658066,12.6776628],[-86.8744049,12.6735096],[-86.8810043,12.6662312]],[[-86.8878937,12.4741507],[-86.8818436,12.4759693],[-86.8625946,12.4873648],[-86.8499527,12.4931574],[-86.8316193,12.4983311],[-86.8153305,12.5016499],[-86.7873459,12.5061073],[-86.7715378,12.5075407],[-86.7635803,12.5095177],[-86.7456207,12.5181704],[-86.727066,12.5322771],[-86.7246628,12.5353861]],[[-86.7246628,12.5353861],[-86.7238159,12.5526829],[-86.7207108,12.5648203],[-86.7160645,12.5717964],[-86.7092361,12.592042],[-86.710228,12.6181784],[-86.7124557,12.6330662],[-86.7159348,12.6483145],[-86.7203522,12.6598225],[-86.7374496,12.6818743],[-86.7443619,12.6866913],[-86.7513657,12.6887302],[-86.7802811,12.6902113],[-86.7880859,12.6933994],[-86.7914963,12.6991539],[-86.7942734,12.7156582],[-86.7952576,12.7358522],[-86.7921371,12.7505875],[-86.8071823,12.7513704],[-86.8143921,12.747674],[-86.8181686,12.7425127],[-86.8199768,12.7344618],[-86.8198013,12.7256088]],[[-86.8198013,12.7256088],[-86.8232803,12.7294807],[-86.8239517,12.7430115],[-86.8274384,12.751586],[-86.8411331,12.7614365],[-86.8468628,12.7745132],[-86.8565216,12.7842216],[-86.8693542,12.7847118],[-86.8826675,12.7887907],[-86.8920746,12.7940178],[-86.8976669,12.7992678],[-86.9052124,12.8028307],[-86.9284286,12.8055391],[-86.9393311,12.8056145],[-86.9581757,12.8093958],[-86.9641647,12.8126621],[-86.9733734,12.8314838],[-86.9762115,12.8346453],[-86.9827576,12.8354797],[-86.989296,12.8309927],[-86.9951401,12.8298922],[-87.0121918,12.8322001],[-87.0382385,12.8328753],[-87.055687,12.8489742],[-87.0580597,12.8648777],[-87.0708694,12.8638029],[-87.081854,12.8702335],[-87.1104979,12.8720093],[-87.1134318,12.8703107],[-87.1201488,12.8432881],[-87.1241684,12.8351316],[-87.1297379,12.8121243],[-87.1285248,12.7971506],[-87.1223297,12.7647886],[-87.1226196,12.7417812]],[[-87.1226196,12.7417812],[-87.1231842,12.7369223],[-87.1289291,12.7159338],[-87.1340866,12.7061014],[-87.1430435,12.6843596],[-87.145195,12.6727924],[-87.1525269,12.6615143],[-87.1625977,12.6537819],[-87.1977615,12.6365824],[-87.2073135,12.6279173]],[[-87.2073135,12.6279173],[-87.2046051,12.6177015],[-87.2006683,12.6100912],[-87.1922302,12.6065798],[-87.1740341,12.6031542],[-87.1586609,12.5963087],[-87.1523514,12.5872536],[-87.1483078,12.5776358],[-87.1322021,12.5454588],[-87.1254272,12.5303259]],[[-86.0244904,11.885417],[-86.0069809,11.8845453],[-85.9895248,11.8799467],[-85.9881744,11.8751307],[-86.0010071,11.8561115],[-86.0093002,11.8455238],[-86.0136108,11.8279743],[-86.0154648,11.8103113],[-86.016716,11.7853651],[-86.0154343,11.7765169],[-86.0098953,11.7691355],[-85.9996872,11.7660685],[-85.986618,11.7658892],[-85.9765778,11.7638416],[-85.9674454,11.7603226],[-85.9490967,11.7482052],[-85.9291611,11.7360029],[-85.9130096,11.730587],[-85.9069748,11.7322969],[-85.896759,11.7309103],[-85.8923645,11.7403164],[-85.88591,11.7458982],[-85.884903,11.7534618],[-85.8909988,11.7690144],[-85.890152,11.7774363],[-85.8829956,11.7826595],[-85.886795,11.7991247],[-85.8934021,11.8052273],[-85.8964844,11.8116579],[-85.899437,11.8262262],[-85.9118042,11.8492508],[-85.9215088,11.8500767],[-85.9220581,11.8607979],[-85.9249725,11.866209],[-85.9250183,11.8755512],[-85.9201431,11.881937],[-85.9092484,11.8774891],[-85.9032974,11.873456],[-85.8954697,11.8647394],[-85.890007,11.8637886],[-85.8870697,11.8706121],[-85.8940887,11.8862629],[-85.902298,11.8931293],[-85.9195557,11.898056],[-85.9268494,11.8951855],[-85.9336472,11.9024868],[-85.938179,11.9193745],[-85.9376373,11.9452162],[-85.9355774,11.9664125],[-85.9291916,11.9802618],[-85.9224854,11.9920626],[-85.9120255,12.0195885],[-85.9060516,12.0294018],[-85.8948669,12.0442934],[-85.8839493,12.0667553],[-85.876709,12.0786095],[-85.878746,12.086072],[-85.8907776,12.0874557],[-85.8942795,12.0901814],[-85.8936768,12.0965004],[-85.9025879,12.0922594],[-85.9157333,12.089922],[-85.9370117,12.0896559],[-85.9571991,12.0914001],[-85.9601059,12.0848541],[-85.9565353,12.0728912],[-85.9670563,12.0531912]],[[-85.9670563,12.0531912],[-85.9685593,12.0460844],[-85.9680023,12.019598],[-85.9699326,12.0072346]],[[-85.9699326,12.0072346],[-85.9717484,12.0039091],[-85.9859695,11.98668],[-85.9946365,11.9734707],[-86.0068817,11.9573822],[-86.016037,11.9483032],[-86.0229645,11.9335203],[-86.0271591,11.9288392]],[[-86.0271591,11.9288392],[-86.0452182,11.9086859]],[[-86.0452182,11.9086859],[-86.0545959,11.8972492]],[[-86.0545959,11.8972492],[-86.0481339,11.8906593],[-86.0343933,11.8855724],[-86.0244904,11.885417]],[[-85.8498383,12.1738939],[-85.8671417,12.1797714],[-85.8720245,12.1866875],[-85.8867416,12.1869431],[-85.8907928,12.1902084],[-85.9042206,12.1794004],[-85.9059372,12.1684628],[-85.9106216,12.1621265],[-85.9229584,12.1533661],[-85.9334564,12.1508884],[-85.967453,12.1403217],[-85.9881287,12.1314421],[-85.9943466,12.130168],[-86.0072937,12.1312389]],[[-86.0072937,12.1312389],[-85.9918747,12.1134577]],[[-85.9918747,12.1134577],[-85.9728394,12.1038971],[-85.9595795,12.0993795],[-85.9356842,12.0962782],[-85.9023438,12.0975637],[-85.888855,12.0992069],[-85.8819504,12.0983915],[-85.8674469,12.0828333],[-85.8677216,12.074955],[-85.8587799,12.067872],[-85.8434067,12.065136],[-85.8366776,12.0651827],[-85.8253021,12.0688038],[-85.8141708,12.0801687],[-85.800415,12.0895452],[-85.7919159,12.0900373],[-85.7860336,12.093379],[-85.7867355,12.1063232],[-85.7900543,12.110157],[-85.8038177,12.1137733],[-85.8101196,12.118516],[-85.8249207,12.1246471],[-85.8338089,12.1227884],[-85.8433304,12.1266308],[-85.846962,12.1329756],[-85.8470306,12.1567268],[-85.8414536,12.1630402],[-85.8476028,12.1682901],[-85.8498383,12.1738939]],[[-86.2116241,12.2363434],[-86.2344818,12.2495909],[-86.2846832,12.3062859],[-86.3372421,12.3228226],[-86.4075241,12.3417206],[-86.4388754,12.3626231],[-86.4489868,12.3523485],[-86.4802933,12.3319804],[-86.5115999,12.3180245],[-86.5318581,12.290768],[-86.5373611,12.2765455],[-86.5385895,12.2677307],[-86.5437469,12.2539692],[-86.5434799,12.2461214],[-86.5406876,12.2357817],[-86.5381851,12.2167625],[-86.5459518,12.195796],[-86.5419846,12.1900053],[-86.5288239,12.1872292],[-86.5207901,12.1843309],[-86.5137329,12.1758518],[-86.5134583,12.1676588],[-86.519249,12.1581945]],[[-86.4005127,12.1417723],[-86.3734207,12.1509161],[-86.3631897,12.1558352],[-86.3644257,12.1661835],[-86.3530121,12.1684704],[-86.3495712,12.1630116],[-86.2985077,12.1854458],[-86.263298,12.203495],[-86.231636,12.2221365],[-86.2116241,12.2363434]],[[-85.8105392,13.1071758],[-85.8201981,13.0978012],[-85.8463058,13.0765209],[-85.8634796,13.0609436],[-85.8818893,13.046277],[-85.9017563,13.0258589],[-85.9085464,13.0206976],[-85.9184113,13.0087481],[-85.9285812,13.0031233],[-85.9401627,13.0003281],[-85.952774,13.002284],[-85.976593,13.0037174],[-85.9930954,13.008707],[-85.9974136,13.0017786],[-85.9955368,12.9903727],[-85.9966354,12.9851398],[-86.003212,12.984375],[-86.033783,12.9869823]],[[-86.033783,12.9869823],[-86.0737381,12.9410448],[-86.0603867,12.8907185],[-86.0292892,12.8878374],[-86.0364685,12.850276],[-86.0288467,12.8466272],[-86.0140839,12.8473663],[-85.9923477,12.8530293],[-85.985054,12.8537512],[-85.9774246,12.8497486],[-85.9692917,12.8424101],[-85.958168,12.8301096],[-85.9504242,12.8175259],[-85.9428329,12.8098383],[-85.9336166,12.8045626],[-85.9185181,12.8016071],[-85.9053345,12.8053417],[-85.8976822,12.8056993],[-85.8908997,12.8087034],[-85.8753204,12.823616],[-85.8685379,12.8276806],[-85.8491058,12.8341112],[-85.8415985,12.8390446],[-85.8369675,12.8398256],[-85.8268661,12.8345242],[-85.8102493,12.8206511],[-85.8166046,12.8007698],[-85.817009,12.7935791],[-85.8144302,12.7808838],[-85.8117981,12.7766113],[-85.8012009,12.766716],[-85.7946854,12.7567339],[-85.7944107,12.7458458],[-85.7955704,12.7341156],[-85.7941895,12.7277632],[-85.770607,12.7323523],[-85.756485,12.7448387],[-85.7479477,12.7458706],[-85.7333832,12.7450056],[-85.7215881,12.7549314],[-85.7111282,12.7572832],[-85.7114487,12.7625713],[-85.7088013,12.7838135],[-85.7028275,12.797245],[-85.6976547,12.8008337],[-85.6705475,12.8124218],[-85.6774445,12.8182087],[-85.6851959,12.8271847],[-85.6925201,12.8220482],[-85.7047577,12.8256512],[-85.7170334,12.8243208],[-85.7260742,12.8282061],[-85.72995,12.8335695],[-85.7402725,12.8313179],[-85.7559052,12.8335781],[-85.7719421,12.8296871],[-85.7760086,12.8327627],[-85.7805786,12.8407698],[-85.7857056,12.8447437],[-85.7990265,12.8487072],[-85.8199997,12.850893],[-85.8430862,12.8555756],[-85.8517838,12.859437],[-85.8599167,12.8660955],[-85.8623505,12.8738661],[-85.8616028,12.9625235],[-85.8027878,13.0366621],[-85.8105392,13.1071758]],[[-86.5793916,11.8679102],[-86.5738373,11.8641329],[-86.5360107,11.819313],[-86.5265121,11.805232],[-86.5216751,11.7930174],[-86.5185089,11.7748318],[-86.4959641,11.7560778],[-86.4843597,11.7442837],[-86.4483109,11.7213078],[-86.4424063,11.7156998],[-86.430191,11.7234573],[-86.4283295,11.7310905],[-86.4357834,11.7420692],[-86.4359741,11.751174],[-86.4405289,11.7574549],[-86.4339523,11.7694454],[-86.4179382,11.7819633],[-86.4100723,11.7859774],[-86.3941498,11.7903872],[-86.3739014,11.813015]],[[-86.3739014,11.813015],[-86.373291,11.8178854],[-86.36586,11.8371706],[-86.3282471,11.8890486]],[[-86.3282471,11.8890486],[-86.3471375,11.8952503],[-86.3843842,11.9108353],[-86.4147797,11.931057],[-86.4304581,11.9454727],[-86.4336777,11.9542856]],[[-85.8105392,13.1071758],[-85.8008728,13.1163797],[-85.79142,13.1206608],[-85.7734528,13.1214914],[-85.7698822,13.1226797],[-85.7618332,13.1310377],[-85.7560806,13.1397791],[-85.7440262,13.1637859],[-85.7364883,13.1735744],[-85.7159119,13.194334],[-85.6889114,13.2171679],[-85.6801376,13.2260809],[-85.6668777,13.2421923],[-85.6609421,13.2529058],[-85.6776581,13.2553568],[-85.6846008,13.2536564],[-85.6987076,13.2453184],[-85.7063675,13.2439795],[-85.7195511,13.239522],[-85.7256088,13.2390509],[-85.7429962,13.2464418],[-85.7477646,13.2524757],[-85.7539749,13.255353],[-85.7614059,13.2615843],[-85.7739563,13.2752533],[-85.7795944,13.2848053],[-85.7846832,13.296813],[-85.7880402,13.3001814],[-85.7976303,13.3027201],[-85.8104248,13.3038759],[-85.8164368,13.3084936],[-85.8183289,13.3199348],[-85.814209,13.3251753],[-85.8136139,13.3358946],[-85.8172913,13.3459349],[-85.8275986,13.3467064],[-85.8672485,13.3453932],[-85.8749008,13.3438644],[-85.8790588,13.332839],[-85.8975601,13.3006916],[-85.9194183,13.2745581],[-85.9270935,13.2686605],[-85.9440231,13.2610941],[-85.9564972,13.2571735],[-85.9685745,13.2572794],[-85.9836655,13.2607403],[-85.9990692,13.2687511],[-86.0086136,13.2770576],[-86.0159607,13.2674961],[-86.0250397,13.2638998],[-86.0306015,13.2553806],[-86.0380554,13.2302675],[-86.037941,13.2202997],[-86.0486908,13.2065964],[-86.0492706,13.2003088],[-86.0458145,13.1850624],[-86.0467758,13.1745815],[-86.0579071,13.1561794],[-86.061203,13.1422377],[-86.0677261,13.122921],[-86.0687485,13.1024923],[-86.0685196,13.0834475],[-86.0743103,13.0683298],[-86.0752411,13.0629301],[-86.0744705,13.0445805],[-86.0717239,13.0293465],[-86.0624847,13.0285034],[-86.0514984,13.0244904],[-86.0414352,13.0136747],[-86.0361938,12.9992571],[-86.033783,12.9869823]],[[-87.1226196,12.7417812],[-87.1440735,12.7528172],[-87.1443253,12.7622442],[-87.1650772,12.7903652],[-87.1886978,12.8157778],[-87.1926651,12.8175611],[-87.2158279,12.8103743],[-87.2281113,12.8161173],[-87.23703,12.8235416],[-87.2442398,12.8275137],[-87.2594528,12.8319569],[-87.2821045,12.8415642],[-87.2843552,12.8449211],[-87.2874298,12.8664598],[-87.2892151,12.8705091],[-87.3036652,12.8745089],[-87.310485,12.8794949],[-87.3160643,12.890352],[-87.3187786,12.8998519],[-87.3343102,12.9066376],[-87.3377784,12.9141772],[-87.3441117,12.920812],[-87.3545164,12.9241295],[-87.3839209,12.9245818],[-87.3904638,12.9267901],[-87.4053268,12.9114676],[-87.4162827,12.9157362],[-87.4301071,12.9173784],[-87.4549332,12.9289312],[-87.4692307,12.9310322],[-87.4792862,12.9409399],[-87.4834976,12.9485369],[-87.4895782,12.9549866],[-87.4879227,12.9660196],[-87.4743195,12.9659901],[-87.4825058,12.9791126],[-87.4855347,12.9894648],[-87.5164337,13.0203371],[-87.5560226,13.0480032],[-87.5733719,13.0510225],[-87.5879135,13.0503597],[-87.5815659,13.0597744],[-87.5810852,13.0689697],[-87.5761566,13.0712605],[-87.5737991,13.0788431],[-87.5770798,13.0829868],[-87.5827103,13.0788584],[-87.588356,13.0687532],[-87.5923538,13.0584145],[-87.5968399,13.0397997],[-87.6092987,13.0184402],[-87.6278458,13.0005379],[-87.6384048,12.9952669],[-87.6522369,12.9920702],[-87.6611557,12.9865656],[-87.665863,12.9730082],[-87.672905,12.9631329],[-87.677124,12.9612989],[-87.686058,12.9387808],[-87.688179,12.9309664],[-87.6856079,12.9238348],[-87.6903,12.9206228],[-87.6903076,12.9111967],[-87.6870346,12.9036055],[-87.6479263,12.8702087],[-87.6209946,12.8556805],[-87.6041412,12.8420868],[-87.5519257,12.813942],[-87.5367126,12.8026466],[-87.5205612,12.7936478],[-87.5020676,12.7802744],[-87.4857025,12.7625351],[-87.4828796,12.7691975],[-87.4875565,12.7749557],[-87.5100098,12.7966146],[-87.5214844,12.8026161],[-87.5252228,12.8065329],[-87.5291901,12.8187265],[-87.5387802,12.8251829],[-87.5469742,12.8337059],[-87.5406418,12.835763],[-87.5343246,12.828393],[-87.5223846,12.8214722],[-87.5158463,12.8069735],[-87.5099945,12.8076525],[-87.5139542,12.8209953],[-87.5197983,12.8297443],[-87.5265808,12.836195],[-87.5256271,12.8451595],[-87.5162582,12.8451414],[-87.5127258,12.8520327],[-87.5064163,12.8451214],[-87.5036011,12.8467255],[-87.5000992,12.8366013],[-87.5022202,12.8285589],[-87.5087967,12.8216743],[-87.5024719,12.8184423],[-87.5055313,12.8131609],[-87.5022659,12.8044167],[-87.4959564,12.7952061],[-87.486824,12.7921982],[-87.4853973,12.8027735],[-87.476265,12.7974634],[-87.4812012,12.7924175],[-87.4739456,12.7857323],[-87.4664764,12.7719212],[-87.4627304,12.7714529],[-87.4552078,12.7813215],[-87.4500504,12.7842999],[-87.4413834,12.7831306],[-87.4453735,12.7785416],[-87.4563904,12.7723217],[-87.458992,12.7629375],[-87.4517365,12.7592421],[-87.443779,12.7583055],[-87.4437866,12.7518663],[-87.4353561,12.7493181],[-87.430687,12.7421789],[-87.4449692,12.7470398],[-87.4482498,12.7442884],[-87.4580917,12.7463799],[-87.4636993,12.7539797],[-87.464859,12.760191],[-87.4793777,12.7604523],[-87.4796219,12.7572336],[-87.4662857,12.7489271],[-87.4438324,12.7297926],[-87.4361267,12.7168989],[-87.414856,12.6945457],[-87.4033966,12.6873903],[-87.3751373,12.6500711],[-87.3697662,12.6415501],[-87.3627777,12.6254368],[-87.3522568,12.6205807],[-87.3417358,12.6122751],[-87.3412476,12.6198616],[-87.3337402,12.6281195],[-87.3283463,12.6299438],[-87.3357239,12.6389513],[-87.3325348,12.6432915],[-87.3259811,12.6359673],[-87.3210983,12.6385279],[-87.3221664,12.6517944],[-87.3191605,12.6528883],[-87.3071671,12.6495275],[-87.3083038,12.6462154],[-87.3150635,12.6458731],[-87.3162384,12.6337204],[-87.3139954,12.6315012],[-87.3075943,12.6370029],[-87.305748,12.6285229],[-87.3162689,12.6256161],[-87.3286514,12.626399],[-87.3275528,12.6193953],[-87.3170471,12.618619],[-87.3144684,12.6079254],[-87.3253326,12.6105452],[-87.3316956,12.6153584],[-87.3377151,12.6098547],[-87.3351135,12.6050558],[-87.3208694,12.6009502],[-87.3118973,12.5935488],[-87.3059235,12.5861578],[-87.2980652,12.5813379],[-87.2965546,12.5842791],[-87.3073807,12.5968466],[-87.3077393,12.602005],[-87.2972641,12.5938606],[-87.2897949,12.5857267],[-87.2860336,12.5886593],[-87.2762909,12.5853052],[-87.2730061,12.5776775],[-87.2526169,12.5880585],[-87.2472153,12.592845],[-87.2436523,12.6000443],[-87.2376862,12.6172924],[-87.2289124,12.6254435],[-87.2232361,12.6272011],[-87.2141571,12.625906],[-87.2073135,12.6279173]],[[-86.0545959,11.8972492],[-86.0632401,11.8861589],[-86.0697479,11.8756514]],[[-86.0697479,11.8756514],[-86.072464,11.8710499],[-86.0778198,11.8540678],[-86.0797195,11.8445301],[-86.0854187,11.8287706]],[[-86.0854187,11.8287706],[-86.0867538,11.821578],[-86.0782928,11.8194551],[-86.0655518,11.8201523],[-86.0580673,11.823823],[-86.0556259,11.8343458],[-86.0582733,11.8471603],[-86.0587692,11.8632565],[-86.055191,11.8659515],[-86.0388641,11.8693647],[-86.0342331,11.8713331],[-86.0234909,11.8801136],[-86.0244904,11.885417]],[[-86.115654,11.9789228],[-86.1205597,11.9777536],[-86.1601105,11.9745493],[-86.1728973,11.9721088],[-86.1829681,11.9749575]],[[-86.2609177,11.9858923],[-86.2839584,11.9511423]],[[-86.2839584,11.9511423],[-86.2757034,11.9482498],[-86.2599411,11.9381943],[-86.2503281,11.9340773],[-86.2332077,11.9292994],[-86.206665,11.923049],[-86.1958389,11.9171104]],[[-86.1958389,11.9171104],[-86.1804199,11.933032],[-86.1673126,11.9494934],[-86.1275101,11.9592657],[-86.1209412,11.9603071],[-86.1149826,11.9528875]],[[-86.1149826,11.9528875],[-86.115654,11.9789228]],[[-86.2839584,11.9511423],[-86.3282471,11.8890486]],[[-86.3739014,11.813015],[-86.3551941,11.8213234],[-86.350708,11.8243971],[-86.3364639,11.8490915],[-86.3314438,11.8540382],[-86.316452,11.8619366],[-86.2976227,11.8684282],[-86.2727203,11.8789778],[-86.2549667,11.8938789],[-86.2402954,11.8867645],[-86.2195282,11.8877563]],[[-86.2195282,11.8877563],[-86.1980438,11.8953266],[-86.190155,11.8997202]],[[-86.190155,11.8997202],[-86.1958389,11.9171104]],[[-86.190155,11.8997202],[-86.1858063,11.8954992],[-86.1597214,11.884346],[-86.1559067,11.8782511],[-86.1556549,11.8679047],[-86.1513672,11.8563681]],[[-86.1513672,11.8563681],[-86.141922,11.8495255],[-86.1269608,11.8445625],[-86.1112518,11.8417397]],[[-86.1112518,11.8417397],[-86.107132,11.8542356],[-86.1047058,11.8676929],[-86.1065369,11.8805628]],[[-86.1065369,11.8805628],[-86.1169968,11.8764935],[-86.1224823,11.8769369],[-86.1263123,11.8821993],[-86.125618,11.9095592],[-86.122818,11.9361677],[-86.1118774,11.9428406]],[[-86.1118774,11.9428406],[-86.1149826,11.9528875]],[[-86.0932846,11.9040728],[-86.0988998,11.893857],[-86.1016693,11.8850288],[-86.1065369,11.8805628]],[[-86.1112518,11.8417397],[-86.096962,11.8386488],[-86.0854187,11.8287706]],[[-86.0697479,11.8756514],[-86.0825958,11.8812008],[-86.0778885,11.8889198]],[[-86.0778885,11.8889198],[-86.0932846,11.9040728]],[[-86.0072937,12.1312389],[-86.0226822,12.1351538],[-86.0373459,12.1405745],[-86.048912,12.1379929],[-86.0683746,12.1261883]],[[-86.0683746,12.1261883],[-86.0652695,12.1188803],[-86.0653534,12.1106873],[-86.0604324,12.0736132],[-86.0602951,12.0545149],[-86.0588989,12.0372458],[-86.0474167,12.0336542],[-86.0244751,12.02493],[-85.9942703,12.0165462],[-85.9773254,12.0111589],[-85.9699326,12.0072346]],[[-85.9670563,12.0531912],[-85.9769745,12.0536394],[-85.9759827,12.0621367],[-85.9657745,12.0707388],[-85.9662628,12.0750351],[-85.9788666,12.0733747],[-85.9834366,12.0764847],[-85.9838943,12.0828295],[-85.9821625,12.0942106],[-85.9873886,12.1028233],[-85.9862823,12.1070375],[-85.9918747,12.1134577]],[[-87.0978241,12.457366],[-87.1167697,12.4505413],[-87.1167755,12.4451103],[-87.0950775,12.4268684],[-87.0899506,12.4188023],[-87.0920639,12.4169703],[-87.0990601,12.4241238],[-87.1053848,12.4232264],[-87.1154251,12.4294691],[-87.1212692,12.4294891],[-87.1427689,12.4394503],[-87.1476822,12.4403868],[-87.161232,12.4475603],[-87.1623764,12.4546919],[-87.1721954,12.4602432],[-87.1801605,12.4554415],[-87.1773605,12.4522114],[-87.1603088,12.4420385],[-87.1203613,12.4223595],[-87.0923462,12.4020252],[-87.053978,12.3788757],[-87.0248947,12.3555555],[-87.0178833,12.3534613],[-87.015564,12.3474741],[-87.0013199,12.3398314],[-86.9814987,12.3245773],[-86.9413681,12.2979717],[-86.8828049,12.2627745],[-86.8688202,12.2519035],[-86.8468857,12.2405415],[-86.8275223,12.2287273],[-86.8077164,12.2132301],[-86.7862549,12.2020941],[-86.779274,12.1947021],[-86.7717972,12.194438],[-86.7747955,12.2022495],[-86.7718201,12.2070007],[-86.7755356,12.2138758],[-86.7698059,12.2276134],[-86.7819138,12.2509356],[-86.7816391,12.2744751],[-86.7825394,12.2845697],[-86.7885437,12.2978621],[-86.793602,12.3166971],[-86.7939529,12.3282013],[-86.7823105,12.3494558],[-86.7716217,12.3611631],[-86.7598724,12.3646841],[-86.7475967,12.3622789],[-86.7397385,12.407198],[-86.7306213,12.4160862],[-86.7204514,12.4287024],[-86.7074203,12.4412851],[-86.6755295,12.468915],[-86.679985,12.481801],[-86.687088,12.495759],[-86.6997833,12.5128593],[-86.7086487,12.5218372],[-86.7246628,12.5353861]],[[-86.0980225,12.1255989],[-86.115097,12.1213951],[-86.1200943,12.1187143],[-86.1272583,12.1113033]],[[-86.1272583,12.1113033],[-86.1366653,12.0950785],[-86.1437988,12.0911398],[-86.1638947,12.0864201],[-86.1674652,12.0845394],[-86.1840515,12.0589457],[-86.1991272,12.0409622]],[[-86.115654,11.9789228],[-86.1025848,11.9836893],[-86.098999,12.0032177],[-86.096405,12.0285931],[-86.1028442,12.0397739],[-86.1034546,12.0488176],[-86.099144,12.0693903],[-86.0966492,12.0871658],[-86.0948181,12.1092501],[-86.0980225,12.1255989]],[[-86.0932846,11.9040728],[-86.0986786,11.8970613],[-86.1012878,11.9153032],[-86.1067505,11.9316597],[-86.1118774,11.9428406]],[[-85.8498383,12.1738939],[-85.8495865,12.1800861],[-85.8521271,12.1901855],[-85.8504791,12.1947746],[-85.8424454,12.1991062],[-85.848053,12.2051964],[-85.8472824,12.2101688],[-85.8277817,12.2411747],[-85.836731,12.2496443],[-85.8409576,12.2517099],[-85.8682022,12.2753963],[-85.8960419,12.2951183],[-85.905899,12.3034372],[-85.9248734,12.3234997],[-85.9306335,12.3344269],[-85.9271774,12.3424253],[-85.9256668,12.352232],[-85.9209442,12.3629627],[-85.9138031,12.3673811],[-85.913208,12.3732491],[-85.9209824,12.3778524],[-85.9238815,12.3905973],[-85.9272232,12.3940039],[-85.9371567,12.3964291],[-85.9424438,12.4005966],[-85.9506912,12.4124842],[-85.9590759,12.4285326],[-85.9636459,12.4347525],[-85.9751358,12.4429331],[-85.9789352,12.4553595],[-85.9732056,12.4603701],[-85.9793167,12.4735699],[-85.9851151,12.4815607],[-85.9857788,12.4869566],[-85.9784698,12.48915],[-85.9814453,12.4954891],[-85.9745789,12.5082846],[-86.0102386,12.5189466],[-86.0272522,12.5269318],[-86.0467224,12.5374126],[-86.0603867,12.5411234],[-86.0734787,12.5496635],[-86.0979919,12.5769014],[-86.1228943,12.5759068],[-86.1501541,12.4758844],[-86.1219101,12.4511499],[-86.1231155,12.4115543],[-86.1150894,12.371336],[-86.1173325,12.3590317],[-86.1234436,12.3511763],[-86.1213455,12.3461132],[-86.1223221,12.3361835],[-86.1152725,12.3297338],[-86.1264496,12.2464304],[-86.135994,12.2152929]],[[-86.135994,12.2152929],[-86.1389618,12.2056074],[-86.1568375,12.1626987],[-86.1558228,12.1304979],[-86.1532288,12.1242514],[-86.1483078,12.1194363],[-86.1272583,12.1113033]],[[-86.0980225,12.1255989],[-86.0788727,12.1240826],[-86.0683746,12.1261883]],[[-86.2195282,11.8877563],[-86.222702,11.8734303],[-86.2298813,11.8572893],[-86.2121201,11.8501205],[-86.2116165,11.8453188],[-86.2149506,11.8318567],[-86.217453,11.8033342],[-86.2206268,11.7929678],[-86.2311478,11.7772999],[-86.2371597,11.7610645],[-86.2382431,11.7539368],[-86.2369003,11.7416487],[-86.2394562,11.724371],[-86.2528,11.7006416],[-86.2581177,11.6953754],[-86.2627106,11.6939878],[-86.2688446,11.6987429],[-86.2704773,11.6938829],[-86.2767029,11.6883211],[-86.2786942,11.6827993],[-86.2803879,11.670001],[-86.2854843,11.6532612],[-86.2825546,11.6454029],[-86.2686768,11.6389027],[-86.2705154,11.6315346],[-86.276535,11.6293554],[-86.2792435,11.6235313],[-86.2788696,11.6100302],[-86.2772522,11.5992203],[-86.2896047,11.5909258],[-86.2825089,11.5869083],[-86.2548141,11.5770693],[-86.2499619,11.5694494],[-86.2427673,11.563652],[-86.2253265,11.5554876],[-86.2202536,11.5509264],[-86.2144775,11.5672874],[-86.2049942,11.5807629],[-86.2010345,11.5887136],[-86.196785,11.606945],[-86.1931992,11.6152763],[-86.1929855,11.6221304],[-86.200798,11.6272497],[-86.2034683,11.6403427],[-86.2039948,11.6601648],[-86.1996307,11.6863527],[-86.2014847,11.6962528],[-86.210556,11.6973181],[-86.2200317,11.691781],[-86.2233353,11.6949205],[-86.2232971,11.7006903],[-86.2174683,11.7105684],[-86.2126846,11.7232151],[-86.2071991,11.7420053],[-86.1992569,11.7737675],[-86.1904984,11.8023233],[-86.18367,11.8209972],[-86.1773682,11.8328218],[-86.1748734,11.8471003],[-86.1687088,11.8571529],[-86.1639786,11.8585339],[-86.1513672,11.8563681]],[[-86.4595337,13.2487221],[-86.4560776,13.2386522],[-86.4563065,13.232254],[-86.4723206,13.2061319],[-86.4749069,13.1935387],[-86.4740372,13.1720905],[-86.4740524,13.1503115],[-86.4728088,13.130764],[-86.4738312,13.1143608],[-86.4763794,13.1079998],[-86.4635315,13.0957308],[-86.4582901,13.0864983],[-86.4511948,13.0660028],[-86.4459457,13.0564203],[-86.4327621,13.0423946],[-86.4111557,13.0154305],[-86.4083939,13.0051823],[-86.4108505,12.9884501],[-86.4136963,12.9760056],[-86.3790359,12.9913797],[-86.3749542,12.9907923],[-86.3499908,12.9811964],[-86.3328323,12.972415],[-86.3167191,12.9662457],[-86.3091736,12.9737673],[-86.2958755,13.0154619],[-86.2939606,13.0232859],[-86.2906036,13.0278006],[-86.2781677,13.0235767],[-86.2680511,13.0240622],[-86.2581635,13.0377922],[-86.2497101,13.0518837],[-86.2416763,13.0552168],[-86.2126007,13.0647278],[-86.1930847,13.0681658],[-86.1816559,13.0730858],[-86.16259,13.0780449],[-86.1632462,13.0816889],[-86.1850052,13.0936623],[-86.1991196,13.1069155],[-86.2193909,13.1271963],[-86.2299194,13.1438618],[-86.2321625,13.1531096],[-86.2452393,13.160223],[-86.2568817,13.1707916],[-86.2611008,13.1765795],[-86.262291,13.1831989],[-86.2502365,13.2039356],[-86.2432327,13.2139511],[-86.2379837,13.2279892],[-86.244812,13.2405825],[-86.2401657,13.243495],[-86.2302246,13.2447948],[-86.2312164,13.2545481],[-86.2370682,13.254776],[-86.2488251,13.24897],[-86.2539673,13.2490177],[-86.2702713,13.2526464],[-86.3010712,13.2605743],[-86.3095627,13.2637777],[-86.3651276,13.2793703],[-86.3730927,13.2804794],[-86.4111862,13.2631474],[-86.4231186,13.2566786],[-86.4455338,13.248065],[-86.4595337,13.2487221]],[[-86.135994,12.2152929],[-86.182518,12.2194719],[-86.2116241,12.2363434]],[[-86.0932846,11.9040728],[-86.0837631,11.9149504],[-86.0689545,11.9233751],[-86.0582962,11.9264154],[-86.0485992,11.9232283],[-86.0271591,11.9288392]],[[-86.0452182,11.9086859],[-86.0540924,11.908577],[-86.0654907,11.9033775],[-86.0778885,11.8889198]]],"bbox":[-87.6903076,11.5509264,-85.6609421,13.3467064]}