{"type":"Topology","objects":{"foo":{"type":"GeometryCollection","geometries":[{"type":"Polygon","arcs":[[0,1]],"properties":{"name":"Saham","gaul_code":23588,"targetarea":40.2183499,"totpop":104316.7031,"country_id":"OMN","targetpop":17525.16797,"totalarea":1469.788612,"new_mean":0}},{"type":"Polygon","arcs":[[2,3,4]],"properties":{"name":"Nakhal","gaul_code":23587,"targetarea":0.2243979,"totpop":21508.69922,"country_id":"OMN","targetpop":99.3806686,"totalarea":678.9490799,"new_mean":3.5551633e-7}},{"type":"Polygon","arcs":[[5,6,7]],"properties":{"name":"As Suwaiq","gaul_code":23584,"targetarea":57.8076428,"totpop":86482.29688,"country_id":"OMN","targetpop":25780.0293,"totalarea":664.648273,"new_mean":0}},{"type":"Polygon","arcs":[[-5,8,9]],"properties":{"name":"Barka","gaul_code":23585,"targetarea":47.897503,"totpop":84854.77344,"country_id":"OMN","targetpop":22923.73047,"totalarea":445.5174804,"new_mean":0}},{"type":"Polygon","arcs":[[10]],"properties":{"name":"Sur","gaul_code":23579,"targetarea":66.709165,"totpop":59926.69141,"country_id":"OMN","targetpop":33547.47266,"totalarea":1205.774611,"new_mean":0.0039361}},{"type":"Polygon","arcs":[[11,12,13,14]],"properties":{"name":"Ibri","gaul_code":23593,"targetarea":70.5324072,"totpop":125138.7422,"country_id":"OMN","targetpop":23617.71484,"totalarea":19305.23444,"new_mean":0}},{"type":"Polygon","arcs":[[15,16,17]],"properties":{"name":"Muscat","gaul_code":23610,"targetarea":75.871521,"totpop":100286.6016,"country_id":"OMN","targetpop":80372.30469,"totalarea":434.1825244,"new_mean":0.0022255}},{"type":"Polygon","arcs":[[-2,18,-12,19,20,-6,21]],"properties":{"name":"Al Khabourah","gaul_code":23582,"targetarea":7.7108742,"totpop":117824.5469,"country_id":"OMN","targetpop":2939.623047,"totalarea":2653.590744,"new_mean":0}},{"type":"Polygon","arcs":[[22]],"properties":{"name":"Salalah","gaul_code":23600,"targetarea":48.6967225,"totpop":159786.875,"country_id":"OMN","targetpop":15238.21387,"totalarea":7431.902589,"new_mean":0.0129429}},{"type":"Polygon","arcs":[[-7,-21,23]],"properties":{"name":"A Rustaq","gaul_code":23580,"targetarea":23.3722191,"totpop":99474.375,"country_id":"OMN","targetpop":8631.154297,"totalarea":1654.915627,"new_mean":0}},{"type":"Polygon","arcs":[[24,25,26,27,-16]],"properties":{"name":"Bausher","gaul_code":23609,"targetarea":95.6470224,"totpop":114086.9063,"country_id":"OMN","targetpop":57083.14453,"totalarea":536.3438026,"new_mean":0.0001619}},{"type":"Polygon","arcs":[[-4,28,-27,29,-9]],"properties":{"name":"A Seeb","gaul_code":23608,"targetarea":295.0305529,"totpop":224230.9063,"country_id":"OMN","targetpop":155564.875,"totalarea":494.3146147,"new_mean":0.0006261}},{"type":"Polygon","arcs":[[30]],"properties":{"name":"Al Mudhaibi","gaul_code":23572,"targetarea":23.5795932,"totpop":70190.14844,"country_id":"OMN","targetpop":14118.76563,"totalarea":6531.457357,"new_mean":0.000112}},{"type":"Polygon","arcs":[[-18,31,-25]],"properties":{"name":"Muttrah","gaul_code":23611,"targetarea":70.8770761,"totpop":87592.57813,"country_id":"OMN","targetpop":85259.75,"totalarea":79.7975079,"new_mean":0.0003843}},{"type":"Polygon","arcs":[[32,-14]],"properties":{"name":"Bahla","gaul_code":23566,"targetarea":23.5163294,"totpop":64453.59766,"country_id":"OMN","targetpop":8642.632813,"totalarea":3773.591485,"new_mean":0}}]}},"arcs":[[[56.9862442,24.0785569],[56.9380324,24.1175575],[56.9183382,24.1443206],[56.8923904,24.1714439],[56.8745559,24.2046507],[56.8580213,24.2211362],[56.8270082,24.2635368],[56.759901,24.3481202],[56.4681749,24.0772352],[56.7647227,23.8365225]],[[56.7647227,23.8365225],[56.9862442,24.0785569]],[[57.7919038,23.6024074],[57.7753455,23.5879189],[57.9003903,23.2961477],[58.1183185,23.4622206]],[[58.1183185,23.4622206],[58.0928537,23.5608966]],[[58.0928537,23.5608966],[57.7919038,23.6024074]],[[57.3869514,23.8635152],[57.298881,23.6319241]],[[57.298881,23.6319241],[57.6148196,23.6252019]],[[57.6148196,23.6252019],[57.6542941,23.775205],[57.6313665,23.7836696],[57.5879705,23.7938916],[57.5489029,23.8104622],[57.5357702,23.8140769],[57.4828365,23.8365509],[57.4617475,23.8411773],[57.420375,23.8552268],[57.3869514,23.8635152]],[[58.0928537,23.5608966],[58.1248053,23.7034467]],[[58.1248053,23.7034467],[58.0765012,23.7109598],[58.0314812,23.7116867],[57.9716914,23.707355],[57.9534804,23.7044311],[57.8873288,23.7059045],[57.848759,23.7193254],[57.8286673,23.7327523],[57.7919038,23.6024074]],[[59.1697896,22.7939246],[59.1870318,22.6672317],[59.6255366,22.3782162],[59.7121915,22.3398888],[59.821522,22.3125562],[59.8165942,22.3340849],[59.8178056,22.3496732],[59.8243049,22.3607563],[59.8181952,22.370795],[59.8176484,22.3935473],[59.8365798,22.4238334],[59.8245046,22.4652584],[59.8130679,22.487143],[59.8020339,22.4977677],[59.7946506,22.5314885],[59.7818518,22.5329684],[59.7525708,22.528211],[59.7361082,22.5309286],[59.7305159,22.5188796],[59.7481048,22.4943364],[59.7521747,22.481829],[59.7378436,22.4812789],[59.7141352,22.4977284],[59.7130973,22.5044143],[59.723483,22.5133397],[59.7278049,22.529452],[59.7230934,22.5335578],[59.6882757,22.5420215],[59.6687649,22.5505508],[59.6462123,22.5563985],[59.6158574,22.5571581],[59.5967002,22.5608481],[59.5700516,22.5619679],[59.5435438,22.5679007],[59.5366844,22.5524531],[59.5136997,22.543138],[59.5059628,22.5490676],[59.5125275,22.5629174],[59.5200319,22.5574528],[59.5314785,22.5633135],[59.5249105,22.5727203],[59.4787707,22.6009339],[59.4675468,22.6060285],[59.4439269,22.6272616],[59.4252706,22.6495195],[59.392627,22.6668268],[59.3806271,22.6797401],[59.3759156,22.6972996],[59.3612735,22.7027478],[59.346078,22.7182052],[59.3390549,22.7417892],[59.3180117,22.7500827],[59.3095348,22.7475255],[59.2907509,22.7571451],[59.2807417,22.7803328],[59.2704706,22.7938846],[59.264099,22.8146921],[59.2375651,22.8495032],[59.2357708,22.8614988],[59.1697896,22.7939246]],[[56.8746699,23.4907666],[56.8571249,23.5118974]],[[56.8571249,23.5118974],[56.380248,23.4904193],[55.2896278,22.9391254],[55.208669,22.7092765],[55.6666974,22.0000005],[55.6233466,21.8699543],[56.3256564,22.015324],[56.5237135,22.2538379]],[[56.5237135,22.2538379],[56.6827563,22.6975402]],[[56.6827563,22.6975402],[56.8746699,23.4907666]],[[58.5222386,23.531324],[58.6315611,23.3226177]],[[58.6315611,23.3226177],[58.7797409,23.4655062],[58.7740327,23.4863805],[58.7565388,23.5030166],[58.7534185,23.5182186],[58.742116,23.5131698],[58.7316124,23.516814],[58.7218717,23.5293967],[58.6923092,23.5299827],[58.6697566,23.5350381],[58.6597965,23.5535536],[58.6465296,23.5494543],[58.6403414,23.5615],[58.6321035,23.5598236],[58.6168393,23.5663098],[58.6064732,23.5805001],[58.6059657,23.6020704],[58.5982747,23.6139131],[58.5889236,23.6182219],[58.5636338,23.6214535],[58.5641315,23.632684],[58.5485676,23.6278584]],[[58.5485676,23.6278584],[58.5222386,23.531324]],[[56.7647227,23.8365225],[56.8571249,23.5118974]],[[56.8746699,23.4907666],[57.1636585,23.5040115]],[[57.1636585,23.5040115],[57.298881,23.6319241]],[[57.3869514,23.8635152],[57.3593671,23.8722624],[57.2921449,23.8909547],[57.2686232,23.9008623],[57.2509983,23.9054233],[57.2096356,23.9226356],[57.1944925,23.9264762],[57.1678079,23.9430502],[57.1514599,23.9501093],[57.1354164,23.961749],[57.1179814,23.9814236],[57.0947642,24.0000013],[56.9862442,24.0785569]],[[52.8277033,17.2525263],[52.9053368,17.0863074],[53.1070606,16.6544023],[53.1559375,16.6752294],[53.1924316,16.6929624],[53.2119064,16.6961612],[53.256265,16.7083543],[53.2934761,16.7218374],[53.3170174,16.7236906],[53.3432993,16.7359],[53.3858669,16.7393182],[53.4043824,16.7443212],[53.4421795,16.7490556],[53.4487803,16.7553191],[53.472541,16.7594479],[53.5115398,16.7637207],[53.586417,16.7501656],[53.591826,16.7573295],[53.6283691,16.7700464],[53.6459547,16.7734123],[53.6763064,16.7865254],[53.6738344,16.797065],[53.6867445,16.8178364],[53.695778,16.8197485],[53.7246464,16.841106],[53.7539798,16.8649911],[53.7565206,16.8741916],[53.7817056,16.8821969],[53.8214312,16.8893903],[53.8481256,16.8879791],[53.865708,16.8943081],[53.8935385,16.8997891],[53.899766,16.8956997],[53.9471368,16.9010791],[53.9527783,16.9116777],[53.9694635,16.910643],[53.9914889,16.9298461],[54.0076994,16.9292633],[54.0093201,16.936162],[53.9966523,16.9413614],[53.9955783,16.9588062],[54.0123913,16.9745288],[54.0368625,16.9866204],[54.097114,16.9957161],[54.2001003,17.0128029],[54.1393339,17.3904338],[53.491699,17.3104117],[52.8277033,17.2525263]],[[57.1636585,23.5040115],[57.4601416,23.2253148],[57.575589,23.2130549],[57.7112346,23.5792893],[57.6148196,23.6252019]],[[58.5222386,23.531324],[58.417474,23.6061576]],[[58.417474,23.6061576],[58.3841354,23.6033112]],[[58.3841354,23.6033112],[58.3350106,23.4886837]],[[58.3350106,23.4886837],[58.5876902,23.2494997],[58.6315611,23.3226177]],[[58.1183185,23.4622206],[58.1188151,23.4619522],[58.3350106,23.4886837]],[[58.3841354,23.6033112],[58.3461235,23.6055803],[58.3439363,23.6032262],[58.2967914,23.6077249],[58.2953769,23.6114182],[58.2611126,23.6260047],[58.2436743,23.6366228],[58.2077205,23.6668206],[58.1838812,23.6809814],[58.1248053,23.7034467]],[[58.1621275,22.8815984],[57.9328777,22.7141571],[57.8343885,22.5231224],[58.1779854,21.3973861],[58.2899203,21.0956226],[58.3372166,21.4516695],[58.448141,22.2034997],[58.2235969,22.8883601],[58.1621275,22.8815984]],[[58.5485676,23.6278584],[58.5269696,23.6276483],[58.5151334,23.6322256],[58.5027079,23.6439242],[58.4887501,23.6425786],[58.4759153,23.6240074],[58.4479079,23.6112185],[58.417474,23.6061576]],[[56.5237135,22.2538379],[57.3030231,22.5895409],[57.3870588,22.7576123],[57.4164935,23.1255477],[56.6827563,22.6975402]]],"bbox":[52.8277033,16.6544023,59.8365798,24.3481202]}