{"type":"Topology","objects":{"foo":{"type":"GeometryCollection","geometries":[{"type":"Polygon","arcs":[[0]],"properties":{"name":"Ndjamena","gaul_code":65629,"targetarea":3.4343394,"totpop":899243.3125,"country_id":"TCD","targetpop":12231.625,"totalarea":393.5707879,"new_mean":0.011291}}]}},"arcs":[[[14.9610004,12.2440004],[14.9060964,12.2253042],[14.899991,12.2055225],[14.9100266,12.1818113],[14.8924665,12.167798],[14.8957272,12.1521473],[14.9032106,12.150527],[14.9335747,12.1139002],[14.9464312,12.1081305],[14.9672241,12.0919914],[14.9805517,12.0903597],[14.994606,12.1073637],[15.009346,12.112401],[15.0380859,12.0962439],[15.0347719,12.0690985],[15.049963,12.0646992],[15.0611038,12.0415907],[15.0530643,12.0275002],[15.0397081,12.0241661],[15.0582275,12.0037508],[15.0778484,12.0017347],[15.086854,11.9894571],[15.1038303,11.98874],[15.1370001,11.9829998],[15.1379995,12.0109997],[15.1470003,12.0439997],[15.1599998,12.0690002],[15.1309996,12.0979996],[15.0900002,12.1520004],[15.0559998,12.1920004],[15.0489998,12.2250004],[14.9910002,12.2290001],[14.9610004,12.2440004]]],"bbox":[14.8924665,11.9829998,15.1599998,12.2440004]}