{"type":"Topology","objects":{"foo":{"type":"GeometryCollection","geometries":[{"type":"Polygon","arcs":[[0,1,2,3]],"properties":{"name":"Administrative unit not available","gaul_code":27417,"targetarea":22.7836758,"totpop":16892.70703,"country_id":"TTO","targetpop":16892.70703,"new_mean":0.0773078,"totalarea":30.7414821}},{"type":"Polygon","arcs":[[4,5,-1,6,7,8]],"properties":{"name":"Administrative unit not available","gaul_code":27410,"targetarea":10.4100373,"totpop":199980.9219,"country_id":"TTO","targetpop":6853.466797,"new_mean":0.0753311,"totalarea":749.0739546}},{"type":"Polygon","arcs":[[9,10,-5,11]],"properties":{"name":"Administrative unit not available","gaul_code":27409,"targetarea":22.0984539,"totpop":33026.69141,"country_id":"TTO","targetpop":12064.24316,"new_mean":0.0822523,"totalarea":64.5477691}},{"type":"Polygon","arcs":[[12]],"properties":{"name":"Administrative unit not available","gaul_code":27408,"targetarea":17.7075708,"totpop":11698.17676,"country_id":"TTO","targetpop":11698.17676,"new_mean":0.0745941,"totalarea":17.7075708}},{"type":"Polygon","arcs":[[13,14,15]],"properties":{"name":"Administrative unit not available","gaul_code":27414,"targetarea":13.7898051,"totpop":10225.61035,"country_id":"TTO","targetpop":10225.61035,"new_mean":0.0803635,"totalarea":15.1558302}},{"type":"Polygon","arcs":[[-15,16,-10,17,18,19]],"properties":{"name":"Administrative unit not available","gaul_code":27418,"targetarea":108.1918339,"totpop":127892.0938,"country_id":"TTO","targetpop":111333.3594,"new_mean":0.0768048,"totalarea":202.7086588}},{"type":"MultiPolygon","arcs":[[[20]],[[21]],[[-20,22,-16]]],"properties":{"name":"Administrative unit not available","gaul_code":27411,"targetarea":28.5736887,"totpop":66669.53125,"country_id":"TTO","targetpop":23975.61133,"new_mean":0.0683423,"totalarea":128.8230828}},{"type":"Polygon","arcs":[[23,24,-3]],"properties":{"name":"Administrative unit not available","gaul_code":27412,"targetarea":43.8178191,"totpop":111600.3594,"country_id":"TTO","targetpop":32493.58008,"new_mean":0.0723262,"totalarea":282.0049964}},{"type":"Polygon","arcs":[[25,-18,-12,-9],[-13]],"properties":{"name":"Administrative unit not available","gaul_code":27422,"targetarea":148.2085798,"totpop":251625.2969,"country_id":"TTO","targetpop":119623.7109,"new_mean":0.0767232,"totalarea":540.4179984}},{"type":"Polygon","arcs":[[-4,-25,26,-7]],"properties":{"name":"Administrative unit not available","gaul_code":27415,"targetarea":26.0612704,"totpop":87330.34375,"country_id":"TTO","targetpop":18497.92773,"new_mean":0.0723782,"totalarea":639.9626129}}]}},"arcs":[[[-61.4168701,10.3119926],[-61.4596634,10.3153458]],[[-61.4596634,10.3153458],[-61.4558411,10.2966995],[-61.465271,10.2749271],[-61.4760475,10.2593737],[-61.4892334,10.248644]],[[-61.4892334,10.248644],[-61.4618988,10.2508974],[-61.4304314,10.260746]],[[-61.4304314,10.260746],[-61.4213638,10.2741232],[-61.4168701,10.3119926]],[[-61.3705559,10.5632963],[-61.3610878,10.5445099],[-61.368084,10.5310478],[-61.3765564,10.5275202],[-61.3680878,10.5093231],[-61.3788795,10.4971685],[-61.4022446,10.4993687],[-61.4099922,10.4950123],[-61.4223442,10.5000401],[-61.4511795,10.5230665],[-61.4652277,10.5221195]],[[-61.4652277,10.5221195],[-61.4711227,10.5112925],[-61.4691162,10.4984055],[-61.4712982,10.4846258],[-61.4790764,10.4674397],[-61.4862709,10.4327774],[-61.4951897,10.4181271],[-61.4875526,10.4143953],[-61.4874268,10.3985319],[-61.4786949,10.3851357],[-61.4864235,10.3748465],[-61.4732971,10.3586607],[-61.464119,10.3429632],[-61.4596634,10.3153458]],[[-61.4168701,10.3119926],[-61.4102516,10.3151999],[-61.3999596,10.310154],[-61.3844109,10.3180523],[-61.3775597,10.3275852],[-61.3592529,10.3245173],[-61.3360291,10.3381701],[-61.3179054,10.3382511],[-61.3046722,10.3315392],[-61.2903671,10.3347454],[-61.2599907,10.3212566],[-61.2378159,10.3158283],[-61.2258301,10.3086729]],[[-61.2258301,10.3086729],[-61.2151947,10.3155785],[-61.2147217,10.3316984],[-61.1942825,10.3359947],[-61.2042847,10.4421673],[-61.1968842,10.4467888],[-61.1962585,10.4579325],[-61.2118073,10.4616642],[-61.2054863,10.4690695],[-61.210186,10.4757481],[-61.1960106,10.4980135],[-61.1950989,10.5187893],[-61.217205,10.5180635],[-61.2187042,10.5284815],[-61.21381,10.5322056],[-61.2129745,10.547121],[-61.2191658,10.5508547],[-61.2162819,10.5605764],[-61.2216835,10.565815],[-61.2204285,10.5748138],[-61.2344742,10.5875587]],[[-61.2344742,10.5875587],[-61.2535172,10.5764713],[-61.3058701,10.5773849],[-61.3140717,10.5816584],[-61.3326759,10.5708389],[-61.3529015,10.5686159],[-61.3686714,10.5771589],[-61.3705559,10.5632963]],[[-61.4211273,10.5656948],[-61.4441872,10.5667887],[-61.4480515,10.5582733],[-61.4623222,10.5418062]],[[-61.4623222,10.5418062],[-61.4607735,10.5303001],[-61.4652277,10.5221195]],[[-61.3705559,10.5632963],[-61.4211273,10.5656948]],[[-61.2935104,10.6011381],[-61.2620888,10.6053705],[-61.2757454,10.6301317],[-61.2748222,10.6464472],[-61.2833023,10.6537752],[-61.2983284,10.6540556],[-61.2951164,10.6427307],[-61.2982063,10.6246471],[-61.3077087,10.6107492],[-61.2935104,10.6011381]],[[-61.5619777,10.674609],[-61.5415497,10.6678581],[-61.5231743,10.6502914],[-61.4986725,10.6412996]],[[-61.4986725,10.6412996],[-61.494236,10.6501064],[-61.4980583,10.6626673],[-61.5127563,10.6775808],[-61.5241318,10.6784916]],[[-61.5241318,10.6784916],[-61.5303154,10.6753483],[-61.5434608,10.6839151],[-61.5619777,10.674609]],[[-61.4986725,10.6412996],[-61.4909668,10.6365004],[-61.500103,10.6248407],[-61.4869576,10.610033],[-61.481678,10.6003399],[-61.4714661,10.563942],[-61.4623222,10.5418062]],[[-61.4211273,10.5656948],[-61.4319801,10.6150627],[-61.4330864,10.6480932],[-61.4265404,10.6528788],[-61.4314346,10.661562],[-61.433651,10.6915035],[-61.4414368,10.702281],[-61.4397583,10.7283945],[-61.4255981,10.7392712],[-61.4135475,10.7352591],[-61.3944054,10.7352295],[-61.3913727,10.7379599],[-61.3525352,10.7394629],[-61.3345757,10.7439671],[-61.3548737,10.786972],[-61.344967,10.8037814]],[[-61.344967,10.8037814],[-61.3598633,10.808898],[-61.364357,10.7981253],[-61.3732719,10.7866974],[-61.3900604,10.7792349],[-61.3950462,10.7645569],[-61.4012527,10.7744894],[-61.4151955,10.7750521],[-61.4224548,10.7672882],[-61.4239311,10.7555733],[-61.4378586,10.7586632],[-61.4401131,10.7690268],[-61.4466133,10.7702227],[-61.4582901,10.7620306],[-61.46241,10.7714863],[-61.4719467,10.7710943],[-61.4729614,10.7582264],[-61.4813919,10.7490902],[-61.4864693,10.7544136],[-61.4992561,10.7540445]],[[-61.4992561,10.7540445],[-61.5007172,10.7388735],[-61.4971886,10.7204113],[-61.5047874,10.7048197],[-61.5231056,10.6881618],[-61.5241318,10.6784916]],[[-61.7637978,10.668416],[-61.7519226,10.6727114],[-61.7465057,10.6853228],[-61.7314262,10.6810913],[-61.7360077,10.6926165],[-61.7455025,10.6984224],[-61.7566719,10.695962],[-61.7576752,10.6830921],[-61.7649269,10.6739407],[-61.7637978,10.668416]],[[-61.6861191,10.6791973],[-61.6742058,10.6896963],[-61.6732101,10.7009563],[-61.6801567,10.7051392],[-61.6876183,10.7012777],[-61.6993141,10.6882477],[-61.6998291,10.6792841],[-61.6861191,10.6791973]],[[-61.4992561,10.7540445],[-61.508049,10.760314],[-61.5243874,10.7496223],[-61.5495148,10.7463465],[-61.5567093,10.747776],[-61.5741806,10.7419167],[-61.5974045,10.7450619],[-61.6111259,10.7440042],[-61.6204834,10.7344093],[-61.6379967,10.7211905],[-61.661274,10.7149038],[-61.6666756,10.705512],[-61.6625404,10.6974382],[-61.6649132,10.6896372],[-61.660099,10.67834],[-61.6412582,10.6814365],[-61.6189041,10.6792297],[-61.6035843,10.6855555],[-61.5815544,10.6782808],[-61.5619777,10.674609]],[[-61.4892334,10.248644],[-61.5126036,10.2353084],[-61.5051727,10.2275047],[-61.5052223,10.2148733],[-61.4894066,10.1994095],[-61.4881821,10.1842661],[-61.481884,10.1704807],[-61.4842911,10.1401501],[-61.4954376,10.1264725],[-61.5018539,10.0920839],[-61.505127,10.0884714],[-61.5080452,10.0650321],[-61.4984322,10.0659885],[-61.4889526,10.0617847],[-61.4474068,10.0676918],[-61.4170265,10.0686197],[-61.4065704,10.0717602],[-61.376236,10.0660181]],[[-61.376236,10.0660181],[-61.3772202,10.0822506],[-61.3701591,10.1887188],[-61.3612022,10.1958618],[-61.3617859,10.2356787],[-61.3554497,10.2424889],[-61.3877869,10.2526789],[-61.4079781,10.2502556],[-61.4304314,10.260746]],[[-61.2344742,10.5875587],[-61.2256851,10.5986099],[-61.209156,10.5980797],[-61.1993217,10.6121521],[-61.2036438,10.6339169],[-61.2093658,10.6437559],[-61.2252808,10.6453848],[-61.2279854,10.6624126],[-61.2134361,10.6795645],[-61.2158394,10.6929054],[-61.211525,10.699048],[-61.21381,10.710248],[-61.2265129,10.7152891],[-61.2415199,10.7159214],[-61.2372856,10.7237234],[-61.2092552,10.7237644],[-61.1988411,10.7265968],[-61.1830215,10.7459068],[-61.1801529,10.7561989],[-61.1695251,10.7630825],[-61.1575775,10.7601929],[-61.1511917,10.767086],[-61.1559486,10.7967052],[-61.1678847,10.8054292],[-61.187458,10.7944384],[-61.2030487,10.7927275],[-61.2434998,10.7930508],[-61.2583923,10.7911015],[-61.2755852,10.7923851],[-61.3317986,10.7992582],[-61.344967,10.8037814]],[[-61.376236,10.0660181],[-61.3391418,10.0657377],[-61.3184471,10.0738525],[-61.2882652,10.0789051],[-61.2713356,10.0794621],[-61.2451591,10.0760365],[-61.2241135,10.0687428],[-61.2055702,10.0679045],[-61.1918488,10.0730782],[-61.1713943,10.0721516],[-61.1625137,10.1577063],[-61.1646996,10.160737],[-61.1616478,10.2682753],[-61.1839828,10.2806301],[-61.2048111,10.2700005],[-61.2088165,10.2847271],[-61.2155037,10.285449],[-61.2236671,10.2947702],[-61.2258301,10.3086729]]],"bbox":[-61.7649269,10.0617847,-61.1511917,10.808898]}