{"type":"Topology","objects":{"foo":{"type":"GeometryCollection","geometries":[{"type":"Polygon","arcs":[[0]],"properties":{"name":"Palavecino","gaul_code":32004,"targetarea":25.0522172,"totpop":188049.0156,"country_id":"VEN","targetpop":17221.25586,"new_mean":0.2368836,"totalarea":305.1476724}},{"type":"Polygon","arcs":[[1,2,3,4]],"properties":{"name":"Cardenas","gaul_code":32115,"targetarea":43.6870933,"totpop":111665.7422,"country_id":"VEN","targetpop":48312.89063,"new_mean":0.2052043,"totalarea":311.9928056}},{"type":"Polygon","arcs":[[5,6,7,8,9]],"properties":{"name":"Guacara","gaul_code":31925,"targetarea":5.1347189,"totpop":166275.6719,"country_id":"VEN","targetpop":6497.628906,"new_mean":0.2100565,"totalarea":183.8952823}},{"type":"MultiPolygon","arcs":[[[10]],[[11,12]]],"properties":{"name":"Montalban","gaul_code":31930,"targetarea":37.5130864,"totpop":172838.1719,"country_id":"VEN","targetpop":52381.11719,"new_mean":0.2255809,"totalarea":283.0771072}},{"type":"Polygon","arcs":[[13,14,15,16]],"properties":{"name":"Libertador","gaul_code":31891,"targetarea":42.6109578,"totpop":66217.70313,"country_id":"VEN","targetpop":61189.69531,"new_mean":0.2175478,"totalarea":51.2582193}},{"type":"Polygon","arcs":[[17,18,19,20,-16,21]],"properties":{"name":"Zamora","gaul_code":31900,"targetarea":4.2984751,"totpop":189279.2969,"country_id":"VEN","targetpop":5605.78418,"new_mean":0.2121053,"totalarea":666.1228659}},{"type":"Polygon","arcs":[[22]],"properties":{"name":"Autonomo San Felipe","gaul_code":32153,"targetarea":25.0204538,"totpop":200638.6875,"country_id":"VEN","targetpop":18246.27539,"new_mean":0.2205877,"totalarea":1444.490533}},{"type":"Polygon","arcs":[[-9,23,24,25,26]],"properties":{"name":"Mario Briceno Iragorry","gaul_code":31892,"targetarea":5.1335936,"totpop":149992.0156,"country_id":"VEN","targetpop":6134.970215,"new_mean":0.1833366,"totalarea":442.9565253}},{"type":"Polygon","arcs":[[27,28]],"properties":{"name":"Cabimas","gaul_code":32158,"targetarea":25.0261608,"totpop":338809.4375,"country_id":"VEN","targetpop":26033.45313,"new_mean":0.1546411,"totalarea":888.6941079}},{"type":"Polygon","arcs":[[29,30,31,32,33,34]],"properties":{"name":"Guaicaipuro","gaul_code":32040,"targetarea":11.8068398,"totpop":323662.5938,"country_id":"VEN","targetpop":19958.61133,"new_mean":0.2031712,"totalarea":694.6007091}},{"type":"Polygon","arcs":[[35,36,37,-14,38,39]],"properties":{"name":"Santiago Marino","gaul_code":31895,"targetarea":67.7182929,"totpop":300035.7813,"country_id":"VEN","targetpop":88502.89844,"new_mean":0.2145928,"totalarea":483.701988}},{"type":"Polygon","arcs":[[40,41,-3]],"properties":{"name":"Guasimos","gaul_code":32119,"targetarea":21.1402802,"totpop":41009.30078,"country_id":"VEN","targetpop":19250.30859,"new_mean":0.1906328,"totalarea":62.122941}},{"type":"Polygon","arcs":[[42]],"properties":{"name":"Paez","gaul_code":32090,"targetarea":25.0891451,"totpop":159158.1094,"country_id":"VEN","targetpop":25848.52539,"new_mean":0.1558735,"totalarea":501.6915974}},{"type":"Polygon","arcs":[[-25,43,44,45]],"properties":{"name":"Diego Ibarra","gaul_code":31924,"targetarea":30.1448178,"totpop":90938.35156,"country_id":"VEN","targetpop":32837.28516,"new_mean":0.2083522,"totalarea":113.7180151}},{"type":"Polygon","arcs":[[46,47]],"properties":{"name":"Piar","gaul_code":31917,"targetarea":0.0509038,"totpop":149563.875,"country_id":"VEN","targetpop":91.0446472,"new_mean":0.1389772,"totalarea":21287.8467}},{"type":"Polygon","arcs":[[48,49,50,-4,-42]],"properties":{"name":"Independencia","gaul_code":32120,"targetarea":3.0273937,"totpop":36952.41797,"country_id":"VEN","targetpop":2860.069092,"new_mean":0.1780704,"totalarea":53.4811644}},{"type":"Polygon","arcs":[[-13,51,52,53,54,55,-6,56]],"properties":{"name":"Valencia","gaul_code":31933,"targetarea":429.300683,"totpop":1212110,"country_id":"VEN","targetpop":552319,"new_mean":0.2148946,"totalarea":1216.041023}},{"type":"Polygon","arcs":[[57,58,59]],"properties":{"name":"Cordoba","gaul_code":32116,"targetarea":2.2614276,"totpop":45235.14844,"country_id":"VEN","targetpop":3006.476563,"new_mean":0.1735885,"totalarea":454.4355402}},{"type":"Polygon","arcs":[[60,61,62]],"properties":{"name":"La Canada De Urdaneta","gaul_code":32163,"targetarea":24.5812651,"totpop":159461.9531,"country_id":"VEN","targetpop":58198.59766,"new_mean":0.1507162,"totalarea":1813.243139}},{"type":"Polygon","arcs":[[63,64,65]],"properties":{"name":"Bolivar","gaul_code":31862,"targetarea":9.5904277,"totpop":395113.6563,"country_id":"VEN","targetpop":11803.01758,"new_mean":0.1972699,"totalarea":1832.975583}},{"type":"Polygon","arcs":[[66,67,68]],"properties":{"name":"Marino","gaul_code":32081,"targetarea":10.1706785,"totpop":34841.88672,"country_id":"VEN","targetpop":18765.13672,"new_mean":0.2359226,"totalarea":34.6238724}},{"type":"Polygon","arcs":[[69,70,71]],"properties":{"name":"Arismendi","gaul_code":32071,"targetarea":0.0195771,"totpop":31552.79102,"country_id":"VEN","targetpop":36.1306343,"new_mean":0.1913552,"totalarea":43.8492725}},{"type":"Polygon","arcs":[[-33,72,73]],"properties":{"name":"Carrizal","gaul_code":32036,"targetarea":11.6495281,"totpop":41030.74219,"country_id":"VEN","targetpop":13400.50586,"new_mean":0.1976146,"totalarea":40.333406}},{"type":"Polygon","arcs":[[74]],"properties":{"name":"Miranda","gaul_code":31975,"targetarea":24.9485832,"totpop":201442.4219,"country_id":"VEN","targetpop":17429.0293,"new_mean":0.1372461,"totalarea":2162.762091}},{"type":"Polygon","arcs":[[75,76,77]],"properties":{"name":"El Hatillo","gaul_code":32039,"targetarea":57.6016074,"totpop":154966.9531,"country_id":"VEN","targetpop":123961.9063,"new_mean":0.2274995,"totalarea":87.7667171}},{"type":"Polygon","arcs":[[78,79,-59]],"properties":{"name":"Junin","gaul_code":32122,"targetarea":2.6659928,"totpop":89823.34375,"country_id":"VEN","targetpop":2517.472656,"new_mean":0.1811939,"totalarea":450.205686}},{"type":"Polygon","arcs":[[80,-48]],"properties":{"name":"Caroni","gaul_code":31912,"targetarea":276.9236236,"totpop":802362.4375,"country_id":"VEN","targetpop":373951.75,"new_mean":0.146646,"totalarea":1386.543771}},{"type":"Polygon","arcs":[[81,-69,82,-72]],"properties":{"name":"Maneiro","gaul_code":32079,"targetarea":3.5438284,"totpop":29246.08008,"country_id":"VEN","targetpop":6539.774414,"new_mean":0.2142092,"totalarea":26.1939357}},{"type":"Polygon","arcs":[[83,84,-79,85,-50,86]],"properties":{"name":"Libertad","gaul_code":32123,"targetarea":11.7149329,"totpop":47841.92188,"country_id":"VEN","targetpop":11180.60938,"new_mean":0.1565023,"totalarea":97.9678679}},{"type":"Polygon","arcs":[[87,-7,-56,88,-22,-15,-38,89,-45]],"properties":{"name":"Lago De Valencia","gaul_code":31928,"targetarea":17.9265749,"totpop":68337.30469,"country_id":"VEN","targetpop":18734.02734,"new_mean":0.2075449,"totalarea":387.6385641}},{"type":"Polygon","arcs":[[90,-53]],"properties":{"name":"Falcon","gaul_code":31935,"targetarea":0.0611783,"totpop":129392.3594,"country_id":"VEN","targetpop":68.7473373,"new_mean":0.1863013,"totalarea":573.3137358}},{"type":"Polygon","arcs":[[-40,91,-20,92]],"properties":{"name":"Sucre","gaul_code":31897,"targetarea":0.3337393,"totpop":103292.8672,"country_id":"VEN","targetpop":369.8646851,"new_mean":0.2087331,"totalarea":80.8732905}},{"type":"Polygon","arcs":[[93,94,-63,95]],"properties":{"name":"Maracaibo","gaul_code":32167,"targetarea":434.4375274,"totpop":1793598.375,"country_id":"VEN","targetpop":1748267.125,"new_mean":0.145131,"totalarea":469.620276}},{"type":"Polygon","arcs":[[96,97,-35,98,99,100]],"properties":{"name":"Vargas","gaul_code":31960,"targetarea":3.3184088,"totpop":537328.875,"country_id":"VEN","targetpop":30922.57617,"new_mean":0,"totalarea":970.3874405}},{"type":"Polygon","arcs":[[101,-99,-34,-74,102,103]],"properties":{"name":"Libertador","gaul_code":31959,"targetarea":229.3480745,"totpop":2367285,"country_id":"VEN","targetpop":2273201.25,"new_mean":0.2423574,"totalarea":327.4658623}},{"type":"Polygon","arcs":[[-89,-55,104,-18]],"properties":{"name":"Carlos Arevalo","gaul_code":31923,"targetarea":3.9109965,"totpop":154164.0781,"country_id":"VEN","targetpop":4262.101563,"new_mean":0.1987493,"totalarea":950.0300814}},{"type":"Polygon","arcs":[[105,106,-97]],"properties":{"name":"Plaza","gaul_code":32048,"targetarea":41.3083806,"totpop":286085.2188,"country_id":"VEN","targetpop":84975.78906,"new_mean":0.2308054,"totalarea":205.6727736}},{"type":"Polygon","arcs":[[-73,-32,107,-103]],"properties":{"name":"Los Salias","gaul_code":32044,"targetarea":21.678024,"totpop":119676.0234,"country_id":"VEN","targetpop":77327.67188,"new_mean":0.1824213,"totalarea":44.6512775}},{"type":"Polygon","arcs":[[-39,-17,-21,-92]],"properties":{"name":"Jose Angel Lamas","gaul_code":31889,"targetarea":9.9784801,"totpop":26326.46289,"country_id":"VEN","targetpop":16190.75391,"new_mean":0.2225649,"totalarea":17.4781949}},{"type":"Polygon","arcs":[[-29,108]],"properties":{"name":"Lagunillas","gaul_code":32164,"targetarea":25.0371733,"totpop":203953.5469,"country_id":"VEN","targetpop":22874.25195,"new_mean":0.1530726,"totalarea":1017.799909}},{"type":"Polygon","arcs":[[-104,-108,-31,109,-77,110,111]],"properties":{"name":"Baruta","gaul_code":32033,"targetarea":85.0049609,"totpop":363916.75,"country_id":"VEN","targetpop":336867.8125,"new_mean":0.2600236,"totalarea":106.9031099}},{"type":"Polygon","arcs":[[112,113,-61,-95]],"properties":{"name":"Jesus Enrique Lozada","gaul_code":32162,"targetarea":43.4343381,"totpop":296119.3125,"country_id":"VEN","targetpop":129975.7266,"new_mean":0.1422437,"totalarea":2976.107705}},{"type":"Polygon","arcs":[[-51,-86,-58,114,-5]],"properties":{"name":"San Cristobal","gaul_code":32130,"targetarea":142.3707768,"totpop":357175.6563,"country_id":"VEN","targetpop":216457.5313,"new_mean":0.2027662,"totalarea":452.6056505}},{"type":"Polygon","arcs":[[-26,-46,-90,-37,115]],"properties":{"name":"Girardot","gaul_code":31888,"targetarea":122.2398063,"totpop":371567,"country_id":"VEN","targetpop":177431.9219,"new_mean":0.2018944,"totalarea":342.87972}},{"type":"Polygon","arcs":[[116,-111,-76,117,-106,-101]],"properties":{"name":"Sucre","gaul_code":32050,"targetarea":144.0697101,"totpop":629630.125,"country_id":"VEN","targetpop":591395.5,"new_mean":0.2255692,"totalarea":165.512777}},{"type":"Polygon","arcs":[[118,-113,-94]],"properties":{"name":"Mara","gaul_code":32166,"targetarea":29.8323591,"totpop":237599.5625,"country_id":"VEN","targetpop":52013.27344,"new_mean":0.1496326,"totalarea":3112.860761}},{"type":"Polygon","arcs":[[119,120,-66]],"properties":{"name":"Sucre","gaul_code":32110,"targetarea":25.0376008,"totpop":314188,"country_id":"VEN","targetpop":25717.53906,"new_mean":0.156767,"totalarea":1581.738948}},{"type":"Polygon","arcs":[[121,122]],"properties":{"name":"Guanta","gaul_code":31868,"targetarea":7.9189021,"totpop":49731.23438,"country_id":"VEN","targetpop":6957.535156,"new_mean":0.1718201,"totalarea":91.3593319}},{"type":"Polygon","arcs":[[-121,123,-122,124,-64]],"properties":{"name":"Sotillo","gaul_code":31878,"targetarea":56.9217211,"totpop":172550.2188,"country_id":"VEN","targetpop":65283.96484,"new_mean":0.1874836,"totalarea":211.9101037}},{"type":"Polygon","arcs":[[125,-67,-82,-71]],"properties":{"name":"Garcia","gaul_code":32073,"targetarea":11.2459675,"totpop":73091.67969,"country_id":"VEN","targetpop":20749.37109,"new_mean":0.2293435,"totalarea":77.2638926}},{"type":"Polygon","arcs":[[126,-84]],"properties":{"name":"Pedro Maria Urena","gaul_code":32128,"targetarea":3.3104205,"totpop":75169.71094,"country_id":"VEN","targetpop":7261.979492,"new_mean":0.1902347,"totalarea":153.127112}},{"type":"Polygon","arcs":[[-102,-112,-117,-100]],"properties":{"name":"Chacao","gaul_code":32037,"targetarea":19.716417,"totpop":149456.4688,"country_id":"VEN","targetpop":149449.7969,"new_mean":0,"totalarea":19.7222739}}]}},"arcs":[[[-69.1679611,10.1489601],[-69.1762772,10.1414289],[-69.2228699,10.1206646],[-69.2426605,10.1099997],[-69.2702789,10.0920143],[-69.2803345,10.0797873],[-69.2848969,10.0676317],[-69.2851562,10.0558872],[-69.278923,10.0200491],[-69.2661514,9.9883118],[-69.2355194,9.9460278],[-69.233551,9.9517689],[-69.1842651,9.9626789],[-69.1555099,9.9747086],[-69.1287689,9.9939194],[-69.1019287,10.0157099],[-69.1040497,10.0323381],[-69.0990906,10.0513163],[-69.0969162,10.0689316],[-69.0999756,10.0846939],[-69.1107788,10.0954599],[-69.1428833,10.1115074],[-69.1519165,10.1186466],[-69.1679611,10.1489601]],[[-72.048439,7.6634479],[-72.0421448,7.6693711],[-72.0039368,7.6833339],[-71.9854965,7.6938658],[-71.9776001,7.7030001],[-71.9584351,7.7376409],[-71.9449158,7.746356],[-71.9496689,7.7687178],[-71.9597549,7.779665],[-71.98069,7.7833581],[-71.9955978,7.7918868],[-72.0027847,7.8009992],[-72.0146866,7.8232942],[-72.0283051,7.8371811],[-72.0445557,7.8404388],[-72.0557404,7.8324399],[-72.0678482,7.8358021],[-72.0755997,7.8470898],[-72.0823669,7.8662581],[-72.0921097,7.852819],[-72.098671,7.839046],[-72.0998077,7.8183632],[-72.0974808,7.8048859],[-72.1090012,7.8080449],[-72.133194,7.8256359],[-72.1469345,7.832366],[-72.1663666,7.8354421],[-72.1777573,7.8344831]],[[-72.1777573,7.8344831],[-72.1875153,7.830667],[-72.2356873,7.799005],[-72.2479095,7.7962942],[-72.2628174,7.7979012],[-72.2841721,7.7966752]],[[-72.2841721,7.7966752],[-72.2898941,7.795013],[-72.2934799,7.7842979],[-72.2929077,7.772028],[-72.2871017,7.7643919]],[[-72.2871017,7.7643919],[-72.2739258,7.7507329],[-72.2486115,7.7699342],[-72.224617,7.7727122],[-72.1938553,7.770505],[-72.1526031,7.7780652],[-72.1340332,7.777988],[-72.1267166,7.775414],[-72.1011581,7.7591648],[-72.0774841,7.749074],[-72.0681992,7.7410412],[-72.0639648,7.7325521],[-72.0633926,7.7065411],[-72.0551834,7.6769552],[-72.048439,7.6634479]],[[-67.9100037,10.372859],[-67.8896561,10.354888],[-67.8838348,10.3363724],[-67.8936844,10.3102722],[-67.904541,10.2763872],[-67.9052658,10.265048],[-67.9017868,10.2551575],[-67.889389,10.2400932],[-67.8692627,10.2248478],[-67.8741455,10.2127419],[-67.8669357,10.1911325],[-67.8501129,10.1721268],[-67.8411179,10.1665974]],[[-67.8411179,10.1665974],[-67.8386459,10.178319],[-67.8123169,10.1972466],[-67.8025284,10.230588]],[[-67.8025284,10.230588],[-67.8195114,10.2451029],[-67.8259506,10.2585897],[-67.8260956,10.2723093],[-67.8182068,10.3097582],[-67.8036194,10.3711987]],[[-67.8036194,10.3711987],[-67.8172455,10.3798828],[-67.826828,10.3920679]],[[-67.826828,10.3920679],[-67.9100037,10.372859]],[[-68.3297577,10.2727175],[-68.3225555,10.2659531],[-68.3091965,10.2349873],[-68.2998734,10.2235622],[-68.2924652,10.1975775],[-68.2770233,10.1882296],[-68.2608185,10.1990566],[-68.2520447,10.1961432],[-68.245285,10.1822014],[-68.213623,10.1943846],[-68.2099533,10.2030249],[-68.2063141,10.235055],[-68.1966324,10.2504749],[-68.1886673,10.271307],[-68.1754379,10.2845631],[-68.1691666,10.2979536],[-68.1946259,10.2983322],[-68.2228775,10.2967176],[-68.2560425,10.3001814],[-68.2692871,10.3002367],[-68.2837296,10.2945299],[-68.295784,10.2931356],[-68.3167343,10.2954025],[-68.3297577,10.2727175]],[[-67.9440689,10.3493719],[-67.9699936,10.34482],[-68.0029907,10.335681],[-68.0122757,10.3354969],[-68.0334167,10.3441133],[-68.048851,10.3538561],[-68.0760117,10.3577967],[-68.0951462,10.3573313],[-68.089859,10.3448629],[-68.079834,10.3327885],[-68.0735779,10.3028402],[-68.0745697,10.2935877],[-68.0852356,10.2739887],[-68.086853,10.2638111]],[[-68.086853,10.2638111],[-68.0632629,10.2632332],[-68.0071335,10.2577724],[-67.9530334,10.2557325],[-67.9517288,10.2870417],[-67.9536057,10.3079548],[-67.9483185,10.3263845],[-67.9440689,10.3493719]],[[-67.4695892,10.1979866],[-67.4809647,10.2028589],[-67.4913864,10.2014875],[-67.5072479,10.1933432],[-67.5588379,10.1947098]],[[-67.5588379,10.1947098],[-67.5653992,10.1870737],[-67.5619812,10.1541891]],[[-67.5619812,10.1541891],[-67.5395813,10.1553049],[-67.5101395,10.1520672],[-67.4765472,10.1400681]],[[-67.4765472,10.1400681],[-67.4700165,10.1510992],[-67.4695129,10.1674299],[-67.4746857,10.1817303],[-67.4695892,10.1979866]],[[-67.6370468,10.1491518],[-67.6364975,10.1167011],[-67.6393738,10.10357],[-67.649826,10.0838928],[-67.6525345,10.0635471],[-67.6448975,10.0548172],[-67.6101685,10.0393534],[-67.5448914,10.0351086],[-67.5324097,10.0326452],[-67.5233002,10.0251179],[-67.5117111,10.0056114],[-67.5083008,9.9829788]],[[-67.5083008,9.9829788],[-67.4820709,9.9812202],[-67.462677,9.9859076],[-67.4274521,9.9982567],[-67.4081345,10.0014191],[-67.3880692,9.9971085],[-67.3453293,9.9720592],[-67.327713,9.9665689],[-67.3053665,9.9634275],[-67.2897644,9.9633121],[-67.2786484,9.9590569],[-67.2475204,9.9409409],[-67.22332,9.9407692],[-67.2288589,9.9512119],[-67.2446518,9.9715815],[-67.2436371,9.9793081],[-67.2343597,9.9902239],[-67.2246475,10.0106268],[-67.2250366,10.0227985],[-67.2368851,10.0344934],[-67.2480621,10.0524082],[-67.2623901,10.0567112],[-67.2749252,10.0642586],[-67.2712326,10.074894],[-67.2608643,10.0810051],[-67.2674332,10.0944099],[-67.2805405,10.1031485],[-67.2868729,10.1138821],[-67.284874,10.1307316],[-67.2950668,10.1394348],[-67.3172226,10.1426191]],[[-67.3172226,10.1426191],[-67.3310394,10.1383753],[-67.3549194,10.1184835],[-67.3697128,10.1174498],[-67.4154205,10.1294832],[-67.4375076,10.140687],[-67.444313,10.141942]],[[-67.444313,10.141942],[-67.466011,10.1391754],[-67.4765472,10.1400681]],[[-67.5619812,10.1541891],[-67.5670471,10.1293221],[-67.5768738,10.1305904],[-67.5860291,10.1375198],[-67.5904007,10.1235361],[-67.6005325,10.1254005],[-67.6030579,10.1361618],[-67.6016006,10.1561279],[-67.6066055,10.1615343],[-67.6186447,10.1544771],[-67.6370468,10.1491518]],[[-68.5062714,10.6349993],[-68.546608,10.6446133],[-68.5678406,10.6533766],[-68.5828857,10.6616545],[-68.5980835,10.656188],[-68.6169815,10.6610088],[-68.6226959,10.6473913],[-68.623642,10.6362305],[-68.6213226,10.6179152],[-68.6127319,10.5929489],[-68.6139984,10.5779552],[-68.6415634,10.533308],[-68.6446915,10.511281],[-68.6411743,10.4967318],[-68.651741,10.4905415],[-68.6812897,10.4816551],[-68.7300491,10.4486122],[-68.7497864,10.4335966],[-68.7742081,10.4051828],[-68.7706223,10.4012337],[-68.7662811,10.3804483],[-68.7609558,10.3687687],[-68.7504425,10.3542585],[-68.7447968,10.3523026],[-68.7260056,10.3262873],[-68.698082,10.3088293],[-68.6556854,10.2920971],[-68.6337814,10.2795744],[-68.6290665,10.2684679],[-68.6289139,10.2564688],[-68.6006851,10.2756071],[-68.5840683,10.2822294],[-68.5651627,10.2790155],[-68.5490417,10.2655153],[-68.5391617,10.2619772],[-68.5109253,10.2647715],[-68.4836578,10.2643595],[-68.4704971,10.262248],[-68.4450378,10.2657862],[-68.442276,10.2746248],[-68.4527512,10.313138],[-68.4544296,10.3300762],[-68.4513321,10.3471918],[-68.435936,10.3717241],[-68.4173508,10.382864],[-68.3442612,10.3979187],[-68.3404846,10.4384642],[-68.3344727,10.4519634],[-68.3289948,10.4793663],[-68.3309937,10.5003881],[-68.3326111,10.5450211],[-68.3158798,10.5759487],[-68.307579,10.5789261],[-68.2669449,10.5816231],[-68.2535553,10.5840445],[-68.2398987,10.582696],[-68.2512894,10.5958366],[-68.2639267,10.6222849],[-68.2858124,10.6222239],[-68.4262238,10.6259527],[-68.4680099,10.6295195],[-68.5062714,10.6349993]],[[-67.8036194,10.3711987],[-67.7725449,10.3559074],[-67.7536469,10.3598394],[-67.7340851,10.3717604],[-67.7265091,10.3740549]],[[-67.7265091,10.3740549],[-67.7133942,10.3780231],[-67.6934357,10.3682985],[-67.6549301,10.3616028],[-67.6130829,10.3311882],[-67.6107788,10.3219833],[-67.6112518,10.3039198],[-67.6080017,10.2791739]],[[-67.6080017,10.2791739],[-67.5984802,10.2681971],[-67.5805893,10.267704],[-67.5633774,10.2885466],[-67.5615234,10.2956314],[-67.5617294,10.3376083],[-67.5645447,10.3597803],[-67.5648956,10.3933945],[-67.5707169,10.4143934],[-67.5778198,10.4227486],[-67.6042175,10.4425945],[-67.6130676,10.4595146],[-67.6124268,10.4677429],[-67.5955887,10.4968538],[-67.5944578,10.5098411]],[[-67.5944578,10.5098411],[-67.6042328,10.5091896],[-67.6194534,10.5020647],[-67.6528702,10.5006437],[-67.6574707,10.4975863],[-67.6909256,10.498229],[-67.709137,10.504159],[-67.7146225,10.4987879],[-67.7446136,10.5003967],[-67.7623901,10.4941444],[-67.7632141,10.4874649],[-67.7762451,10.4891024],[-67.7991943,10.4866762],[-67.8092728,10.4782419],[-67.8195801,10.4833689],[-67.8307196,10.4798615],[-67.831543,10.4686537],[-67.8307724,10.4094143],[-67.826828,10.3920679]],[[-70.881958,10.4557676],[-70.912529,10.4593821],[-70.9212875,10.4625874],[-70.9514236,10.4569082],[-70.9922409,10.4552937],[-71.0247574,10.4571543],[-71.106926,10.4706345],[-71.1667023,10.4812384],[-71.2130966,10.4650946],[-71.2353363,10.4644108],[-71.2838669,10.4699755],[-71.3240433,10.4704304],[-71.3629227,10.4760256],[-71.3938904,10.4757786],[-71.4254913,10.4834862],[-71.4393311,10.4825983],[-71.4536743,10.4772072],[-71.4524765,10.4641371],[-71.4560089,10.446023],[-71.4612656,10.4364471],[-71.4734497,10.3998423],[-71.4725952,10.3949986],[-71.4553375,10.3859835],[-71.4306335,10.3637352],[-71.4222565,10.3504906],[-71.4061508,10.3134317],[-71.3948517,10.2946186],[-71.3816223,10.2808332],[-71.3730164,10.2678137],[-71.3656801,10.2428377]],[[-71.3656801,10.2428377],[-71.3289413,10.2438602],[-71.280983,10.2395945],[-71.2746201,10.2429571],[-71.2425842,10.2419224],[-71.2235641,10.2456198],[-71.2095337,10.2657557],[-71.2016373,10.2840414],[-71.1976624,10.3103199],[-71.193985,10.3236761],[-71.1853561,10.3370829],[-71.1787186,10.3553877],[-71.173912,10.361454],[-71.1468735,10.3834677],[-71.1281052,10.391161],[-71.1147537,10.3919334],[-71.0751724,10.3909664],[-70.9986038,10.3925314],[-70.9517441,10.4118261],[-70.9216461,10.4296036],[-70.881958,10.4557676]],[[-67.1673965,10.4137201],[-67.1570435,10.4005527],[-67.1443558,10.3783808],[-67.1392441,10.3624945],[-67.1337357,10.32728],[-67.1268768,10.3125134],[-67.0901184,10.2857704],[-67.0797195,10.2765007],[-67.0731659,10.2634935],[-67.0730286,10.2508926],[-67.0832367,10.2240963],[-67.0942459,10.1808205],[-67.082077,10.1538668],[-67.0697556,10.1174774],[-67.0626373,10.1073561],[-67.0507889,10.1018772],[-67.0324173,10.1009598],[-66.9714279,10.0947733],[-66.9713211,10.102417],[-66.9850235,10.1161575],[-66.9886932,10.123271],[-66.987587,10.1402922],[-66.9786606,10.1567698],[-66.9495468,10.1689892],[-66.9416275,10.176177],[-66.9347687,10.1924572],[-66.9336014,10.2158489],[-66.9383698,10.2279291],[-66.9379654,10.237277],[-66.8976212,10.2479095],[-66.8809891,10.260725],[-66.8718491,10.275425],[-66.8696671,10.2887917],[-66.8483047,10.3369904],[-66.8186035,10.3485746]],[[-66.8186035,10.3485746],[-66.8275757,10.3548841],[-66.8392715,10.367919],[-66.8619308,10.376792]],[[-66.8619308,10.376792],[-66.8671722,10.3801394],[-66.8885498,10.383215],[-66.9055481,10.3902702],[-66.9165802,10.3867283],[-66.9260483,10.3680134],[-66.9418106,10.3695364]],[[-66.9418106,10.3695364],[-66.9435043,10.3334227],[-66.9382324,10.3185883],[-66.9535599,10.3149652],[-66.9807129,10.3188124],[-66.9805374,10.33885],[-66.9870605,10.3544397],[-66.9855194,10.3919992],[-66.9876099,10.403985]],[[-66.9876099,10.403985],[-67.0034027,10.4043274],[-67.0434418,10.4124765],[-67.0809021,10.424942],[-67.1076431,10.4363041],[-67.1275864,10.4472761]],[[-67.1275864,10.4472761],[-67.1388474,10.4456758],[-67.1717072,10.418726],[-67.1673965,10.4137201]],[[-67.3936081,10.2080421],[-67.3988419,10.2250023],[-67.3966599,10.2353201],[-67.3840942,10.248745],[-67.3703842,10.2582998],[-67.3640366,10.2720747],[-67.3587799,10.295577],[-67.3469772,10.3040075],[-67.3494034,10.3178091],[-67.3468246,10.3447819],[-67.3505936,10.3548145],[-67.3676682,10.3665237],[-67.3735199,10.3745375],[-67.3699265,10.3815165],[-67.3556976,10.3880224],[-67.3544617,10.3967896],[-67.3664627,10.417201],[-67.3752213,10.4387255],[-67.3951416,10.4779968],[-67.4006653,10.503828],[-67.4109326,10.5317219],[-67.4231873,10.5325184],[-67.457077,10.530654],[-67.4850922,10.5247326],[-67.4907227,10.5287905],[-67.5037231,10.528141],[-67.5131091,10.5221496]],[[-67.5131091,10.5221496],[-67.5148315,10.519455],[-67.5018539,10.496068],[-67.5013885,10.4684982],[-67.5076141,10.4160442],[-67.5048447,10.383357],[-67.4798203,10.3503141],[-67.4695969,10.3280802],[-67.4659729,10.3000317],[-67.4679108,10.2838173],[-67.4750061,10.2584772],[-67.4800568,10.2313023],[-67.4932709,10.2190046],[-67.5010147,10.21731],[-67.5403137,10.216836],[-67.5587006,10.2118216]],[[-67.5587006,10.2118216],[-67.5532761,10.2038994],[-67.5588379,10.1947098]],[[-67.4695892,10.1979866],[-67.455864,10.1910248],[-67.4442902,10.1903763]],[[-67.4442902,10.1903763],[-67.424736,10.1897926],[-67.4053802,10.197567],[-67.3936081,10.2080421]],[[-72.1777573,7.8344831],[-72.1957016,7.8686361],[-72.2064667,7.8699522],[-72.2229767,7.862731],[-72.2640839,7.849988],[-72.2814941,7.842608]],[[-72.2814941,7.842608],[-72.2841721,7.7966752]],[[-68.9540863,9.6338081],[-68.9451294,9.6093616],[-69.0092545,9.5976152],[-69.0238953,9.5961533],[-69.0255661,9.5832071],[-69.0406952,9.58039],[-69.0522995,9.5836639],[-69.0897446,9.6004753],[-69.120636,9.6214056],[-69.1428604,9.631155],[-69.1746521,9.6532698],[-69.1894455,9.6522141],[-69.1952286,9.6420889],[-69.2022705,9.6180401],[-69.2175293,9.5729532],[-69.2240143,9.5595789],[-69.2355804,9.5479784],[-69.2205124,9.5391388],[-69.1899872,9.5280409],[-69.1827011,9.5237885],[-69.1734009,9.5074587],[-69.145668,9.5144186],[-69.1135025,9.5199203],[-69.0808868,9.5325718],[-69.0644913,9.5362082],[-69.0445328,9.534584],[-69.0046539,9.5172853],[-68.9898834,9.504858],[-68.9812775,9.4918432],[-68.9698944,9.4661007],[-68.9594116,9.4544725],[-68.9339294,9.4408636],[-68.9107971,9.4192734],[-68.8926468,9.4084358],[-68.8761826,9.4042912],[-68.8163528,9.394969],[-68.8019257,9.3972616],[-68.80056,9.4035063],[-68.830452,9.4206047],[-68.8565521,9.4309177],[-68.8665085,9.4374218],[-68.8759689,9.4526014],[-68.8876953,9.4894762],[-68.889473,9.5057497],[-68.8843384,9.5432425],[-68.8837128,9.5713549],[-68.8911896,9.6222754],[-68.8982697,9.6428814],[-68.9540863,9.6338081]],[[-67.7265091,10.3740549],[-67.723114,10.3606625],[-67.7093353,10.3296595],[-67.7088242,10.3198614],[-67.7161179,10.3089571],[-67.7201691,10.2929583],[-67.7262726,10.2814274],[-67.7291794,10.266964]],[[-67.7291794,10.266964],[-67.7059021,10.2835941],[-67.6932983,10.2876225],[-67.66642,10.283474],[-67.6675339,10.2629881],[-67.6592102,10.2596331],[-67.6300735,10.2570906]],[[-67.6300735,10.2570906],[-67.6080017,10.2791739]],[[-62.9131584,7.9417849],[-62.9272499,7.9216576],[-62.9332848,7.8869505],[-62.9332848,7.8205533],[-62.9212112,7.7707558],[-62.9023514,7.7405753],[-62.8895226,7.6877599],[-62.8744316,7.6409802],[-62.8231277,7.5625114],[-62.7552223,7.5036597],[-62.7114601,7.452353],[-62.6858063,7.3844471],[-62.657135,7.3180504],[-62.6435547,7.2380724],[-62.6329918,7.1626215],[-62.6390266,7.0916977],[-62.6812782,7.0268097],[-62.7159843,7.0011563],[-62.7476768,6.9573946],[-62.7537117,6.9136333],[-62.7491837,6.8608174],[-62.7386208,6.800457],[-62.7367363,6.7783875],[-62.7129669,6.7533002],[-62.6693954,6.7400961],[-62.6377068,6.7136884],[-62.6271439,6.6740766],[-62.6179008,6.6278629],[-62.6112976,6.5803289],[-62.5967751,6.5288334],[-62.5822487,6.4905424],[-62.5641899,6.4488397],[-62.5501251,6.4217572],[-62.5485649,6.41082],[-62.5584602,6.3931122],[-62.5667915,6.3701959],[-62.5704384,6.3384256],[-62.5767555,6.295774],[-62.5899582,6.2596865],[-62.6226807,6.2213988],[-62.6383934,6.1971149],[-62.6448669,6.1743159],[-62.6155128,6.1517072],[-62.6046448,6.135695],[-62.5901489,6.1217198],[-62.5592384,6.1125011],[-62.5288086,6.0962629],[-62.5205917,6.0883088],[-62.5159836,6.0724788],[-62.5062981,6.056993],[-62.4858284,6.040494],[-62.4741669,6.021255],[-62.4509125,6.0055022],[-62.4353065,5.990726],[-62.4151268,5.9774928],[-62.4026184,5.9605589],[-62.3881836,5.931663],[-62.3676453,5.917233],[-62.3574905,5.9065361],[-62.3522415,5.8954611],[-62.3357468,5.8825879],[-62.2951927,5.8837638],[-62.2865448,5.8926501],[-62.2847023,5.909462],[-62.2793159,5.923224],[-62.2666512,5.931304],[-62.2519531,5.934463],[-62.2203827,5.9305048],[-62.195507,5.918509],[-62.1891632,5.9080782],[-62.14328,5.8854599],[-62.1322174,5.8761148],[-62.1119537,5.8480191],[-62.1052246,5.8414979],[-62.0840492,5.8327851],[-62.0634308,5.8354678],[-62.0377884,5.8502412],[-62.0317917,5.8516002],[-62.0147667,5.8672671],[-62.0069771,5.884757],[-62.00317,5.9101429],[-61.9994354,5.9205451],[-61.9860039,5.9354658],[-61.977066,5.95472],[-61.9609909,5.978116],[-61.9640923,5.9898272],[-61.9867363,6.0040469],[-62.0014839,6.0216098],[-62.0223007,6.0364618],[-62.0391998,6.0440741],[-62.0775566,6.043478],[-62.0914001,6.0469151],[-62.1118965,6.0576048],[-62.1529236,6.0666051],[-62.1984673,6.0945191],[-62.2122612,6.1075182],[-62.2319908,6.1366162],[-62.2315826,6.143465],[-62.2222404,6.164783],[-62.2160759,6.1957908],[-62.2180901,6.2279668],[-62.2212105,6.241097],[-62.2286682,6.2535419],[-62.2427864,6.267705],[-62.2723198,6.274435],[-62.2821693,6.2788768],[-62.2910423,6.2893138],[-62.3167725,6.3423109],[-62.3210793,6.3717442],[-62.3174858,6.3975139],[-62.3242073,6.4320312],[-62.3219414,6.449048],[-62.3159752,6.4548788],[-62.3019562,6.4569731],[-62.274086,6.4537969],[-62.2552338,6.4441328],[-62.2337151,6.4219141],[-62.2280006,6.413887],[-62.1969872,6.4074602],[-62.1856003,6.4075832],[-62.1608734,6.4233899],[-62.1435661,6.4401011],[-62.1304855,6.4500308],[-62.0827942,6.477499],[-62.053421,6.490304],[-62.0280342,6.5117588],[-61.9847527,6.5345659],[-61.9671288,6.5426288],[-61.9415627,6.5603371],[-61.9109879,6.5737362],[-61.8959579,6.5833859],[-61.8852959,6.600615],[-61.8858109,6.6145158],[-61.8916397,6.6307068],[-61.8948822,6.6509171],[-61.8939285,6.6744881],[-61.8978958,6.7014761],[-61.9142189,6.7253652],[-61.9445,6.7506061],[-61.9611969,6.7567902],[-61.981884,6.7560511],[-61.9936676,6.7593999],[-62.0069122,6.7692542],[-62.0214424,6.7853022],[-62.0344429,6.8059721],[-62.0363083,6.8186359],[-62.035141,6.8481321],[-62.0420799,6.8872161],[-62.0458107,6.918149],[-62.0595245,6.9761],[-62.0630798,7.0042949],[-62.0654602,7.0379848],[-62.0685043,7.0563231],[-62.0873032,7.191812],[-62.0852242,7.2040811],[-62.1186256,7.3646259],[-62.1357956,7.4432921],[-62.1341248,7.4547148],[-62.1248589,7.4661641],[-62.1052322,7.4760199],[-62.0937576,7.4927502],[-62.0834274,7.499579],[-62.0657272,7.5009031],[-62.0497932,7.491075],[-62.0321465,7.484025],[-62.0199089,7.4827638],[-61.9928093,7.4839759],[-61.9756088,7.490171],[-61.9651031,7.516902],[-61.9450569,7.535686],[-61.9334984,7.549016],[-61.9266891,7.5646391],[-61.9105072,7.570116],[-61.863205,7.564055],[-61.8526421,7.559895],[-61.838829,7.5475211],[-61.8199921,7.5379748],[-61.8009186,7.5316091],[-61.7779007,7.517354],[-61.7668839,7.5034261],[-61.7428246,7.4866571],[-61.7380409,7.479692],[-61.7332878,7.4590988],[-61.7329597,7.4350219],[-61.7236061,7.4160118],[-61.695591,7.3874779],[-61.6756744,7.375432],[-61.6643066,7.372591],[-61.6021538,7.3678098],[-61.607029,7.3750582],[-61.6219673,7.4093652],[-61.647892,7.4531169],[-61.6537895,7.4744],[-61.6565552,7.5122719],[-61.6624374,7.5294108],[-61.6701317,7.5634112],[-61.6756058,7.5977569],[-61.6764755,7.6136832],[-61.6619759,7.6454911],[-61.6495323,7.663599],[-61.6375389,7.6913338],[-61.6238937,7.7134018],[-61.6138535,7.7222929],[-61.5952759,7.727262],[-61.5797424,7.7437329],[-61.5617142,7.7465148],[-61.5413704,7.753902],[-61.4938049,7.752315],[-61.5034485,7.7754779],[-61.5145073,7.8378901],[-61.5189323,7.856082],[-61.5290527,7.8801699],[-61.5394554,7.898766],[-61.559082,7.9266529],[-61.5756683,7.9527178],[-61.5957603,7.9744658],[-61.6154823,8.0036182],[-61.6268501,8.0231152],[-61.6339264,8.0401964],[-61.6465149,8.0798721],[-61.648037,8.0945883],[-61.6445312,8.1066046],[-61.6235352,8.1270351],[-61.5889244,8.1494074],[-61.5764732,8.1721764],[-61.5722084,8.1887932],[-61.5730934,8.2187023],[-61.5823936,8.238553],[-61.60215,8.2524452],[-61.6307373,8.2563105],[-61.667038,8.2538042],[-61.6835403,8.2470379],[-62.1583672,8.1818457],[-62.4762878,8.3630066]],[[-62.4762878,8.3630066],[-62.5393448,8.0447903],[-62.7831421,8.0347528],[-62.8092918,8.0347061],[-62.8306732,8.0250254],[-62.8555717,8.0046539],[-62.8789597,7.9790006],[-62.9061241,7.951838],[-62.9131584,7.9417849]],[[-72.2814941,7.842608],[-72.2905884,7.841578],[-72.3105927,7.8442631],[-72.3325653,7.8516769]],[[-72.3325653,7.8516769],[-72.3365173,7.8235011],[-72.3356934,7.8038478],[-72.330658,7.7856922],[-72.3097305,7.7385998],[-72.2973251,7.717041],[-72.2760696,7.6940408]],[[-72.2760696,7.6940408],[-72.2833176,7.7046242],[-72.3008652,7.740818],[-72.3025818,7.753746],[-72.2950134,7.7619309],[-72.2871017,7.7643919]],[[-68.086853,10.2638111],[-68.0953217,10.2055082],[-68.1026382,10.1932993],[-68.1190186,10.1721954],[-68.1287918,10.1545973],[-68.1377563,10.1104879],[-68.1526413,10.1091976]],[[-68.1526413,10.1091976],[-68.1582489,10.0927114],[-68.1664276,10.0828896],[-68.1917419,10.0588713],[-68.1977997,10.0505257],[-68.1991501,10.0399847],[-68.1943512,10.0247993],[-68.1780014,10.0082016],[-68.1450729,9.9880276],[-68.1333313,9.9790821],[-68.1029434,9.9644451],[-68.0932236,9.941905],[-68.0824051,9.9305611],[-68.0679626,9.9216061],[-68.0609131,9.9140244]],[[-68.0609131,9.9140244],[-68.0516434,9.9017172],[-68.0402069,9.8915901],[-68.0267715,9.891468],[-67.9980621,9.9067087],[-67.9859161,9.9163218],[-67.9701996,9.9237881],[-67.9549179,9.9245968],[-67.9469147,9.9206066],[-67.9471359,9.9093943],[-67.9547348,9.8885155],[-67.9513779,9.8769636],[-67.9313126,9.8625889],[-67.9047623,9.8573103],[-67.8847198,9.8554134],[-67.84655,9.8592424],[-67.8141785,9.8585606],[-67.802536,9.8549852],[-67.8083954,9.8915644],[-67.8073502,9.9142523],[-67.7990646,9.9239035],[-67.7884979,9.9267254]],[[-67.7884979,9.9267254],[-67.7922211,9.936573],[-67.8084259,9.9517288],[-67.8208847,9.9590244],[-67.8335342,9.9720592],[-67.8335037,9.9763117],[-67.8669968,9.978858],[-67.9193039,10.0030117],[-67.953392,10.006567],[-67.9601669,10.0129585],[-67.963768,10.0295906],[-67.9598923,10.0461512],[-67.9549103,10.0946159],[-67.9500351,10.1005936],[-67.9157562,10.1087351],[-67.8868179,10.1006985],[-67.8747635,10.1045189],[-67.830864,10.129776]],[[-67.830864,10.129776],[-67.8411179,10.1665974]],[[-67.9100037,10.372859],[-67.9237747,10.3564777],[-67.9440689,10.3493719]],[[-72.1882324,7.5735641],[-72.2068329,7.5917282],[-72.2240219,7.6109481],[-72.2510147,7.6438632],[-72.2793427,7.6693149]],[[-72.2793427,7.6693149],[-72.2862244,7.6659141],[-72.29953,7.652689],[-72.3012772,7.6444612],[-72.2901993,7.6252561],[-72.2929306,7.6175442],[-72.3279495,7.6203651],[-72.3439102,7.619061],[-72.3538895,7.615068],[-72.3531265,7.6043],[-72.3464355,7.5754118],[-72.3288574,7.534308],[-72.3297424,7.5169249],[-72.3344116,7.506041],[-72.3572159,7.468359]],[[-72.3572159,7.468359],[-72.338356,7.4712372],[-72.3151321,7.472157],[-72.2865219,7.4699559],[-72.2480621,7.4617829],[-72.1895752,7.4313521],[-72.1637726,7.4170079],[-72.156044,7.4195118],[-72.1284332,7.4207668],[-72.1205826,7.427465],[-72.0978088,7.439765],[-72.0904999,7.4515581],[-72.0507812,7.4739189],[-72.0461807,7.4780421],[-72.0466003,7.4887428],[-72.0651779,7.4879632],[-72.0800476,7.4931188],[-72.0905609,7.507442],[-72.0990982,7.514936],[-72.1353912,7.5250101],[-72.1540527,7.5364728],[-72.1725693,7.5591931],[-72.1882324,7.5735641]],[[-71.7582703,10.5301981],[-71.9419403,10.5228605],[-72.0822449,10.5216208],[-72.3017273,10.5076132]],[[-72.3017273,10.5076132],[-72.2824249,10.4800272],[-72.2804108,10.4721565],[-72.2833481,10.4458942],[-72.2776794,10.4333868],[-72.2498398,10.41642],[-72.2169113,10.4031878],[-72.1892471,10.3861628],[-72.1554947,10.3581762],[-72.1075439,10.3088694],[-72.0913849,10.2897453],[-72.0595703,10.2453022],[-72.0184326,10.1939077],[-71.9551775,10.1114295],[-71.9472351,10.1064272],[-71.9356384,10.1069508],[-71.9113846,10.116951],[-71.9031906,10.1228113],[-71.8946762,10.1346464],[-71.8815765,10.1590633],[-71.8687057,10.167614],[-71.8559647,10.1991644],[-71.8402176,10.2136526],[-71.8358383,10.2283068],[-71.8246307,10.2495298],[-71.8207169,10.2632704],[-71.8121643,10.277173],[-71.8034515,10.2862434],[-71.7927246,10.3219624],[-71.7872543,10.3310785],[-71.7338791,10.3795004],[-71.7123413,10.3922853],[-71.6670227,10.4279385],[-71.6450272,10.4397898],[-71.6297073,10.4400139],[-71.6282654,10.458621],[-71.6340866,10.4722815],[-71.6294479,10.4876204],[-71.6312561,10.5058184],[-71.625294,10.532137]],[[-71.625294,10.532137],[-71.7582703,10.5301981]],[[-64.4399338,10.1943617],[-64.4385071,10.1873846],[-64.445488,10.1317139],[-64.4571381,10.1133232],[-64.4613953,10.0966587],[-64.4683151,10.0934219],[-64.4836273,10.0950871],[-64.5133209,10.0880508],[-64.5259094,10.0898066],[-64.5622253,10.0995102],[-64.5893021,10.1144934],[-64.6013412,10.1336489],[-64.6193161,10.1583757],[-64.6277771,10.1781988],[-64.6440506,10.1916399],[-64.6592603,10.1978316]],[[-64.6592603,10.1978316],[-64.6532745,10.1866722],[-64.6743393,10.1785355],[-64.6838837,10.1853905],[-64.6797485,10.1929932],[-64.6707153,10.1951017],[-64.6698151,10.2017717],[-64.6860504,10.2000914],[-64.6976852,10.2076254],[-64.7014465,10.2163439],[-64.7083969,10.2153931],[-64.7071457,10.1979294],[-64.6987839,10.1954384],[-64.6957169,10.1862574],[-64.7088089,10.1609135],[-64.7114868,10.1404448],[-64.7183609,10.1238642],[-64.7273483,10.1134796],[-64.7402878,10.1042271],[-64.7668915,10.0926104],[-64.8217773,10.079936],[-64.8370743,10.0791702],[-64.867012,10.0829277],[-64.8835254,10.0823213],[-64.872345,10.0149069],[-64.9455719,9.974493],[-64.910408,9.868557],[-64.9749222,9.7380505],[-64.9068298,9.7320557],[-64.870491,9.7641354],[-64.8495483,9.843626],[-64.83638,9.8861361],[-64.8321686,9.8944092],[-64.7964325,9.8758621],[-64.7641602,9.8617439],[-64.7427521,9.8587484],[-64.6600952,9.8691559],[-64.6156006,9.8679705],[-64.5233994,9.8644133],[-64.4660339,9.8778982],[-64.4413605,9.8953533],[-64.4229355,9.9111795],[-64.3922119,9.9346085],[-64.3833313,9.9354582],[-64.3047638,9.9355888],[-64.2712631,9.9395952],[-64.264679,9.9431152],[-64.2494278,9.9629211],[-64.2389603,9.9928789],[-64.2328262,10.0050898]],[[-64.2328262,10.0050898],[-64.2459488,10.0089922],[-64.2624817,10.0208712],[-64.2928696,10.0326147],[-64.3172989,10.033967],[-64.3424606,10.030468],[-64.3613205,10.0332222],[-64.3733292,10.0436277],[-64.3815002,10.0626812],[-64.402565,10.1223907],[-64.4128876,10.1468668],[-64.4399338,10.1943617]],[[-63.8367653,10.9968586],[-63.8461037,10.985301],[-63.8441658,10.9658661],[-63.8637924,10.9656687],[-63.8785858,10.9582958],[-63.8850937,10.951417],[-63.893219,10.9028072],[-63.891264,10.8807362]],[[-63.891264,10.8807362],[-63.8844528,10.8877783],[-63.8877335,10.8997288],[-63.8856773,10.9162865],[-63.8775749,10.9340029],[-63.8641014,10.9413815],[-63.8376045,10.9515333],[-63.8273697,10.951087],[-63.822937,10.9444265],[-63.8136444,10.951335],[-63.8162384,10.9692659],[-63.8106689,10.9757109],[-63.7892494,10.9674597],[-63.7808484,10.9709504]],[[-63.7808484,10.9709504],[-63.8367653,10.9968586]],[[-63.8070065,11.0325775],[-63.8252743,11.0682863],[-63.8388023,11.0730906],[-63.8738708,11.0733986],[-63.8702774,11.04667],[-63.8828125,11.0311546],[-63.8922462,10.9970846]],[[-63.8922462,10.9970846],[-63.8763046,11.0012207],[-63.8619347,11.0086346],[-63.855732,11.0148821],[-63.8481903,11.0101233],[-63.8336906,11.0198154]],[[-63.8336906,11.0198154],[-63.8245239,11.0320902],[-63.8070065,11.0325775]],[[-66.9418106,10.3695364],[-66.9491348,10.3763666],[-66.9556503,10.3907728],[-66.9671326,10.4080324]],[[-66.9671326,10.4080324],[-66.9876099,10.403985]],[[-69.7287674,11.5136814],[-69.730835,11.5023928],[-69.7397461,11.4926758],[-69.7713547,11.4717169],[-69.7779312,11.4623003],[-69.7845688,11.4402695],[-69.8015594,11.4369669],[-69.8212738,11.4374628],[-69.8399048,11.4426575],[-69.8702087,11.4459047],[-69.8857269,11.4519577],[-69.892746,11.4581251],[-69.8850555,11.4719772],[-69.9142456,11.4847336],[-69.9308472,11.4784689],[-69.9457092,11.4802866],[-69.9662399,11.4955492],[-70,11.5260305],[-70.011322,11.5266199],[-70.0265961,11.52073],[-70.0338058,11.5215731],[-70.0635147,11.5383024],[-70.0834961,11.5520658],[-70.1010132,11.5614042],[-70.1260834,11.5778017],[-70.1358566,11.5784636],[-70.1374817,11.5676832],[-70.1243134,11.5618887],[-70.1135559,11.5524616],[-70.0958099,11.5431194],[-70.0973358,11.5369387],[-70.1133575,11.5398026],[-70.1143951,11.5232592],[-70.0814285,11.528554],[-70.0817413,11.5205545],[-70.0576553,11.5177021],[-70.046196,11.5087175],[-70.0473557,11.4976988],[-70.0366211,11.4986238],[-70.0173492,11.4952259],[-70.0184555,11.4761515],[-70.0339203,11.4829206],[-70.0471649,11.4848099],[-70.0490189,11.4740353],[-70.0359802,11.4737635],[-70.0326309,11.4667883],[-70.0457001,11.4438248],[-70.0513229,11.4421024],[-70.0615082,11.4563513],[-70.0818024,11.4551659],[-70.0808792,11.4436417],[-70.0882492,11.4366636],[-70.1008453,11.4357758],[-70.1201935,11.4575758],[-70.1266479,11.4609308],[-70.1349869,11.4744482],[-70.147934,11.4790878],[-70.1579666,11.4786043],[-70.1609344,11.4701529],[-70.1441956,11.4684267],[-70.1327286,11.4599066],[-70.146904,11.4503069],[-70.1362915,11.4452553],[-70.1297913,11.4326963],[-70.144577,11.4277105],[-70.1494827,11.4156179],[-70.1576385,11.415556],[-70.1646881,11.4014359],[-70.1665497,11.3902006],[-70.1795197,11.3711395],[-70.1957932,11.3611212],[-70.2077179,11.3588352],[-70.2307281,11.3496408],[-70.242836,11.349658],[-70.2190933,11.3228798],[-70.2116089,11.3110085],[-70.1978989,11.2814121],[-70.1614761,11.2481232],[-70.1542282,11.2337179],[-70.1312408,11.2147465],[-70.1286011,11.1991177],[-70.1243896,11.1272926],[-70.1214905,11.1153355],[-70.1165009,11.1125107],[-70.1008987,11.1161594],[-70.0850067,11.1274176],[-70.0550079,11.1560249],[-70.0321045,11.1739321],[-70.0079803,11.1902523],[-69.9620743,11.2144947],[-69.9429932,11.2271786],[-69.9220505,11.2278833],[-69.9063492,11.2197828],[-69.8898849,11.1912251],[-69.8839493,11.1862879],[-69.8038788,11.1933842],[-69.7785263,11.1920195],[-69.7482529,11.2269258],[-69.7346954,11.2266731],[-69.7273865,11.2053328],[-69.7025452,11.1983624],[-69.6893005,11.2010174],[-69.6249084,11.2218475],[-69.5798111,11.2308979],[-69.5536423,11.2531328],[-69.5229721,11.2834969],[-69.4936829,11.3171253],[-69.455452,11.3568335],[-69.4487762,11.3655977],[-69.4606857,11.3866472],[-69.4733047,11.3995638],[-69.4962463,11.3873425],[-69.528595,11.3786068],[-69.5675125,11.3748341],[-69.6061859,11.3730478],[-69.6085892,11.3941803],[-69.6025848,11.4331884],[-69.5921402,11.4556551],[-69.6132355,11.4607105],[-69.6199188,11.4674625],[-69.6400223,11.4796696],[-69.6608734,11.5038195],[-69.6818039,11.5340138],[-69.7287674,11.5136814]],[[-66.6960449,10.4059896],[-66.7035217,10.4111938],[-66.7230148,10.4167538],[-66.7533646,10.4429369],[-66.7674332,10.4618721],[-66.7999649,10.4613504]],[[-66.7999649,10.4613504],[-66.8119965,10.4555845],[-66.8305283,10.4269829],[-66.8275223,10.4112406],[-66.8156357,10.3883381],[-66.7876663,10.3857508],[-66.7682419,10.3820734],[-66.7255936,10.381691]],[[-66.7255936,10.381691],[-66.7103958,10.3838949],[-66.6979523,10.3986425],[-66.6960449,10.4059896]],[[-72.2793427,7.6693149],[-72.2974625,7.6848741],[-72.3189621,7.716651],[-72.3433228,7.7382941],[-72.3484421,7.760756]],[[-72.3484421,7.760756],[-72.3724594,7.762876],[-72.384903,7.7553091],[-72.393692,7.7464371],[-72.4153137,7.7135],[-72.4188232,7.703352],[-72.4158707,7.6897249],[-72.4054718,7.680232],[-72.4337158,7.6669822],[-72.4378891,7.6446939],[-72.4643478,7.6503668],[-72.4792862,7.6465149],[-72.4792252,7.6268778],[-72.47435,7.606576],[-72.461792,7.578691],[-72.4566956,7.5604763],[-72.4582291,7.550878],[-72.467392,7.5288038],[-72.4779663,7.5142617],[-72.4773026,7.4914827],[-72.4807053,7.4846158],[-72.4663239,7.4759359],[-72.4557571,7.462244],[-72.4494019,7.4486523],[-72.4482077,7.4335153],[-72.3861008,7.4628792],[-72.3572159,7.468359]],[[-62.4762878,8.3630066],[-62.534174,8.3928103],[-62.54397,8.3844368],[-62.5518278,8.3672927],[-62.5918307,8.328004],[-62.6218329,8.3080025],[-62.6611216,8.2951444],[-62.6804087,8.2922871],[-62.7139827,8.283715],[-62.7411276,8.2658565],[-62.7625578,8.2544271],[-62.7982747,8.2237105],[-62.8197049,8.2144241],[-62.8425638,8.2144241],[-62.8754233,8.2344256],[-62.8868527,8.243712],[-62.9225697,8.2622848],[-62.9735336,8.2730141],[-62.9431229,8.1050558],[-62.9131584,7.9417849]],[[-63.8336906,11.0198154],[-63.8367653,10.9968586]],[[-63.7808484,10.9709504],[-63.7774391,10.9971333],[-63.8021507,11.0230856],[-63.8070065,11.0325775]],[[-72.3756104,7.8844671],[-72.4001083,7.8780432],[-72.3971558,7.8533692],[-72.406662,7.853097]],[[-72.406662,7.853097],[-72.3911438,7.8253059],[-72.3556366,7.7839642],[-72.3484421,7.760756]],[[-72.2793427,7.6693149],[-72.270195,7.6838799],[-72.2760696,7.6940408]],[[-72.3325653,7.8516769],[-72.331955,7.8596969],[-72.3378067,7.867877],[-72.3595963,7.8806748],[-72.3756104,7.8844671]],[[-67.7291794,10.266964],[-67.7444687,10.2601833],[-67.7660522,10.2583084],[-67.7805405,10.2474203],[-67.797699,10.2407207],[-67.8025284,10.230588]],[[-67.830864,10.129776],[-67.8170547,10.115222],[-67.7987823,10.1147966],[-67.7656708,10.125062],[-67.7494583,10.1276464],[-67.7291489,10.1242132],[-67.7123718,10.1243982],[-67.7014542,10.1135511],[-67.6880264,10.1101713],[-67.6821518,10.1232939],[-67.6887817,10.1412783],[-67.6874084,10.1541157],[-67.6706085,10.1575708],[-67.6572189,10.1526909],[-67.6370468,10.1491518]],[[-67.5587006,10.2118216],[-67.5745544,10.2198553],[-67.5893402,10.2309961],[-67.6110382,10.2386417],[-67.6300735,10.2570906]],[[-68.1526413,10.1091976],[-68.1533279,10.1242638],[-68.1594696,10.1327848],[-68.1689453,10.1353388],[-68.1897583,10.1338682],[-68.2244034,10.1167355],[-68.2421265,10.1136093],[-68.2605591,10.1136723],[-68.2705383,10.1087646],[-68.2814407,10.0738077],[-68.2886505,10.0561409],[-68.2984695,10.0427608],[-68.3216705,10.0260382],[-68.3368759,10.019742],[-68.3586197,10.015975],[-68.3822784,10.0045233],[-68.3999863,9.9888163],[-68.3912201,9.9805365],[-68.3832855,9.9486971],[-68.363472,9.9387169],[-68.3450928,9.9350672],[-68.3227005,9.9230003],[-68.3012772,9.914484],[-68.2964859,9.9010305],[-68.3129578,9.8791056],[-68.310463,9.8685427],[-68.3011169,9.8642015],[-68.2721786,9.8711834],[-68.2521896,9.8706675],[-68.2326355,9.8603086],[-68.2248001,9.8593073],[-68.2062149,9.8689051],[-68.1905212,9.8714495],[-68.1376495,9.8754349],[-68.1146545,9.8802786],[-68.1047287,9.885313],[-68.0775452,9.904418],[-68.0609131,9.9140244]],[[-67.4442902,10.1903763],[-67.444313,10.141942]],[[-67.3172226,10.1426191],[-67.3291321,10.1484213],[-67.3387451,10.1588945],[-67.3525543,10.1640882],[-67.3630905,10.1725016],[-67.3742981,10.1986742],[-67.3936081,10.2080421]],[[-71.671399,10.8008212],[-71.75811,10.7994871]],[[-71.75811,10.7994871],[-71.7582703,10.5301981]],[[-71.625294,10.532137],[-71.6075745,10.5820475],[-71.6116486,10.6041899],[-71.6038361,10.6139593],[-71.6052628,10.6270924],[-71.6143188,10.6421843],[-71.5960846,10.6499519],[-71.5859833,10.6727972],[-71.5897369,10.7004576],[-71.5777817,10.707633],[-71.5899887,10.714263],[-71.642746,10.7587824],[-71.6596222,10.779973],[-71.671399,10.8008212]],[[-66.69841,10.5546341],[-66.6803131,10.5604181],[-66.6628647,10.5634022],[-66.6025314,10.5688353],[-66.5964355,10.5686483]],[[-66.5964355,10.5686483],[-66.5512009,10.566329],[-66.5288162,10.5633478],[-66.4806671,10.5485706],[-66.4676743,10.5456858],[-66.4102249,10.5421963],[-66.3813477,10.5351744],[-66.3488922,10.5346022],[-66.3487854,10.5630388],[-66.3589706,10.5674086],[-66.3559647,10.5756598],[-66.335859,10.6073285],[-66.3609085,10.6081457],[-66.3884735,10.6209621],[-66.3956833,10.6218061],[-66.4118118,10.6299124],[-66.4271164,10.6276808],[-66.5147476,10.6299524],[-66.5709076,10.624732],[-66.640625,10.6253242],[-66.6582336,10.6214437],[-66.6826553,10.6234617],[-66.7002869,10.6209583],[-66.7149429,10.6223965],[-66.7248917,10.6190615],[-66.7428284,10.6229897],[-66.7675781,10.6141891],[-66.7998276,10.6103563],[-66.8263168,10.6104975],[-66.8394165,10.6176958],[-66.853363,10.6177559],[-66.8641968,10.611186],[-66.8848724,10.6109324],[-66.8973236,10.6041117],[-66.9210129,10.6031284],[-66.9337158,10.5972223],[-66.9456177,10.6012135],[-66.9723663,10.6036358],[-66.9894104,10.6100874],[-67.029129,10.6086617],[-67.0493622,10.5936871],[-67.0755157,10.5862207],[-67.0858765,10.579649],[-67.1023636,10.5792036],[-67.1215286,10.5709047],[-67.1430588,10.5655632],[-67.1542816,10.5539188],[-67.1719437,10.5543737],[-67.1971741,10.5482883],[-67.2166901,10.5487156],[-67.2322998,10.5517225],[-67.2406006,10.547472],[-67.2906723,10.54035],[-67.3192215,10.5390368],[-67.3320465,10.5420771],[-67.3641491,10.5363478],[-67.35392,10.5023346],[-67.3457031,10.4904957],[-67.327179,10.47087],[-67.3222198,10.4582195],[-67.3186188,10.4149008],[-67.3139496,10.4063368],[-67.3021774,10.4014521],[-67.2933273,10.4021749],[-67.2766953,10.4258366],[-67.2636795,10.4358139],[-67.2406921,10.4429684],[-67.2180557,10.4425392],[-67.2039795,10.4387751],[-67.1756058,10.4225092],[-67.1673965,10.4137201]],[[-67.1275864,10.4472761],[-67.1133194,10.4579687],[-67.1001282,10.4635181],[-67.076149,10.4697104],[-67.0455246,10.4736795],[-67.0367661,10.4769735],[-67.0270081,10.4947853],[-67.0268173,10.5217638],[-67.0018845,10.5504732],[-66.989296,10.5606174],[-66.9677429,10.5598631],[-66.9462814,10.5538759],[-66.9233704,10.5510006],[-66.9013062,10.5542374],[-66.867981,10.5540133],[-66.8442612,10.5441704]],[[-66.8442612,10.5441704],[-66.8259811,10.554944]],[[-66.8259811,10.554944],[-66.8143768,10.5579462],[-66.7761459,10.5605211],[-66.7483978,10.5587196],[-66.7162781,10.5546608],[-66.69841,10.5546341]],[[-66.8522034,10.486659],[-66.8517227,10.528985],[-66.8442612,10.5441704]],[[-66.9671326,10.4080324],[-66.9411697,10.4183903],[-66.9138489,10.4273777],[-66.8897629,10.4322491]],[[-66.8897629,10.4322491],[-66.8862839,10.4331551],[-66.8666611,10.4559431],[-66.8578491,10.4688005],[-66.8522034,10.486659]],[[-67.7884979,9.9267254],[-67.7696915,9.9235172],[-67.7581635,9.9147272],[-67.7316742,9.8904982],[-67.7170334,9.8729458],[-67.6996307,9.8454084],[-67.6901321,9.8408661],[-67.6727448,9.8417673],[-67.6524277,9.8544521],[-67.6426392,9.8647156],[-67.6256561,9.87677],[-67.5789566,9.8806295],[-67.57164,9.8890524],[-67.5562439,9.9139948],[-67.5438843,9.920577],[-67.5349655,9.9193497],[-67.5167999,9.9030771],[-67.5006256,9.9081411],[-67.5009155,9.9243536],[-67.5074692,9.9405785],[-67.5104828,9.9552851],[-67.5083008,9.9829788]],[[-66.69841,10.5546341],[-66.6996918,10.5408421],[-66.7073212,10.5253973],[-66.71035,10.5093699],[-66.6992874,10.4917736],[-66.6991119,10.4797783],[-66.7024841,10.4572239],[-66.6900482,10.442132],[-66.6815567,10.4124985]],[[-66.6815567,10.4124985],[-66.6700974,10.4179106],[-66.6499786,10.422121],[-66.6135178,10.4260902],[-66.5809021,10.4256763],[-66.5760727,10.4418116],[-66.5652695,10.459177],[-66.5630569,10.4807644],[-66.5662613,10.4942532],[-66.5923843,10.5231295],[-66.5976639,10.540144],[-66.5964355,10.5686483]],[[-66.8619308,10.376792],[-66.8630066,10.3895588],[-66.8740005,10.39046],[-66.879097,10.4010353],[-66.8800888,10.416749],[-66.8897629,10.4322491]],[[-71.3656801,10.2428377],[-71.356842,10.2210932],[-71.3477325,10.210824],[-71.3087997,10.1807442],[-71.2838898,10.1589422],[-71.2677689,10.1379757],[-71.2585297,10.1221828],[-71.2491455,10.1006384],[-71.2401733,10.0687523],[-71.2341156,10.0290966],[-71.2269135,10],[-71.1889572,10.0295935],[-71.139679,10.0754776],[-71.0857239,10.119215],[-71.0692368,10.1308374],[-71.0396423,10.1547403],[-71.0149765,10.1811113],[-71.0151443,10.2023611],[-71.0044479,10.2400837],[-71.000351,10.2594357],[-70.9882889,10.2802477],[-70.9778214,10.3055439],[-70.9645157,10.3256807],[-70.9517746,10.3416901],[-70.9461136,10.355629],[-70.9261169,10.3819332],[-70.9045563,10.3857422],[-70.8778534,10.3938208],[-70.8607483,10.4025965],[-70.8197708,10.44137],[-70.8143921,10.4531755],[-70.8498764,10.4509745],[-70.881958,10.4557676]],[[-66.8186035,10.3485746],[-66.7983856,10.3560257],[-66.7646179,10.3606596],[-66.7470016,10.3649454],[-66.7255936,10.381691]],[[-66.7999649,10.4613504],[-66.7919235,10.4670248],[-66.792366,10.4800777],[-66.8006592,10.4878006],[-66.822937,10.4874897]],[[-66.822937,10.4874897],[-66.8522034,10.486659]],[[-71.75811,10.7994871],[-71.8550797,10.7974701],[-72.1595154,10.7859497],[-72.6793395,10.7788667]],[[-72.6793395,10.7788667],[-72.6838379,10.7696848],[-72.6976776,10.7613859],[-72.7071075,10.7525597],[-72.7137146,10.7301197],[-72.7117157,10.7086983],[-72.7303696,10.6887417],[-72.7353287,10.6674271],[-72.7567215,10.6353207],[-72.7771149,10.6229773],[-72.7839584,10.6157198],[-72.7883453,10.6015263],[-72.7997055,10.5869761],[-72.8184433,10.5764456],[-72.8377457,10.5426931],[-72.835144,10.5300055],[-72.8402939,10.5112228],[-72.8423843,10.4949245],[-72.8631821,10.4697027],[-72.8853683,10.4608288],[-72.8896103,10.4560614],[-72.8931274,10.4377146],[-72.8934479,10.4149513],[-72.884201,10.3959579],[-72.8864624,10.3832786],[-72.8616714,10.3832865],[-72.8491058,10.3790159],[-72.8202591,10.3650436],[-72.8115005,10.3651304],[-72.8039398,10.3793354],[-72.8034821,10.416378],[-72.7968445,10.432353],[-72.7845459,10.4507113],[-72.7778778,10.4497871],[-72.772728,10.4340982],[-72.7653198,10.4319248],[-72.7483673,10.4593105],[-72.7356339,10.4988356],[-72.7118607,10.5435286],[-72.6832123,10.5781202],[-72.6703491,10.587534],[-72.6314621,10.6058416],[-72.5515976,10.6360321],[-72.5246201,10.639225],[-72.4904404,10.6342726],[-72.4649582,10.6401796],[-72.4486542,10.6400061],[-72.4088821,10.6318321],[-72.3943787,10.6237478],[-72.3813477,10.6126556],[-72.3717575,10.599906],[-72.3588409,10.5755548],[-72.3423615,10.5613642],[-72.3315506,10.5420847],[-72.3087845,10.5199089],[-72.3017273,10.5076132]],[[-72.1882324,7.5735641],[-72.1787338,7.580636],[-72.1575089,7.5882311],[-72.1460114,7.5888252],[-72.1140518,7.578815],[-72.0957336,7.5810299],[-72.0765915,7.5882821],[-72.0640717,7.5960698],[-72.058754,7.607203],[-72.0642548,7.6249752],[-72.0654755,7.637547],[-72.0602646,7.6527319],[-72.048439,7.6634479]],[[-67.5131091,10.5221496],[-67.537117,10.524436],[-67.5428467,10.5197535],[-67.5530701,10.5200624],[-67.5788879,10.5074968],[-67.5944578,10.5098411]],[[-66.8259811,10.554944],[-66.825676,10.5289507],[-66.822937,10.4874897]],[[-66.6960449,10.4059896],[-66.6815567,10.4124985]],[[-71.671399,10.8008212],[-71.702301,10.8629723],[-71.710556,10.8858709],[-71.7106323,10.8964529],[-71.7168884,10.9289827],[-71.7146149,10.9409103],[-71.7185287,10.9591427],[-71.7405243,10.9813261],[-71.7494049,10.9938812],[-71.7649307,10.998024],[-71.7669067,10.9902325],[-71.8098297,11.0223389],[-71.8249969,11.0284281],[-71.8405304,11.0307598],[-71.8483429,11.037818],[-71.8475113,11.0510664],[-71.8505325,11.0625248],[-71.8565674,11.0699015],[-71.8902435,11.0926046],[-71.9058609,11.1007919],[-71.923912,11.1033869],[-71.9469223,11.1158485],[-71.9639664,11.1212521],[-71.9730072,11.1175795],[-71.9891815,11.0884724],[-72.0037384,11.0865211],[-72.0419769,11.1097937],[-72.0536575,11.1182289],[-72.0718536,11.1169605],[-72.0928345,11.1059618],[-72.124939,11.0953836],[-72.1430435,11.0914497],[-72.1614304,11.0941563],[-72.1821365,11.1054382],[-72.2002335,11.1042433],[-72.2077866,11.0887394],[-72.2191162,11.0827236],[-72.2371902,11.0888414],[-72.2523041,11.0892591],[-72.2736206,11.0992336],[-72.2902069,11.102005],[-72.2993927,11.107605],[-72.3319626,11.1163759],[-72.3417053,11.1128273],[-72.341629,11.0979347],[-72.3554993,11.0984201],[-72.3616638,11.1116743],[-72.3723679,11.1113701],[-72.4331131,11.1012211],[-72.4808354,11.0990286],[-72.4893723,11.0888948],[-72.4816742,11.0752001],[-72.4768372,11.0574102],[-72.4845581,11.0545425],[-72.5008774,11.0380135],[-72.5052414,11.0268106],[-72.5142212,11.0179834],[-72.5214767,10.9999266],[-72.5351868,10.9861126],[-72.549118,10.9578104],[-72.5620346,10.9350119],[-72.5762329,10.919364],[-72.5992661,10.9038534],[-72.6120453,10.8893318],[-72.6329575,10.8903465],[-72.6423645,10.883132],[-72.6503296,10.8641634],[-72.6581268,10.8511333],[-72.6609421,10.8387957],[-72.6766281,10.8008556],[-72.6793395,10.7788667]],[[-64.2328262,10.0050898],[-64.1908493,10.0035076],[-64.1789551,10.006628],[-64.1580734,10.0158119],[-64.1178131,10.0295181],[-64.1261749,10.173728],[-64.1155014,10.1865711],[-64.1043625,10.1945791],[-64.0898743,10.2179117],[-64.0687637,10.2795277],[-64.0559158,10.3077126],[-64.0478973,10.3205051],[-64.0414658,10.3402414],[-64.0259018,10.3591318],[-64.026268,10.3676414],[-64.0361404,10.3949566],[-64.0548325,10.4238882],[-64.0496817,10.4401507],[-64.0634232,10.4441938],[-64.0771255,10.4448528],[-64.0861893,10.4485111],[-64.1001663,10.4638805],[-64.1032104,10.4733],[-64.1236496,10.473712],[-64.1299133,10.4711695],[-64.1628952,10.4747658],[-64.1809998,10.4731102],[-64.186554,10.4666586],[-64.1890411,10.445962],[-64.1992035,10.4307632],[-64.2103119,10.4199286],[-64.223053,10.411849],[-64.240921,10.4092703],[-64.2734222,10.4091778],[-64.286644,10.4054604],[-64.3038254,10.4060984],[-64.3184204,10.3986979],[-64.3297882,10.3972836],[-64.3325195,10.3825626],[-64.3378296,10.3758793],[-64.3384705,10.3597851],[-64.3342667,10.3538218],[-64.3370209,10.3455372],[-64.3562317,10.3328333],[-64.3650665,10.3355637],[-64.3475189,10.3592968],[-64.3440781,10.3698826],[-64.3439026,10.3843651],[-64.3587875,10.3921337],[-64.3643341,10.3849897],[-64.3722305,10.3868027],[-64.3858948,10.3789415],[-64.3856354,10.3718166],[-64.3770294,10.3686266],[-64.3834763,10.3555021],[-64.3760147,10.3467913],[-64.3762054,10.3362169],[-64.4123688,10.3252907],[-64.4199982,10.3176794],[-64.4332199,10.3167133],[-64.4378891,10.322444],[-64.4550552,10.3214645],[-64.4533997,10.3145733],[-64.4441147,10.3139172],[-64.4315567,10.3072948],[-64.4241409,10.3091593],[-64.4055557,10.3057747],[-64.395607,10.3122444],[-64.3835373,10.3113651],[-64.372406,10.3141613],[-64.3635712,10.3093624],[-64.3637543,10.2985573],[-64.3760529,10.2975979],[-64.3820496,10.2888432],[-64.3927155,10.2869692],[-64.4001083,10.2782087],[-64.4100952,10.280014],[-64.4200516,10.275382],[-64.4432449,10.2718515],[-64.4418259,10.2670307],[-64.4565964,10.2483597],[-64.4777219,10.2415535]],[[-64.4777219,10.2415535],[-64.4520187,10.2119446],[-64.4399338,10.1943617]],[[-64.6198392,10.2472029],[-64.6114578,10.2317343],[-64.5960693,10.1895361],[-64.5736313,10.1763382],[-64.5576706,10.1719856],[-64.5215683,10.177145],[-64.5020676,10.1844549],[-64.4907913,10.1953678],[-64.4854566,10.2396649]],[[-64.4854566,10.2396649],[-64.4932175,10.2394915],[-64.520401,10.2474346],[-64.5335693,10.234971],[-64.5417328,10.2448235],[-64.5493927,10.2464027],[-64.5551605,10.239254],[-64.5672073,10.2352991],[-64.5732574,10.238493],[-64.5754089,10.2513571],[-64.5946655,10.2517405],[-64.6198392,10.2472029]],[[-64.4777219,10.2415535],[-64.4854566,10.2396649]],[[-64.6198392,10.2472029],[-64.6210632,10.2412863],[-64.633316,10.2320404],[-64.6355667,10.2177792],[-64.6454849,10.2062445],[-64.6592603,10.1978316]],[[-63.8922462,10.9970846],[-63.9104881,10.9934559],[-63.9176445,10.9886789],[-63.9360657,10.9424868],[-63.9385009,10.9227612],[-63.9268379,10.9132318],[-63.9021721,10.9084435],[-63.9165726,10.8992233],[-63.9314766,10.9070158],[-63.937973,10.9007969],[-63.9309654,10.8879337],[-63.891264,10.8807362]],[[-72.3756104,7.8844671],[-72.381691,7.9038749],[-72.3869553,7.9324951],[-72.3952408,7.9361439],[-72.3899155,7.9502778],[-72.3710709,7.9780908],[-72.3641129,7.9957681],[-72.3567047,8.005805],[-72.3659439,8.0213041],[-72.3795471,8.0375481],[-72.3905487,8.0409021],[-72.4138184,8.0382147],[-72.4109726,8.0260115],[-72.4175949,8.011404],[-72.4161987,8],[-72.427124,7.9865389],[-72.4394989,7.9841309],[-72.4391556,7.9734788],[-72.4454651,7.9701872],[-72.4463806,7.9601712],[-72.4585266,7.960268],[-72.4746857,7.9555922],[-72.4871979,7.9339719],[-72.4813995,7.9261999],[-72.4684601,7.9198341],[-72.4643097,7.914371],[-72.4596405,7.8947039],[-72.4590988,7.883214],[-72.4508511,7.8616947],[-72.4331436,7.8562999],[-72.406662,7.853097]]],"bbox":[-72.8934479,5.8327851,-61.4938049,11.5784636]}