{"type":"Topology","objects":{"foo":{"type":"GeometryCollection","geometries":[{"type":"Polygon","arcs":[[0]],"properties":{"name":"Baghlani Jadid","gaul_code":1000107,"targetarea":4.7645403,"totpop":184578.72506,"country_id":"AFG","targetpop":7466.614563,"totalarea":2591.4512172,"new_mean":8.0105581e-10}},{"type":"Polygon","arcs":[[1,2]],"properties":{"name":"Arghandab","gaul_code":1000135,"targetarea":16.1930719,"totpop":108639.90029,"country_id":"AFG","targetpop":36231.3226929,"totalarea":652.6747257,"new_mean":0.0000062646594}},{"type":"MultiPolygon","arcs":[[[3]],[[4,5]],[[6]]],"properties":{"name":"Paghman","gaul_code":1000042,"targetarea":26.1585029,"totpop":175431.74539,"country_id":"AFG","targetpop":68290.8005371,"totalarea":356.098788,"new_mean":0}},{"type":"Polygon","arcs":[[7]],"properties":{"name":"Qaysar","gaul_code":1000228,"targetarea":3.7351863,"totpop":174086.287795,"country_id":"AFG","targetpop":4709.9490967,"totalarea":2539.7636446,"new_mean":0}},{"type":"Polygon","arcs":[[8,9]],"properties":{"name":"Mando Zayi","gaul_code":1000241,"targetarea":13.5237862,"totpop":78031.9161682,"country_id":"AFG","targetpop":17942.5353394,"totalarea":103.4171532,"new_mean":0.0005501}},{"type":"MultiPolygon","arcs":[[[10,11,12,13]],[[14]],[[15,16]]],"properties":{"name":"Daman","gaul_code":1000267,"targetarea":17.1698883,"totpop":117989.205515,"country_id":"AFG","targetpop":29867.5183716,"totalarea":4441.6342289,"new_mean":0}},{"type":"Polygon","arcs":[[17]],"properties":{"name":"Farah","gaul_code":1000199,"targetarea":4.2860072,"totpop":137114.575686,"country_id":"AFG","targetpop":6165.0447388,"totalarea":3158.544675,"new_mean":0}},{"type":"Polygon","arcs":[[18]],"properties":{"name":"Shibirghan","gaul_code":1000480,"targetarea":23.3160621,"totpop":166323.381493,"country_id":"AFG","targetpop":41936.2833862,"totalarea":2190.5626947,"new_mean":0}},{"type":"MultiPolygon","arcs":[[[19,20]],[[21,22,23,-21]]],"properties":{"name":"Chaharikar","gaul_code":1000493,"targetarea":40.5946049,"totpop":155867.462317,"country_id":"AFG","targetpop":84760.7364502,"totalarea":266.1865813,"new_mean":0}},{"type":"Polygon","arcs":[[24]],"properties":{"name":"Khan Abad","gaul_code":1000643,"targetarea":4.1327674,"totpop":127857.452528,"country_id":"AFG","targetpop":6136.3898926,"totalarea":716.8948153,"new_mean":0}},{"type":"Polygon","arcs":[[25]],"properties":{"name":"Khwaja Ghar","gaul_code":1000612,"targetarea":1.6088315,"totpop":84715.3528461,"country_id":"AFG","targetpop":2805.7445679,"totalarea":461.0647196,"new_mean":0}},{"type":"Polygon","arcs":[[26]],"properties":{"name":"Qala-I-Naw","gaul_code":1000745,"targetarea":6.7870274,"totpop":89013.0530162,"country_id":"AFG","targetpop":12303.1628418,"totalarea":801.8849038,"new_mean":0}},{"type":"MultiPolygon","arcs":[[[27,28]],[[29,30,31,32]]],"properties":{"name":"Hisa-i-Duwumi Kohist","gaul_code":1000711,"targetarea":9.2378713,"totpop":36036.7998352,"country_id":"AFG","targetpop":11629.4595337,"totalarea":41.8964743,"new_mean":0}},{"type":"Polygon","arcs":[[33]],"properties":{"name":"Rukha","gaul_code":1000778,"targetarea":3.0858159,"totpop":27982.280798,"country_id":"AFG","targetpop":5216.0150147,"totalarea":201.3264189,"new_mean":0}},{"type":"Polygon","arcs":[[34,35]],"properties":{"name":"Nahri Shahi","gaul_code":1000758,"targetarea":14.7225628,"totpop":172034.870201,"country_id":"AFG","targetpop":126550.973999,"totalarea":1310.8894896,"new_mean":0}},{"type":"Polygon","arcs":[[36,37,38]],"properties":{"name":"Kalakan","gaul_code":1001039,"targetarea":10.8228407,"totpop":40697.0639648,"country_id":"AFG","targetpop":17614.8145752,"totalarea":84.5285745,"new_mean":0}},{"type":"Polygon","arcs":[[-39,39,40]],"properties":{"name":"Mir Bacha Kot","gaul_code":1000933,"targetarea":11.6362204,"totpop":35110.5304794,"country_id":"AFG","targetpop":21584.7904053,"totalarea":40.7566547,"new_mean":0}},{"type":"Polygon","arcs":[[41,42]],"properties":{"name":"Mihtarlam","gaul_code":1000947,"targetarea":26.6859802,"totpop":130995.87075,"country_id":"AFG","targetpop":57862.7548828,"totalarea":587.7050453,"new_mean":0}},{"type":"Polygon","arcs":[[43]],"properties":{"name":"Kushk","gaul_code":1001178,"targetarea":3.7190082,"totpop":162325.727988,"country_id":"AFG","targetpop":7635.0579834,"totalarea":3075.4591771,"new_mean":0}},{"type":"Polygon","arcs":[[44]],"properties":{"name":"Aqcha","gaul_code":1001164,"targetarea":11.3216624,"totpop":58521.2493858,"country_id":"AFG","targetpop":17832.8728027,"totalarea":144.0990065,"new_mean":0}},{"type":"Polygon","arcs":[[-38,45,-40]],"properties":{"name":"Guldara","gaul_code":1001115,"targetarea":6.9300942,"totpop":52784.4629507,"country_id":"AFG","targetpop":14066.0166626,"totalarea":104.1908342,"new_mean":0}},{"type":"MultiPolygon","arcs":[[[46,47]],[[48]]],"properties":{"name":"Qarabagh","gaul_code":1001086,"targetarea":10.1225754,"totpop":94703.7898445,"country_id":"AFG","targetpop":14339.7965698,"totalarea":200.3620123,"new_mean":0}},{"type":"Polygon","arcs":[[49]],"properties":{"name":"Balkh","gaul_code":1001136,"targetarea":10.6910071,"totpop":142737.176535,"country_id":"AFG","targetpop":19612.1167603,"totalarea":610.1678148,"new_mean":0}},{"type":"Polygon","arcs":[[50]],"properties":{"name":"Imam Sahib","gaul_code":1001236,"targetarea":15.7245027,"totpop":211666.235527,"country_id":"AFG","targetpop":29774.1422119,"totalarea":1592.6176146,"new_mean":0}},{"type":"Polygon","arcs":[[51]],"properties":{"name":"Kishim","gaul_code":1001294,"targetarea":7.3481709,"totpop":111477.415197,"country_id":"AFG","targetpop":12098.7786255,"totalarea":815.5565177,"new_mean":0}},{"type":"Polygon","arcs":[[52]],"properties":{"name":"Taluqan","gaul_code":1001477,"targetarea":49.0164357,"totpop":220594.352976,"country_id":"AFG","targetpop":110364.3078,"totalarea":598.2970518,"new_mean":0}},{"type":"Polygon","arcs":[[53,-10]],"properties":{"name":"Khost(Matun)","gaul_code":1001470,"targetarea":26.3498591,"totpop":209001.490379,"country_id":"AFG","targetpop":42282.3771973,"totalarea":489.7277174,"new_mean":0.0006537}},{"type":"Polygon","arcs":[[54,55,56,57,-28,58,-32]],"properties":{"name":"Hisa-i-Awali Kohista","gaul_code":1001473,"targetarea":34.4931499,"totpop":83330.111187,"country_id":"AFG","targetpop":62837.6088257,"totalarea":93.4736425,"new_mean":0}},{"type":"Polygon","arcs":[[59]],"properties":{"name":"Puli Khumri","gaul_code":1001544,"targetarea":39.2738506,"totpop":177685.066046,"country_id":"AFG","targetpop":100464.01825,"totalarea":291.1962788,"new_mean":0}},{"type":"Polygon","arcs":[[60,61]],"properties":{"name":"Argo","gaul_code":1001451,"targetarea":5.6575018,"totpop":121292.575768,"country_id":"AFG","targetpop":10372.8395386,"totalarea":1046.5004135,"new_mean":0}},{"type":"MultiPolygon","arcs":[[[62]],[[-14,63]],[[-16,64,-2,65,-12,66]]],"properties":{"name":"Kandahar","gaul_code":1001564,"targetarea":145.9055149,"totpop":556857.417191,"country_id":"AFG","targetpop":368974.45752,"totalarea":532.8585374,"new_mean":0}},{"type":"Polygon","arcs":[[67,-30,68,69,70]],"properties":{"name":"Mahmud Raqi","gaul_code":1001686,"targetarea":17.7447256,"totpop":88209.1132126,"country_id":"AFG","targetpop":34415.7601929,"totalarea":193.0714193,"new_mean":0}},{"type":"Polygon","arcs":[[71]],"properties":{"name":"Alishing","gaul_code":1001690,"targetarea":5.2195715,"totpop":93032.7135067,"country_id":"AFG","targetpop":8600.4504394,"totalarea":672.672204,"new_mean":0}},{"type":"Polygon","arcs":[[72,73,74,75,76,77,78,-6,79,80,81,82,83]],"properties":{"name":"Kabul","gaul_code":1001753,"targetarea":297.6361307,"totpop":3772805.91034,"country_id":"AFG","targetpop":3734151.70435,"totalarea":372.3086395,"new_mean":0}},{"type":"MultiPolygon","arcs":[[[84]],[[85,86]]],"properties":{"name":"Guzara","gaul_code":1001872,"targetarea":26.8377902,"totpop":189116.29632,"country_id":"AFG","targetpop":42957.142334,"totalarea":1759.3225409,"new_mean":0}},{"type":"Polygon","arcs":[[87,88]],"properties":{"name":"Injil","gaul_code":1001794,"targetarea":105.3996665,"totpop":410893.076625,"country_id":"AFG","targetpop":229325.13324,"totalarea":1148.6524179,"new_mean":0}},{"type":"MultiPolygon","arcs":[[[89]],[[90,-89,91,-86,92]]],"properties":{"name":"Hirat","gaul_code":1001941,"targetarea":171.0252883,"totpop":507222.932293,"country_id":"AFG","targetpop":442143.511292,"totalarea":401.0627166,"new_mean":0}},{"type":"MultiPolygon","arcs":[[[93]],[[94]]],"properties":{"name":"Qarghayi","gaul_code":1001919,"targetarea":19.0157215,"totpop":118308.436467,"country_id":"AFG","targetpop":28657.324646,"totalarea":872.9249888,"new_mean":0}},{"type":"MultiPolygon","arcs":[[[93]],[[94]]],"properties":{"name":"Qarghayi","gaul_code":1001919,"targetarea":19.0157215,"totpop":118308.436467,"country_id":"AFG","targetpop":28657.324646,"totalarea":872.9249888,"new_mean":0}},{"type":"Polygon","arcs":[[95,96]],"properties":{"name":"Maymana","gaul_code":1002482,"targetarea":16.5789225,"totpop":154434.904459,"country_id":"AFG","targetpop":41425.5604858,"totalarea":969.6847303,"new_mean":9.2403954e-7}},{"type":"Polygon","arcs":[[97]],"properties":{"name":"Kunduz","gaul_code":1002471,"targetarea":42.7500993,"totpop":281347.140374,"country_id":"AFG","targetpop":132797.957153,"totalarea":564.9540707,"new_mean":0}},{"type":"MultiPolygon","arcs":[[[-42,98]],[[99]],[[100]]],"properties":{"name":"Alingar","gaul_code":1002518,"targetarea":6.6504238,"totpop":151268.803848,"country_id":"AFG","targetpop":11654.2683105,"totalarea":934.0632212,"new_mean":0.0001216}},{"type":"Polygon","arcs":[[101]],"properties":{"name":"Sari Pul","gaul_code":1002460,"targetarea":18.8862433,"totpop":195277.751237,"country_id":"AFG","targetpop":35995.4033203,"totalarea":3050.1387001,"new_mean":0.000004838303}},{"type":"MultiPolygon","arcs":[[[102,-23,103,104]],[[-56,105,106]]],"properties":{"name":"Jabalussaraj","gaul_code":1002709,"targetarea":30.2320639,"totpop":97537.9994583,"country_id":"AFG","targetpop":48481.7889404,"totalarea":169.6869121,"new_mean":0}},{"type":"Polygon","arcs":[[107,108,109]],"properties":{"name":"Nawa-i-Barakzayi","gaul_code":1002718,"targetarea":0.0122667,"totpop":106200.286517,"country_id":"AFG","targetpop":1085.4289551,"totalarea":2550.5313089,"new_mean":0.0005533}},{"type":"Polygon","arcs":[[110]],"properties":{"name":"Chah Ab","gaul_code":1002878,"targetarea":2.6139463,"totpop":94862.6301003,"country_id":"AFG","targetpop":5200.2092285,"totalarea":762.4517375,"new_mean":0}},{"type":"MultiPolygon","arcs":[[[111]],[[112,113,114]]],"properties":{"name":"Shinwar","gaul_code":1003063,"targetarea":6.995555,"totpop":73717.979248,"country_id":"AFG","targetpop":13412.8366089,"totalarea":166.6009416,"new_mean":0.0004561}},{"type":"Polygon","arcs":[[-48,115]],"properties":{"name":"Istalif","gaul_code":1003198,"targetarea":7.4562032,"totpop":25854.5605679,"country_id":"AFG","targetpop":14378.6314697,"totalarea":62.3327401,"new_mean":0}},{"type":"Polygon","arcs":[[-48,115]],"properties":{"name":"Istalif","gaul_code":1003198,"targetarea":7.4562032,"totpop":25854.5605679,"country_id":"AFG","targetpop":14378.6314697,"totalarea":62.3327401,"new_mean":0}},{"type":"Polygon","arcs":[[116,117,-73]],"properties":{"name":"Dih Sabz","gaul_code":1003121,"targetarea":31.6699096,"totpop":244121.528615,"country_id":"AFG","targetpop":181604.772125,"totalarea":476.9585415,"new_mean":0}},{"type":"MultiPolygon","arcs":[[[118,-81]],[[119,-83]]],"properties":{"name":"Bagrami","gaul_code":1003087,"targetarea":2.4458095,"totpop":58725.4864311,"country_id":"AFG","targetpop":3454.7903442,"totalarea":268.4396147,"new_mean":0}},{"type":"MultiPolygon","arcs":[[[120]],[[121]]],"properties":{"name":"Kama","gaul_code":1003219,"targetarea":8.8279804,"totpop":95839.2773132,"country_id":"AFG","targetpop":14375.8674927,"totalarea":259.094536,"new_mean":0.0007027}},{"type":"MultiPolygon","arcs":[[[122]],[[123,-97,124]]],"properties":{"name":"Pashtun Kot","gaul_code":1003354,"targetarea":18.1067238,"totpop":148323.736281,"country_id":"AFG","targetpop":35173.1859741,"totalarea":1199.7982399,"new_mean":0}},{"type":"MultiPolygon","arcs":[[[125]],[[126,127,128]],[[129]]],"properties":{"name":"Surkh Rod","gaul_code":1003547,"targetarea":15.1910194,"totpop":144008.493565,"country_id":"AFG","targetpop":29857.3647461,"totalarea":342.2801156,"new_mean":0}},{"type":"Polygon","arcs":[[130,131,-128,132]],"properties":{"name":"Bihsud","gaul_code":1003523,"targetarea":58.9894385,"totpop":345248.62822,"country_id":"AFG","targetpop":300694.409393,"totalarea":184.3043198,"new_mean":0.0000499}},{"type":"MultiPolygon","arcs":[[[-78,133]],[[-118,134,-74]],[[-76,135]]],"properties":{"name":"Shakar Dara","gaul_code":1003661,"targetarea":15.5384362,"totpop":123545.773189,"country_id":"AFG","targetpop":47068.4545898,"totalarea":298.332915,"new_mean":0}},{"type":"Polygon","arcs":[[-36,136]],"properties":{"name":"Mazari Shari","gaul_code":1003656,"targetarea":18.5654485,"totpop":263954.29216,"country_id":"AFG","targetpop":257314,"totalarea":23.5268648,"new_mean":0}},{"type":"Polygon","arcs":[[137,-113,138]],"properties":{"name":"Muhmand Dara","gaul_code":1003772,"targetarea":1.0733707,"totpop":58355.7666359,"country_id":"AFG","targetpop":2167.8027954,"totalarea":222.5080241,"new_mean":0.000249}},{"type":"Polygon","arcs":[[139]],"properties":{"name":"Baraki Barak","gaul_code":1003875,"targetarea":4.6807229,"totpop":101265.954884,"country_id":"AFG","targetpop":7841.3971558,"totalarea":318.099036,"new_mean":0}},{"type":"Polygon","arcs":[[140]],"properties":{"name":"Bamyan","gaul_code":1001805,"targetarea":1.8948201,"totpop":97591.9506507,"country_id":"AFG","targetpop":3045.3276367,"totalarea":1855.7759124,"new_mean":0}},{"type":"MultiPolygon","arcs":[[[141]],[[142,143,-70,144]],[[145,-105]],[[-57,-107,146]]],"properties":{"name":"Sayd Khel","gaul_code":1001734,"targetarea":4.4357473,"totpop":42910.5697327,"country_id":"AFG","targetpop":9297.3645019,"totalarea":43.6325207,"new_mean":0}},{"type":"Polygon","arcs":[[147]],"properties":{"name":"Ghazni","gaul_code":1003429,"targetarea":17.6026383,"totpop":117981.168682,"country_id":"AFG","targetpop":33922.9237671,"totalarea":387.7276372,"new_mean":0}},{"type":"Polygon","arcs":[[148,149]],"properties":{"name":"Asadabad","gaul_code":1000396,"targetarea":3.4685012,"totpop":23726.533802,"country_id":"AFG","targetpop":7646.6785278,"totalarea":60.7440267,"new_mean":0.0000197}},{"type":"Polygon","arcs":[[150]],"properties":{"name":"Zaranj","gaul_code":1000508,"targetarea":12.0632827,"totpop":57603.3005364,"country_id":"AFG","targetpop":18620.8769531,"totalarea":694.3829888,"new_mean":0}},{"type":"Polygon","arcs":[[151,-131]],"properties":{"name":"Jalalabad","gaul_code":1000419,"targetarea":10.9145238,"totpop":47365.9471893,"country_id":"AFG","targetpop":16271.0631104,"totalarea":117.2785645,"new_mean":0}},{"type":"Polygon","arcs":[[152]],"properties":{"name":"Rodat","gaul_code":1000626,"targetarea":2.6448355,"totpop":96405.4425812,"country_id":"AFG","targetpop":4525.1280518,"totalarea":447.6433567,"new_mean":0.0001601}},{"type":"Polygon","arcs":[[153]],"properties":{"name":"Andkhoy","gaul_code":1000576,"targetarea":11.2723621,"totpop":81601.3321996,"country_id":"AFG","targetpop":18340.3802795,"totalarea":902.2093817,"new_mean":0}},{"type":"MultiPolygon","arcs":[[[154]],[[155]]],"properties":{"name":"Shindand","gaul_code":1000608,"targetarea":6.5936658,"totpop":246841.119112,"country_id":"AFG","targetpop":10182.359314,"totalarea":7351.5149685,"new_mean":0}},{"type":"Polygon","arcs":[[156,-61]],"properties":{"name":"Fayzabad","gaul_code":1002370,"targetarea":13.3194571,"totpop":88816.4673061,"country_id":"AFG","targetpop":22436.2390747,"totalarea":610.3170096,"new_mean":0}},{"type":"MultiPolygon","arcs":[[[157]],[[-71,-144,158]]],"properties":{"name":"Bagram","gaul_code":1002998,"targetarea":18.5111672,"totpop":124872.042603,"country_id":"AFG","targetpop":29660.2474976,"totalarea":303.3331789,"new_mean":0}},{"type":"Polygon","arcs":[[159,160,-108]],"properties":{"name":"Lashkar Gah","gaul_code":1003074,"targetarea":11.9991376,"totpop":105149.176423,"country_id":"AFG","targetpop":19867.8814697,"totalarea":961.4833946,"new_mean":0.0000862}},{"type":"Polygon","arcs":[[161]],"properties":{"name":"Dihdadi","gaul_code":1003268,"targetarea":4.1336475,"totpop":65206.7198639,"country_id":"AFG","targetpop":5494.1282349,"totalarea":250.7176177,"new_mean":0}},{"type":"Polygon","arcs":[[162,-150]],"properties":{"name":"Marawara","gaul_code":1003416,"targetarea":4.153546,"totpop":33433.6894569,"country_id":"AFG","targetpop":7278.5857544,"totalarea":157.3601953,"new_mean":0.000189}},{"type":"Polygon","arcs":[[163]],"properties":{"name":"Tirin Kot","gaul_code":1003267,"targetarea":9.9478251,"totpop":107100.715011,"country_id":"AFG","targetpop":14317.9464111,"totalarea":1358.9669421,"new_mean":0}},{"type":"MultiPolygon","arcs":[[[-114,-138,164]],[[165]]],"properties":{"name":"Bati Kot","gaul_code":1003624,"targetarea":18.4849053,"totpop":103197.98671,"country_id":"AFG","targetpop":30426.4626465,"totalarea":163.8665232,"new_mean":0.0010247}},{"type":"Polygon","arcs":[[-161,166,-109]],"properties":{"name":"Nad Ali","gaul_code":1003756,"targetarea":0.6049295,"totpop":138295.930359,"country_id":"AFG","targetpop":0,"totalarea":4511.7634304,"new_mean":0.0000907}}]}},"arcs":[[[68.7631989,36.1786199],[68.7593252,36.1948796],[68.7297028,36.1742213],[68.7583323,36.1662501],[68.7631989,36.1786199]],[[65.5841741,31.6137003],[65.61815,31.62097],[65.63434,31.6198],[65.67571,31.6341],[65.70116,31.63959],[65.7229545,31.649365]],[[65.7229545,31.649365],[65.7106924,31.6562078],[65.5794749,31.6167018],[65.5841741,31.6137003]],[[68.9750641,34.5412013],[68.9815745,34.5545232],[68.970637,34.5607162],[68.9638662,34.5285141],[68.9833323,34.5245834],[68.9750641,34.5412013]],[[69.0497773,34.5537227],[69.0317698,34.5514836],[69.0123362,34.5629135],[68.9993968,34.5467514],[69.021402,34.5291285],[69.0224111,34.5036077],[68.9953766,34.4958765],[68.9890831,34.4798426]],[[68.9890831,34.4798426],[69.01179,34.49528],[69.03855,34.50683],[69.05161,34.52247],[69.04772,34.53931],[69.0497773,34.5537227]],[[68.9702627,34.6024724],[68.9547028,34.5902491],[68.974999,34.5745834],[68.9702627,34.6024724]],[[64.3136058,35.704397],[64.2931956,35.7113184],[64.2947419,35.6864039],[64.3083324,35.6829167],[64.3136058,35.704397]],[[69.8741708,33.3361643],[69.8121898,33.3290593],[69.7950836,33.3120224],[69.8166657,33.2995834],[69.8205231,33.3123927],[69.8818844,33.3263335]],[[69.8818844,33.3263335],[69.8741708,33.3361643]],[[65.8604072,31.470583],[65.874999,31.4662501],[65.8711416,31.5040593],[65.8452301,31.5504908],[65.8466345,31.5679331]],[[65.8466345,31.5679331],[65.8356738,31.5639001]],[[65.8356738,31.5639001],[65.8371398,31.5457248]],[[65.8371398,31.5457248],[65.86783,31.49745],[65.8604072,31.470583]],[[65.8513499,31.6277654],[65.8380361,31.6127792],[65.8666657,31.6079168],[65.8513499,31.6277654]],[[65.7247509,31.6483625],[65.73003,31.63543],[65.74383,31.63021],[65.78252,31.62098],[65.8079604,31.618028]],[[65.8079604,31.618028],[65.7998688,31.6274236],[65.7617991,31.6276881],[65.7247509,31.6483625]],[[62.1213858,32.3900782],[62.0971996,32.3695623],[62.1333324,32.3662501],[62.1213858,32.3900782]],[[65.7701488,36.6461044],[65.7844717,36.6686589],[65.7311676,36.7030624],[65.7170238,36.6664128],[65.7666657,36.6329167],[65.7701488,36.6461044]],[[69.1916657,34.9829167],[69.1943597,34.976016],[69.1978165,34.9773263],[69.199999,34.9829167]],[[69.199999,34.9829167],[69.1916657,34.9829167]],[[69.199999,34.9829167],[69.2287262,34.9884018],[69.2007151,35.014358],[69.2157217,35.0427312],[69.2001718,35.0571456]],[[69.2001718,35.0571456],[69.1883405,35.0615588]],[[69.1883405,35.0615588],[69.1886383,35.0540553],[69.1547028,35.0380356],[69.152359,34.9789861],[69.1696116,34.9783025],[69.1916657,34.9829167]],[[69.124999,36.6745834],[69.124999,36.6912501],[69.099999,36.6912501],[69.099999,36.6745834],[69.124999,36.6745834]],[[69.4307119,37.0759302],[69.4148428,37.0606104],[69.4333323,37.0579167],[69.4307119,37.0759302]],[[63.1416657,34.9995834],[63.1163213,34.9961918],[63.1067699,34.9774325],[63.1208324,34.9804672],[63.1381501,34.9733302],[63.1416657,34.9995834]],[[69.3118918,35.0805367],[69.2875716,35.0708336]],[[69.2875716,35.0708336],[69.31315,35.0682276],[69.3118918,35.0805367]],[[69.3201046,35.0456239],[69.3436488,35.0531057]],[[69.3436488,35.0531057],[69.3462881,35.0790756],[69.3338409,35.0894163]],[[69.3338409,35.0894163],[69.3167741,35.0825118]],[[69.3167741,35.0825118],[69.328417,35.073672],[69.3296214,35.0617579],[69.3169098,35.0511988],[69.3201046,35.0456239]],[[69.4733551,35.2630518],[69.455956,35.2690496],[69.4471995,35.2535141],[69.4666657,35.2495834],[69.4733551,35.2630518]],[[67.1053745,36.6849597],[67.1333323,36.6829167],[67.1539541,36.6997299],[67.161734,36.7256291],[67.106428,36.7398178],[67.0872046,36.7235715]],[[67.0872046,36.7235715],[67.11462,36.7232],[67.13652,36.71191],[67.14286,36.69377],[67.1053745,36.6849597]],[[69.1372617,34.7559195],[69.1665192,34.7776555],[69.1471832,34.7946518],[69.1144196,34.773318],[69.1124203,34.7655225]],[[69.1124203,34.7655225],[69.12419,34.76137]],[[69.12419,34.76137],[69.1372617,34.7559195]],[[69.12419,34.76137],[69.11431,34.73043],[69.09199,34.71501],[69.0901587,34.6960206]],[[69.0901587,34.6960206],[69.1083323,34.6912501],[69.1133779,34.7108993],[69.1299306,34.7363184],[69.1372617,34.7559195]],[[70.2486421,34.6811211],[70.2248058,34.6953369]],[[70.2248058,34.6953369],[70.1850901,34.6853337],[70.1918447,34.6552149],[70.211734,34.6363184],[70.2419912,34.6295151],[70.2350901,34.6603215],[70.2486421,34.6811211]],[[62.2873666,35.2267574],[62.2830009,35.2553253],[62.2666983,35.2580347],[62.2802074,35.2303777],[62.2873666,35.2267574]],[[66.2118317,36.9040146],[66.1838369,36.9198064],[66.1647451,36.8941269],[66.199999,36.8745834],[66.2118317,36.9040146]],[[69.1124203,34.7655225],[69.1049306,34.7363184],[69.0843252,34.7220932],[69.0901587,34.6960206]],[[69.1083323,34.8154397],[69.1083323,34.8329167],[69.1000707,34.8329167]],[[69.1000707,34.8329167],[69.1083323,34.8154397]],[[69.174999,34.8495834],[69.1860342,34.8782903],[69.1566071,34.8692001],[69.1506338,34.8212387],[69.174999,34.8495834]],[[66.9193512,36.7591619],[66.8882314,36.7779851],[66.8799307,36.7402043],[66.9083323,36.7329167],[66.9193512,36.7591619]],[[68.9422516,37.1841903],[68.921581,37.2102157],[68.894514,37.1969996],[68.8888662,37.1694524],[68.9333323,37.1662501],[68.9422516,37.1841903]],[[70.0946442,36.8444646],[70.0795563,36.8137314],[70.124999,36.8079167],[70.0946442,36.8444646]],[[69.5035472,36.7043604],[69.5509267,36.7122136],[69.5952138,36.7285995],[69.5497549,36.7553736],[69.5326813,36.778335],[69.5096832,36.7864731],[69.4964508,36.7531397],[69.4756175,36.7448593],[69.4966299,36.7292221],[69.4924957,36.7051702],[69.5035472,36.7043604]],[[69.8818844,33.3263335],[69.8952789,33.3293767],[69.9236318,33.3189682],[69.9514476,33.3212021],[69.9871898,33.3439723],[69.9210439,33.3589991],[69.8816559,33.3370224],[69.8741708,33.3361643]],[[69.3338409,35.0894163],[69.3299144,35.0926783],[69.3621084,35.1066431],[69.3305003,35.1229029],[69.2982737,35.1616969],[69.286896,35.1539831]],[[69.286896,35.1539831],[69.28796,35.12319]],[[69.28796,35.12319],[69.2874696,35.1165329]],[[69.2874696,35.1165329],[69.2837555,35.0712224],[69.2875716,35.0708336]],[[69.3118918,35.0805367],[69.3167741,35.0825118]],[[68.757876,35.8928467],[68.750471,35.9187566],[68.7093577,35.9886866],[68.6828278,36.0032903],[68.6631614,35.9679278],[68.6642825,35.9664937],[68.6842601,35.9505071],[68.6953766,35.9366236],[68.73343,35.9098739],[68.7453766,35.8949569],[68.7552201,35.8921405],[68.757876,35.8928467]],[[70.6027168,37.0893904],[70.58559,37.09851],[70.57417,37.11263],[70.56247,37.1111],[70.5467837,37.0924024]],[[70.5467837,37.0924024],[70.5774241,37.0978297],[70.599999,37.0829167],[70.6027168,37.0893904]],[[65.8034821,31.5211044],[65.8131826,31.5280624],[65.8176911,31.5447291],[65.7881826,31.5247177],[65.8034821,31.5211044]],[[65.8371398,31.5457248],[65.838443,31.529568],[65.8145335,31.4867294],[65.8237036,31.4760885],[65.8344334,31.4684974],[65.8604072,31.470583]],[[65.7247509,31.6483625],[65.7229545,31.649365]],[[65.5841741,31.6137003],[65.6128083,31.6040593],[65.6216462,31.5938095],[65.653889,31.5964015],[65.663443,31.5853175],[65.6989736,31.5694646],[65.6794749,31.5163884],[65.7051911,31.5202133],[65.7029287,31.548261],[65.7378083,31.5701075],[65.7593415,31.5951075],[65.7956045,31.5783961],[65.8097484,31.5795313],[65.8353343,31.5681096],[65.8356738,31.5639001]],[[65.8466345,31.5679331],[65.8294749,31.595726],[65.8079604,31.618028]],[[69.3209544,35.0032134],[69.3384918,35.0132553],[69.3704417,35.0100001],[69.3620595,35.0312362],[69.3430329,35.0470443],[69.3436488,35.0531057]],[[69.3201046,35.0456239],[69.3331045,35.0229395],[69.2968252,35.0192449],[69.284756,35.0261556]],[[69.284756,35.0261556],[69.29758,35.01377]],[[69.29758,35.01377],[69.30137,35.00595],[69.3209544,35.0032134]],[[70.1130361,34.7709539],[70.1060537,34.778213],[70.0963694,34.7492213],[70.124999,34.7412501],[70.1130361,34.7709539]],[[69.3599831,34.5485083],[69.31269,34.56917],[69.30104,34.57079],[69.27201,34.55881],[69.25291,34.55611],[69.22064,34.57683],[69.17844,34.58978],[69.14376,34.59424]],[[69.14376,34.59424],[69.1129421,34.6063481]],[[69.1129421,34.6063481],[69.1045726,34.5865138],[69.0993168,34.5871674]],[[69.0993168,34.5871674],[69.0947711,34.5720913]],[[69.0947711,34.5720913],[69.1037099,34.5501775],[69.0862254,34.5523527]],[[69.0862254,34.5523527],[69.07452,34.54694],[69.0543132,34.5542866]],[[69.0543132,34.5542866],[69.0497773,34.5537227]],[[68.9890831,34.4798426],[68.9879547,34.4769679],[69.0546214,34.4625432],[69.093098,34.4477564],[69.1255361,34.428685],[69.1577148,34.4246606],[69.1585695,34.4254112],[69.1626618,34.4396957],[69.1759054,34.4503039]],[[69.1759054,34.4503039],[69.17108,34.46475],[69.1775699,34.470802]],[[69.1775699,34.470802],[69.1765941,34.4786565],[69.2070303,34.4866236],[69.2168879,34.4743106]],[[69.2168879,34.4743106],[69.23246,34.47779],[69.2438306,34.4855129]],[[69.2438306,34.4855129],[69.2703766,34.5292099],[69.3479157,34.5404973],[69.3599831,34.5485083]],[[62.2880361,34.2459539],[62.257486,34.253213],[62.2463695,34.2322779],[62.2916657,34.2245834],[62.2880361,34.2459539]],[[62.25126,34.25508],[62.23409,34.25508],[62.2278,34.2635],[62.1963289,34.2796798]],[[62.1963289,34.2796798],[62.2143382,34.259524],[62.2038402,34.2203354],[62.2148265,34.2001246],[62.2396475,34.2136093],[62.2372386,34.253982],[62.25126,34.25508]],[[62.1976843,34.3868841],[62.1313467,34.4092636],[62.1197744,34.3840276],[62.1216787,34.3519597],[62.0783682,34.3545435],[62.0796703,34.3328313],[62.1062165,34.2839788],[62.1666657,34.2875798],[62.1905427,34.2861557],[62.1955208,34.2805842]],[[62.1955208,34.2805842],[62.19867,34.29027],[62.19527,34.32979],[62.18677,34.34636],[62.1976843,34.3868841]],[[62.3333324,34.3579167],[62.3450348,34.3669459],[62.3253571,34.378213],[62.3333324,34.3579167]],[[62.3333324,34.3579167],[62.3018871,34.3720199],[62.2706696,34.3701604],[62.244807,34.3794337],[62.2290192,34.3784937],[62.1976843,34.3868841]],[[62.1955208,34.2805842],[62.1963289,34.2796798]],[[62.25126,34.25508],[62.2765511,34.2570597],[62.2868825,34.2578685],[62.3783519,34.2650294],[62.3539378,34.2868474],[62.328124,34.3137558],[62.3333324,34.3579167]],[[70.274999,34.5329167],[70.2851064,34.5137273],[70.3085276,34.5242457],[70.2980133,34.5441269],[70.274999,34.5329167]],[[70.2666657,34.5412501],[70.254833,34.5604477],[70.224999,34.5511541],[70.2301585,34.5380722],[70.2520335,34.5227076],[70.2666657,34.5412501]],[[64.8173373,35.9193022],[64.8113597,35.9292017],[64.7523916,35.9448796],[64.7548493,35.928274],[64.7319652,35.9189031],[64.763778,35.9058829]],[[64.763778,35.9058829],[64.77733,35.91125],[64.8173373,35.9193022]],[[68.8952952,36.6626205],[68.9135569,36.6700912],[68.8997549,36.6929631],[68.916096,36.7055811],[68.8800446,36.7542139],[68.8462392,36.7615463],[68.8380361,36.6981715],[68.889387,36.6873357],[68.8857086,36.6625107],[68.8952952,36.6626205]],[[70.2486421,34.6811211],[70.2416657,34.6995834],[70.2248058,34.6953369]],[[70.299999,34.7412501],[70.2870595,34.734703],[70.2833323,34.7162501],[70.2962718,34.7227971],[70.299999,34.7412501]],[[70.299999,34.7412501],[70.3190094,34.7516749],[70.3042145,34.7608668],[70.299999,34.7412501]],[[65.963264,36.1878484],[65.9527822,36.2305201],[65.9247712,36.2446518],[65.9106924,36.2242742],[65.9150544,36.204865],[65.938264,36.1961817],[65.9534007,36.1863184],[65.963264,36.1878484]],[[69.2586949,35.095762],[69.2352204,35.0948308],[69.2706696,35.127684],[69.2271637,35.1343287],[69.2126618,35.1035914],[69.1869944,35.0954696],[69.1883405,35.0615588]],[[69.2001718,35.0571456],[69.1959951,35.0610173],[69.2211253,35.0792343],[69.2453764,35.078273]],[[69.2453764,35.078273],[69.2586949,35.095762]],[[69.286896,35.1539831],[69.2838694,35.1519312],[69.2868477,35.1226476]],[[69.2868477,35.1226476],[69.28796,35.12319]],[[64.3534447,31.5617978],[64.35165,31.56333]],[[64.35165,31.56333],[64.3511266,31.5624783]],[[64.3511266,31.5624783],[64.3534447,31.5617978]],[[69.8205231,37.4108098],[69.7968903,37.3952296],[69.824999,37.3912501],[69.8205231,37.4108098]],[[70.8188467,34.1950872],[70.7974274,34.2023829],[70.7888662,34.1862289],[70.824999,34.1829167],[70.8188467,34.1950872]],[[70.8150363,34.2464115],[70.81385,34.25056]],[[70.81385,34.25056],[70.7996159,34.2457027]],[[70.7996159,34.2457027],[70.8150363,34.2464115]],[[69.1000707,34.8329167],[69.074999,34.8329167],[69.074999,34.8079167],[69.1083323,34.8079167],[69.1083323,34.8154397]],[[69.3599831,34.5485083],[69.3787099,34.56094],[69.3370433,34.5699569],[69.3127269,34.5792994],[69.2958323,34.5792668],[69.2528148,34.5739161],[69.2150055,34.596141],[69.1517101,34.6059568]],[[69.1517101,34.6059568],[69.14376,34.59424]],[[69.1759054,34.4503039],[69.1775699,34.470802]],[[69.2168879,34.4743106],[69.2354482,34.4717148],[69.2438306,34.4855129]],[[70.6333323,34.4079167],[70.6612132,34.4126531],[70.6490062,34.428213],[70.6333323,34.4079167]],[[70.5794749,34.4253362],[70.5562002,34.4442774],[70.5469717,34.4267115],[70.5833323,34.4079167],[70.5794749,34.4253362]],[[64.8416657,35.8829167],[64.8562816,35.8378891],[64.870751,35.8549748],[64.8416657,35.8829167]],[[64.8416657,35.8829167],[64.8380361,35.8959539],[64.8201488,35.903274],[64.8173373,35.9193022]],[[64.763778,35.9058829],[64.8044424,35.88924],[64.8416657,35.8829167]],[[70.3494944,34.4323715],[70.32482,34.4268417],[70.313264,34.4130681],[70.3333323,34.4079167],[70.3494944,34.4323715]],[[70.374999,34.4579167],[70.3790355,34.4346949],[70.4035367,34.4118395]],[[70.4035367,34.4118395],[70.39491,34.43051],[70.4033539,34.4533449]],[[70.4033539,34.4533449],[70.374999,34.4579167]],[[70.374999,34.4579167],[70.371874,34.4834701],[70.3472809,34.4792587],[70.3566885,34.4614934],[70.374999,34.4579167]],[[70.4849134,34.4383189],[70.44464,34.45097],[70.4149482,34.4535359]],[[70.4149482,34.4535359],[70.4033539,34.4533449]],[[70.4035367,34.4118395],[70.4300934,34.4005071],[70.4583323,34.3839014],[70.482372,34.3980291],[70.51857,34.384113],[70.5369002,34.4009575],[70.5359597,34.4015455],[70.5095368,34.4126775],[70.4849134,34.4383189]],[[69.0862254,34.5523527],[69.0543132,34.5542866]],[[69.1517101,34.6059568],[69.1151683,34.6116236],[69.1129421,34.6063481]],[[69.0993168,34.5871674],[69.085139,34.5889307],[69.0885407,34.6162501],[69.0865062,34.6325912],[69.0693349,34.6449569],[69.0731273,34.5894231],[69.0947711,34.5720913]],[[67.0872046,36.7235715],[67.0799307,36.6868189],[67.1053745,36.6849597]],[[70.818079,34.2525432],[70.81385,34.25056]],[[70.8150363,34.2464115],[70.818079,34.2525432]],[[68.9522288,33.9781723],[68.9211416,33.9627833],[68.9583323,33.9579167],[68.9522288,33.9781723]],[[67.8276357,34.8278671],[67.8129547,34.8137395],[67.8333323,34.8079167],[67.8276357,34.8278671]],[[69.274999,35.0162501],[69.2676341,35.0106064],[69.2732051,35.0098508],[69.274999,35.0162501]],[[69.274999,35.0162501],[69.284191,35.0110005]],[[69.284191,35.0110005],[69.29758,35.01377]],[[69.284756,35.0261556],[69.274999,35.0162501]],[[69.2453764,35.078273],[69.2622874,35.0776026],[69.2586949,35.095762]],[[69.2868477,35.1226476],[69.2874696,35.1165329]],[[68.430598,33.5273178],[68.4471995,33.5357162],[68.4527985,33.5625066],[68.4139638,33.5690496],[68.4020661,33.5455388],[68.4135407,33.5220444],[68.424999,33.5162501],[68.430598,33.5273178]],[[71.1668696,34.8910253],[71.1445953,34.8803736],[71.1315908,34.8546778],[71.1364012,34.8522454]],[[71.1364012,34.8522454],[71.1668696,34.8910253]],[[61.8706045,30.9373194],[61.8949046,30.9590276],[61.8677725,30.9714747],[61.8450999,30.9701238],[61.8462393,30.9511703],[61.8666657,30.9329168],[61.8706045,30.9373194]],[[70.4849134,34.4383189],[70.5128571,34.4365219],[70.5203766,34.4437607],[70.4869293,34.4533228],[70.4889638,34.4696925],[70.4419912,34.4516383],[70.4149482,34.4535359]],[[70.6899668,34.3007561],[70.6815257,34.3065821],[70.663264,34.2944849],[70.6874292,34.2882822],[70.6899668,34.3007561]],[[65.1453929,36.9650131],[65.112499,36.9616602],[65.0881338,36.9641423],[65.0849762,36.9332016],[65.1017243,36.9533635],[65.1204417,36.9366968],[65.1333324,36.9329167],[65.1453929,36.9650131]],[[62.1609691,33.3195338],[62.1462881,33.3054062],[62.1666657,33.2995834],[62.1609691,33.3195338]],[[62.3161937,33.3903997],[62.2961742,33.4023829],[62.2888662,33.3785141],[62.3083324,33.3745834],[62.3161937,33.3903997]],[[70.6027168,37.0893904],[70.6055491,37.096137],[70.5835602,37.1279851],[70.561734,37.1211817],[70.5419424,37.108287],[70.5160779,37.1140852],[70.5159931,37.1100166],[70.5231435,37.0977035],[70.5467837,37.0924024]],[[69.2718252,34.9285181],[69.2684235,34.9436549],[69.2807119,34.9625147],[69.2638499,34.9696518],[69.2465973,34.9446518],[69.2284007,34.9378484],[69.2215973,34.9278183],[69.2666657,34.9162501],[69.2718252,34.9285181]],[[69.284191,35.0110005],[69.2962881,35.0040919],[69.2946605,34.9881576],[69.3209544,35.0032134]],[[64.3534447,31.5617978],[64.3666657,31.5579168],[64.37718,31.5858871],[64.3569652,31.6116969],[64.3409615,31.5736643]],[[64.3409615,31.5736643],[64.35165,31.56333]],[[67.0083323,36.6579167],[67.0083323,36.6745834],[66.9833323,36.6745834],[66.9833323,36.6579167],[67.0083323,36.6579167]],[[71.1364012,34.8522454],[71.1472646,34.8606511],[71.1748851,34.8746241],[71.1668696,34.8910253]],[[65.902001,32.636172],[65.8746247,32.6446518],[65.8549307,32.6152044],[65.8833323,32.6079168],[65.902001,32.636172]],[[70.818079,34.2525432],[70.8046865,34.2607162],[70.7996159,34.2457027]],[[70.7093416,34.2366975],[70.7333323,34.2329167],[70.7450674,34.2545151],[70.7646963,34.2618555],[70.737971,34.2803126],[70.7118642,34.2633163],[70.7057715,34.2405363],[70.7093416,34.2366975]],[[64.3409615,31.5736643],[64.3511266,31.5624783]]],"bbox":[61.8450999,30.9329168,71.1748851,37.4108098]}