{"type":"Topology","objects":{"foo":{"type":"GeometryCollection","geometries":[{"type":"Polygon","arcs":[[0]],"properties":{"name":"Administrative unit not available","gaul_code":4197,"targetarea":1.685862,"totpop":49561.4646044,"country_id":"ASM","targetpop":4619.480835,"new_mean":0.0754181,"totalarea":211.0162904}}]}},"arcs":[[[-170.7378612,-14.3231703],[-170.7524974,-14.3303724],[-170.7333334,-14.3337497],[-170.7378612,-14.3231703]]],"bbox":[-170.7524974,-14.3337497,-170.7333334,-14.3231703]}