{"type":"Topology","objects":{"foo":{"type":"GeometryCollection","geometries":[{"type":"Polygon","arcs":[[0]],"properties":{"name":"Administrative unit not available","gaul_code":40217,"targetarea":10.4978522,"totpop":53519.0822678,"country_id":"ATG","targetpop":22230.6016846,"new_mean":0.0692677,"totalarea":69.3202842}}]}},"arcs":[[[-61.838062,17.1397609],[-61.856633,17.1355942],[-61.8544998,17.1326122],[-61.8542487,17.1249495],[-61.8494959,17.1037298],[-61.8333338,17.0995835],[-61.8193771,17.1207016],[-61.8299321,17.1279852],[-61.838062,17.1397609]]],"bbox":[-61.856633,17.0995835,-61.8193771,17.1397609]}