{"type":"Topology","objects":{"foo":{"type":"GeometryCollection","geometries":[{"type":"Polygon","arcs":[[0,1,2,3,4,5,6]],"properties":{"name":"Porto-novo","gaul_code":5922,"targetarea":42.7518375,"totpop":323985.625793,"country_id":"BEN","targetpop":317794.106934,"totalarea":49.7192739,"new_mean":0.0169971}},{"type":"MultiPolygon","arcs":[[[7]],[[8,9]],[[10,11,-10]]],"properties":{"name":"Bohicon","gaul_code":5931,"targetarea":50.7972826,"totpop":227852.185593,"country_id":"BEN","targetpop":125891.150635,"totalarea":161.1182414,"new_mean":0.0172475}},{"type":"Polygon","arcs":[[12]],"properties":{"name":"So-ava","gaul_code":5880,"targetarea":2.0519033,"totpop":85282.6453123,"country_id":"BEN","targetpop":5066.9519043,"totalarea":184.6606511,"new_mean":0.0169996}},{"type":"Polygon","arcs":[[13,14,-3]],"properties":{"name":"Aguegue","gaul_code":5917,"targetarea":0.6837873,"totpop":46856.4494362,"country_id":"BEN","targetpop":2967.6903076,"totalarea":128.1939814,"new_mean":0.0198008}},{"type":"Polygon","arcs":[[15]],"properties":{"name":"Allada","gaul_code":5877,"targetarea":4.442491,"totpop":152595.926697,"country_id":"BEN","targetpop":10334.8387451,"totalarea":382.5836436,"new_mean":0.0185235}},{"type":"Polygon","arcs":[[16,17,18,19]],"properties":{"name":"Cotonou","gaul_code":5908,"targetarea":67.5060305,"totpop":773399.482132,"country_id":"BEN","targetpop":771430.223175,"totalarea":80.6344189,"new_mean":0.0167078}},{"type":"MultiPolygon","arcs":[[[20,21,22,23,24,-18],[25]],[[26]]],"properties":{"name":"Abomey-calavi","gaul_code":5876,"targetarea":231.268431,"totpop":1026050.26351,"country_id":"BEN","targetpop":787187.620781,"totalarea":535.3527246,"new_mean":0.0176207}},{"type":"MultiPolygon","arcs":[[[27]],[[28,-20]],[[-5,29]]],"properties":{"name":"Seme-kpodji","gaul_code":5923,"targetarea":112.3459525,"totpop":459602.829567,"country_id":"BEN","targetpop":363723.239655,"totalarea":224.2224412,"new_mean":0.0189104}},{"type":"Polygon","arcs":[[30]],"properties":{"name":"Ifangni","gaul_code":5925,"targetarea":6.0913544,"totpop":162926.605225,"country_id":"BEN","targetpop":10635.0089111,"totalarea":216.4713573,"new_mean":0.0173865}},{"type":"Polygon","arcs":[[31]],"properties":{"name":"Djakotome","gaul_code":5899,"targetarea":6.1065526,"totpop":164560.542747,"country_id":"BEN","targetpop":12886.7259521,"totalarea":226.446955,"new_mean":0.0181402}},{"type":"MultiPolygon","arcs":[[[-24,32]],[[33]],[[-22,34]]],"properties":{"name":"Ouidah","gaul_code":5879,"targetarea":29.6346884,"totpop":279392.587819,"country_id":"BEN","targetpop":68858.5572815,"totalarea":356.5113106,"new_mean":0.0190515}},{"type":"Polygon","arcs":[[35,36,-1,37]],"properties":{"name":"Avrankou","gaul_code":5919,"targetarea":23.3416724,"totpop":121562.365936,"country_id":"BEN","targetpop":61225.2324219,"totalarea":76.9843006,"new_mean":0.017235}},{"type":"MultiPolygon","arcs":[[[38]],[[39]]],"properties":{"name":"Pobe","gaul_code":5927,"targetarea":6.5760654,"totpop":149298.40657,"country_id":"BEN","targetpop":14981.7972412,"totalarea":426.7418087,"new_mean":0.0174839}},{"type":"Polygon","arcs":[[40]],"properties":{"name":"Come","gaul_code":5911,"targetarea":3.7720378,"totpop":91697.6741238,"country_id":"BEN","targetpop":7350.300293,"totalarea":172.3202919,"new_mean":0.0184914}},{"type":"Polygon","arcs":[[41,-38,-7]],"properties":{"name":"Adjara","gaul_code":5915,"targetarea":40.2221863,"totpop":149691.09193,"country_id":"BEN","targetpop":120536.68042,"totalarea":72.2670874,"new_mean":0.0175086}},{"type":"Polygon","arcs":[[42,-14,-2,-37]],"properties":{"name":"Akpro-misserete","gaul_code":5918,"targetarea":24.6345952,"totpop":111364.110199,"country_id":"BEN","targetpop":60678.5429688,"totalarea":80.2517194,"new_mean":0.017243}},{"type":"Polygon","arcs":[[43]],"properties":{"name":"Lokossa","gaul_code":5914,"targetarea":10.2936184,"totpop":133814.565079,"country_id":"BEN","targetpop":25164.2993164,"totalarea":270.3240179,"new_mean":0.0189534}},{"type":"Polygon","arcs":[[44]],"properties":{"name":"Dogbo-tota","gaul_code":5900,"targetarea":1.8598827,"totpop":137591.699982,"country_id":"BEN","targetpop":2909.3723144,"totalarea":299.1490708,"new_mean":0.0180286}},{"type":"Polygon","arcs":[[45]],"properties":{"name":"Dangbo","gaul_code":5921,"targetarea":1.9668629,"totpop":119022.801773,"country_id":"BEN","targetpop":4800.7839356,"totalarea":157.2961093,"new_mean":0.0191415}},{"type":"Polygon","arcs":[[46]],"properties":{"name":"Abomey","gaul_code":5929,"targetarea":4.7337752,"totpop":85636.7086411,"country_id":"BEN","targetpop":9415.4296875,"totalarea":150.3588126,"new_mean":0.0175081}},{"type":"Polygon","arcs":[[47]],"properties":{"name":"Sakete","gaul_code":5928,"targetarea":2.865898,"totpop":145288.134789,"country_id":"BEN","targetpop":7109.2216797,"totalarea":425.0334791,"new_mean":0.0169771}},{"type":"Polygon","arcs":[[48]],"properties":{"name":"Parakou","gaul_code":5888,"targetarea":55.0499405,"totpop":346887.987331,"country_id":"BEN","targetpop":133059.992798,"totalarea":473.7975098,"new_mean":0.0234786}}]}},"arcs":[[[2.6300869,6.5117912],[2.6101401,6.5277519]],[[2.6101401,6.5277519],[2.5867651,6.4998608],[2.580482,6.4960842]],[[2.580482,6.4960842],[2.5849272,6.4815978]],[[2.5849272,6.4815978],[2.595442,6.4700303],[2.6242099,6.4582735]],[[2.6242099,6.4582735],[2.6510372,6.4473092]],[[2.6510372,6.4473092],[2.662391,6.4533347]],[[2.662391,6.4533347],[2.6554279,6.4874291],[2.6300869,6.5117912]],[[2.0916659,7.1245835],[2.0917462,7.1242971],[2.0924917,7.1243516],[2.0916659,7.1245835]],[[2.0916659,7.2079169],[2.0996231,7.2110221],[2.0993343,7.2132577],[2.0916659,7.2162502]],[[2.0916659,7.2162502],[2.0916659,7.2079169]],[[2.0916659,7.2162502],[2.0737623,7.2277614],[2.0634921,7.2110948],[2.0531731,7.204739],[2.0420566,7.186697],[2.0544752,7.1468247],[2.0807122,7.1378851],[2.0916659,7.1245835]],[[2.0916659,7.1245835],[2.095442,7.1604396],[2.1218254,7.1694281],[2.108414,7.1761786],[2.0916659,7.2079169]],[[2.39825,6.4932856],[2.4083326,6.4912502],[2.4040757,6.5159891],[2.39825,6.4932856]],[[2.580482,6.4960842],[2.5780913,6.4973256]],[[2.5780913,6.4973256],[2.5849272,6.4815978]],[[2.1597486,6.6692084],[2.1463534,6.677383],[2.1388665,6.655215],[2.1499993,6.6495835],[2.1597486,6.6692084]],[[2.4450301,6.3955512],[2.4114413,6.3942206],[2.3658294,6.402925]],[[2.3658294,6.402925],[2.358624,6.3453637]],[[2.358624,6.3453637],[2.4416659,6.3412502],[2.4524407,6.3528794],[2.4979121,6.3554468]],[[2.4979121,6.3554468],[2.494153,6.371264],[2.4428329,6.3787832],[2.4450301,6.3955512]],[[2.3658294,6.402925],[2.3577955,6.4044582],[2.3803541,6.5257513],[2.3695956,6.5485337],[2.3456698,6.5372422],[2.337662,6.5035915],[2.3043287,6.4869248],[2.2683586,6.4755357],[2.2536777,6.461937],[2.254345,6.4452704],[2.2376132,6.4297756],[2.2273267,6.3972601],[2.2174165,6.394123]],[[2.2174165,6.394123],[2.2308358,6.3706486]],[[2.2308358,6.3706486],[2.241776,6.365139]],[[2.241776,6.365139],[2.2678771,6.35917],[2.2699909,6.3457239]],[[2.2699909,6.3457239],[2.2747714,6.3424343],[2.358624,6.3453637]],[[2.2666659,6.4495835],[2.2833326,6.4495835],[2.2833326,6.4245835],[2.2666659,6.4245835],[2.2666659,6.4495835]],[[2.352815,6.6279771],[2.3382642,6.6152045],[2.3666659,6.6079169],[2.352815,6.6279771]],[[2.709604,6.3688202],[2.7089486,6.3891492],[2.6703443,6.3952582],[2.6710279,6.3780625],[2.703825,6.3676775],[2.709604,6.3688202]],[[2.4979121,6.3554468],[2.6419752,6.3635809],[2.6576165,6.3931341],[2.5336744,6.3980454],[2.4992506,6.3798285],[2.4559737,6.395],[2.451082,6.395791],[2.4450301,6.3955512]],[[2.6242099,6.4582735],[2.595442,6.4458034],[2.5878899,6.4316433],[2.6128899,6.4208034],[2.6333326,6.4079169],[2.6457675,6.4296861],[2.653873,6.4199123],[2.6787753,6.4242661],[2.6510372,6.4473092]],[[2.7129876,6.6669419],[2.7323299,6.6322817],[2.7407382,6.6514593],[2.7129876,6.6669419]],[[1.7328606,6.9070664],[1.7128411,6.9190497],[1.7055331,6.8951809],[1.7249993,6.8912502],[1.7328606,6.9070664]],[[2.241776,6.365139],[2.2699909,6.3457239]],[[2.0684183,6.3686883],[2.0730136,6.3481756],[2.0999993,6.3412502],[2.125455,6.361404],[2.103401,6.3696519],[2.0965976,6.3795152],[2.0665617,6.3858753],[2.0684183,6.3686883]],[[2.2174165,6.394123],[2.1793287,6.3820664],[2.2053053,6.3696356],[2.2308358,6.3706486]],[[2.6751538,6.5366417],[2.6628573,6.5708767],[2.6446933,6.5690293],[2.6464836,6.5515611],[2.6171455,6.5537979]],[[2.6171455,6.5537979],[2.6101401,6.5277519]],[[2.6300869,6.5117912],[2.6659629,6.54281],[2.6751538,6.5366417]],[[2.647715,6.9725407],[2.6614413,6.9714829],[2.6779778,6.9812933],[2.6663892,6.9943508],[2.6473167,6.9734951],[2.647715,6.9725407]],[[2.6557122,7.1592637],[2.639843,7.1439439],[2.6583326,7.1412502],[2.6557122,7.1592637]],[[1.881412,6.4196478],[1.862662,6.4067124],[1.8999993,6.3995835],[1.881412,6.4196478]],[[2.662391,6.4533347],[2.670442,6.4624701],[2.708886,6.4897772],[2.6751538,6.5366417]],[[2.6171455,6.5537979],[2.6044915,6.5525091],[2.5833326,6.5779811],[2.5693352,6.5302964],[2.5796217,6.5123521],[2.5780913,6.4973256]],[[1.7355461,6.6674953],[1.7036126,6.6467027],[1.6965976,6.6290594],[1.7249993,6.6245835],[1.7355461,6.6674953]],[[1.7909986,6.8107692],[1.7713697,6.8004828],[1.7833326,6.7912502],[1.7909986,6.8107692]],[[2.5543287,6.5931789],[2.53872,6.5853379],[2.5583326,6.5745835],[2.5543287,6.5931789]],[[2.0113111,7.1909654],[1.9802239,7.1779689],[1.9999993,7.1662502],[2.0113111,7.1909654]],[[2.652815,6.7446437],[2.6382642,6.7318711],[2.6666659,6.7245835],[2.652815,6.7446437]],[[2.6199862,9.3129217],[2.6594231,9.3204168],[2.653108,9.3454168],[2.6552239,9.3537502],[2.6496575,9.3757839],[2.6232089,9.4094224],[2.610595,9.3904608],[2.6155429,9.3708197],[2.5717115,9.3461859],[2.596679,9.3295884],[2.6033196,9.3112453],[2.6199862,9.3129217]]],"bbox":[1.6965976,6.3412502,2.7407382,9.4094224]}