{"type":"Topology","objects":{"foo":{"type":"GeometryCollection","geometries":[{"type":"Polygon","arcs":[[0]],"properties":{"name":"Houet","gaul_code":12121,"targetarea":141.2528536,"totpop":1620380.19509,"country_id":"BFA","targetpop":364478.801636,"totalarea":11577.4695359,"new_mean":0.0131738}},{"type":"Polygon","arcs":[[1]],"properties":{"name":"Yatenga","gaul_code":12152,"targetarea":13.5943615,"totpop":732803.620017,"country_id":"BFA","targetpop":27435.4989014,"totalarea":6742.9294987,"new_mean":0.012307}},{"type":"Polygon","arcs":[[2]],"properties":{"name":"Kouritenga","gaul_code":12129,"targetarea":19.0741884,"totpop":493612.953873,"country_id":"BFA","targetpop":42997.5426025,"totalarea":2802.8513909,"new_mean":0.010948}},{"type":"Polygon","arcs":[[3]],"properties":{"name":"Kadiogo","gaul_code":12123,"targetarea":510.2052444,"totpop":4217731.09639,"country_id":"BFA","targetpop":3796373.37714,"totalarea":2877.282844,"new_mean":0.0168845}},{"type":"Polygon","arcs":[[3]],"properties":{"name":"Kadiogo","gaul_code":12123,"targetarea":510.2052444,"totpop":4217731.09639,"country_id":"BFA","targetpop":3796373.37714,"totalarea":2877.282844,"new_mean":0.0123256}}]}},"arcs":[[[-4.2489265,11.140591],[-4.2215176,11.1684759],[-4.2413907,11.1997747],[-4.273308,11.2120835],[-4.2687344,11.2351996],[-4.3213711,11.2552109],[-4.3306973,11.208633],[-4.3695645,11.1936468],[-4.3585293,11.1378119],[-4.3166674,11.1162502],[-4.300489,11.138825],[-4.2489265,11.140591]],[[-2.4047045,13.5626206],[-2.3880541,13.5754705],[-2.4248705,13.5948797],[-2.4452969,13.5641953],[-2.4047045,13.5626206]],[[-0.4209154,12.2288315],[-0.4045417,12.2606187],[-0.4341479,12.2786688],[-0.4457527,12.2229844],[-0.4209154,12.2288315]],[[-1.4570174,12.4739593],[-1.4791023,12.4616359],[-1.5417976,12.4807481],[-1.5729988,12.4782415],[-1.5871915,12.4617743],[-1.651726,12.4154364],[-1.6621915,12.340534],[-1.6325853,12.2874823],[-1.5637702,12.2718451],[-1.53781,12.2534409],[-1.5120124,12.2650579],[-1.435157,12.2588812],[-1.4211433,12.3580552],[-1.43781,12.4034409],[-1.4521437,12.4659191],[-1.4570174,12.4739593]]],"bbox":[-4.3695645,11.1162502,-0.4045417,13.5948797]}