{"type":"Topology","objects":{"foo":{"type":"GeometryCollection","geometries":[{"type":"Polygon","arcs":[[0]],"properties":{"name":"Obispo Santiesteban","gaul_code":40532,"targetarea":21.0176808,"totpop":225587.50373,"country_id":"BOL","targetpop":36207.4715576,"totalarea":6029.6480091,"new_mean":0.019791}},{"type":"Polygon","arcs":[[1]],"properties":{"name":"Cercado","gaul_code":40538,"targetarea":46.7861073,"totpop":252122.977305,"country_id":"BOL","targetpop":94285.0819092,"totalarea":2107.4040837,"new_mean":0.0124298}},{"type":"Polygon","arcs":[[2]],"properties":{"name":"Oropeza","gaul_code":40458,"targetarea":39.3177235,"totpop":315670.469789,"country_id":"BOL","targetpop":80854.1618652,"totalarea":3597.9872895,"new_mean":0.0170669}},{"type":"Polygon","arcs":[[3,4]],"properties":{"name":"Chapare","gaul_code":40471,"targetarea":15.6235289,"totpop":240929.132161,"country_id":"BOL","targetpop":25521.1010742,"totalarea":12357.8819171,"new_mean":0.0225952}},{"type":"Polygon","arcs":[[5,6]],"properties":{"name":"Quillacollo","gaul_code":40476,"targetarea":84.0963367,"totpop":392689.145306,"country_id":"BOL","targetpop":159033.395508,"totalarea":1780.5008343,"new_mean":0.0138291}},{"type":"Polygon","arcs":[[7,8]],"properties":{"name":"Murillo","gaul_code":6185,"targetarea":350.8421465,"totpop":1834153.3395,"country_id":"BOL","targetpop":1471250.2321,"totalarea":4727.4598743,"new_mean":0.0134712}},{"type":"Polygon","arcs":[[9]],"properties":{"name":"Tomas Frias","gaul_code":40522,"targetarea":37.9792864,"totpop":257310.647686,"country_id":"BOL","targetpop":103053.454712,"totalarea":4378.7592024,"new_mean":0.0112338}},{"type":"Polygon","arcs":[[9]],"properties":{"name":"Tomas Frias","gaul_code":40522,"targetarea":37.9792864,"totpop":257310.647686,"country_id":"BOL","targetpop":103053.454712,"totalarea":4378.7592024,"new_mean":0.011368}},{"type":"Polygon","arcs":[[10]],"properties":{"name":"Cercado","gaul_code":6141,"targetarea":6.6922839,"totpop":136100.190643,"country_id":"BOL","targetpop":9094.7989502,"totalarea":12703.9394576,"new_mean":0.0235691}},{"type":"Polygon","arcs":[[-9,11]],"properties":{"name":"Ingavi","gaul_code":40483,"targetarea":4.3682107,"totpop":199464.161442,"country_id":"BOL","targetpop":8333.7630615,"totalarea":4523.9717846,"new_mean":0.0080639}},{"type":"Polygon","arcs":[[12]],"properties":{"name":"Andres Ibanez","gaul_code":40523,"targetarea":403.0426445,"totpop":2064941.156,"country_id":"BOL","targetpop":1446441.40442,"totalarea":4936.1847079,"new_mean":0.019534}},{"type":"Polygon","arcs":[[13]],"properties":{"name":"Cercado","gaul_code":40492,"targetarea":92.9330418,"totpop":372603.579813,"country_id":"BOL","targetpop":226421.147644,"totalarea":5149.0795696,"new_mean":0.0076789}},{"type":"Polygon","arcs":[[14,-7,15,-5]],"properties":{"name":"Cercado","gaul_code":40470,"targetarea":231.004999,"totpop":826383.829098,"country_id":"BOL","targetpop":766952.89032,"totalarea":370.9585379,"new_mean":0.0155766}}]}},"arcs":[[[-63.2315109,-17.3379001],[-63.2512374,-17.2975437],[-63.2778732,-17.3097426],[-63.2646896,-17.3557549],[-63.2416671,-17.3587497],[-63.2315109,-17.3379001]],[[-64.6962977,-21.5300469],[-64.70599,-21.5070326],[-64.7583582,-21.492083],[-64.7649012,-21.5446872],[-64.7218592,-21.5612318],[-64.6666671,-21.567083],[-64.6962977,-21.5300469]],[[-65.2936609,-19.0030531],[-65.3119633,-19.0097507],[-65.2797693,-19.0346042],[-65.2713709,-19.0551201],[-65.2333338,-19.0837497],[-65.2276453,-19.0491062],[-65.2410079,-19.0032565],[-65.2936609,-19.0030531]],[[-66.0712663,-17.4073467],[-66.0330164,-17.4208672],[-66.0149581,-17.401808],[-66.0678942,-17.3790574]],[[-66.0678942,-17.3790574],[-66.0712663,-17.4073467]],[[-66.1960871,-17.3224971],[-66.218783,-17.3201836],[-66.2539881,-17.3300225],[-66.2900883,-17.3551527],[-66.3287846,-17.3938164],[-66.2912602,-17.4162692],[-66.2368494,-17.4107273],[-66.2390489,-17.4322825]],[[-66.2390489,-17.4322825],[-66.23172,-17.4045715],[-66.1960871,-17.3224971]],[[-68.2001546,-16.6230671],[-68.1666671,-16.6337497],[-68.1369715,-16.6213962],[-68.1673344,-16.5822198],[-68.1789311,-16.5488864],[-68.1184087,-16.5381524],[-68.0741866,-16.5876397],[-68.060116,-16.5569675],[-68.028158,-16.5423028],[-68.0308029,-16.4980157],[-68.0627365,-16.4881524],[-68.0743331,-16.4634535],[-68.0681401,-16.4214857],[-68.1039311,-16.4464857],[-68.130396,-16.454347],[-68.1297286,-16.4159437],[-68.1705978,-16.4381524],[-68.2627364,-16.454347],[-68.2818132,-16.4676743],[-68.2887563,-16.4793136],[-68.2870552,-16.5096109],[-68.2795241,-16.5233939],[-68.2447026,-16.5314955],[-68.2465743,-16.5628269],[-68.2170415,-16.5816094],[-68.2234684,-16.5934336]],[[-68.2234684,-16.5934336],[-68.2001546,-16.6230671]],[[-65.7252609,-19.5846286],[-65.7412684,-19.5580987],[-65.7757736,-19.5467868],[-65.7869633,-19.5911797],[-65.7333338,-19.6337497],[-65.7252609,-19.5846286]],[[-64.883879,-14.8139743],[-64.9205978,-14.8414808],[-64.8916671,-14.8504164],[-64.883879,-14.8139743]],[[-68.2234684,-16.5934336],[-68.2315678,-16.6083347],[-68.2001546,-16.6230671]],[[-63.2750005,-17.8337497],[-63.2454513,-17.8375339],[-63.2212163,-17.8716322],[-63.1967534,-17.891961],[-63.1517339,-17.9042006],[-63.1184005,-17.8716322],[-63.0937098,-17.8973077],[-63.0798182,-17.8773939],[-63.0538091,-17.8800469],[-63.0462163,-17.8590671],[-63.0643966,-17.827337],[-63.0518885,-17.7810886],[-63.0560633,-17.7151543],[-63.1052007,-17.6902764],[-63.1288335,-17.6623955],[-63.1803716,-17.6719252],[-63.1787114,-17.6882093],[-63.1989995,-17.7163913],[-63.2344813,-17.7982028],[-63.2712163,-17.8208672],[-63.2750005,-17.8337497]],[[-67.0195073,-17.9813409],[-67.0225102,-17.9679457],[-67.0736902,-17.9548109],[-67.0666671,-17.9234958],[-67.1049321,-17.9136814],[-67.1290288,-17.8970147],[-67.1367355,-17.955348],[-67.1517501,-17.9657077],[-67.1414881,-18.0114515],[-67.0808354,-17.9949395],[-67.0707117,-17.99721],[-67.0195073,-17.9813409]],[[-66.0678942,-17.3790574],[-66.1153732,-17.3586521],[-66.1682459,-17.325335],[-66.1960871,-17.3224971]],[[-66.2390489,-17.4322825],[-66.2141993,-17.4686003],[-66.2085018,-17.4735344],[-66.1815374,-17.4959473],[-66.1811287,-17.4961728],[-66.1538416,-17.4849786],[-66.0965581,-17.4908135],[-66.0937098,-17.4629164],[-66.0983403,-17.4175225],[-66.0712663,-17.4073467]]],"bbox":[-68.2887563,-21.567083,-63.0462163,-14.8139743]}