{"type":"Topology","objects":{"foo":{"type":"GeometryCollection","geometries":[{"type":"Polygon","arcs":[[0,1,2]],"properties":{"name":"Administrative unit not available","gaul_code":5828,"targetarea":9.7439402,"totpop":38285.8930206,"country_id":"BRB","targetpop":16580.3951416,"new_mean":0.0367385,"totalarea":36.8877325}},{"type":"Polygon","arcs":[[3,-2,4]],"properties":{"name":"Administrative unit not available","gaul_code":5835,"targetarea":2.5151409,"totpop":16539.8961182,"country_id":"BRB","targetpop":4651.9101562,"new_mean":0.0577926,"totalarea":32.6051918}},{"type":"Polygon","arcs":[[5,6]],"properties":{"name":"Administrative unit not available","gaul_code":5825,"targetarea":1.1628816,"totpop":45392.9445271,"country_id":"BRB","targetpop":1323.6853027,"new_mean":0.0932198,"totalarea":58.0791552}},{"type":"Polygon","arcs":[[7,-5,-1,8,-6]],"properties":{"name":"Administrative unit not available","gaul_code":5832,"targetarea":29.589029,"totpop":79448.0892334,"country_id":"BRB","targetpop":66176.9856567,"new_mean":0.1049315,"totalarea":41.0181697}}]}},"arcs":[[[-59.6336,13.1288648],[-59.6095886,13.1377277]],[[-59.6095886,13.1377277],[-59.6106884,13.1562958]],[[-59.6106884,13.1562958],[-59.6384393,13.1638191],[-59.6384697,13.1459913],[-59.6336,13.1288648]],[[-59.5955218,13.1430457],[-59.594019,13.1517767],[-59.6106884,13.1562958]],[[-59.6095886,13.1377277],[-59.5955218,13.1430457]],[[-59.5774842,13.0836035],[-59.5934998,13.0757976]],[[-59.5934998,13.0757976],[-59.5833338,13.0745835],[-59.5774842,13.0836035]],[[-59.5774842,13.0836035],[-59.5700526,13.0950628],[-59.5726893,13.1103664],[-59.599325,13.1209499],[-59.5955218,13.1430457]],[[-59.6336,13.1288648],[-59.6244926,13.1046486],[-59.623024,13.091753],[-59.6090393,13.0858145],[-59.6107773,13.0778611],[-59.5934998,13.0757976]]],"bbox":[-59.6384697,13.0745835,-59.5700526,13.1638191]}