{"type":"Topology","objects":{"foo":{"type":"GeometryCollection","geometries":[{"type":"Polygon","arcs":[[0]],"properties":{"name":"Kota Batu","gaul_code":61109,"targetarea":0.6040815,"totpop":22165.5850906,"country_id":"BRN","targetpop":1487.4833984,"new_mean":0.0231571,"totalarea":57.0403818}},{"type":"Polygon","arcs":[[1]],"properties":{"name":"Sengkurong","gaul_code":61115,"targetarea":0.5826769,"totpop":35313.414875,"country_id":"BRN","targetpop":1291.2808838,"new_mean":0.0390335,"totalarea":77.4495462}},{"type":"MultiPolygon","arcs":[[[2]],[[3,4,5]]],"properties":{"name":"Berakas B","gaul_code":61104,"targetarea":9.1519616,"totpop":44414.2514648,"country_id":"BRN","targetpop":17569.7023926,"new_mean":0.0154146,"totalarea":31.6319452}},{"type":"MultiPolygon","arcs":[[[6,7]],[[8,9]],[[10,11,12,13]],[[14,15,16]]],"properties":{"name":"Kianggeh","gaul_code":61107,"targetarea":3.3901535,"totpop":18542.4220428,"country_id":"BRN","targetpop":8007.6497192,"new_mean":0.2375304,"totalarea":18.1009856}},{"type":"MultiPolygon","arcs":[[[17]],[[18,-8,19]]],"properties":{"name":"Kilanas","gaul_code":61108,"targetarea":0.9303506,"totpop":28764.6701202,"country_id":"BRN","targetpop":2985.9945068,"new_mean":0.0364825,"totalarea":34.7292704}},{"type":"Polygon","arcs":[[20,-5]],"properties":{"name":"Mentiri","gaul_code":61111,"targetarea":2.86467,"totpop":24286.7071571,"country_id":"BRN","targetpop":4061.4140625,"new_mean":0.0964536,"totalarea":43.963049}},{"type":"MultiPolygon","arcs":[[[21]],[[22]]],"properties":{"name":"Kuala Belait","gaul_code":61097,"targetarea":1.1076945,"totpop":34820.4036473,"country_id":"BRN","targetpop":2846.0823975,"new_mean":0.0659867,"totalarea":93.4688391}},{"type":"Polygon","arcs":[[23,-15,24]],"properties":{"name":"Berakas A","gaul_code":61103,"targetarea":6.0358168,"totpop":41787.3059692,"country_id":"BRN","targetpop":11174.9916992,"new_mean":0.1032275,"totalarea":56.6088256}},{"type":"Polygon","arcs":[[-24,25,-16]],"properties":{"name":"Gadong","gaul_code":61106,"targetarea":4.7158636,"totpop":64971.8184433,"country_id":"BRN","targetpop":11929.5688477,"new_mean":0.0688266,"totalarea":72.7130422}},{"type":"Polygon","arcs":[[26,27,28]],"properties":{"name":"Lumapas","gaul_code":61110,"targetarea":0.3970583,"totpop":10901.2563257,"country_id":"BRN","targetpop":1632.6088867,"new_mean":0.032214,"totalarea":43.5645698}},{"type":"Polygon","arcs":[[-14,29,30,31]],"properties":{"name":"Saba","gaul_code":61114,"targetarea":0.0705547,"totpop":0,"country_id":"BRN","targetpop":0,"new_mean":0,"totalarea":0.1886355}},{"type":"Polygon","arcs":[[-12,32,33,34]],"properties":{"name":"Sungai Kedayan","gaul_code":61118,"targetarea":0.162362,"totpop":2049.4631348,"country_id":"BRN","targetpop":0,"new_mean":0,"totalarea":0.2916469}},{"type":"Polygon","arcs":[[-31,35,36,-27,37]],"properties":{"name":"Sungai Kebun","gaul_code":61117,"targetarea":0.5422746,"totpop":8114.597168,"country_id":"BRN","targetpop":0,"new_mean":0,"totalarea":0.8208671}},{"type":"Polygon","arcs":[[-30,-13,38,-36]],"properties":{"name":"Peramu","gaul_code":61113,"targetarea":0.2594198,"totpop":0,"country_id":"BRN","targetpop":0,"new_mean":0,"totalarea":0.2594199}},{"type":"Polygon","arcs":[[-35,39,40,-28,-37,-39]],"properties":{"name":"Burong Pingai Ayer","gaul_code":61105,"targetarea":0.3770879,"totpop":4036.6655273,"country_id":"BRN","targetpop":0,"new_mean":0,"totalarea":0.646434}},{"type":"Polygon","arcs":[[-34,41,-9,42,-40]],"properties":{"name":"Tamoi","gaul_code":61119,"targetarea":0.1957552,"totpop":0,"country_id":"BRN","targetpop":0,"new_mean":0,"totalarea":0.3102872}}]}},"arcs":[[[114.9554676,4.8930772],[114.9481759,4.8857692],[114.9583322,4.8829169],[114.9554676,4.8930772]],[[114.8388009,4.9597439],[114.8315092,4.9524359],[114.8416655,4.9495835],[114.8388009,4.9597439]],[[114.9666655,4.9495835],[114.9467762,4.9577582],[114.9613595,4.9294379],[114.9666655,4.9495835]],[[114.9666655,4.9495835],[114.9901886,4.9664434]],[[114.9901886,4.9664434],[114.9896698,4.9690108],[114.9790344,4.973527],[114.9736328,4.980525],[114.967147,4.9835992]],[[114.967147,4.9835992],[114.9606434,4.9745306],[114.9666655,4.9495835]],[[114.9070521,4.8598978],[114.9101551,4.8607692],[114.9026033,4.8671548]],[[114.9026033,4.8671548],[114.9070521,4.8598978]],[[114.923177,4.8706745],[114.9269305,4.8778521]],[[114.9269305,4.8778521],[114.9215809,4.8717759],[114.923177,4.8706745]],[[114.9373552,4.8746986],[114.9343738,4.8863064],[114.9293569,4.8806081]],[[114.9293569,4.8806081],[114.931221,4.8740869]],[[114.931221,4.8740869],[114.9361572,4.8750682]],[[114.9361572,4.8750682],[114.9373552,4.8746986]],[[114.9284506,4.9110872],[114.9212418,4.9048681],[114.9150772,4.9049878]],[[114.9150772,4.9049878],[114.919548,4.9005928],[114.9177295,4.8952537]],[[114.9177295,4.8952537],[114.9333322,4.8912502],[114.9284506,4.9110872]],[[114.8999988,4.8579169],[114.8898426,4.8550645],[114.8971342,4.8477565],[114.8999988,4.8579169]],[[114.8999988,4.8579169],[114.9070521,4.8598978]],[[114.9026033,4.8671548],[114.8999988,4.8579169]],[[114.9901886,4.9664434],[114.9929676,4.9684353],[114.975129,4.9947292],[114.967147,4.9835992]],[[114.1916655,4.5829169],[114.1945301,4.5727565],[114.2018217,4.5800645],[114.1916655,4.5829169]],[[114.1916655,4.5829169],[114.1895119,4.5905555],[114.1858643,4.590134],[114.1815092,4.5857692],[114.1916655,4.5829169]],[[114.9056322,4.9167984],[114.9070358,4.9120378],[114.9140625,4.9127622],[114.9176407,4.909246],[114.9150772,4.9049878]],[[114.9284506,4.9110872],[114.9281564,4.9122829],[114.9386707,4.9373033],[114.9375126,4.9388321],[114.9361423,4.9406412],[114.9331043,4.9446519],[114.9167306,4.920954],[114.9056322,4.9167984]],[[114.9056322,4.9167984],[114.8950835,4.9128485],[114.8882475,4.9028184],[114.9177295,4.8952537]],[[114.9378318,4.8605623],[114.9368591,4.8657918],[114.9304352,4.8687181]],[[114.9304352,4.8687181],[114.9284697,4.8670224]],[[114.9284697,4.8670224],[114.9378318,4.8605623]],[[114.9361572,4.8750682],[114.937439,4.8707891]],[[114.937439,4.8707891],[114.9384049,4.8706118]],[[114.9384049,4.8706118],[114.9373552,4.8746986]],[[114.9293569,4.8806081],[114.9274206,4.8784088]],[[114.9274206,4.8784088],[114.9286423,4.8736529]],[[114.9286423,4.8736529],[114.931221,4.8740869]],[[114.937439,4.8707891],[114.9328842,4.8701239]],[[114.9328842,4.8701239],[114.9304352,4.8687181]],[[114.9378318,4.8605623],[114.9408129,4.8585052],[114.9404378,4.8626967],[114.9384049,4.8706118]],[[114.931221,4.8740869],[114.9328842,4.8701239]],[[114.9286423,4.8736529],[114.9247981,4.8695559]],[[114.9247981,4.8695559],[114.9284697,4.8670224]],[[114.9274206,4.8784088],[114.9269305,4.8778521]],[[114.923177,4.8706745],[114.9247981,4.8695559]]],"bbox":[114.1815092,4.5727565,114.9929676,4.9947292]}