{"type":"Topology","objects":{"foo":{"type":"GeometryCollection","geometries":[{"type":"Polygon","arcs":[[0]],"properties":{"name":"Chang","gaul_code":6068,"targetarea":15.9364618,"totpop":111641.68726,"country_id":"BTN","targetpop":29004.6339111,"new_mean":0.0070614,"totalarea":185.5350864}},{"type":"Polygon","arcs":[[1,2]],"properties":{"name":"Phuentsholing","gaul_code":5953,"targetarea":1.6695012,"totpop":34442.521101,"country_id":"BTN","targetpop":5640.0109863,"new_mean":0.0924548,"totalarea":138.2593826}},{"type":"Polygon","arcs":[[3,-3]],"properties":{"name":"Tadhing","gaul_code":6050,"targetarea":0.9652837,"totpop":20134.3464785,"country_id":"BTN","targetpop":9644.3771973,"new_mean":0.0457588,"totalarea":105.0907938}}]}},"arcs":[[[89.6611317,27.4301173],[89.693342,27.4462957],[89.6377431,27.4523829],[89.6305328,27.4273829],[89.6156076,27.4198308],[89.6471994,27.4134506],[89.6583323,27.4079168],[89.6611317,27.4301173]],[[89.380806,26.8562527],[89.3967267,26.8383681],[89.3890451,26.8630356],[89.3830528,26.8634554]],[[89.3830528,26.8634554],[89.380806,26.8562527]],[[89.3830528,26.8634554],[89.3634918,26.864826],[89.3654711,26.8584695],[89.380806,26.8562527]]],"bbox":[89.3634918,26.8383681,89.693342,27.4523829]}