{"type":"Topology","objects":{"foo":{"type":"GeometryCollection","geometries":[{"type":"Polygon","arcs":[[0,1,2]],"properties":{"name":"Sanaga-Maritime","gaul_code":12489,"targetarea":1.1111228,"totpop":198431.795474,"country_id":"CMR","targetpop":3036.9204712,"totalarea":8982.2820408,"new_mean":0.0162741}},{"type":"Polygon","arcs":[[3]],"properties":{"name":"Bui","gaul_code":12492,"targetarea":3.2554481,"totpop":446144.13456,"country_id":"CMR","targetpop":7033.3962402,"totalarea":2107.3412488,"new_mean":0.02513}},{"type":"Polygon","arcs":[[4]],"properties":{"name":"Meme","gaul_code":12514,"targetarea":11.7721562,"totpop":485305.427248,"country_id":"CMR","targetpop":24592.6188965,"totalarea":2715.8277157,"new_mean":0.0152286}},{"type":"MultiPolygon","arcs":[[[5,6]],[[7,8,9]]],"properties":{"name":"Mefou-et-Afamba","gaul_code":12471,"targetarea":9.2045198,"totpop":204409.406059,"country_id":"CMR","targetpop":36039.5715637,"totalarea":3185.9581039,"new_mean":0.0111067}},{"type":"Polygon","arcs":[[10,11]],"properties":{"name":"Mefou-et-Akono","gaul_code":12472,"targetarea":1.8368938,"totpop":69554.4369345,"country_id":"CMR","targetpop":6541.3464356,"totalarea":1201.7283295,"new_mean":0.0138952}},{"type":"Polygon","arcs":[[12,13]],"properties":{"name":"Moungo","gaul_code":12487,"targetarea":2.3828822,"totpop":438957.569597,"country_id":"CMR","targetpop":15010.0935059,"totalarea":3980.8679207,"new_mean":0.0164326}},{"type":"MultiPolygon","arcs":[[[14]],[[15]],[[16,-13]],[[-3,17,18]]],"properties":{"name":"Wouri","gaul_code":12490,"targetarea":500.1056538,"totpop":3766264.87553,"country_id":"CMR","targetpop":3198955.38165,"totalarea":1342.158585,"new_mean":0.0160613}},{"type":"Polygon","arcs":[[-9,19,20]],"properties":{"name":"Lekie","gaul_code":12468,"targetarea":4.4377604,"totpop":356825.256068,"country_id":"CMR","targetpop":30127.4641113,"totalarea":3361.1559917,"new_mean":0.009208}},{"type":"MultiPolygon","arcs":[[[21]],[[22,23,24,25]]],"properties":{"name":"Mifi","gaul_code":12507,"targetarea":69.2443103,"totpop":414213.15712,"country_id":"CMR","targetpop":174947.823669,"totalarea":334.6777645,"new_mean":0.023844}},{"type":"Polygon","arcs":[[26,-18,-2]],"properties":{"name":"Nkam","gaul_code":12488,"targetarea":0.805306,"totpop":36284.0806854,"country_id":"CMR","targetpop":0,"totalarea":6039.380823,"new_mean":0.0164282}},{"type":"Polygon","arcs":[[-24,27,28]],"properties":{"name":"Hauts-Plateaux","gaul_code":12504,"targetarea":0.0039098,"totpop":84339.5135117,"country_id":"CMR","targetpop":0,"totalarea":352.3318084,"new_mean":0.024103}},{"type":"Polygon","arcs":[[-25,-29,29]],"properties":{"name":"Koung-Khi","gaul_code":12505,"targetarea":0.0471083,"totpop":59367.5175056,"country_id":"CMR","targetpop":0,"totalarea":475.7137806,"new_mean":0.0244495}},{"type":"MultiPolygon","arcs":[[[30]],[[31]],[[32]],[[33]]],"properties":{"name":"Fako","gaul_code":12510,"targetarea":65.677664,"totpop":774736.264656,"country_id":"CMR","targetpop":149775.297363,"totalarea":2056.2356437,"new_mean":0.0173904}},{"type":"Polygon","arcs":[[-10,-21,34,-11,35,-6,36]],"properties":{"name":"Mfoundi","gaul_code":12473,"targetarea":249.1513384,"totpop":4205263.16791,"country_id":"CMR","targetpop":4184419.7937,"totalarea":263.2914209,"new_mean":0.0068117}},{"type":"MultiPolygon","arcs":[[[37]],[[38]],[[39]]],"properties":{"name":"Mezam","gaul_code":12495,"targetarea":68.8039612,"totpop":802261.272776,"country_id":"CMR","targetpop":174799.22937,"totalarea":1998.5487555,"new_mean":0.0240178}},{"type":"Polygon","arcs":[[40]],"properties":{"name":"Mayo-Danay","gaul_code":12483,"targetarea":2.8328089,"totpop":734206.132399,"country_id":"CMR","targetpop":5977.5819092,"totalarea":5692.1166876,"new_mean":0.0117613}},{"type":"Polygon","arcs":[[41]],"properties":{"name":"Mayo-Kani","gaul_code":12484,"targetarea":6.2272289,"totpop":644735.259571,"country_id":"CMR","targetpop":12553.4934082,"totalarea":4637.0920367,"new_mean":0.0121983}},{"type":"MultiPolygon","arcs":[[[42]],[[43]]],"properties":{"name":"Benoue","gaul_code":12498,"targetarea":50.3070326,"totpop":1646274.05306,"country_id":"CMR","targetpop":127334.099854,"totalarea":13554.640606,"new_mean":0.0101052}},{"type":"MultiPolygon","arcs":[[[42]],[[43]]],"properties":{"name":"Benoue","gaul_code":12498,"targetarea":50.3070326,"totpop":1646274.05306,"country_id":"CMR","targetpop":127334.099854,"totalarea":13554.640606,"new_mean":0.0103086}},{"type":"MultiPolygon","arcs":[[[44,45]],[[46,47]]],"properties":{"name":"Logone-Et-Chari","gaul_code":12482,"targetarea":15.2197291,"totpop":789521.58657,"country_id":"CMR","targetpop":25911.3236084,"totalarea":12680.9934598,"new_mean":0.0147885}},{"type":"MultiPolygon","arcs":[[[44,45]],[[46,47]]],"properties":{"name":"Logone-Et-Chari","gaul_code":12482,"targetarea":15.2197291,"totpop":789521.58657,"country_id":"CMR","targetpop":25911.3236084,"totalarea":12680.9934598,"new_mean":0.0117148}},{"type":"MultiPolygon","arcs":[[[48]],[[49]]],"properties":{"name":"Mayo-Tsanaga","gaul_code":12486,"targetarea":7.407054,"totpop":1135463.76779,"country_id":"CMR","targetpop":15700.8581543,"totalarea":4227.4832104,"new_mean":0.0145892}},{"type":"MultiPolygon","arcs":[[[48]],[[49]]],"properties":{"name":"Mayo-Tsanaga","gaul_code":12486,"targetarea":7.407054,"totpop":1135463.76779,"country_id":"CMR","targetpop":15700.8581543,"totalarea":4227.4832104,"new_mean":0.0117818}},{"type":"Polygon","arcs":[[50]],"properties":{"name":"Diamare","gaul_code":12481,"targetarea":44.5775194,"totpop":983198.427519,"country_id":"CMR","targetpop":106554.622681,"totalarea":4582.3423987,"new_mean":0.0127985}}]}},"arcs":[[[9.849452,4.0677307],[9.8618298,4.0731195]],[[9.8618298,4.0731195],[9.8551216,4.0708804]],[[9.8551216,4.0708804],[9.849452,4.0677307]],[[10.68719,6.2191433],[10.6635572,6.203563],[10.6916659,6.1995835],[10.68719,6.2191433]],[[9.4639641,4.6449611],[9.4127271,4.6486599],[9.4583326,4.6079169],[9.4639641,4.6449611]],[[11.5592253,3.7370353],[11.5447655,3.7214906],[11.5236371,3.721059]],[[11.5236371,3.721059],[11.5499992,3.7162502],[11.5592253,3.7370353]],[[11.5957887,3.7949505],[11.5981275,3.7959947],[11.5927889,3.8623846],[11.5441073,3.8928778],[11.5300081,3.8896005]],[[11.5300081,3.8896005],[11.5295401,3.8884752]],[[11.5295401,3.8884752],[11.5595446,3.8811667],[11.5858002,3.856885],[11.5926485,3.82306],[11.5957887,3.7949505]],[[11.4737802,3.7448805],[11.4639311,3.7679238],[11.4408259,3.7974898]],[[11.4408259,3.7974898],[11.4737802,3.7448805]],[[9.5676636,4.1033574],[9.6000023,4.1035552],[9.6053772,4.1152024],[9.620575,4.12397],[9.6241235,4.1309398]],[[9.6241235,4.1309398],[9.6174472,4.1234646],[9.5887199,4.1078558],[9.5676636,4.1033574]],[[9.7520012,3.9359727],[9.7297844,3.9262518],[9.7666659,3.9162502],[9.7520012,3.9359727]],[[9.6363599,4.0349839],[9.6146151,4.0446519],[9.6049309,4.0217759],[9.6119622,4.0169201],[9.6245136,4.0207152],[9.6249371,4.0299191],[9.6363599,4.0349839]],[[9.5676636,4.1033574],[9.5171054,4.0925564],[9.481591,4.1118475],[9.4770175,4.0983221],[9.5103834,4.0629543],[9.553938,4.0603583],[9.5293938,4.0855414],[9.5951164,4.0726141],[9.6480787,4.043834],[9.6553402,4.0525727],[9.6917429,4.0655861],[9.6853877,4.0878502],[9.6953752,4.112322],[9.6851555,4.1346177],[9.6432299,4.1496591],[9.6400689,4.148793],[9.6241235,4.1309398]],[[9.8551216,4.0708804],[9.853624,4.0879211]],[[9.853624,4.0879211],[9.8213697,4.0969021],[9.8333326,4.1162502],[9.8293287,4.1292019],[9.7982577,4.1123195],[9.7872714,4.1201809],[9.7775871,4.1617987],[9.7627271,4.1451809],[9.7456047,4.1373195],[9.7298007,4.1196356],[9.7043775,4.1211493],[9.6957579,4.0952773],[9.7177839,4.0907531],[9.7118912,4.0725579],[9.6906395,4.0540791],[9.674674,4.0323973],[9.6751966,4.0153742],[9.6584597,4.016005],[9.6530075,4.0073847],[9.6550936,3.9932847],[9.6382817,3.9803066],[9.6366438,3.9682814],[9.6511711,3.9569729],[9.6666659,3.9770453],[9.6788729,3.961225],[9.7172356,3.9763047],[9.7430494,3.9428737],[9.7628248,3.9548041],[9.7703606,3.9363959],[9.7796542,3.9377712],[9.7833326,3.9245835],[9.7916659,3.9162502],[9.8195142,3.9240057],[9.8215162,3.9375108],[9.8110507,3.9455796],[9.829703,3.9532131],[9.8389804,3.9865464],[9.8486646,3.9770371],[9.8441073,3.9462876],[9.8689614,3.9426151],[9.8682404,3.9528556],[9.8630364,3.9792873],[9.8534532,3.9951686],[9.8527857,3.9962747],[9.8357753,4.0350239],[9.8281443,4.0544341],[9.849452,4.0677307]],[[11.5300081,3.8896005],[11.443261,3.8694362],[11.4310933,3.8553184]],[[11.4310933,3.8553184],[11.448947,3.8670416],[11.4967871,3.8774767],[11.5295401,3.8884752]],[[10.4499992,5.4912502],[10.4778084,5.4931387],[10.4831554,5.4952426],[10.4934888,5.5052232],[10.4749992,5.5079169],[10.4712232,5.5272447],[10.4532382,5.5177191],[10.4499992,5.4912502]],[[10.4499992,5.4912502],[10.4354647,5.4969631],[10.4203606,5.4947292],[10.4130363,5.5126206],[10.3772779,5.5225775],[10.3455884,5.563642],[10.3345207,5.5239284],[10.3536288,5.4865464],[10.379703,5.4792873],[10.4012889,5.4662635]],[[10.4012889,5.4662635],[10.4029226,5.4660087]],[[10.4029226,5.4660087],[10.4032448,5.4659687]],[[10.4032448,5.4659687],[10.4446607,5.4720933],[10.4499992,5.4912502]],[[9.8618298,4.0731195],[9.853624,4.0879211]],[[10.4012889,5.4662635],[10.402865,5.4659126]],[[10.402865,5.4659126],[10.4029226,5.4660087]],[[10.402865,5.4659126],[10.4032448,5.4659687]],[[9.2215162,4.0294379],[9.2090976,4.0447292],[9.1631828,4.013231],[9.2121601,4.0085459],[9.2110548,3.999109],[9.2249992,3.9912502],[9.2215162,4.0294379]],[[9.3494947,4.0965725],[9.3205396,4.096076],[9.304703,4.0880804],[9.3463697,4.0792873],[9.3749992,4.0579169],[9.379817,4.0701727],[9.3776197,4.0850612],[9.3494947,4.0965725]],[[9.3103834,4.1840521],[9.2878736,4.1693996],[9.2725904,4.1728257],[9.2545403,4.1610663],[9.2337395,4.1657294],[9.2215976,4.1402045],[9.2499992,4.1329169],[9.2619459,4.1502142],[9.3035149,4.1408921],[9.3138664,4.1685207],[9.3103834,4.1840521]],[[9.4249992,4.2995835],[9.399039,4.2929226],[9.4053866,4.2711818],[9.4249992,4.2995835]],[[11.4310933,3.8553184],[11.4205233,3.8457261],[11.4128085,3.8267523],[11.4338534,3.8086208],[11.4408259,3.7974898]],[[11.4737802,3.7448805],[11.4818037,3.7320716],[11.4858909,3.7279445],[11.5236371,3.721059]],[[11.5592253,3.7370353],[11.5750318,3.7856838],[11.5957887,3.7949505]],[[10.2038404,5.9751695],[10.1971998,5.9535142],[10.2166659,5.9495835],[10.2038404,5.9751695]],[[10.1700676,5.9378485],[10.1923007,5.9531927],[10.1853182,5.9843247],[10.1450676,5.9946519],[10.121093,6.0102687],[10.1132642,5.9660223],[10.1299309,5.9545152],[10.1367343,5.9363186],[10.1666659,5.9329169],[10.1700676,5.9378485]],[[10.227343,6.0236273],[10.1965975,6.0023911],[10.2060702,5.9916286],[10.2399244,6.0058498],[10.2583326,5.9829169],[10.2784009,6.013288],[10.2713534,6.0214667],[10.2541659,6.0176133],[10.227343,6.0236273]],[[14.9526359,10.8528672],[14.9379549,10.8387396],[14.9583326,10.8329168],[14.9526359,10.8528672]],[[14.4452954,10.095954],[14.4615715,10.1085109],[14.4425611,10.1198797],[14.424218,10.0961086],[14.4416659,10.0912502],[14.4452954,10.095954]],[[13.6900871,9.063174],[13.6641594,9.0690497],[13.6555331,9.053091],[13.6833326,9.0495835],[13.6900871,9.063174]],[[13.4254061,9.3241848],[13.4461418,9.3534409],[13.4538566,9.368008],[13.4128085,9.3451076],[13.3856275,9.3369248],[13.3711418,9.3201076],[13.3378247,9.3100734],[13.3641106,9.2874294],[13.4083326,9.2829168],[13.4254061,9.3241848]],[[14.9999992,12.0995835],[15.0046053,12.0800156],[15.0166659,12.0995835]],[[15.0166659,12.0995835],[14.9999992,12.0995835]],[[15.0166659,12.0995835],[15.0213697,12.0959539],[15.0286288,12.0698797],[15.0347719,12.0690985],[15.0380859,12.0962439],[15.009346,12.112401],[14.994606,12.1073637],[14.9999992,12.0995835]],[[14.9999992,12.0995835],[15.0083326,12.1112087],[15.0166659,12.0995835]],[[13.9076652,10.6441026],[13.8880363,10.6338161],[13.8999992,10.6245835],[13.9076652,10.6441026]],[[13.8057121,10.7509304],[13.789843,10.7356105],[13.8083326,10.7329168],[13.8057121,10.7509304]],[[14.3203768,10.57921],[14.379996,10.6012518],[14.3777824,10.6190212],[14.3331047,10.6317979],[14.2875318,10.6050116],[14.2712883,10.5790147],[14.3166659,10.5745835],[14.3203768,10.57921]]],"bbox":[9.1631828,3.7162502,15.0380859,12.112401]}