{"type":"Topology","objects":{"foo":{"type":"GeometryCollection","geometries":[{"type":"Polygon","arcs":[[0]],"properties":{"name":"Sao Vicente","gaul_code":12833,"targetarea":3.6639983,"totpop":77006.2461674,"country_id":"CPV","targetpop":3965.3608398,"totalarea":233.1247843,"new_mean":0.0234629}},{"type":"Polygon","arcs":[[1,2]],"properties":{"name":"Sao Domingos","gaul_code":12826,"targetarea":1.2968858,"totpop":16555.8360271,"country_id":"CPV","targetpop":2968.6489258,"totalarea":147.0692055,"new_mean":0.022452}},{"type":"Polygon","arcs":[[3,-3]],"properties":{"name":"Santa Cruz","gaul_code":12825,"targetarea":32.4261079,"totpop":151503.555294,"country_id":"CPV","targetpop":135565.228027,"totalarea":154.1761067,"new_mean":0.0222543}},{"type":"Polygon","arcs":[[4]],"properties":{"name":"Tarrafal","gaul_code":12828,"targetarea":1.9114068,"totpop":41196.5148602,"country_id":"CPV","targetpop":3751.0296631,"totalarea":112.3746192,"new_mean":0.0226111}}]}},"arcs":[[[-24.981983,16.9027858],[-24.9956712,16.8854071],[-24.9750006,16.8662502],[-24.981983,16.9027858]],[[-23.5918305,15.0419601],[-23.583334,15.0412502],[-23.5705247,15.0617742],[-23.5700866,15.0629549]],[[-23.5700866,15.0629549],[-23.5767498,15.0587378],[-23.5819855,15.0532112],[-23.5825672,15.0492849],[-23.5883846,15.0452127],[-23.5918305,15.0419601]],[[-23.5700866,15.0629549],[-23.5628099,15.0825628],[-23.6103697,15.0968813],[-23.6131994,15.0951098],[-23.6270601,15.072977],[-23.6295487,15.0690033],[-23.6437669,15.0462998],[-23.5918305,15.0419601]],[[-23.7456712,15.2848455],[-23.7612799,15.2770046],[-23.7416673,15.2662502],[-23.7456712,15.2848455]]],"bbox":[-24.9956712,15.0412502,-23.5628099,16.9027858]}