{"type":"Topology","objects":{"foo":{"type":"GeometryCollection","geometries":[{"type":"MultiPolygon","arcs":[[[0,1,2]],[[3,4,5,6,7,8]]],"properties":{"name":"Santa Ana","gaul_code":14546,"targetarea":29.3455046,"totpop":71983.0274124,"country_id":"CRI","targetpop":54000.7290039,"totalarea":57.4949442,"new_mean":0.0200549}},{"type":"Polygon","arcs":[[9,10,11,12,13,14,15]],"properties":{"name":"Heredia","gaul_code":14507,"targetarea":25.9687457,"totpop":158651.836798,"country_id":"CRI","targetpop":157612.606689,"totalarea":292.1038784,"new_mean":0.0203297}},{"type":"MultiPolygon","arcs":[[[16]],[[17]]],"properties":{"name":"Pococi","gaul_code":14517,"targetarea":9.2242473,"totpop":147558.377229,"country_id":"CRI","targetpop":23912.5898437,"totalarea":2357.6084718,"new_mean":0.0196113}},{"type":"Polygon","arcs":[[18,19,20,21,22]],"properties":{"name":"Santa Barbara","gaul_code":14511,"targetarea":7.6044205,"totpop":30347.0481997,"country_id":"CRI","targetpop":16892.869751,"totalarea":45.8178308,"new_mean":0.0192236}},{"type":"MultiPolygon","arcs":[[[23]],[[24]],[[-21,25,-6,26],[27]]],"properties":{"name":"Alajuela","gaul_code":14470,"targetarea":60.6920705,"totpop":291648.874454,"country_id":"CRI","targetpop":183236.998169,"totalarea":386.4366946,"new_mean":0.0200673}},{"type":"Polygon","arcs":[[28]],"properties":{"name":"Canas","gaul_code":14495,"targetarea":2.8387405,"totpop":28731.2541058,"country_id":"CRI","targetpop":8342.74646,"totalarea":689.1777984,"new_mean":0.0204991}},{"type":"Polygon","arcs":[[29,30,31]],"properties":{"name":"Aserri","gaul_code":14533,"targetarea":14.720169,"totpop":78253.8661008,"country_id":"CRI","targetpop":54051.8604126,"totalarea":173.5380982,"new_mean":0.019271}},{"type":"Polygon","arcs":[[32]],"properties":{"name":"Nicoya","gaul_code":14501,"targetarea":2.26163,"totpop":61074.6353843,"country_id":"CRI","targetpop":5990.798584,"totalarea":1329.2075179,"new_mean":0.02052}},{"type":"MultiPolygon","arcs":[[[33,34]],[[35]]],"properties":{"name":"Esparza","gaul_code":14524,"targetarea":9.6204979,"totpop":55522.8340614,"country_id":"CRI","targetpop":27989.4429932,"totalarea":244.6746786,"new_mean":0.0204646}},{"type":"Polygon","arcs":[[36,37,38]],"properties":{"name":"Vasquez De Coronado","gaul_code":14550,"targetarea":3.9085108,"totpop":32457.4659774,"country_id":"CRI","targetpop":19084.1550293,"totalarea":210.0010329,"new_mean":0.0166051}},{"type":"Polygon","arcs":[[39]],"properties":{"name":"Liberia","gaul_code":14499,"targetarea":8.8332089,"totpop":83619.3724794,"country_id":"CRI","targetpop":24703.0303955,"totalarea":1543.0080947,"new_mean":0.0205041}},{"type":"Polygon","arcs":[[40,41,-2,42,-8,43,44,45]],"properties":{"name":"Escazu","gaul_code":14537,"targetarea":22.2942975,"totpop":96648.3190384,"country_id":"CRI","targetpop":89389.7398682,"totalarea":31.1566609,"new_mean":0.0200202}},{"type":"Polygon","arcs":[[46]],"properties":{"name":"Montes De Oro","gaul_code":14527,"targetarea":1.1496745,"totpop":14489.8594556,"country_id":"CRI","targetpop":2770.2727051,"totalarea":253.6990877,"new_mean":0.0201363}},{"type":"Polygon","arcs":[[47]],"properties":{"name":"Limon","gaul_code":14515,"targetarea":14.5184188,"totpop":82940.5566993,"country_id":"CRI","targetpop":32593.7766113,"totalarea":1739.8578108,"new_mean":0.0200561}},{"type":"Polygon","arcs":[[48,49,50,51,52,53,-38]],"properties":{"name":"Moravia","gaul_code":14542,"targetarea":7.777934,"totpop":37527.4239273,"country_id":"CRI","targetpop":33471.4123535,"totalarea":33.9928203,"new_mean":0.016773}},{"type":"Polygon","arcs":[[54]],"properties":{"name":"Palmares","gaul_code":14478,"targetarea":10.2133477,"totpop":43321.3943481,"country_id":"CRI","targetpop":21041.942749,"totalarea":41.0502643,"new_mean":0.0201719}},{"type":"Polygon","arcs":[[55,56,57,58,59]],"properties":{"name":"Montes De Oca","gaul_code":14540,"targetarea":10.4512803,"totpop":60726.2528381,"country_id":"CRI","targetpop":0,"totalarea":17.5166325,"new_mean":0}},{"type":"Polygon","arcs":[[60]],"properties":{"name":"Puriscal","gaul_code":14544,"targetarea":1.1372653,"totpop":37528.2486057,"country_id":"CRI","targetpop":3580.2857666,"totalarea":570.3418544,"new_mean":0.0199965}},{"type":"Polygon","arcs":[[61,-19,62,-11,63]],"properties":{"name":"Barva","gaul_code":14504,"targetarea":10.0274791,"totpop":42526.3899837,"country_id":"CRI","targetpop":29624.2912598,"totalarea":61.3238018,"new_mean":0.018865}},{"type":"MultiPolygon","arcs":[[[64,65,66]],[[67]]],"properties":{"name":"Oreamuno","gaul_code":14490,"targetarea":6.0665299,"totpop":45567.8758249,"country_id":"CRI","targetpop":25618.1409912,"totalarea":200.0768915,"new_mean":0.0176326}},{"type":"Polygon","arcs":[[68]],"properties":{"name":"Matina","gaul_code":14516,"targetarea":1.950709,"totpop":42010.3829744,"country_id":"CRI","targetpop":4632.0136719,"totalarea":750.8975984,"new_mean":0.0201016}},{"type":"Polygon","arcs":[[69,70]],"properties":{"name":"El Guarco","gaul_code":14487,"targetarea":16.0913002,"totpop":74670.4394426,"country_id":"CRI","targetpop":59315.2246094,"totalarea":194.1017841,"new_mean":0.0196501}},{"type":"MultiPolygon","arcs":[[[71,72,-15,73,74,-52]],[[75,76,77]],[[78,-50,79,80,81]]],"properties":{"name":"Santo Domingo","gaul_code":14512,"targetarea":18.1485331,"totpop":52851.0057373,"country_id":"CRI","targetpop":39665.7267456,"totalarea":30.7608648,"new_mean":0.0201118}},{"type":"Polygon","arcs":[[82,-64,-10,83]],"properties":{"name":"San Rafael","gaul_code":14510,"targetarea":3.533383,"totpop":33744.455066,"country_id":"CRI","targetpop":17206.8081055,"totalarea":52.3472297,"new_mean":0.0179384}},{"type":"Polygon","arcs":[[84]],"properties":{"name":"Garabito","gaul_code":14525,"targetarea":1.125964,"totpop":25800.9787487,"country_id":"CRI","targetpop":2496.5978394,"totalarea":313.0826474,"new_mean":0.0201424}},{"type":"MultiPolygon","arcs":[[[85,86,87]],[[88,-70,89,90,-66,91]],[[92,93,94]]],"properties":{"name":"Cartago","gaul_code":14486,"targetarea":35.0730827,"totpop":158434.203436,"country_id":"CRI","targetpop":111720.891907,"totalarea":238.6539859,"new_mean":0.0188915}},{"type":"Polygon","arcs":[[95,-67,-91]],"properties":{"name":"Paraiso","gaul_code":14491,"targetarea":5.2613155,"totpop":54338.2089963,"country_id":"CRI","targetpop":18002.5944824,"totalarea":453.7558928,"new_mean":0.0190252}},{"type":"Polygon","arcs":[[96]],"properties":{"name":"Turrialba","gaul_code":14492,"targetarea":4.7664154,"totpop":68692.9130467,"country_id":"CRI","targetpop":10084.2736816,"totalarea":1535.6668887,"new_mean":0.0194229}},{"type":"Polygon","arcs":[[97]],"properties":{"name":"San Ramon","gaul_code":14482,"targetarea":10.1721297,"totpop":97177.6801403,"country_id":"CRI","targetpop":31378.7478638,"totalarea":1085.7042139,"new_mean":0.0199909}},{"type":"Polygon","arcs":[[98]],"properties":{"name":"Valverde Vega","gaul_code":14484,"targetarea":1.9443335,"totpop":20136.1437311,"country_id":"CRI","targetpop":4839.1192627,"totalarea":128.4925468,"new_mean":0.0197525}},{"type":"Polygon","arcs":[[99,-74,-14,100,-46,101,102,103,-58,104]],"properties":{"name":"San Jose","gaul_code":14545,"targetarea":38.3680857,"totpop":198976.409912,"country_id":"CRI","targetpop":198976.409912,"totalarea":38.3680857,"new_mean":0.0207031}},{"type":"Polygon","arcs":[[105]],"properties":{"name":"Orotina","gaul_code":14477,"targetarea":1.1370409,"totpop":26548.3193741,"country_id":"CRI","targetpop":3477.0494385,"totalarea":165.0147483,"new_mean":0.0203962}},{"type":"Polygon","arcs":[[-39,-54,106,-105,-57,107]],"properties":{"name":"Goicoechea","gaul_code":14538,"targetarea":18.3244142,"totpop":127439.882603,"country_id":"CRI","targetpop":0,"totalarea":38.3380546,"new_mean":0.0193675}},{"type":"Polygon","arcs":[[108,-59,-104,109,110,111]],"properties":{"name":"Curridabat","gaul_code":14534,"targetarea":16.7368037,"totpop":72098.381897,"country_id":"CRI","targetpop":71117.2332764,"totalarea":17.2736322,"new_mean":0.0202906}},{"type":"MultiPolygon","arcs":[[[112]],[[113]]],"properties":{"name":"Corredores","gaul_code":14522,"targetarea":1.949802,"totpop":45778.8428187,"country_id":"CRI","targetpop":7048.1953125,"totalarea":543.1886336,"new_mean":0.0200228}},{"type":"Polygon","arcs":[[-102,-45,114,-31,115]],"properties":{"name":"Alajuelita","gaul_code":14532,"targetarea":16.9036117,"totpop":114178.036465,"country_id":"CRI","targetpop":110032.207275,"totalarea":27.2037915,"new_mean":0.0203188}},{"type":"Polygon","arcs":[[116]],"properties":{"name":"Grecia","gaul_code":14473,"targetarea":8.2655617,"totpop":85840.5544596,"country_id":"CRI","targetpop":19882.4439697,"totalarea":399.4849592,"new_mean":0.0200318}},{"type":"Polygon","arcs":[[117]],"properties":{"name":"Naranjo","gaul_code":14476,"targetarea":2.8417276,"totpop":43699.0530338,"country_id":"CRI","targetpop":6664.1844482,"totalarea":118.3024936,"new_mean":0.0199717}},{"type":"MultiPolygon","arcs":[[[118,-111,119,-87,120,-94]],[[121,-60,-109]]],"properties":{"name":"La Union","gaul_code":14489,"targetarea":25.5605247,"totpop":110195.311077,"country_id":"CRI","targetpop":100891.369141,"totalarea":43.3383996,"new_mean":0.018426}},{"type":"Polygon","arcs":[[122]],"properties":{"name":"Aguirre","gaul_code":14520,"targetarea":1.1518901,"totpop":34409.0603567,"country_id":"CRI","targetpop":3659.9639893,"totalarea":602.0242659,"new_mean":0.0198385}},{"type":"Polygon","arcs":[[-110,-103,-116,-30,123,-88,-120]],"properties":{"name":"Desamparados","gaul_code":14535,"targetarea":43.9677638,"totpop":294485.792286,"country_id":"CRI","targetpop":269009.521606,"totalarea":129.5127126,"new_mean":0.020321}},{"type":"MultiPolygon","arcs":[[[124]],[[125]]],"properties":{"name":"San Carlos","gaul_code":14480,"targetarea":11.1509483,"totpop":197683.141798,"country_id":"CRI","targetpop":28448.9865723,"totalarea":3291.4401519,"new_mean":0.0196455}},{"type":"Polygon","arcs":[[-84,-16,-73,126]],"properties":{"name":"San Pablo","gaul_code":14509,"targetarea":9.7197438,"totpop":44707.9275513,"country_id":"CRI","targetpop":0,"totalarea":11.3232601,"new_mean":0.0203498}},{"type":"Polygon","arcs":[[127]],"properties":{"name":"Mora","gaul_code":14541,"targetarea":3.1418199,"totpop":34668.2862816,"country_id":"CRI","targetpop":7390.1835938,"totalarea":154.3286879,"new_mean":0.019814}},{"type":"Polygon","arcs":[[128]],"properties":{"name":"Perez Zeledon","gaul_code":14543,"targetarea":16.1623453,"totpop":146615.962303,"country_id":"CRI","targetpop":41006.0097046,"totalarea":1949.5134444,"new_mean":0.0199267}},{"type":"Polygon","arcs":[[129]],"properties":{"name":"Siquirres","gaul_code":14518,"targetarea":2.2619734,"totpop":64060.9686813,"country_id":"CRI","targetpop":6300.4667969,"totalarea":884.866519,"new_mean":0.0197887}},{"type":"Polygon","arcs":[[-63,-23,130,-12]],"properties":{"name":"Flores","gaul_code":14506,"targetarea":8.0066476,"totpop":21607.1627197,"country_id":"CRI","targetpop":0,"totalarea":8.3999646,"new_mean":0.0201991}},{"type":"Polygon","arcs":[[-22,-27,-5,131,-41,-101,-13,-131],[132]],"properties":{"name":"Belen","gaul_code":14505,"targetarea":16.4990138,"totpop":36409.7077637,"country_id":"CRI","targetpop":34117.5965576,"totalarea":17.7172599,"new_mean":0}},{"type":"Polygon","arcs":[[133,-77,134,-81]],"properties":{"name":"San Isidro","gaul_code":14508,"targetarea":3.2258713,"totpop":18035.9803085,"country_id":"CRI","targetpop":10027.1519775,"totalarea":19.9370438,"new_mean":0}},{"type":"Polygon","arcs":[[-75,-100,-107,-53]],"properties":{"name":"Tibas","gaul_code":14548,"targetarea":5.6564595,"totpop":27693.5622559,"country_id":"CRI","targetpop":0,"totalarea":5.6564597,"new_mean":0}},{"type":"MultiPolygon","arcs":[[[135]],[[-35,136]]],"properties":{"name":"Puntarenas","gaul_code":14530,"targetarea":18.7391718,"totpop":101410.263696,"country_id":"CRI","targetpop":39737.6443796,"totalarea":1906.7073239,"new_mean":0.020298}}]}},"arcs":[[[-84.166667,9.9495835],[-84.1611651,9.9480383]],[[-84.1611651,9.9480383],[-84.1697942,9.9641069]],[[-84.1697942,9.9641069],[-84.166667,9.9495835]],[[-84.166667,9.9495835],[-84.1862878,9.9603379],[-84.1741323,9.966441]],[[-84.1741323,9.966441],[-84.1884003,9.9705772]],[[-84.1884003,9.9705772],[-84.2001724,9.971159],[-84.2150726,9.9644566],[-84.2277808,9.9527699]],[[-84.2277808,9.9527699],[-84.2119226,9.9454942],[-84.2232812,9.9353421],[-84.2174803,9.9277074],[-84.183057,9.9199367],[-84.1599466,9.9213126]],[[-84.1599466,9.9213126],[-84.1599704,9.9432677]],[[-84.1599704,9.9432677],[-84.166667,9.9495835]],[[-84.1089325,10.0099211],[-84.118187,10.0180607]],[[-84.118187,10.0180607],[-84.1247864,10.0166807]],[[-84.1247864,10.0166807],[-84.140686,10.0141506],[-84.1480713,10.0079613],[-84.159996,9.9911394]],[[-84.159996,9.9911394],[-84.1556625,9.9753618],[-84.1448517,9.9651585]],[[-84.1448517,9.9651585],[-84.1343918,9.9687405],[-84.1146622,9.9638758]],[[-84.1146622,9.9638758],[-84.1090317,9.9790239]],[[-84.1090317,9.9790239],[-84.1066055,9.9904852],[-84.1089325,10.0099211]],[[-83.7789717,10.2276393],[-83.8075687,10.2178167],[-83.8026534,10.2034979],[-83.7750004,10.1995835],[-83.7789717,10.2276393]],[[-83.7256596,10.3691026],[-83.7452966,10.3588161],[-83.7333337,10.3495835],[-83.7256596,10.3691026]],[[-84.1399155,10.0306702],[-84.1398749,10.0515859]],[[-84.1398749,10.0515859],[-84.1456221,10.0451564],[-84.1618656,10.0461249],[-84.1676732,10.0429681]],[[-84.1676732,10.0429681],[-84.1745758,10.0186405]],[[-84.1745758,10.0186405],[-84.1669617,10.0155411]],[[-84.1669617,10.0155411],[-84.1626205,10.0222607],[-84.1498655,10.0293959],[-84.1432648,10.0302667],[-84.1399155,10.0306702]],[[-84.266667,10.0329168],[-84.270041,10.0324784],[-84.2856872,10.0263575],[-84.2725671,10.0217067],[-84.266667,10.0329168]],[[-84.266667,10.0329168],[-84.2628738,10.0421393],[-84.2648068,10.0395339],[-84.266667,10.0329168]],[[-84.1676732,10.0429681],[-84.1798018,10.0363755],[-84.2094486,10.0381415],[-84.2613855,10.0143052],[-84.2739831,9.9791856],[-84.245614,9.9790106],[-84.2277808,9.9527699]],[[-84.1884003,9.9705772],[-84.1956329,9.993474],[-84.1803055,10.0067806],[-84.1745758,10.0186405]],[[-84.2372644,9.9855414],[-84.2057702,9.9926499],[-84.2250004,9.9745835],[-84.2372644,9.9855414]],[[-85.0906172,10.4446397],[-85.1034021,10.4301092],[-85.0833337,10.4162502],[-85.0906172,10.4446397]],[[-84.0665876,9.8494966],[-84.0644913,9.8557682],[-84.076828,9.8779278],[-84.098053,9.8821516]],[[-84.098053,9.8821516],[-84.1108905,9.8745267]],[[-84.1108905,9.8745267],[-84.1020919,9.8460394],[-84.0872888,9.8451564],[-84.0750004,9.8589097],[-84.0665876,9.8494966]],[[-85.4473718,10.1612005],[-85.4620365,10.1470729],[-85.441667,10.1412502],[-85.4473718,10.1612005]],[[-84.7483839,9.9694855],[-84.716667,9.9662502],[-84.7044763,9.9873928],[-84.6920984,9.9980617],[-84.71606,9.9961362]],[[-84.71606,9.9961362],[-84.7216263,9.9912443],[-84.7221832,9.9783258],[-84.7483839,9.9694855]],[[-84.653044,10.006334],[-84.6769698,9.9946519],[-84.6500004,9.9912502],[-84.653044,10.006334]],[[-83.9872063,9.9806589],[-84.015558,9.9948992]],[[-84.015558,9.9948992],[-84.025116,9.9758959]],[[-84.025116,9.9758959],[-84.007782,9.9811649],[-83.9872063,9.9806589]],[[-85.418726,10.6417873],[-85.4434004,10.6529852],[-85.4534021,10.631688],[-85.4250004,10.6162502],[-85.418726,10.6417873]],[[-84.1526108,9.9625483],[-84.1699269,9.9647231]],[[-84.1699269,9.9647231],[-84.1697942,9.9641069]],[[-84.1611651,9.9480383],[-84.1599704,9.9432677]],[[-84.1599466,9.9213126],[-84.1545577,9.9216335],[-84.1374109,9.8946763],[-84.1318581,9.8950073]],[[-84.1318581,9.8950073],[-84.1227722,9.9051743],[-84.1221313,9.9381828]],[[-84.1221313,9.9381828],[-84.12957,9.9460783],[-84.1526108,9.9625483]],[[-84.728337,10.101854],[-84.7358321,10.0875514],[-84.7250004,10.0829168],[-84.728337,10.101854]],[[-83.0791057,10.0047079],[-83.0872222,9.9993971],[-83.0913659,9.9797471],[-83.0666589,9.9797878],[-83.0345836,9.9757807],[-83.0317535,9.9952679],[-83.0462976,10.00421],[-83.0683353,9.9912583],[-83.0791057,10.0047079]],[[-84.015558,9.9948992],[-84.0217143,10.0006969]],[[-84.0217143,10.0006969],[-84.0312195,9.9898272],[-84.047642,9.9802384]],[[-84.047642,9.9802384],[-84.0586018,9.975838]],[[-84.0586018,9.975838],[-84.0624695,9.9742851]],[[-84.0624695,9.9742851],[-84.0616455,9.9659109]],[[-84.0616455,9.9659109],[-84.036972,9.9674788],[-84.025116,9.9758959]],[[-84.4155928,10.059756],[-84.433643,10.0722153],[-84.4500818,10.0685288],[-84.4448978,10.0454168],[-84.4469242,10.036404],[-84.4333337,10.0329168],[-84.4155928,10.059756]],[[-83.9951831,9.9482495],[-83.9927384,9.9640952]],[[-83.9927384,9.9640952],[-84.0166855,9.9533319],[-84.0396423,9.9545107],[-84.0560684,9.9486675]],[[-84.0560684,9.9486675],[-84.0565491,9.9324598],[-84.047493,9.9318047]],[[-84.047493,9.9318047],[-84.0311356,9.9406443],[-83.9975281,9.9469528]],[[-83.9975281,9.9469528],[-83.9951831,9.9482495]],[[-84.3128585,9.8518296],[-84.3274988,9.8446275],[-84.3083337,9.8412502],[-84.3128585,9.8518296]],[[-84.1042183,10.0368376],[-84.1210453,10.0368231],[-84.1370528,10.054743],[-84.1398749,10.0515859]],[[-84.1399155,10.0306702],[-84.1339111,10.0197411],[-84.1247864,10.0166807]],[[-84.118187,10.0180607],[-84.1050186,10.0217209],[-84.0988617,10.0281801],[-84.1042183,10.0368376]],[[-83.8858752,9.8635325],[-83.8952966,9.8792873],[-83.9069837,9.8840707]],[[-83.9069837,9.8840707],[-83.9071808,9.8705225],[-83.889595,9.8551044]],[[-83.889595,9.8551044],[-83.8858752,9.8635325]],[[-83.870671,9.9015122],[-83.8862878,9.8936712],[-83.8666671,9.8829168],[-83.870671,9.9015122]],[[-83.3373376,10.0931789],[-83.3529545,10.0853379],[-83.3333337,10.0745835],[-83.3373376,10.0931789]],[[-83.9404569,9.8301599],[-83.9205704,9.8521671],[-83.9295807,9.8624191],[-83.9564449,9.8581959]],[[-83.9564449,9.8581959],[-83.9573083,9.8560003],[-83.9892582,9.8368882],[-83.9565596,9.8277818],[-83.9404569,9.8301599]],[[-84.0586018,9.975838],[-84.0703698,9.9834662],[-84.072358,10.0047927]],[[-84.072358,10.0047927],[-84.0961075,9.9808731],[-84.1090317,9.9790239]],[[-84.1146622,9.9638758],[-84.0958099,9.9694853]],[[-84.0958099,9.9694853],[-84.0775528,9.9744768],[-84.0624695,9.9742851]],[[-84.0416671,9.9995835],[-84.0388852,10.0153695]],[[-84.0388852,10.0153695],[-84.0588272,10.0110377]],[[-84.0588272,10.0110377],[-84.0611332,10.0035142],[-84.0416671,9.9995835]],[[-84.0416671,9.9995835],[-84.047642,9.9802384]],[[-84.0217143,10.0006969],[-84.0277999,10.021784],[-84.0321461,10.0227193]],[[-84.0321461,10.0227193],[-84.0374076,10.0169558]],[[-84.0374076,10.0169558],[-84.0310876,10.0041123],[-84.0416671,9.9995835]],[[-84.0891013,10.0148215],[-84.0990645,10.0365301],[-84.1042183,10.0368376]],[[-84.1089325,10.0099211],[-84.0891013,10.0148215]],[[-84.628337,9.626854],[-84.6354363,9.6133067],[-84.6250004,9.6079168],[-84.628337,9.626854]],[[-83.9959993,9.8867236],[-83.9841939,9.8909414]],[[-83.9841939,9.8909414],[-83.9959869,9.8879128]],[[-83.9959869,9.8879128],[-83.9959993,9.8867236]],[[-83.9500004,9.8995835],[-83.945085,9.8870835],[-83.9564449,9.8581959]],[[-83.9404569,9.8301599],[-83.9333337,9.8312119],[-83.9045902,9.826968],[-83.8961185,9.8379421],[-83.8634645,9.8251585]],[[-83.8634645,9.8251585],[-83.889595,9.8551044]],[[-83.9069837,9.8840707],[-83.9340092,9.895132],[-83.9500004,9.8995835]],[[-83.9500004,9.8995835],[-83.9558039,9.906637]],[[-83.9558039,9.906637],[-83.9596824,9.8977772]],[[-83.9596824,9.8977772],[-83.9500004,9.8995835]],[[-83.8634645,9.8251585],[-83.8547042,9.8429836],[-83.8797042,9.8532131],[-83.8858752,9.8635325]],[[-83.6646325,9.9201402],[-83.6955977,9.9096543],[-83.6750004,9.8912502],[-83.6646325,9.9201402]],[[-84.4536788,10.1039984],[-84.4652103,10.1200303],[-84.4871179,10.0830308],[-84.4583337,10.0745835],[-84.4536788,10.1039984]],[[-84.3348126,10.0856144],[-84.3437585,10.1019313],[-84.3529545,10.0871364],[-84.3364001,10.0835763],[-84.3348126,10.0856144]],[[-84.0778427,9.950778],[-84.0913773,9.9615068],[-84.0958099,9.9694853]],[[-84.1448517,9.9651585],[-84.1526108,9.9625483]],[[-84.1221313,9.9381828],[-84.1043167,9.9260674],[-84.0891418,9.9105835]],[[-84.0891418,9.9105835],[-84.0664063,9.9174976],[-84.049942,9.9104452]],[[-84.049942,9.9104452],[-84.047493,9.9318047]],[[-84.0560684,9.9486675],[-84.0653687,9.9469156],[-84.0778427,9.950778]],[[-84.5211918,9.9184963],[-84.5358321,9.9112941],[-84.516667,9.9079168],[-84.5211918,9.9184963]],[[-84.0616455,9.9659109],[-84.0778427,9.950778]],[[-83.9927384,9.9640952],[-83.9872063,9.9806589]],[[-83.998282,9.9362298],[-83.9975281,9.9469528]],[[-84.049942,9.9104452],[-84.0260162,9.9062939]],[[-84.0260162,9.9062939],[-84.0108876,9.9169674],[-84.009118,9.91904],[-83.9983025,9.9359381]],[[-83.9983025,9.9359381],[-83.998282,9.9362298]],[[-82.8373582,8.540488],[-82.8446212,8.5288031],[-82.8347579,8.5266819],[-82.8373582,8.540488]],[[-82.9450036,8.6601874],[-82.9524988,8.6458848],[-82.9416671,8.6412502],[-82.9450036,8.6601874]],[[-84.1318581,9.8950073],[-84.1174809,9.8958644],[-84.1108905,9.8745267]],[[-84.098053,9.8821516],[-84.0918503,9.8874178],[-84.0891418,9.9105835]],[[-84.297209,10.0802923],[-84.3206872,10.0940497],[-84.3277999,10.0677638],[-84.3083337,10.0579168],[-84.297209,10.0802923]],[[-84.380518,10.1113104],[-84.3950687,10.0985378],[-84.366667,10.0912502],[-84.380518,10.1113104]],[[-83.9558039,9.906637],[-83.9638676,9.9107163],[-83.9694665,9.9301174],[-83.9983025,9.9359381]],[[-84.0260162,9.9062939],[-84.0274429,9.8915606],[-84.000946,9.8934765],[-83.9959869,9.8879128]],[[-83.9841939,9.8909414],[-83.9596824,9.8977772]],[[-83.998282,9.9362298],[-83.9951831,9.9482495]],[[-84.1616703,9.4435207],[-84.1691654,9.4292181],[-84.1583337,9.4245835],[-84.1616703,9.4435207]],[[-84.0665876,9.8494966],[-84.0569991,9.8387681],[-84.0210697,9.8789862],[-83.9959993,9.8867236]],[[-84.4333337,10.3495835],[-84.4445805,10.323375],[-84.4136967,10.3045884],[-84.4233646,10.3429551],[-84.4333337,10.3495835]],[[-84.3359623,10.3842637],[-84.3518233,10.3689439],[-84.3333337,10.3662502],[-84.3359623,10.3842637]],[[-84.072358,10.0047927],[-84.0891013,10.0148215]],[[-84.2364099,9.9322984],[-84.2527999,9.9177638],[-84.2333337,9.9079168],[-84.2364099,9.9322984]],[[-83.6760746,9.3695705],[-83.706348,9.390473],[-83.7200687,9.3687282],[-83.6666671,9.3329168],[-83.6760746,9.3695705]],[[-83.5057051,10.1112005],[-83.5203699,10.0970729],[-83.5000004,10.0912502],[-83.5057051,10.1112005]],[[-84.1669617,10.0155411],[-84.159996,9.9911394]],[[-84.1741323,9.966441],[-84.1699269,9.9647231]],[[-84.1941654,9.9946275],[-84.1795251,10.0018296],[-84.1750004,9.9912502],[-84.1941654,9.9946275]],[[-84.0321461,10.0227193],[-84.0538171,10.027383],[-84.0588272,10.0110377]],[[-84.0388852,10.0153695],[-84.0374076,10.0169558]],[[-84.8182133,9.9798976],[-84.8361053,9.9787731],[-84.8435958,9.9700059],[-84.8250004,9.9662502],[-84.8182133,9.9798976]],[[-84.71606,9.9961362],[-84.7773685,9.9912095],[-84.7871911,9.9734442],[-84.7483839,9.9694855]]],"bbox":[-85.4620365,8.5266819,-82.8347579,10.6529852]}