{"type":"Topology","objects":{"foo":{"type":"GeometryCollection","geometries":[{"type":"Polygon","arcs":[[0]],"properties":{"name":"Buey Arriba","gaul_code":14618,"targetarea":1.0973922,"totpop":32924.3675356,"country_id":"CUB","targetpop":3025.4355469,"new_mean":0.0734372,"totalarea":532.9082582}},{"type":"Polygon","arcs":[[1]],"properties":{"name":"Sagua De Tanamo","gaul_code":14651,"targetarea":1.0945591,"totpop":49873.2814293,"country_id":"CUB","targetpop":2909.901001,"new_mean":0.0639229,"totalarea":772.7980477}},{"type":"Polygon","arcs":[[2,3,4,5,6,7,8,9]],"properties":{"name":"Boyeros","gaul_code":14603,"targetarea":95.8914815,"totpop":380495.866516,"country_id":"CUB","targetpop":332818.251709,"new_mean":0.0386382,"totalarea":149.6728854}},{"type":"Polygon","arcs":[[10]],"properties":{"name":"Cardenas","gaul_code":14750,"targetarea":4.2263058,"totpop":103044.51667,"country_id":"CUB","targetpop":6081.2698975,"new_mean":0.045676,"totalarea":829.0481215}},{"type":"Polygon","arcs":[[11]],"properties":{"name":"San Antonio De Los Baios","gaul_code":14737,"targetarea":7.0001629,"totpop":45753.7372494,"country_id":"CUB","targetpop":14340.7929687,"new_mean":0.0318296,"totalarea":98.2510905}},{"type":"Polygon","arcs":[[12]],"properties":{"name":"Moron","gaul_code":14591,"targetarea":2.5618782,"totpop":58101.0715394,"country_id":"CUB","targetpop":3792.8710938,"new_mean":0.030443,"totalarea":1063.9776429}},{"type":"MultiPolygon","arcs":[[[13]],[[14]],[[15]],[[16]],[[17]]],"properties":{"name":"Santiago De Cuba","gaul_code":14789,"targetarea":115.4025982,"totpop":490942.073855,"country_id":"CUB","targetpop":295706.415466,"new_mean":0.0593779,"totalarea":1115.939082}},{"type":"MultiPolygon","arcs":[[[18]],[[19]]],"properties":{"name":"Media Luna","gaul_code":14624,"targetarea":9.8006572,"totpop":74353.2484317,"country_id":"CUB","targetpop":17881.5352783,"new_mean":0.0693586,"totalarea":922.6401661}},{"type":"Polygon","arcs":[[20]],"properties":{"name":"Guanajay","gaul_code":14728,"targetarea":1.7287209,"totpop":26490.1843338,"country_id":"CUB","targetpop":2770.4300537,"new_mean":0.036562,"totalarea":83.2075165}},{"type":"MultiPolygon","arcs":[[[21]],[[22]]],"properties":{"name":"Placetas","gaul_code":14799,"targetarea":2.1669211,"totpop":61547.0621405,"country_id":"CUB","targetpop":5200.6710205,"new_mean":0.0217855,"totalarea":570.2861826}},{"type":"Polygon","arcs":[[23,24,25,26,27,28]],"properties":{"name":"Cotorro","gaul_code":14606,"targetarea":31.769004,"totpop":95242.9901161,"country_id":"CUB","targetpop":81736.1270142,"new_mean":0.011132,"totalarea":62.8199109}},{"type":"Polygon","arcs":[[29]],"properties":{"name":"Holguin","gaul_code":14645,"targetarea":84.2382333,"totpop":363010.345963,"country_id":"CUB","targetpop":241160.305939,"new_mean":0.0621261,"totalarea":590.1249593}},{"type":"Polygon","arcs":[[30]],"properties":{"name":"Bartolome Maso","gaul_code":14616,"targetarea":1.8862918,"totpop":49759.6763773,"country_id":"CUB","targetpop":4540.4959717,"new_mean":0.0694763,"totalarea":805.6029899}},{"type":"MultiPolygon","arcs":[[[31,32]],[[33]],[[34]]],"properties":{"name":"Ciego De Avila","gaul_code":14587,"targetarea":32.8487699,"totpop":152388.623039,"country_id":"CUB","targetpop":84387.3719482,"new_mean":0.0553328,"totalarea":362.4902138}},{"type":"Polygon","arcs":[[35,36,37,38]],"properties":{"name":"Diez De Octubre","gaul_code":14607,"targetarea":18.9681943,"totpop":109226.490112,"country_id":"CUB","targetpop":109226.490112,"new_mean":0.0923945,"totalarea":18.9681943}},{"type":"Polygon","arcs":[[39]],"properties":{"name":"Jobabo","gaul_code":14744,"targetarea":2.1490693,"totpop":39365.352859,"country_id":"CUB","targetpop":3946.229126,"new_mean":0.0664688,"totalarea":819.0215455}},{"type":"MultiPolygon","arcs":[[[40]],[[41,42,43]],[[44]]],"properties":{"name":"Habana Del Este","gaul_code":14609,"targetarea":68.594612,"totpop":229921.905813,"country_id":"CUB","targetpop":159947.239605,"new_mean":0.0277865,"totalarea":298.9682596}},{"type":"Polygon","arcs":[[45,46,47,-6]],"properties":{"name":"La Lisa","gaul_code":14610,"targetarea":25.6020964,"totpop":116382.120117,"country_id":"CUB","targetpop":114464.595947,"new_mean":0.0621842,"totalarea":26.6785094}},{"type":"Polygon","arcs":[[48]],"properties":{"name":"Contramaestre","gaul_code":14784,"targetarea":13.7579103,"totpop":112594.275235,"country_id":"CUB","targetpop":31038.4720459,"new_mean":0.0584503,"totalarea":497.1637638}},{"type":"Polygon","arcs":[[49]],"properties":{"name":"Vertientes","gaul_code":14583,"targetarea":2.5998388,"totpop":58083.2833023,"country_id":"CUB","targetpop":5569.6618652,"new_mean":0.0457588,"totalarea":1499.6081972}},{"type":"MultiPolygon","arcs":[[[50]],[[51]]],"properties":{"name":"San Luis","gaul_code":14788,"targetarea":3.5243397,"totpop":77041.9183788,"country_id":"CUB","targetpop":7913.201294,"new_mean":0.0352259,"totalarea":625.2957891}},{"type":"Polygon","arcs":[[52,53,54,55,-4,-37]],"properties":{"name":"Cerro","gaul_code":14605,"targetarea":13.6371321,"totpop":79825.4584961,"country_id":"CUB","targetpop":79825.4584961,"new_mean":0,"totalarea":13.6371321}},{"type":"MultiPolygon","arcs":[[[56]],[[57]]],"properties":{"name":"Puerto Padre","gaul_code":14748,"targetarea":7.891726,"totpop":87098.165392,"country_id":"CUB","targetpop":14157.1012573,"new_mean":0.0586237,"totalarea":1247.6994759}},{"type":"Polygon","arcs":[[58,59,-54,60]],"properties":{"name":"Plaza De La Revolucion","gaul_code":14613,"targetarea":16.7591934,"totpop":129813.537231,"country_id":"CUB","targetpop":129813.537231,"new_mean":0.0415455,"totalarea":17.6627303}},{"type":"Polygon","arcs":[[61]],"properties":{"name":"Las Tunas","gaul_code":14745,"targetarea":40.7482089,"totpop":221113.095877,"country_id":"CUB","targetpop":111902.248413,"new_mean":0.073538,"totalarea":1163.4469519}},{"type":"Polygon","arcs":[[62]],"properties":{"name":"Colon","gaul_code":14752,"targetarea":2.4369602,"totpop":64437.8403368,"country_id":"CUB","targetpop":4843.3713379,"new_mean":0.0524663,"totalarea":502.8938997}},{"type":"Polygon","arcs":[[-43,63,64,-53,-36,65,66],[67]],"properties":{"name":"Regla","gaul_code":14614,"targetarea":24.3424147,"totpop":55440.5554199,"country_id":"CUB","targetpop":52327.2505493,"new_mean":0.1747834,"totalarea":26.1677615}},{"type":"Polygon","arcs":[[68]],"properties":{"name":"Jiguani","gaul_code":14622,"targetarea":1.0960692,"totpop":53525.6790571,"country_id":"CUB","targetpop":2453.6169434,"new_mean":0.0899692,"totalarea":753.0805697}},{"type":"Polygon","arcs":[[69]],"properties":{"name":"Camaguey","gaul_code":14572,"targetarea":78.7013763,"totpop":312332.707621,"country_id":"CUB","targetpop":162841.624634,"new_mean":0.0732746,"totalarea":1563.9363199}},{"type":"Polygon","arcs":[[70]],"properties":{"name":"Santa Clara","gaul_code":14804,"targetarea":60.8658408,"totpop":242629.145113,"country_id":"CUB","targetpop":154654.111572,"new_mean":0.0472892,"totalarea":507.8982081}},{"type":"Polygon","arcs":[[71,-61,-65]],"properties":{"name":"Centro Habana","gaul_code":14604,"targetarea":5.3319078,"totpop":38123.3302002,"country_id":"CUB","targetpop":0,"new_mean":0.293583,"totalarea":5.3319078}},{"type":"Polygon","arcs":[[72]],"properties":{"name":"Jibara","gaul_code":14646,"targetarea":6.8818663,"totpop":65674.5597119,"country_id":"CUB","targetpop":14694.8964844,"new_mean":0.0565921,"totalarea":562.4906694}},{"type":"MultiPolygon","arcs":[[[73]],[[74]]],"properties":{"name":"Matanzas","gaul_code":14758,"targetarea":37.0801529,"totpop":146858.018215,"country_id":"CUB","targetpop":74473.0903931,"new_mean":0.0458497,"totalarea":314.141315}},{"type":"Polygon","arcs":[[75]],"properties":{"name":"Nuevitas","gaul_code":14579,"targetarea":21.6510101,"totpop":104745.062918,"country_id":"CUB","targetpop":43787.5140648,"new_mean":0.0567259,"totalarea":3023.1320703}},{"type":"Polygon","arcs":[[76]],"properties":{"name":"Varadero","gaul_code":14762,"targetarea":6.4599992,"totpop":35613.8483362,"country_id":"CUB","targetpop":9676.0719528,"new_mean":0.0800268,"totalarea":65.4784488}},{"type":"Polygon","arcs":[[77]],"properties":{"name":"Sancti Spiritus","gaul_code":14779,"targetarea":21.6564339,"totpop":143234.379998,"country_id":"CUB","targetpop":42214.7091064,"new_mean":0.0554546,"totalarea":1034.5282205}},{"type":"Polygon","arcs":[[78,-44,-67,79,-24]],"properties":{"name":"Guanabacoa","gaul_code":14608,"targetarea":35.4334603,"totpop":113048.386101,"country_id":"CUB","targetpop":97114.6315002,"new_mean":0.0152713,"totalarea":71.8524015}},{"type":"Polygon","arcs":[[80]],"properties":{"name":"Moa","gaul_code":14648,"targetarea":10.8854546,"totpop":79335.1792283,"country_id":"CUB","targetpop":16693.6462402,"new_mean":0.0550915,"totalarea":553.8067989}},{"type":"Polygon","arcs":[[-60,81,82,-47,83,-55]],"properties":{"name":"Playa","gaul_code":14612,"targetarea":58.6238769,"totpop":144906.560778,"country_id":"CUB","targetpop":144856.039268,"new_mean":0.1004095,"totalarea":60.8844486}},{"type":"Polygon","arcs":[[84]],"properties":{"name":"Pinar Del Rio","gaul_code":14771,"targetarea":36.1046675,"totpop":186058.113464,"country_id":"CUB","targetpop":101956.529236,"new_mean":0.036176,"totalarea":508.68197}},{"type":"Polygon","arcs":[[85]],"properties":{"name":"Palma Soriano","gaul_code":14787,"targetarea":15.5238612,"totpop":124564.888113,"country_id":"CUB","targetpop":33322.9212646,"new_mean":0.0713581,"totalarea":930.3949356}},{"type":"Polygon","arcs":[[86]],"properties":{"name":"Segundo Frente","gaul_code":14790,"targetarea":1.883323,"totpop":34290.565918,"country_id":"CUB","targetpop":4241.9638672,"new_mean":0.0829883,"totalarea":443.2996597}},{"type":"Polygon","arcs":[[87]],"properties":{"name":"Yara","gaul_code":14627,"targetarea":3.2280351,"totpop":58156.9486923,"country_id":"CUB","targetpop":8390.7200928,"new_mean":0.049604,"totalarea":552.4536995}},{"type":"MultiPolygon","arcs":[[[88]],[[89]]],"properties":{"name":"Cienfuegos","gaul_code":14596,"targetarea":48.3134712,"totpop":181700.429238,"country_id":"CUB","targetpop":84466.8679504,"new_mean":0.0535287,"totalarea":498.9536457}},{"type":"MultiPolygon","arcs":[[[90]],[[91]],[[92]],[[93]]],"properties":{"name":"Guantanamo","gaul_code":40773,"targetarea":47.0298642,"totpop":235973.961658,"country_id":"CUB","targetpop":124483.620575,"new_mean":0.0735267,"totalarea":888.7681653}},{"type":"Polygon","arcs":[[94]],"properties":{"name":"Guisa","gaul_code":14621,"targetarea":1.0968185,"totpop":46900.5164351,"country_id":"CUB","targetpop":2905.3199463,"new_mean":0.0779198,"totalarea":603.7189302}},{"type":"MultiPolygon","arcs":[[[95]],[[96]]],"properties":{"name":"Banes","gaul_code":14640,"targetarea":6.0199544,"totpop":78497.0815823,"country_id":"CUB","targetpop":11044.0258179,"new_mean":0.0595514,"totalarea":795.3360435}},{"type":"Polygon","arcs":[[97]],"properties":{"name":"Jovellanos","gaul_code":14754,"targetarea":3.0614333,"totpop":58341.2102251,"country_id":"CUB","targetpop":6724.4154053,"new_mean":0.0383865,"totalarea":463.5718063}},{"type":"Polygon","arcs":[[-66,-39,98,-25,-80]],"properties":{"name":"San Miguel Del Padron","gaul_code":14615,"targetarea":25.8731549,"totpop":76973.965332,"country_id":"CUB","targetpop":76973.965332,"new_mean":0.026933,"totalarea":25.8733598}},{"type":"Polygon","arcs":[[99]],"properties":{"name":"Baracoa","gaul_code":14628,"targetarea":6.4745292,"totpop":78637.7765172,"country_id":"CUB","targetpop":16438.4967041,"new_mean":0.0523954,"totalarea":682.3509579}},{"type":"Polygon","arcs":[[100]],"properties":{"name":"Guira De Melena","gaul_code":14730,"targetarea":2.5261074,"totpop":39537.9839573,"country_id":"CUB","targetpop":5056.2947998,"new_mean":0.0190374,"totalarea":168.2084715}},{"type":"MultiPolygon","arcs":[[[101]],[[102]],[[103]]],"properties":{"name":"Bayamo","gaul_code":14617,"targetarea":47.7376364,"totpop":237266.495538,"country_id":"CUB","targetpop":121065.132568,"new_mean":0.0683298,"totalarea":859.797735}},{"type":"Polygon","arcs":[[104]],"properties":{"name":"Trinidad","gaul_code":14781,"targetarea":5.8099631,"totpop":80712.7545782,"country_id":"CUB","targetpop":10029.7628479,"new_mean":0.0518919,"totalarea":972.0032607}},{"type":"MultiPolygon","arcs":[[[105]],[[106]]],"properties":{"name":"Campechuela","gaul_code":14619,"targetarea":4.333618,"totpop":42746.7455244,"country_id":"CUB","targetpop":8198.8470459,"new_mean":0.0581115,"totalarea":485.3795723}},{"type":"MultiPolygon","arcs":[[[107,-28,108]],[[-26,-99,-38,-3,109,-9,110,111]]],"properties":{"name":"Arroyo Naranjo","gaul_code":14602,"targetarea":56.9941641,"totpop":259726.911541,"country_id":"CUB","targetpop":242605.617432,"new_mean":0.0200011,"totalarea":76.2698801}},{"type":"MultiPolygon","arcs":[[[112]],[[113]]],"properties":{"name":"Manzanillo","gaul_code":14623,"targetarea":25.6346162,"totpop":128543.565723,"country_id":"CUB","targetpop":65521.9996948,"new_mean":0.0726785,"totalarea":538.021067}},{"type":"Polygon","arcs":[[-83,114,-7,-48]],"properties":{"name":"Bauta","gaul_code":14725,"targetarea":38.090468,"totpop":154643.980621,"country_id":"CUB","targetpop":99965.6657715,"new_mean":0.0412426,"totalarea":194.4488284}},{"type":"Polygon","arcs":[[115]],"properties":{"name":"Florencia","gaul_code":14589,"targetarea":1.0834319,"totpop":33689.0868635,"country_id":"CUB","targetpop":3177.5541992,"new_mean":0.0222948,"totalarea":353.5556126}},{"type":"Polygon","arcs":[[-33,116]],"properties":{"name":"Venezuela","gaul_code":14593,"targetarea":1.4504457,"totpop":34997.7083836,"country_id":"CUB","targetpop":3733.0682373,"new_mean":0.0308045,"totalarea":515.9395432}},{"type":"Polygon","arcs":[[-84,-46,-5,-56]],"properties":{"name":"Marianao","gaul_code":14611,"targetarea":10.6905032,"totpop":80612.6608887,"country_id":"CUB","targetpop":0,"new_mean":0,"totalarea":10.6905032}}]}},"arcs":[[[-76.753337,20.1851873],[-76.7608321,20.1708847],[-76.7500004,20.1662501],[-76.753337,20.1851873]],[[-75.2366703,20.5935206],[-75.2441655,20.5792181],[-75.2333338,20.5745835],[-75.2366703,20.5935206]],[[-82.3322821,23.0329168],[-82.3384399,23.0401936],[-82.3512192,23.066927]],[[-82.3512192,23.066927],[-82.3815689,23.063345]],[[-82.3815689,23.063345],[-82.3923492,23.0541191],[-82.4056778,23.0518589],[-82.4129868,23.0380802]],[[-82.4129868,23.0380802],[-82.4345551,23.0066795]],[[-82.4345551,23.0066795],[-82.4344177,22.9914093],[-82.4297241,22.9834983]],[[-82.4297241,22.9834983],[-82.3978194,22.9886419],[-82.3879643,22.9842229],[-82.4046309,22.9708766],[-82.4063236,22.9458766],[-82.3434249,22.9700547],[-82.3629643,22.9782903],[-82.3537927,22.9855739],[-82.3030521,22.9918849],[-82.3057621,22.9701035],[-82.2592157,22.9640843]],[[-82.2592157,22.9640843],[-82.2600403,22.9674511],[-82.3072968,22.9966393],[-82.3266907,23.000885],[-82.3248062,23.0162501]],[[-82.3248062,23.0162501],[-82.3416671,23.0162501],[-82.3416671,23.0329168],[-82.3322821,23.0329168]],[[-81.1973474,23.0536687],[-81.2205896,23.0285019],[-81.2040938,23.0288356],[-81.1916671,23.0245835],[-81.1973474,23.0536687]],[[-82.4962976,22.8792099],[-82.4799076,22.8923284],[-82.5019291,22.9032903],[-82.5203699,22.8908961],[-82.5000004,22.8745835],[-82.4962976,22.8792099]],[[-78.6277876,22.1030172],[-78.6166671,22.0995835],[-78.6254561,22.128034],[-78.6338007,22.1124231],[-78.6277876,22.1030172]],[[-75.8750004,20.0329168],[-75.8805343,20.0301173],[-75.8915532,20.0083359],[-75.8701526,19.9969584],[-75.8668479,20.02315],[-75.8750004,20.0329168]],[[-75.927629,20.0624904],[-75.9431645,20.0696518],[-75.9534021,20.0493556],[-75.9416671,20.0412501],[-75.927629,20.0624904]],[[-75.8859623,20.0759303],[-75.9018233,20.0606105],[-75.8833337,20.0579168],[-75.8859623,20.0759303]],[[-75.8750004,20.0329168],[-75.8560104,20.0257835],[-75.8422699,20.0310497],[-75.8368912,20.0201378],[-75.8470306,20.0125046],[-75.855339,19.9999944],[-75.8713018,19.9876739],[-75.8666306,19.9700794],[-75.8319819,19.9700212],[-75.8213709,19.9959539],[-75.7809005,20.0072251],[-75.7710291,19.9944402],[-75.7517257,20.0060817],[-75.7631433,20.0452418],[-75.7606287,20.0622462],[-75.7893722,20.070254],[-75.786825,20.0875107],[-75.8030359,20.100027],[-75.8119633,20.078213],[-75.8392664,20.0542872],[-75.8357996,20.077741],[-75.8666671,20.0579168],[-75.8750004,20.0329168]],[[-75.7452804,20.1317449],[-75.7694666,20.111229],[-75.7333337,20.1079168],[-75.7452804,20.1317449]],[[-77.5666671,20.0329168],[-77.5666671,20.0579168],[-77.585554,20.0579168],[-77.5916671,20.0521743],[-77.5916671,20.0329168],[-77.5666671,20.0329168]],[[-77.4319828,20.1527654],[-77.4452966,20.1377793],[-77.4166671,20.1329168],[-77.4319828,20.1527654]],[[-82.6756596,22.9357692],[-82.6952966,22.9254827],[-82.6833337,22.9162501],[-82.6756596,22.9357692]],[[-79.753337,22.226854],[-79.7608321,22.2125514],[-79.7500004,22.2079168],[-79.753337,22.226854]],[[-79.6583337,22.3079168],[-79.6483345,22.3107251],[-79.6483374,22.3109293],[-79.6583337,22.3079168]],[[-82.2119969,23.0453214],[-82.2334747,23.0581303]],[[-82.2334747,23.0581303],[-82.2560806,23.0345154],[-82.2637482,23.0326271]],[[-82.2637482,23.0326271],[-82.2608465,23.0162501]],[[-82.2608465,23.0162501],[-82.2583337,23.0118067]],[[-82.2583337,23.0118067],[-82.2449492,22.9912501]],[[-82.2449492,22.9912501],[-82.2416671,22.9912501],[-82.2374434,23.0108668],[-82.2226485,23.0016749],[-82.2416671,22.9912501],[-82.2416671,22.9867196],[-82.2385876,22.9829168],[-82.2083337,22.9829168],[-82.2035323,22.9954168],[-82.2146163,23.0242579],[-82.2119969,23.0453214]],[[-76.2377364,20.8456528],[-76.2205977,20.8535141],[-76.2127364,20.8706528],[-76.1877364,20.8837103],[-76.2127364,20.8951808],[-76.2205977,20.9039861],[-76.2491622,20.9170924],[-76.2729822,20.9690049],[-76.2696293,20.9127142],[-76.2928634,20.8889145],[-76.3460698,20.8789861],[-76.3539311,20.8712347],[-76.2872644,20.8623195],[-76.2794031,20.8201808],[-76.270907,20.8294988],[-76.2458337,20.8280055],[-76.2377364,20.8456528]],[[-76.9442957,20.1759303],[-76.9601567,20.1606105],[-76.9416671,20.1579168],[-76.9442957,20.1759303]],[[-78.7856504,21.7419466],[-78.7903813,21.7603867],[-78.8082666,21.7434829]],[[-78.8082666,21.7434829],[-78.7950516,21.7396755],[-78.7856504,21.7419466]],[[-78.754932,21.8211818],[-78.728101,21.8364935],[-78.7337569,21.8617335],[-78.761711,21.8721909],[-78.7784021,21.8613185],[-78.7969161,21.854393],[-78.7968917,21.836526],[-78.7729659,21.8200058],[-78.754932,21.8211818]],[[-78.8616703,21.8935206],[-78.8691654,21.8792181],[-78.8583337,21.8745835],[-78.8616703,21.8935206]],[[-82.3091431,23.101572],[-82.3169403,23.0994415],[-82.3302841,23.1046906],[-82.3466492,23.1055832]],[[-82.3466492,23.1055832],[-82.3583069,23.0825291],[-82.3512192,23.066927]],[[-82.3512192,23.066927],[-82.3313522,23.0707989],[-82.3206558,23.0678749],[-82.3116913,23.0723534],[-82.3050461,23.0635567],[-82.2915649,23.0665684]],[[-82.2915649,23.0665684],[-82.3102188,23.0832977],[-82.3091431,23.101572]],[[-77.2807052,20.9195338],[-77.2953699,20.9054062],[-77.2750004,20.8995835],[-77.2807052,20.9195338]],[[-82.1379643,23.1542099],[-82.0948327,23.1665431],[-82.0965336,23.180219],[-82.1632084,23.1719264],[-82.1611169,23.1551458],[-82.1416671,23.1495835],[-82.1379643,23.1542099]],[[-82.2545644,23.1298997],[-82.2630619,23.136705],[-82.2613529,23.1504868],[-82.2370365,23.169957],[-82.2458337,23.1782334],[-82.2693282,23.1811549],[-82.3360355,23.1685735],[-82.3582431,23.1555201],[-82.3515472,23.150423],[-82.3294807,23.1439508]],[[-82.3294807,23.1439508],[-82.3054047,23.1390915],[-82.2940292,23.145504],[-82.2816391,23.1289368],[-82.2894974,23.1199417]],[[-82.2894974,23.1199417],[-82.272934,23.1225815],[-82.2545644,23.1298997]],[[-82.2083337,23.1495835],[-82.1855147,23.1623561],[-82.1713708,23.1778143],[-82.2142587,23.1856574],[-82.2083337,23.1495835]],[[-82.4129868,23.0380802],[-82.4210052,23.0528393],[-82.4194717,23.0676651],[-82.4301376,23.0709076]],[[-82.4301376,23.0709076],[-82.4405975,23.0669231],[-82.4600372,23.0486832]],[[-82.4600372,23.0486832],[-82.4569244,23.0341072],[-82.4644699,23.0185528],[-82.4608078,23.0032444],[-82.4345551,23.0066795]],[[-76.2468266,20.2797389],[-76.2281742,20.2860947],[-76.2218266,20.3182643],[-76.2665694,20.3043239],[-76.2612065,20.2870835],[-76.2640629,20.2778956],[-76.2468266,20.2797389]],[[-78.1345689,21.2520256],[-78.1422205,21.2671535],[-78.1611332,21.253091],[-78.1354331,21.2498483],[-78.1345689,21.2520256]],[[-75.7866703,20.1935206],[-75.7941655,20.1792181],[-75.7833337,20.1745835],[-75.7866703,20.1935206]],[[-75.8361332,20.1884507],[-75.8549076,20.1979477],[-75.8611332,20.1864243],[-75.8361332,20.1884507]],[[-82.3466492,23.1055832],[-82.36026,23.1188126]],[[-82.36026,23.1188126],[-82.3605499,23.1088619],[-82.372467,23.0954571],[-82.3824463,23.0915985]],[[-82.3824463,23.0915985],[-82.3875351,23.086216],[-82.3867722,23.0648479]],[[-82.3867722,23.0648479],[-82.3815689,23.063345]],[[-76.5506596,21.1857692],[-76.5702966,21.1754827],[-76.5583337,21.1662501],[-76.5506596,21.1857692]],[[-76.599325,21.2112005],[-76.6203699,21.1875514],[-76.5833337,21.1829168],[-76.599325,21.2112005]],[[-82.3752595,23.1488745],[-82.4006214,23.1465755]],[[-82.4006214,23.1465755],[-82.3893356,23.1131382],[-82.3825684,23.102747],[-82.3824463,23.0915985]],[[-82.36026,23.1188126],[-82.3635101,23.129652],[-82.3752595,23.1488745]],[[-76.9212976,20.9542099],[-76.9082117,20.9764634],[-76.9372725,20.9876369],[-77.00835,20.9787461],[-76.9759037,20.9382309],[-76.9625004,20.9365667],[-76.9413416,20.9391953],[-76.9250004,20.9329168],[-76.9212976,20.9542099]],[[-80.9156943,22.7158556],[-80.9000004,22.7079168],[-80.9030766,22.7322983],[-80.916438,22.7204495],[-80.9156943,22.7158556]],[[-82.3294807,23.1439508],[-82.3461914,23.1319199],[-82.3445507,23.1196344]],[[-82.3445507,23.1196344],[-82.36026,23.1188126]],[[-82.3091431,23.101572],[-82.2975006,23.0937519]],[[-82.2975006,23.0937519],[-82.2894974,23.1199417]],[[-82.3196212,23.1103379],[-82.3040043,23.1181788],[-82.3000004,23.0995835],[-82.3196212,23.1103379]],[[-76.428337,20.376854],[-76.4358321,20.3625514],[-76.4250004,20.3579168],[-76.428337,20.376854]],[[-77.8500004,21.4245835],[-77.8795414,21.4178737],[-77.9166671,21.4224879],[-77.9375004,21.4199],[-77.9518477,21.4216823],[-77.9703699,21.3925563],[-77.9526615,21.3783717],[-77.9547367,21.3616684],[-77.93453,21.3531561],[-77.9209965,21.3362534],[-77.9000981,21.3485377],[-77.8578373,21.3432806],[-77.8757491,21.3898748],[-77.8500004,21.4245835]],[[-79.896143,22.4387314],[-79.9416671,22.4350734],[-79.9750004,22.4377548],[-80.001213,22.4356471],[-80.0371912,22.4152166],[-80.0005619,22.3988714],[-79.9544763,22.3701075],[-79.9416671,22.3662501],[-79.9204838,22.4035182],[-79.9212732,22.4134303],[-79.9038578,22.4284409],[-79.896143,22.4387314]],[[-82.3445507,23.1196344],[-82.3497696,23.1251984],[-82.3483963,23.1422138],[-82.3615036,23.1513939],[-82.3752595,23.1488745]],[[-76.3338058,21.0903997],[-76.3538171,21.1023829],[-76.3611332,21.0785141],[-76.3416671,21.0745835],[-76.3338058,21.0903997]],[[-81.5116703,22.9935206],[-81.5191654,22.9792181],[-81.5083337,22.9745835],[-81.5116703,22.9935206]],[[-81.5543624,23.0707667],[-81.5961104,23.0554388],[-81.6165775,23.0316839],[-81.596501,23.0143906],[-81.5750004,23.0079168],[-81.5700606,23.024319],[-81.5510176,23.0367742],[-81.5200199,23.0194769],[-81.5025313,23.0208847],[-81.5046309,23.0470525],[-81.5689457,23.0418849],[-81.5543624,23.0707667]],[[-77.2301599,21.5765976],[-77.2583337,21.5678208],[-77.2750004,21.5730128],[-77.2907963,21.5680934],[-77.2780033,21.5292181],[-77.2583337,21.5245835],[-77.2468266,21.5464056],[-77.2365076,21.5527614],[-77.2301599,21.5765976]],[[-81.2845688,23.1398106],[-81.2948409,23.1233424],[-81.2833337,23.1162501],[-81.2783966,23.136261],[-81.2845688,23.1398106]],[[-79.438713,21.9049668],[-79.4279545,21.9108668],[-79.4186121,21.9279038],[-79.441602,21.9751328],[-79.4612878,21.983519],[-79.4490157,21.9537501],[-79.4558842,21.9370835],[-79.4524499,21.9287501],[-79.4602706,21.9097804],[-79.4416671,21.8995835],[-79.438713,21.9049668]],[[-82.2119969,23.0453214],[-82.21342,23.0653102],[-82.2297286,23.0783717],[-82.2300867,23.1069769],[-82.2545644,23.1298997]],[[-82.2975006,23.0937519],[-82.2720718,23.0862408],[-82.2600561,23.0775365],[-82.2598764,23.0773571],[-82.2473679,23.0734005],[-82.2334747,23.0581303]],[[-74.9166671,20.6495835],[-74.9459802,20.6714625],[-74.9619633,20.6504827],[-74.9427901,20.6356878],[-74.9254155,20.6382553],[-74.9166671,20.6495835]],[[-82.4006214,23.1465755],[-82.4161729,23.1399719],[-82.4620365,23.1032903],[-82.5004968,23.0949692],[-82.5282996,23.0784087],[-82.5273843,23.0752222]],[[-82.5273843,23.0752222],[-82.4894485,23.0884857],[-82.4769669,23.0889854],[-82.4600372,23.0486832]],[[-82.4301376,23.0709076],[-82.415657,23.0734539],[-82.4055328,23.0838032],[-82.3958511,23.0791397],[-82.394516,23.0678711],[-82.3867722,23.0648479]],[[-83.7098379,22.3856295],[-83.6954105,22.387763],[-83.6833337,22.3745835],[-83.673918,22.4083969],[-83.6619633,22.428213],[-83.6547042,22.4459539],[-83.6380375,22.458816],[-83.6790287,22.4513901],[-83.7036299,22.4365464],[-83.7245772,22.427977],[-83.7139788,22.3899341],[-83.7098379,22.3856295]],[[-75.9784021,20.2211818],[-75.9882654,20.2279852],[-75.9951908,20.2464951],[-76.0188155,20.2412013],[-76.0005945,20.1978175],[-75.9750004,20.1912501],[-75.9784021,20.2211818]],[[-75.527629,20.4259303],[-75.54349,20.4106105],[-75.5250004,20.4079168],[-75.527629,20.4259303]],[[-76.9473718,20.2862005],[-76.9620365,20.2720729],[-76.9416671,20.2662501],[-76.9473718,20.2862005]],[[-80.473446,22.1939153],[-80.4948409,22.1856064],[-80.4698409,22.1547389],[-80.4580408,22.1201076],[-80.4416671,22.1162501],[-80.4230229,22.1309393],[-80.4071374,22.1567205],[-80.3859949,22.1697454],[-80.3900476,22.1827744],[-80.4239018,22.1676092],[-80.4368331,22.188589],[-80.4548344,22.188589],[-80.4625004,22.1761541],[-80.473446,22.1939153]],[[-80.5116703,22.2101873],[-80.5191654,22.1958847],[-80.5083337,22.1912501],[-80.5116703,22.2101873]],[[-75.0473149,20.1853053],[-75.0695398,20.1782049],[-75.0416671,20.1745835],[-75.0473149,20.1853053]],[[-75.1703699,20.1532903],[-75.1629643,20.1695867],[-75.2129643,20.1782903],[-75.2272791,20.1961696],[-75.2440352,20.1940862],[-75.2284916,20.1536525],[-75.2380538,20.1373846],[-75.2362146,20.122553],[-75.2000004,20.1162501],[-75.1703699,20.1532903]],[[-75.1339929,20.2024358],[-75.15363,20.1921494],[-75.1416671,20.1829168],[-75.1339929,20.2024358]],[[-75.228337,20.226854],[-75.2358321,20.2125514],[-75.2250004,20.2079168],[-75.228337,20.226854]],[[-76.5366703,20.2685206],[-76.5441655,20.2542181],[-76.5333337,20.2495835],[-76.5366703,20.2685206]],[[-75.7100509,20.9629013],[-75.7301436,20.9730657],[-75.7361332,20.9535141],[-75.7166671,20.9495835],[-75.7100509,20.9629013]],[[-75.8271,21.1306386],[-75.84349,21.1189438],[-75.8250004,21.1162501],[-75.8271,21.1306386]],[[-81.1777999,22.8051173],[-81.196029,22.8143377],[-81.2111332,22.8028956],[-81.1750004,22.7995835],[-81.1777999,22.8051173]],[[-82.2915649,23.0665684],[-82.2731171,23.0472221],[-82.2637482,23.0326271]],[[-74.4833338,20.3245835],[-74.4866721,20.3442327],[-74.4929733,20.3531246],[-74.5051022,20.355568],[-74.5202966,20.3531154],[-74.4833338,20.3245835]],[[-82.5030766,22.8072983],[-82.5194665,22.7927638],[-82.5000004,22.7829168],[-82.5030766,22.8072983]],[[-76.7829551,20.3336782],[-76.7766362,20.3463852],[-76.7940434,20.3523829],[-76.8008772,20.3402586],[-76.7829551,20.3336782]],[[-76.6573328,20.4112412],[-76.6729659,20.3917181],[-76.6692224,20.3616603],[-76.6333337,20.3329168],[-76.6296309,20.3375433],[-76.5870365,20.344957],[-76.5796309,20.352094],[-76.6140711,20.3619411],[-76.6114669,20.3829168],[-76.6132003,20.3968857],[-76.6294682,20.3948593],[-76.6573328,20.4112412]],[[-76.6589929,20.4441025],[-76.67863,20.4338161],[-76.6666671,20.4245835],[-76.6589929,20.4441025]],[[-79.9750004,21.7912501],[-79.9750004,21.8079168],[-80.0000004,21.8079168],[-80.0000004,21.7912501],[-79.9750004,21.7912501]],[[-77.3185426,20.2291027],[-77.3351567,20.2189438],[-77.3166671,20.2162501],[-77.3185426,20.2291027]],[[-77.2738624,20.2478749],[-77.2872644,20.2309433],[-77.2666671,20.2245835],[-77.2738624,20.2478749]],[[-82.2583337,22.9912501],[-82.2449492,22.9912501]],[[-82.2583337,23.0118067],[-82.2583337,22.9912501]],[[-82.3322821,23.0329168],[-82.3166671,23.0329168],[-82.3166671,23.0162501],[-82.3248062,23.0162501]],[[-82.2592157,22.9640843],[-82.2472986,22.9625433],[-82.2583337,22.9912501]],[[-82.2583337,22.9912501],[-82.2750004,22.9912501],[-82.2750004,23.0162501],[-82.2608465,23.0162501]],[[-77.203337,20.2685206],[-77.2108321,20.2542181],[-77.2000004,20.2495835],[-77.203337,20.2685206]],[[-77.0623214,20.3445582],[-77.1222734,20.3565276],[-77.1294861,20.3492756],[-77.1456757,20.3416367],[-77.1575845,20.3298602],[-77.1462732,20.3195053],[-77.1316329,20.3223984],[-77.1166671,20.3162501],[-77.1121423,20.3225612],[-77.0875004,20.3382065],[-77.0605636,20.3211045],[-77.0623214,20.3445582]],[[-82.5273843,23.0752222],[-82.5179773,23.0542099],[-82.5046309,23.0708766],[-82.4890059,23.0782903],[-82.476213,22.9760035],[-82.4297241,22.9834983]],[[-78.903337,22.126854],[-78.9108321,22.1125514],[-78.9000004,22.1079168],[-78.903337,22.126854]],[[-78.8082666,21.7434829],[-78.7833337,21.7329168],[-78.7856504,21.7419466]]],"bbox":[-83.7245772,19.9700212,-74.4833338,23.1856574]}