{"type":"Topology","objects":{"foo":{"type":"GeometryCollection","geometries":[{"type":"Polygon","arcs":[[0]],"properties":{"name":"Administrative unit not available","gaul_code":15285,"targetarea":5.3320567,"totpop":20790.9970894,"country_id":"DMA","targetpop":10621.3187256,"totalarea":50.8950173,"new_mean":0.0193317}}]}},"arcs":[[[-61.387917,15.3165491],[-61.3944666,15.2951808],[-61.3750005,15.2912502],[-61.3671391,15.3070664],[-61.3848779,15.3176887],[-61.387917,15.3165491]]],"bbox":[-61.3944666,15.2912502,-61.3671391,15.3176887]}