{"type":"Topology","objects":{"foo":{"type":"GeometryCollection","geometries":[{"type":"Polygon","arcs":[[0]],"properties":{"name":"Quevedo","gaul_code":15467,"targetarea":36.1113335,"totpop":302711.536278,"country_id":"ECU","targetpop":120397.601013,"totalarea":1830.1426984,"new_mean":0.0217358}},{"type":"Polygon","arcs":[[1]],"properties":{"name":"Portoviejo","gaul_code":15483,"targetarea":45.0940362,"totpop":313412.464613,"country_id":"ECU","targetpop":149153.471191,"totalarea":917.2714716,"new_mean":0.0243951}},{"type":"Polygon","arcs":[[2]],"properties":{"name":"Gualaceo","gaul_code":15324,"targetarea":2.8770137,"totpop":57405.5620818,"country_id":"ECU","targetpop":6878.3930664,"totalarea":357.4274832,"new_mean":0.02255}},{"type":"MultiPolygon","arcs":[[[3]],[[4,5,6,7,8,9,10,11]],[[12]]],"properties":{"name":"Guayaquil","gaul_code":15423,"targetarea":357.9826548,"totpop":2794021.36083,"country_id":"ECU","targetpop":2369567.34148,"totalarea":4381.4411135,"new_mean":0.0230828}},{"type":"MultiPolygon","arcs":[[[13]],[[14,15]]],"properties":{"name":"Antonio Ante","gaul_code":15440,"targetarea":7.9491502,"totpop":58412.8533459,"country_id":"ECU","targetpop":18883.0687256,"totalarea":77.405624,"new_mean":0.0222823}},{"type":"MultiPolygon","arcs":[[[16,17]],[[18]],[[19]]],"properties":{"name":"Cuenca","gaul_code":15321,"targetarea":96.2028909,"totpop":604364.510987,"country_id":"ECU","targetpop":431432.195251,"totalarea":3071.6012834,"new_mean":0.0220344}},{"type":"Polygon","arcs":[[20]],"properties":{"name":"Sucre","gaul_code":15486,"targetarea":5.0377692,"totpop":115143.329056,"country_id":"ECU","targetpop":9417.2514648,"totalarea":1989.615658,"new_mean":0.0231963}},{"type":"Polygon","arcs":[[21]],"properties":{"name":"Jipijapa","gaul_code":15477,"targetarea":9.7010485,"totpop":103807.35713,"country_id":"ECU","targetpop":24285.411377,"totalarea":1833.0426468,"new_mean":0.0240678}},{"type":"Polygon","arcs":[[22]],"properties":{"name":"Isla Del Medio","gaul_code":15476,"targetarea":3.2630569,"totpop":61543.564023,"country_id":"ECU","targetpop":7003.0732422,"totalarea":1974.6389932,"new_mean":0.0231129}},{"type":"Polygon","arcs":[[23]],"properties":{"name":"Tena","gaul_code":15500,"targetarea":5.9605062,"totpop":113442.336326,"country_id":"ECU","targetpop":13946.6878662,"totalarea":5006.423634,"new_mean":0.0200441}},{"type":"Polygon","arcs":[[24]],"properties":{"name":"Lago Agrio","gaul_code":15518,"targetarea":12.4140659,"totpop":146443.940028,"country_id":"ECU","targetpop":26195.5400391,"totalarea":6937.4618019,"new_mean":0.0177266}},{"type":"Polygon","arcs":[[25,-15]],"properties":{"name":"Ibarra","gaul_code":15442,"targetarea":33.0992592,"totpop":203799.447248,"country_id":"ECU","targetpop":111927.540405,"totalarea":1090.5425794,"new_mean":0.0224275}},{"type":"Polygon","arcs":[[25,-15]],"properties":{"name":"Ibarra","gaul_code":15442,"targetarea":33.0992592,"totpop":203799.447248,"country_id":"ECU","targetpop":111927.540405,"totalarea":1090.5425794,"new_mean":0.0225561}},{"type":"Polygon","arcs":[[26]],"properties":{"name":"El Triunfo","gaul_code":15422,"targetarea":2.1163247,"totpop":52674.5085878,"country_id":"ECU","targetpop":4173.6044922,"totalarea":416.1964417,"new_mean":0.0214762}},{"type":"Polygon","arcs":[[27]],"properties":{"name":"Latacunga","gaul_code":15362,"targetarea":15.2133802,"totpop":180614.582845,"country_id":"ECU","targetpop":34288.9620972,"totalarea":1372.9013331,"new_mean":0.0222769}},{"type":"Polygon","arcs":[[28]],"properties":{"name":"Ventanas","gaul_code":15469,"targetarea":4.8354164,"totpop":105221.174307,"country_id":"ECU","targetpop":10284.1763916,"totalarea":859.3943124,"new_mean":0.020109}},{"type":"Polygon","arcs":[[29]],"properties":{"name":"Zaruma","gaul_code":15383,"targetarea":1.8692842,"totpop":27300.9652424,"country_id":"ECU","targetpop":3837.7606201,"totalarea":637.4558305,"new_mean":0.0209599}},{"type":"Polygon","arcs":[[30]],"properties":{"name":"Ambato","gaul_code":15522,"targetarea":59.4130057,"totpop":383413.054487,"country_id":"ECU","targetpop":229897.567505,"totalarea":1018.3476544,"new_mean":0.0225991}},{"type":"MultiPolygon","arcs":[[[31]],[[32,33]]],"properties":{"name":"Salinas","gaul_code":15433,"targetarea":30.2229129,"totpop":121838.947586,"country_id":"ECU","targetpop":97018.6745758,"totalarea":81.6981827,"new_mean":0.0225336}},{"type":"MultiPolygon","arcs":[[[34,35,36,37]],[[38]]],"properties":{"name":"Quito","gaul_code":15512,"targetarea":433.6436168,"totpop":2792427.76185,"country_id":"ECU","targetpop":2379072.3017,"totalarea":4158.4332857,"new_mean":0.0231354}},{"type":"Polygon","arcs":[[39]],"properties":{"name":"Tulcan","gaul_code":15350,"targetarea":12.5256924,"totpop":104769.10045,"country_id":"ECU","targetpop":36828.1126099,"totalarea":1605.5876861,"new_mean":0.0223159}},{"type":"Polygon","arcs":[[40]],"properties":{"name":"Orellana","gaul_code":15504,"targetarea":11.946109,"totpop":107872.220219,"country_id":"ECU","targetpop":32659.0159912,"totalarea":5694.1312639,"new_mean":0.0188397}},{"type":"Polygon","arcs":[[41]],"properties":{"name":"Santa Rosa","gaul_code":15382,"targetarea":10.9094732,"totpop":81261.9009863,"country_id":"ECU","targetpop":28652.5529785,"totalarea":818.7476264,"new_mean":0.0221871}},{"type":"Polygon","arcs":[[42]],"properties":{"name":"Machala","gaul_code":15376,"targetarea":60.6051255,"totpop":279939.045653,"country_id":"ECU","targetpop":200242.797852,"totalarea":307.266617,"new_mean":0.0158711}},{"type":"Polygon","arcs":[[43]],"properties":{"name":"La Concordia","gaul_code":15537,"targetarea":3.2623458,"totpop":75018.8449926,"country_id":"ECU","targetpop":6176.5396728,"totalarea":697.5748317,"new_mean":0.0241145}},{"type":"Polygon","arcs":[[43]],"properties":{"name":"La Concordia","gaul_code":15537,"targetarea":3.2623458,"totpop":75018.8449926,"country_id":"ECU","targetpop":6176.5396728,"totalarea":697.5748317,"new_mean":0.0222207}},{"type":"Polygon","arcs":[[44]],"properties":{"name":"Santa Cruz (is.)","gaul_code":15411,"targetarea":2.0669084,"totpop":20467.1320846,"country_id":"ECU","targetpop":14827.6802979,"totalarea":985.6112375,"new_mean":0.0222684}},{"type":"Polygon","arcs":[[45]],"properties":{"name":"Naranjito","gaul_code":15428,"targetarea":4.1999364,"totpop":43486.5775986,"country_id":"ECU","targetpop":9135.4832764,"totalarea":235.4637652,"new_mean":0.0214603}},{"type":"Polygon","arcs":[[46,47]],"properties":{"name":"Santa Elena","gaul_code":15435,"targetarea":8.3310841,"totpop":174970.125573,"country_id":"ECU","targetpop":15826.0072021,"totalarea":3702.8877971,"new_mean":0.0222751}},{"type":"Polygon","arcs":[[48]],"properties":{"name":"El Carmen","gaul_code":15474,"targetarea":5.3295051,"totpop":104316.306997,"country_id":"ECU","targetpop":12761.8056641,"totalarea":1225.7864207,"new_mean":0.0226746}},{"type":"Polygon","arcs":[[49]],"properties":{"name":"La Troncal","gaul_code":15345,"targetarea":5.9183069,"totpop":62648.9503851,"country_id":"ECU","targetpop":16864.2794189,"totalarea":321.5720698,"new_mean":0.021865}},{"type":"Polygon","arcs":[[50]],"properties":{"name":"Santo Domingo","gaul_code":15514,"targetarea":67.1146284,"totpop":477113.400765,"country_id":"ECU","targetpop":224510.033875,"totalarea":3223.2001667,"new_mean":0.0222987}},{"type":"Polygon","arcs":[[51]],"properties":{"name":"Tosagua","gaul_code":15487,"targetarea":2.2957696,"totpop":44248.4464912,"country_id":"ECU","targetpop":5639.1818848,"totalarea":368.0503576,"new_mean":0.0243575}},{"type":"Polygon","arcs":[[52]],"properties":{"name":"Otavalo","gaul_code":15443,"targetarea":12.1386528,"totpop":123836.309467,"country_id":"ECU","targetpop":36365.0552979,"totalarea":506.6204579,"new_mean":0.0222769}},{"type":"Polygon","arcs":[[53]],"properties":{"name":"Daule","gaul_code":15419,"targetarea":11.8045963,"totpop":153693.616082,"country_id":"ECU","targetpop":39348.1040649,"totalarea":472.236856,"new_mean":0.0244026}},{"type":"Polygon","arcs":[[54]],"properties":{"name":"Loja","gaul_code":15452,"targetarea":40.0558522,"totpop":238049.618662,"country_id":"ECU","targetpop":133615.31543,"totalarea":1906.0808936,"new_mean":0.0200167}},{"type":"Polygon","arcs":[[55]],"properties":{"name":"Bolivar","gaul_code":15472,"targetarea":4.2024272,"totpop":47541.0695429,"country_id":"ECU","targetpop":8940.9445801,"totalarea":534.3708906,"new_mean":0.0244663}},{"type":"Polygon","arcs":[[56]],"properties":{"name":"El Guabo","gaul_code":15372,"targetarea":2.0026757,"totpop":51885.7852893,"country_id":"ECU","targetpop":5293.4807129,"totalarea":588.8488136,"new_mean":0.0222161}},{"type":"Polygon","arcs":[[57]],"properties":{"name":"Guaranda","gaul_code":15337,"targetarea":7.0805563,"totpop":102638.015352,"country_id":"ECU","targetpop":18122.1711426,"totalarea":1957.047511,"new_mean":0.0213051}},{"type":"Polygon","arcs":[[58,59]],"properties":{"name":"Guano","gaul_code":15357,"targetarea":2.5595652,"totpop":67136.5765953,"country_id":"ECU","targetpop":11345.930542,"totalarea":513.195969,"new_mean":0.022591}},{"type":"Polygon","arcs":[[60]],"properties":{"name":"Babahoyo","gaul_code":15462,"targetarea":18.0914584,"totpop":181744.557278,"country_id":"ECU","targetpop":62414.8779297,"totalarea":1058.4578857,"new_mean":0.0220959}},{"type":"Polygon","arcs":[[61]],"properties":{"name":"Azogues","gaul_code":15340,"targetarea":12.2633049,"totpop":78850.0149777,"country_id":"ECU","targetpop":27106.8165894,"totalarea":572.0720392,"new_mean":0.0224627}},{"type":"Polygon","arcs":[[62]],"properties":{"name":"Calvas","gaul_code":15446,"targetarea":2.0002387,"totpop":32030.330862,"country_id":"ECU","targetpop":5243.3006592,"totalarea":853.9173542,"new_mean":0.0221185}},{"type":"Polygon","arcs":[[-48,63,-34,64]],"properties":{"name":"La Libertad","gaul_code":15424,"targetarea":20.4154088,"totpop":98909.325531,"country_id":"ECU","targetpop":93786.1810303,"totalarea":27.455221,"new_mean":0.0226109}},{"type":"MultiPolygon","arcs":[[[65,-8,66]],[[67,-10]]],"properties":{"name":"Samborondon","gaul_code":15434,"targetarea":5.8075412,"totpop":101072.98178,"country_id":"ECU","targetpop":24597.5571289,"totalarea":383.2015315,"new_mean":0.0242703}},{"type":"Polygon","arcs":[[68]],"properties":{"name":"El Empalme","gaul_code":15421,"targetarea":6.3576905,"totpop":100842.569319,"country_id":"ECU","targetpop":19853.3914795,"totalarea":749.0381716,"new_mean":0.0230723}},{"type":"Polygon","arcs":[[69]],"properties":{"name":"Canar","gaul_code":15342,"targetarea":1.9786857,"totpop":68771.9351767,"country_id":"ECU","targetpop":5411.5145264,"totalarea":1847.7638407,"new_mean":0.0210027}},{"type":"Polygon","arcs":[[70]],"properties":{"name":"Pedro Carbo","gaul_code":15431,"targetarea":2.2948552,"totpop":51088.0646722,"country_id":"ECU","targetpop":6801.703125,"totalarea":881.3573852,"new_mean":0.0245586}},{"type":"Polygon","arcs":[[71]],"properties":{"name":"La Mana","gaul_code":15361,"targetarea":3.0382354,"totpop":43714.0165015,"country_id":"ECU","targetpop":5535.4195557,"totalarea":593.4416867,"new_mean":0.0196073}},{"type":"Polygon","arcs":[[72]],"properties":{"name":"San Lorenzo","gaul_code":15390,"targetarea":3.2615461,"totpop":57294.1782051,"country_id":"ECU","targetpop":4971.6833496,"totalarea":3093.292167,"new_mean":0.0231219}},{"type":"MultiPolygon","arcs":[[[73]],[[-35,74]]],"properties":{"name":"Mejia","gaul_code":15509,"targetarea":9.824573,"totpop":113503.405392,"country_id":"ECU","targetpop":21608.7225952,"totalarea":1497.7781465,"new_mean":0.0224448}},{"type":"Polygon","arcs":[[75]],"properties":{"name":"Salcedo","gaul_code":15365,"targetarea":2.0054793,"totpop":72304.5852442,"country_id":"ECU","targetpop":6024.760376,"totalarea":510.3890426,"new_mean":0.0220983}},{"type":"Polygon","arcs":[[75]],"properties":{"name":"Salcedo","gaul_code":15365,"targetarea":2.0054793,"totpop":72304.5852442,"country_id":"ECU","targetpop":6024.760376,"totalarea":510.3890426,"new_mean":0.0219487}},{"type":"MultiPolygon","arcs":[[[76,77]],[[78,79]]],"properties":{"name":"Montecristi","gaul_code":15480,"targetarea":4.8560228,"totpop":94031.5599034,"country_id":"ECU","targetpop":9148.8195801,"totalarea":837.6977113,"new_mean":0.0237872}},{"type":"Polygon","arcs":[[80]],"properties":{"name":"Macara","gaul_code":15453,"targetarea":1.8677348,"totpop":20436.7743988,"country_id":"ECU","targetpop":3133.9278565,"totalarea":577.0379994,"new_mean":0.0235119}},{"type":"Polygon","arcs":[[-37,81]],"properties":{"name":"Ruminahui","gaul_code":15513,"targetarea":32.4091682,"totpop":111353.226101,"country_id":"ECU","targetpop":90503.3066406,"totalarea":142.1549248,"new_mean":0.0222956}},{"type":"Polygon","arcs":[[-60,82]],"properties":{"name":"Riobamba","gaul_code":15360,"targetarea":31.8263224,"totpop":252831.947614,"country_id":"ECU","targetpop":146730.592163,"totalarea":1027.0088163,"new_mean":0.022358}},{"type":"Polygon","arcs":[[83]],"properties":{"name":"Balzar","gaul_code":15416,"targetarea":1.8725475,"totpop":65432.4506416,"country_id":"ECU","targetpop":3550.8537598,"totalarea":1198.1010339,"new_mean":0.0247854}},{"type":"Polygon","arcs":[[83]],"properties":{"name":"Balzar","gaul_code":15416,"targetarea":1.8725475,"totpop":65432.4506416,"country_id":"ECU","targetpop":3550.8537598,"totalarea":1198.1010339,"new_mean":0.0250724}},{"type":"Polygon","arcs":[[84]],"properties":{"name":"San Miguel","gaul_code":15339,"targetarea":2.2949851,"totpop":29434.8389893,"country_id":"ECU","targetpop":4279.3477783,"totalarea":557.0586286,"new_mean":0.0206993}},{"type":"Polygon","arcs":[[85]],"properties":{"name":"Morona","gaul_code":15491,"targetarea":3.885021,"totpop":86255.8369209,"country_id":"ECU","targetpop":9309.623169,"totalarea":11379.3725608,"new_mean":0.0217386}},{"type":"Polygon","arcs":[[86]],"properties":{"name":"Puebloviejo","gaul_code":15466,"targetarea":2.0248369,"totpop":44067.0680847,"country_id":"ECU","targetpop":4530.4489746,"totalarea":355.9882506,"new_mean":0.0226087}},{"type":"Polygon","arcs":[[87]],"properties":{"name":"Naranjal","gaul_code":15427,"targetarea":2.2935432,"totpop":95815.2895809,"country_id":"ECU","targetpop":6163.7707519,"totalarea":2007.9199867,"new_mean":0.0228272}},{"type":"Polygon","arcs":[[88]],"properties":{"name":"Milagro","gaul_code":15426,"targetarea":28.9073896,"totpop":211793.644138,"country_id":"ECU","targetpop":108836.322388,"totalarea":564.8455829,"new_mean":0.0229329}},{"type":"Polygon","arcs":[[89]],"properties":{"name":"Vinces","gaul_code":15470,"targetarea":3.2522566,"totpop":87114.4704266,"country_id":"ECU","targetpop":10440.6060791,"totalarea":710.8921531,"new_mean":0.0243794}},{"type":"Polygon","arcs":[[90]],"properties":{"name":"Chone","gaul_code":15473,"targetarea":9.9226514,"totpop":146214.363296,"country_id":"ECU","targetpop":31407.9754639,"totalarea":3012.6230896,"new_mean":0.0241252}},{"type":"Polygon","arcs":[[91]],"properties":{"name":"Quininde","gaul_code":15389,"targetarea":1.8730359,"totpop":131788.758661,"country_id":"ECU","targetpop":4037.152832,"totalarea":3318.7731337,"new_mean":0.0221631}},{"type":"MultiPolygon","arcs":[[[92,-5]],[[-67,-7,93]],[[94]]],"properties":{"name":"Duran","gaul_code":15420,"targetarea":52.9868667,"totpop":304896.548279,"country_id":"ECU","targetpop":191930.610565,"totalarea":344.0109664,"new_mean":0.0233809}},{"type":"Polygon","arcs":[[95]],"properties":{"name":"Buena Fe","gaul_code":15463,"targetarea":6.322438,"totpop":75220.4069824,"country_id":"ECU","targetpop":13442.8699951,"totalarea":579.7002345,"new_mean":0.0218582}},{"type":"Polygon","arcs":[[96]],"properties":{"name":"Pasaje","gaul_code":15379,"targetarea":10.7274879,"totpop":86116.7027807,"country_id":"ECU","targetpop":31417.8352051,"totalarea":459.0677206,"new_mean":0.0234136}},{"type":"Polygon","arcs":[[97]],"properties":{"name":"Huaquillas","gaul_code":15373,"targetarea":10.578804,"totpop":47184.2372508,"country_id":"ECU","targetpop":37059.5891724,"totalarea":60.524138,"new_mean":0.0226672}},{"type":"Polygon","arcs":[[98]],"properties":{"name":"Pastaza","gaul_code":15506,"targetarea":8.4875755,"totpop":97295.4155327,"country_id":"ECU","targetpop":24570.3168945,"totalarea":29611.8418219,"new_mean":0.0216088}},{"type":"Polygon","arcs":[[99]],"properties":{"name":"Playas","gaul_code":15432,"targetarea":6.4241675,"totpop":56111.8246939,"country_id":"ECU","targetpop":16044.0045166,"totalarea":359.153232,"new_mean":0.0227456}},{"type":"Polygon","arcs":[[100]],"properties":{"name":"Isla Luis Vargas","gaul_code":15386,"targetarea":40.6631522,"totpop":245519.215158,"country_id":"ECU","targetpop":163450.365173,"totalarea":2947.4319936,"new_mean":0.0241839}},{"type":"Polygon","arcs":[[101]],"properties":{"name":"Cotacachi","gaul_code":15441,"targetarea":2.0057767,"totpop":46650.5884169,"country_id":"ECU","targetpop":5015.1594238,"totalarea":1653.1490705,"new_mean":0.0220314}},{"type":"Polygon","arcs":[[102,-77,103,-80]],"properties":{"name":"Manta","gaul_code":15479,"targetarea":61.5517342,"totpop":271897.814694,"country_id":"ECU","targetpop":220755.426208,"totalarea":288.5927986,"new_mean":0.023448}},{"type":"Polygon","arcs":[[104]],"properties":{"name":"Cayambe","gaul_code":15508,"targetarea":9.8114513,"totpop":101452.224446,"country_id":"ECU","targetpop":24670.1403809,"totalarea":1207.721384,"new_mean":0.0223757}}]}},"arcs":[[[-79.4795496,-1.062534],[-79.4486414,-1.0491225],[-79.4295496,-1.0174005],[-79.4728682,-0.9814223],[-79.4951339,-1.0572849],[-79.4795496,-1.062534]],[[-80.4333337,-1.0837498],[-80.428516,-1.0714939],[-80.4317305,-1.0497573],[-80.4485844,-1.0367446],[-80.4622156,-1.0034357],[-80.4987716,-1.0305434],[-80.4946049,-1.0587498],[-80.4967045,-1.0729832],[-80.4333337,-1.0837498]],[[-78.7723718,-2.8804701],[-78.7870365,-2.8945896],[-78.7666671,-2.9004164],[-78.7723718,-2.8804701]],[[-80.2395024,-2.7220562],[-80.2389984,-2.70593],[-80.2477299,-2.6886814],[-80.2617354,-2.7181248],[-80.2414447,-2.7233341],[-80.2395024,-2.7220562]],[[-79.8811883,-2.2174847],[-79.8872833,-2.1945109],[-79.8734665,-2.1722369],[-79.870674,-2.1598125]],[[-79.870674,-2.1598125],[-79.8708183,-2.1588363]],[[-79.8708183,-2.1588363],[-79.8723373,-2.153935]],[[-79.8723373,-2.153935],[-79.8815918,-2.1179979],[-79.8816541,-2.1046854]],[[-79.8816541,-2.1046854],[-79.8896512,-2.0816348]],[[-79.8896512,-2.0816348],[-79.8987122,-2.0648561],[-79.8999111,-2.0523823]],[[-79.8999111,-2.0523823],[-79.9291671,-2.0564304],[-79.9336621,-2.0454473],[-79.9378578,-2.0278409],[-79.9368138,-2.0207716],[-79.9368317,-2.0207332],[-79.9583337,-2.0170831]],[[-79.9583337,-2.0170831],[-79.9632084,-2.0337009],[-79.9878829,-2.0542006],[-79.9954512,-2.0716323],[-80.005404,-2.0799086],[-80.0037113,-2.0965427],[-80.0268152,-2.1286472],[-79.9714522,-2.1526544],[-79.9698734,-2.1681817],[-80.0208337,-2.1733738],[-80.0474613,-2.1706557],[-80.065894,-2.1928562],[-80.0949792,-2.2170099],[-80.0968917,-2.2357924],[-80.0816003,-2.2542006],[-80.0704512,-2.2382989],[-80.0560958,-2.2052016],[-79.9762048,-2.1970636],[-79.945378,-2.2459731],[-79.9462895,-2.2549086],[-79.9201095,-2.2766534],[-79.9219649,-2.2948582],[-79.9040206,-2.2966892],[-79.8628829,-2.287534],[-79.8583337,-2.2837498],[-79.8619633,-2.2623793],[-79.8851567,-2.2310968],[-79.8811883,-2.2174847]],[[-79.9583337,-2.0170831],[-79.9653731,-1.989658],[-79.9984623,-1.9720147],[-79.9937016,-1.993255],[-79.9715987,-2.0136814],[-79.9583337,-2.0170831]],[[-78.198088,0.3368557],[-78.2193689,0.3440497],[-78.2319259,0.3192287],[-78.2083337,0.3162502],[-78.198088,0.3368557]],[[-78.1658311,0.3397641],[-78.1518631,0.341331],[-78.1463632,0.3538051]],[[-78.1463632,0.3538051],[-78.1658311,0.3397641]],[[-78.9416671,-2.8670831],[-78.9085209,-2.8614516],[-78.9000004,-2.8504164]],[[-78.9000004,-2.8504164],[-78.9348555,-2.8536147],[-78.9416671,-2.8670831]],[[-78.9000004,-2.8504164],[-78.8945035,-2.8429007],[-78.8982451,-2.8441755],[-78.9000004,-2.8504164]],[[-78.9416671,-2.8670831],[-78.9854252,-2.8395034],[-79.0173751,-2.8779636],[-79.0382084,-2.8528823],[-79.0537846,-2.8716323],[-79.070085,-2.8851821],[-79.0448409,-2.8961277],[-79.0704512,-2.9174005],[-79.0516443,-2.9322687],[-78.9788741,-2.9207534],[-78.9666671,-2.9337498],[-78.9642419,-2.9195082],[-78.9504805,-2.9138686],[-78.9606368,-2.8997735],[-78.9440922,-2.8813246],[-78.9416671,-2.8670831]],[[-80.4187104,-0.626532],[-80.4172668,-0.598768],[-80.4319437,-0.6030685],[-80.4312016,-0.6212498],[-80.4187104,-0.626532]],[[-80.5635502,-1.3409763],[-80.5803389,-1.3304946],[-80.6032556,-1.3628595],[-80.5750004,-1.3670831],[-80.5635502,-1.3409763]],[[-80.0386967,0.0860256],[-80.0536567,0.0798238],[-80.0594686,0.064958],[-80.0500004,0.0579169],[-80.0386967,0.0860256]],[[-77.8079838,-0.9776381],[-77.8232996,-0.9810724],[-77.8219242,-1.0052911],[-77.8000004,-1.0087498],[-77.8079838,-0.9776381]],[[-76.8686283,0.0814195],[-76.8731205,0.1014472],[-76.9199548,0.090941],[-76.8896326,0.0700018],[-76.8750004,0.0662502],[-76.8686283,0.0814195]],[[-78.1658311,0.3397641],[-78.1549646,0.3296942],[-78.1166671,0.3079169],[-78.0977136,0.3382798],[-78.1188725,0.3857082],[-78.1463632,0.3538051]],[[-79.4045882,-2.3383869],[-79.3916671,-2.3420831],[-79.3973718,-2.3221368],[-79.4095546,-2.3338666],[-79.4045882,-2.3383869]],[[-78.5964197,-0.9367771],[-78.6259444,-0.9051202],[-78.6369633,-0.9264174],[-78.6160079,-0.9611586],[-78.6083337,-0.9670831],[-78.5964197,-0.9367771]],[[-79.4479659,-1.4298598],[-79.4789311,-1.4403416],[-79.4583337,-1.4587498],[-79.4479659,-1.4298598]],[[-79.6006596,-3.6809015],[-79.6202966,-3.6911798],[-79.6083337,-3.7004164],[-79.6006596,-3.6809015]],[[-78.629932,-1.2954848],[-78.5971358,-1.2870701],[-78.5763513,-1.2569676],[-78.5882654,-1.2386814],[-78.5955245,-1.1926202],[-78.6034021,-1.2136814],[-78.6445235,-1.2290623],[-78.6534021,-1.2636814],[-78.6639571,-1.2798842],[-78.6333337,-1.3004164],[-78.629932,-1.2954848]],[[-80.8838348,-2.325896],[-80.8729659,-2.3048598],[-80.8969767,-2.3129875],[-80.8838348,-2.325896]],[[-80.9113311,-2.219123],[-80.9319382,-2.2204092],[-80.9476547,-2.2054069],[-80.9679871,-2.2046471],[-80.9704653,-2.19432],[-80.9834671,-2.1895776],[-80.9778813,-2.2145034],[-80.9352136,-2.243963],[-80.9215987,-2.2636814],[-80.8996995,-2.2546133]],[[-80.8996995,-2.2546133],[-80.9088364,-2.247484],[-80.9113311,-2.219123]],[[-78.5689409,-0.3517378],[-78.5421219,-0.357522],[-78.520413,-0.3570374]],[[-78.520413,-0.3570374],[-78.5167647,-0.3548924],[-78.5046309,-0.3124526],[-78.4969731,-0.305047],[-78.4879643,-0.3467136],[-78.4677312,-0.3630463]],[[-78.4677312,-0.3630463],[-78.4752655,-0.354803],[-78.4657211,-0.344588],[-78.4789963,-0.328498],[-78.4702225,-0.310565],[-78.4573746,-0.294904],[-78.4279467,-0.3162446]],[[-78.4279467,-0.3162446],[-78.4370365,-0.2874526],[-78.4462976,-0.280047],[-78.4631514,-0.2295506],[-78.4458337,-0.23895],[-78.4379643,-0.2291192],[-78.3693689,-0.2205418],[-78.372559,-0.194907],[-78.4044682,-0.1968032],[-78.4409835,-0.1753351],[-78.4250004,-0.1337498],[-78.4120365,-0.130047],[-78.4046309,-0.1124526],[-78.3952722,-0.1049575],[-78.3974695,-0.0872329],[-78.4223637,-0.0448826],[-78.4391443,-0.0469741],[-78.4369389,-0.0292657],[-78.442017,-0.0217136],[-78.4756352,-0.0636814],[-78.5296309,-0.0791192],[-78.5403975,-0.0925714],[-78.5287032,-0.1124526],[-78.51071,-0.1611261],[-78.5212976,-0.1791192],[-78.5342696,-0.2099135],[-78.589185,-0.278574],[-78.5821293,-0.3352472],[-78.5689409,-0.3517378]],[[-78.4313806,0.0036119],[-78.4538171,0.0107164],[-78.4611332,-0.0131525],[-78.4416671,-0.0170831],[-78.4313806,0.0036119]],[[-77.7213139,0.795897],[-77.6965336,0.8188544],[-77.7099695,0.8369208],[-77.745671,0.7943508],[-77.7333337,0.7829169],[-77.7213139,0.795897]],[[-76.9884933,-0.4472426],[-76.9962732,-0.4141778],[-77.01578,-0.4458266],[-77.0031742,-0.4535903],[-76.9922286,-0.4713556],[-76.9750004,-0.4754164],[-76.9884933,-0.4472426]],[[-79.9433761,-3.445436],[-79.9711999,-3.4313572],[-79.9777999,-3.4655694],[-79.9583337,-3.4754164],[-79.9433761,-3.445436]],[[-79.9257003,-3.2302179],[-79.9540206,-3.2290948],[-79.9626469,-3.2384047],[-79.9951664,-3.2371189],[-80.0032168,-3.2523333],[-80.0030441,-3.271812],[-79.9790043,-3.2794203],[-79.9543054,-3.2964207],[-79.9177006,-3.2949721],[-79.8916671,-3.3004164],[-79.8959477,-3.286891],[-79.9126632,-3.2714125],[-79.9257003,-3.2302179]],[[-79.3921228,0.0280341],[-79.4039311,0.0059475],[-79.3833337,-0.0004164],[-79.3921228,0.0280341]],[[-90.3083337,-0.7504164],[-90.3123376,-0.7318211],[-90.3279545,-0.7396661],[-90.3083337,-0.7504164]],[[-79.4521244,-2.1712579],[-79.4589848,-2.1572198],[-79.4777999,-2.1739028],[-79.4583337,-2.1837498],[-79.4521244,-2.1712579]],[[-80.856295,-2.2412277],[-80.8402592,-2.2344903],[-80.8692181,-2.2003578],[-80.8809441,-2.20765]],[[-80.8809441,-2.20765],[-80.856295,-2.2412277]],[[-79.4432458,-0.2701593],[-79.4691736,-0.2642836],[-79.4777999,-0.2802423],[-79.4500004,-0.2837498],[-79.4432458,-0.2701593]],[[-79.3281254,-2.4165297],[-79.3527266,-2.4207371],[-79.3433191,-2.4385024],[-79.3250004,-2.4420831],[-79.3281254,-2.4165297]],[[-79.1707361,-0.2840997],[-79.1197758,-0.263242],[-79.1339929,-0.2396743],[-79.1569014,-0.2219903],[-79.1907637,-0.2134536],[-79.2222335,-0.2492934],[-79.2160242,-0.29131],[-79.1833337,-0.3004164],[-79.1707361,-0.2840997]],[[-80.2307052,-0.7721368],[-80.2453699,-0.7862563],[-80.2250004,-0.7920831],[-80.2307052,-0.7721368]],[[-78.2436853,0.2546861],[-78.2699548,0.2508043],[-78.27863,0.2211168],[-78.2500004,0.2162502],[-78.2436853,0.2546861]],[[-79.9633386,-1.8547459],[-79.9755945,-1.8385268],[-79.9998051,-1.8796401],[-79.9750004,-1.8837498],[-79.9633386,-1.8547459]],[[-79.2333337,-3.9920831],[-79.2297042,-4.0134535],[-79.2016361,-4.0457127],[-79.1797042,-3.9917494],[-79.2210697,-3.9359552],[-79.22863,-3.9717869],[-79.2441329,-3.9837498],[-79.2333337,-3.9920831]],[[-80.1521244,-0.8462579],[-80.1589848,-0.8322198],[-80.1777999,-0.8489028],[-80.1583337,-0.8587498],[-80.1521244,-0.8462579]],[[-79.827629,-3.232407],[-79.84349,-3.2477228],[-79.8250004,-3.2504164],[-79.827629,-3.232407]],[[-78.9974044,-1.5666274],[-79.0142664,-1.5551202],[-79.0082605,-1.595794],[-78.9916671,-1.6004164],[-78.9974044,-1.5666274]],[[-78.6303733,-1.6441517],[-78.6541671,-1.6467706],[-78.6738802,-1.6450742]],[[-78.6738802,-1.6450742],[-78.6523209,-1.654029],[-78.6303733,-1.6441517]],[[-79.4934737,-1.8098728],[-79.5081059,-1.7886814],[-79.5534021,-1.7989028],[-79.5465011,-1.8223321],[-79.528752,-1.8183526],[-79.5000004,-1.8254164],[-79.4934737,-1.8098728]],[[-78.8335779,-2.7261814],[-78.8608647,-2.7134535],[-78.8529952,-2.7666681],[-78.8416671,-2.7754164],[-78.8335779,-2.7261814]],[[-79.552629,-4.3157403],[-79.56849,-4.3310561],[-79.5500004,-4.3337498],[-79.552629,-4.3157403]],[[-80.8809441,-2.20765],[-80.9113311,-2.219123]],[[-80.8996995,-2.2546133],[-80.856295,-2.2412277]],[[-79.871654,-2.1531825],[-79.8771163,-2.1162286],[-79.8816541,-2.1046854]],[[-79.8723373,-2.153935],[-79.871654,-2.1531825]],[[-79.8896512,-2.0816348],[-79.8868249,-2.0624933],[-79.8999111,-2.0523823]],[[-79.6277999,-1.0365493],[-79.6527999,-1.0361505],[-79.6434086,-1.0553806],[-79.6166671,-1.0587498],[-79.6277999,-1.0365493]],[[-78.9373376,-2.5484877],[-78.9529545,-2.5563328],[-78.9333337,-2.5670831],[-78.9373376,-2.5484877]],[[-80.2307052,-1.8054702],[-80.2453699,-1.8195896],[-80.2250004,-1.8254164],[-80.2307052,-1.8054702]],[[-79.2319828,-0.9305678],[-79.2452966,-0.9455499],[-79.2166671,-0.9504164],[-79.2319828,-0.9305678]],[[-78.8337895,1.3030341],[-78.8455977,1.2809475],[-78.8250004,1.2745835],[-78.8337895,1.3030341]],[[-78.5569096,-0.5057957],[-78.5703129,-0.497617],[-78.5777999,-0.5197849],[-78.5666671,-0.5254164],[-78.5569096,-0.5057957]],[[-78.5689409,-0.3517378],[-78.5505375,-0.3747491],[-78.520413,-0.3570374]],[[-78.5859623,-1.032407],[-78.6018233,-1.0477228],[-78.5833337,-1.0504164],[-78.5859623,-1.032407]],[[-80.6797986,-0.9892652],[-80.694458,-0.991772],[-80.6990544,-1.0048868]],[[-80.6990544,-1.0048868],[-80.6833337,-1.0087498],[-80.6797986,-0.9892652]],[[-80.6777722,-0.9838375],[-80.6632654,-0.9615574],[-80.665274,-0.9568121]],[[-80.665274,-0.9568121],[-80.6777722,-0.9838375]],[[-79.9339929,-4.3725681],[-79.95363,-4.3828464],[-79.9416671,-4.3920831],[-79.9339929,-4.3725681]],[[-78.4677312,-0.3630463],[-78.4325037,-0.3640558],[-78.4188643,-0.3316909],[-78.4279467,-0.3162446]],[[-78.6738802,-1.6450742],[-78.6889652,-1.6469496],[-78.6838464,-1.688128],[-78.6166671,-1.6920831],[-78.6303733,-1.6441517]],[[-79.8923262,-1.3559015],[-79.9119633,-1.3661798],[-79.9000004,-1.3754164],[-79.8923262,-1.3559015]],[[-79.0390385,-1.6971368],[-79.0537032,-1.7112563],[-79.0333337,-1.7170831],[-79.0390385,-1.6971368]],[[-78.1069096,-2.2974623],[-78.1203129,-2.2892836],[-78.1277999,-2.3114516],[-78.1166671,-2.3170831],[-78.1069096,-2.2974623]],[[-79.5604252,-1.6147312],[-79.5696212,-1.6295261],[-79.5500004,-1.6337498],[-79.5604252,-1.6147312]],[[-79.6140385,-2.6638035],[-79.6287032,-2.6779229],[-79.6083337,-2.6837498],[-79.6140385,-2.6638035]],[[-79.5637943,-2.1440688],[-79.5705652,-2.1058771],[-79.601628,-2.1125991],[-79.6195398,-2.135711],[-79.6051843,-2.1652439],[-79.5914473,-2.1590753],[-79.5750004,-2.1670831],[-79.5637943,-2.1440688]],[[-79.7455815,-1.5394464],[-79.7614343,-1.5625665],[-79.7416671,-1.5670831],[-79.7455815,-1.5394464]],[[-80.0880375,-0.7123793],[-80.0725346,-0.7004164],[-80.0954187,-0.6827569],[-80.1202966,-0.7010512],[-80.0916671,-0.7170831],[-80.0880375,-0.7123793]],[[-79.4589929,0.3357652],[-79.47863,0.3254869],[-79.4666671,0.3162502],[-79.4589929,0.3357652]],[[-79.8811883,-2.2174847],[-79.8701908,-2.1797621],[-79.870674,-2.1598125]],[[-79.8708183,-2.1588363],[-79.871654,-2.1531825]],[[-79.7960697,-2.1960138],[-79.781991,-2.1567722],[-79.8315596,-2.1317234],[-79.8622644,-2.1845392],[-79.8372644,-2.1960138],[-79.8221358,-2.212949],[-79.8000004,-2.2170831],[-79.7960697,-2.1960138]],[[-79.4771814,-0.8944106],[-79.4906905,-0.872088],[-79.5033289,-0.9037612],[-79.4833337,-0.9087498],[-79.4771814,-0.8944106]],[[-79.7767419,-3.3249282],[-79.8054936,-3.3133803],[-79.8287032,-3.3364109],[-79.7833337,-3.3420831],[-79.7767419,-3.3249282]],[[-80.1993992,-3.4872605],[-80.2170333,-3.4556655],[-80.2388023,-3.4678091],[-80.2323207,-3.4886686],[-80.206522,-3.4907423],[-80.1993992,-3.4872605]],[[-77.9861332,-1.4865493],[-78.0031335,-1.4651463],[-78.0193119,-1.4971205],[-77.9833337,-1.5004164],[-77.9861332,-1.4865493]],[[-80.3800704,-2.6289239],[-80.3930587,-2.6134535],[-80.40363,-2.6366469],[-80.3904037,-2.6408908],[-80.3751169,-2.6580645],[-80.3800704,-2.6289239]],[[-79.696143,0.8957261],[-79.6626876,0.9106513],[-79.6364946,0.9612899],[-79.6449051,0.9630271],[-79.6447144,0.9778701],[-79.6519852,0.982882],[-79.6752772,0.9691995],[-79.6788578,0.953441],[-79.696143,0.9457261],[-79.7038578,0.9117743],[-79.7205082,0.897427],[-79.7000004,0.8912502],[-79.696143,0.8957261]],[[-78.2609623,0.3092597],[-78.2768233,0.2939439],[-78.2583337,0.2912502],[-78.2609623,0.3092597]],[[-80.665274,-0.9568121],[-80.6700688,-0.9454848],[-80.6940252,-0.9417117],[-80.7161102,-0.947709],[-80.735466,-0.936619],[-80.7692642,-0.946619],[-80.7806156,-0.9548761],[-80.7632654,-0.9720148],[-80.734644,-0.9793552],[-80.7399662,-1.0030939],[-80.7250004,-1.0064549],[-80.6990544,-1.0048868]],[[-80.6797986,-0.9892652],[-80.6777722,-0.9838375]],[[-78.1585308,0.0283327],[-78.1416671,0.0162502],[-78.1300704,0.0643785],[-78.1482263,0.0607896],[-78.1588358,0.0372898],[-78.1585308,0.0283327]]],"bbox":[-90.3279545,-4.3920831,-76.8686283,1.3030341]}