{"type":"Topology","objects":{"foo":{"type":"GeometryCollection","geometries":[{"type":"MultiPolygon","arcs":[[[0,1]],[[2,3]]],"properties":{"name":"Komo-Mondah","gaul_code":16358,"targetarea":1.9286886,"totpop":203325.015972,"country_id":"GAB","targetpop":2215.3685608,"new_mean":0.0184602,"totalarea":5648.0933132}},{"type":"Polygon","arcs":[[4,-2,5,-4]],"properties":{"name":"Libreville","gaul_code":16359,"targetarea":223.8308718,"totpop":861753.229767,"country_id":"GAB","targetpop":793858.461609,"new_mean":0.0663794,"totalarea":271.76208}}]}},"arcs":[[[9.5790999,0.3918772],[9.5771477,0.4111233],[9.5617768,0.4305386]],[[9.5617768,0.4305386],[9.5723581,0.411344],[9.5790999,0.3918772]],[[9.5466185,0.4496854],[9.535302,0.4639797],[9.526387,0.4659568]],[[9.526387,0.4659568],[9.5466185,0.4496854]],[[9.526387,0.4659568],[9.44969,0.4829657],[9.4070772,0.4786223],[9.3975915,0.4752676],[9.4149189,0.4531409],[9.42346,0.4297519],[9.4331274,0.409812],[9.4439096,0.396075],[9.4526482,0.379806],[9.4730434,0.359218],[9.4792566,0.346613],[9.4843636,0.325279],[9.4933205,0.3113071],[9.4977055,0.298696],[9.5103121,0.2847379],[9.5186996,0.299004],[9.5314388,0.3091539],[9.5362467,0.3020043],[9.5464185,0.3104559],[9.5414543,0.3591539],[9.5545565,0.3700344],[9.5621086,0.3791327],[9.5796216,0.3867336],[9.5790999,0.3918772]],[[9.5617768,0.4305386],[9.560288,0.4324192],[9.5498732,0.4455744],[9.5466185,0.4496854]]],"bbox":[9.3975915,0.2847379,9.5796216,0.4829657]}