{"type":"Topology","objects":{"foo":{"type":"GeometryCollection","geometries":[{"type":"Polygon","arcs":[[0]],"properties":{"name":"Kindia","gaul_code":40730,"targetarea":34.3284595,"totpop":503482.907262,"country_id":"GIN","targetpop":73146.2404785,"new_mean":0.0722493,"totalarea":8780.0590506}},{"type":"Polygon","arcs":[[1]],"properties":{"name":"Pita","gaul_code":40739,"targetarea":6.3762092,"totpop":293554.350982,"country_id":"GIN","targetpop":9576.8989258,"new_mean":0.0767763,"totalarea":4496.3242488}},{"type":"Polygon","arcs":[[2]],"properties":{"name":"Siguiri","gaul_code":40725,"targetarea":15.260666,"totpop":962531.880149,"country_id":"GIN","targetpop":31443.1010742,"new_mean":0.0224171,"totalarea":17649.3567683}},{"type":"Polygon","arcs":[[3]],"properties":{"name":"Kissidougou","gaul_code":40720,"targetarea":15.5064366,"totpop":310462.850095,"country_id":"GIN","targetpop":27709.9001465,"new_mean":0.081759,"totalarea":6187.6676828}},{"type":"Polygon","arcs":[[4]],"properties":{"name":"Labe","gaul_code":40733,"targetarea":45.8948692,"totpop":349943.18445,"country_id":"GIN","targetpop":138739.38208,"new_mean":0.0578242,"totalarea":2107.0899243}},{"type":"Polygon","arcs":[[5]],"properties":{"name":"Forecariah","gaul_code":40728,"targetarea":7.1669423,"totpop":273081.129573,"country_id":"GIN","targetpop":22674.7158203,"new_mean":0.067052,"totalarea":4214.0599797}},{"type":"Polygon","arcs":[[6,7,8,9]],"properties":{"name":"Matam","gaul_code":40714,"targetarea":19.1925703,"totpop":244345.313469,"country_id":"GIN","targetpop":244345.313469,"new_mean":0.0593817,"totalarea":19.342182}},{"type":"Polygon","arcs":[[10,11,12]],"properties":{"name":"Dubreka","gaul_code":40727,"targetarea":80.262425,"totpop":565728.542254,"country_id":"GIN","targetpop":338210.026733,"new_mean":0.0343191,"totalarea":3978.8054373}},{"type":"Polygon","arcs":[[13]],"properties":{"name":"Kankan","gaul_code":40721,"targetarea":67.320404,"totpop":577968.781014,"country_id":"GIN","targetpop":184765.063599,"new_mean":0.048762,"totalarea":17310.9374857}},{"type":"Polygon","arcs":[[-12,14,15,16,17]],"properties":{"name":"Ratoma","gaul_code":40716,"targetarea":110.4901139,"totpop":732252.23521,"country_id":"GIN","targetpop":710011.162964,"new_mean":0.0283203,"totalarea":148.4636722}},{"type":"Polygon","arcs":[[18]],"properties":{"name":"Faranah","gaul_code":40719,"targetarea":8.9937256,"totpop":343609.783695,"country_id":"GIN","targetpop":14365.8900146,"new_mean":0.0730538,"totalarea":12873.4792203}},{"type":"Polygon","arcs":[[19,20,-8]],"properties":{"name":"Kaloum","gaul_code":40713,"targetarea":32.134494,"totpop":113666.672994,"country_id":"GIN","targetpop":112886.16024,"new_mean":0.1983965,"totalarea":52.112129}},{"type":"Polygon","arcs":[[-16,21,-20,-7]],"properties":{"name":"Dixinn","gaul_code":40712,"targetarea":30.7415426,"totpop":210916.544556,"country_id":"GIN","targetpop":210916.544556,"new_mean":0.0464013,"totalarea":30.7415427}},{"type":"Polygon","arcs":[[22]],"properties":{"name":"Mamou","gaul_code":40738,"targetarea":20.5934323,"totpop":352515.067744,"country_id":"GIN","targetpop":45401.5192871,"new_mean":0.0806548,"totalarea":10187.6225314}},{"type":"Polygon","arcs":[[23,-17,-10,24]],"properties":{"name":"Matoto","gaul_code":40715,"targetarea":88.5338624,"totpop":586884.616287,"country_id":"GIN","targetpop":540867.889893,"new_mean":0.0345656,"totalarea":189.9123285}},{"type":"Polygon","arcs":[[25,-13,-18,-24]],"properties":{"name":"Coyah","gaul_code":40726,"targetarea":67.4791682,"totpop":419176.101808,"country_id":"GIN","targetpop":352425.811768,"new_mean":0.0419674,"totalarea":1140.9265675}},{"type":"Polygon","arcs":[[26]],"properties":{"name":"N'Zerekore","gaul_code":40744,"targetarea":53.4274499,"totpop":450797.055388,"country_id":"GIN","targetpop":202041.965698,"new_mean":0.0565156,"totalarea":4068.3567099}},{"type":"Polygon","arcs":[[27]],"properties":{"name":"Macenta","gaul_code":40743,"targetarea":11.7921189,"totpop":280393.910955,"country_id":"GIN","targetpop":21744.5333252,"new_mean":0.0728012,"totalarea":8009.0357222}}]}},"arcs":[[[-12.8234219,10.0398342],[-12.8497403,10.0779404],[-12.8821621,10.0555527],[-12.9000658,10.0129299],[-12.8581061,10.0223374],[-12.833334,10.0162502],[-12.8234219,10.0398342]],[[-12.3883959,11.0695054],[-12.3998867,11.0863958],[-12.4118171,11.0497178],[-12.4000007,11.0412502],[-12.3883959,11.0695054]],[[-9.1480964,11.4412461],[-9.1835293,11.4333034],[-9.195069,11.4037624],[-9.158334,11.3995835],[-9.1480964,11.4412461]],[[-10.0784838,9.1874253],[-10.1033373,9.2209418],[-10.1202969,9.2216823],[-10.1004076,9.1711004],[-10.083334,9.1579168],[-10.0784838,9.1874253]],[[-12.2522956,11.3178452],[-12.2535977,11.3458359],[-12.2695156,11.3616237],[-12.3313321,11.3252834],[-12.3281745,11.2999863],[-12.258334,11.2912502],[-12.2522956,11.3178452]],[[-13.0723314,9.4383856],[-13.1111335,9.4388495],[-13.1019375,9.4200059],[-13.083334,9.4162502],[-13.0723314,9.4383856]],[[-13.5885,9.6230001],[-13.6354504,9.5743198]],[[-13.6354504,9.5743198],[-13.6265356,9.5571617]],[[-13.6265356,9.5571617],[-13.6000242,9.5592859]],[[-13.6000242,9.5592859],[-13.5907702,9.5683386],[-13.5906192,9.5719736],[-13.5885,9.6230001]],[[-13.4149972,9.754573],[-13.4544766,9.7617743],[-13.4632005,9.7907741],[-13.4645026,9.8411037],[-13.5044766,9.8207261],[-13.542058,9.7860459],[-13.5219082,9.7499416],[-13.5314769,9.7416958]],[[-13.5314769,9.7416958],[-13.475049,9.7328577]],[[-13.475049,9.7328577],[-13.4464502,9.7368479],[-13.4149972,9.754573]],[[-9.233334,10.3995835],[-9.2515306,10.4221909],[-9.270069,10.4166856],[-9.2591315,10.3679225],[-9.2943854,10.3827215],[-9.3034024,10.3696519],[-9.3420905,10.3620998],[-9.3263841,10.3247056],[-9.303793,10.3297674],[-9.2873868,10.3190863],[-9.246599,10.3545152],[-9.2137377,10.3668076],[-9.2299323,10.3779852],[-9.233334,10.3995835]],[[-13.5314769,9.7416958],[-13.5504564,9.7253403],[-13.5927253,9.7064764],[-13.6225755,9.6853216],[-13.6311275,9.6543275]],[[-13.6311275,9.6543275],[-13.5885,9.6230001]],[[-13.5885,9.6230001],[-13.4988604,9.6954803]],[[-13.4988604,9.6954803],[-13.4751778,9.7219477],[-13.475049,9.7328577]],[[-10.7285,10.0457017],[-10.7370449,10.0615464],[-10.7619636,10.0421494],[-10.733334,10.0162502],[-10.7285,10.0457017]],[[-13.6354504,9.5743198],[-13.6562814,9.6051205]],[[-13.6562814,9.6051205],[-13.6718397,9.5578556],[-13.6991215,9.5236244],[-13.7217588,9.5167818],[-13.7146375,9.5022541],[-13.6679497,9.5344381],[-13.6265356,9.5571617]],[[-13.6311275,9.6543275],[-13.632637,9.6338511],[-13.6562814,9.6051205]],[[-12.0611335,10.3801174],[-12.075668,10.4093573],[-12.104265,10.3844387],[-12.1111335,10.36105],[-12.058334,10.3579168],[-12.0611335,10.3801174]],[[-13.4790951,9.6653188],[-13.4948702,9.6780567],[-13.4988604,9.6954803]],[[-13.6000242,9.5592859],[-13.5826341,9.5390895],[-13.5581061,9.5782456],[-13.4776699,9.6475449],[-13.4790951,9.6653188]],[[-13.4790951,9.6653188],[-13.4802416,9.6796169],[-13.4334805,9.7004828],[-13.388461,9.6839544],[-13.3629076,9.7136135],[-13.3961432,9.7284409],[-13.4149972,9.754573]],[[-8.8130378,7.720954],[-8.7786302,7.7448797],[-8.7713711,7.7666123],[-8.8213386,7.7805243],[-8.8412605,7.7775783],[-8.8555671,7.7590399],[-8.8526049,7.7140611],[-8.8166674,7.6995835],[-8.8130378,7.720954]],[[-9.4446296,8.5541042],[-9.47142,8.5615464],[-9.4952969,8.5406113],[-9.4666673,8.5245835],[-9.4446296,8.5541042]]],"bbox":[-13.7217588,7.6995835,-8.7713711,11.4412461]}