{"type":"Topology","objects":{"foo":{"type":"GeometryCollection","geometries":[{"type":"MultiPolygon","arcs":[[[0]],[[1,2]]],"properties":{"name":"Banjul","gaul_code":16405,"targetarea":2.3870177,"totpop":15990.5642929,"country_id":"GMB","targetpop":0,"totalarea":10.8298654,"new_mean":0.0110612}},{"type":"Polygon","arcs":[[3,4,5,6,7,8,9,10,11]],"properties":{"name":"Kombo North","gaul_code":16440,"targetarea":145.5689398,"totpop":572447.142242,"country_id":"GMB","targetpop":544208.841141,"totalarea":179.4376727,"new_mean":0.0127316}},{"type":"Polygon","arcs":[[12,-4,13,-3]],"properties":{"name":"Kombo Saint Mary","gaul_code":16416,"targetarea":57.7929067,"totpop":387759.199615,"country_id":"GMB","targetpop":370845.218933,"totalarea":80.2124855,"new_mean":0.0125573}},{"type":"MultiPolygon","arcs":[[[14]],[[15,16,17],[18]],[[19,-11,20,21]]],"properties":{"name":"Kombo Central","gaul_code":16438,"targetarea":46.1698831,"totpop":211907.565216,"country_id":"GMB","targetpop":103803.806519,"totalarea":205.1217133,"new_mean":0.0076254}},{"type":"MultiPolygon","arcs":[[[22]],[[23]],[[-17,24]],[[-10,25,-21]],[[-8,26]],[[-6,27]]],"properties":{"name":"Kombo South","gaul_code":16441,"targetarea":8.2351771,"totpop":174202.540455,"country_id":"GMB","targetpop":16788.4137573,"totalarea":327.4763338,"new_mean":0.0079946}},{"type":"Polygon","arcs":[[28]],"properties":{"name":"Lower Niumi","gaul_code":16426,"targetarea":1.9702973,"totpop":72621.479671,"country_id":"GMB","targetpop":1502.5542908,"totalarea":406.5878356,"new_mean":0.012831}}]}},"arcs":[[[-16.5798225,13.4546041],[-16.5857811,13.4590979],[-16.5939427,13.461756],[-16.5849779,13.4448268],[-16.5748027,13.4428393],[-16.5798225,13.4546041]],[[-16.61578,13.4633946],[-16.6130378,13.4645168],[-16.6248951,13.471837],[-16.6269189,13.4719264]],[[-16.6269189,13.4719264],[-16.6282654,13.466939],[-16.6266232,13.4656239],[-16.6218567,13.467103],[-16.6195164,13.46665],[-16.61578,13.4633946]],[[-16.6260334,13.4003805],[-16.629488,13.4006424],[-16.6332455,13.3993673],[-16.6357288,13.4042654],[-16.6404266,13.4034605],[-16.6432438,13.4005747],[-16.644804,13.3943348],[-16.6503563,13.3923883],[-16.6524429,13.3942604],[-16.6625919,13.4006958],[-16.6742249,13.409358],[-16.6901817,13.4199848],[-16.7009125,13.4281816],[-16.7079163,13.4357815],[-16.7159634,13.4427862],[-16.7224184,13.4527816]],[[-16.7224184,13.4527816],[-16.7538581,13.4075669],[-16.7612373,13.4018715],[-16.7657299,13.3974028],[-16.770256,13.3949108],[-16.8023607,13.370132],[-16.8036321,13.3615472]],[[-16.8036321,13.3615472],[-16.7957802,13.36133],[-16.7903099,13.3651896],[-16.7874107,13.3643999],[-16.7892494,13.3616695],[-16.78829,13.3589802],[-16.7846909,13.3593798],[-16.7841892,13.3617096],[-16.7800962,13.3616734]],[[-16.7800962,13.3616734],[-16.7792975,13.3636257],[-16.7206712,13.3722886],[-16.7104935,13.3357414],[-16.7081025,13.3346537],[-16.6871751,13.3377467],[-16.6761778,13.3311139]],[[-16.6761778,13.3311139],[-16.6526096,13.330902]],[[-16.6526096,13.330902],[-16.6452969,13.3365464],[-16.6324388,13.3532131],[-16.6285,13.3457179],[-16.6298021,13.3369655],[-16.6282933,13.3304558]],[[-16.6282933,13.3304558],[-16.6175499,13.3303404]],[[-16.6175499,13.3303404],[-16.6099995,13.3304712]],[[-16.6099995,13.3304712],[-16.5869776,13.3615287],[-16.5954305,13.3816445],[-16.6130378,13.3865464],[-16.6202969,13.3959539],[-16.6260334,13.4003805]],[[-16.6269189,13.4719264],[-16.6381817,13.4717236],[-16.6623173,13.4682961],[-16.6670628,13.4707394],[-16.6709232,13.4759588],[-16.6753445,13.4859972],[-16.6798592,13.4886751],[-16.6843222,13.4885936],[-16.697977,13.4780516],[-16.7046757,13.4716635],[-16.7128099,13.4666001],[-16.7224184,13.4527816]],[[-16.6260334,13.4003805],[-16.6443529,13.4145168],[-16.6495286,13.4495835],[-16.61578,13.4633946]],[[-16.6445156,13.2264105],[-16.6518236,13.2191025],[-16.6416673,13.2162502],[-16.6445156,13.2264105]],[[-16.6250007,13.3162502],[-16.6421784,13.3140533]],[[-16.6421784,13.3140533],[-16.6653064,13.299526]],[[-16.6653064,13.299526],[-16.6856126,13.2750718],[-16.6704434,13.2624701],[-16.6628587,13.2366237],[-16.6541673,13.2375067],[-16.640349,13.2360988],[-16.6045579,13.2895208],[-16.6212246,13.3033636],[-16.6250007,13.3162502]],[[-16.6518236,13.3024359],[-16.6445156,13.3097438],[-16.6416673,13.2995835],[-16.6518236,13.3024359]],[[-16.6250007,13.3162502],[-16.614584,13.3242865],[-16.6099995,13.3304712]],[[-16.6175499,13.3303404],[-16.6267981,13.3240051]],[[-16.6267981,13.3240051],[-16.6250007,13.3162502]],[[-16.7616706,13.1851873],[-16.7691576,13.1708848],[-16.758334,13.1662502],[-16.7616706,13.1851873]],[[-16.7611823,13.2764105],[-16.7684902,13.2691025],[-16.758334,13.2662502],[-16.7611823,13.2764105]],[[-16.6421784,13.3140533],[-16.6545579,13.3124701],[-16.6653064,13.299526]],[[-16.6282933,13.3304558],[-16.6267981,13.3240051]],[[-16.6761778,13.3311139],[-16.6627936,13.3230413],[-16.6526096,13.330902]],[[-16.8036321,13.3615472],[-16.8057135,13.347492],[-16.7870286,13.3447292],[-16.7800962,13.3616734]],[[-16.5437507,13.493598],[-16.5529466,13.4788031],[-16.533334,13.4745835],[-16.5437507,13.493598]]],"bbox":[-16.8057135,13.1662502,-16.533334,13.493598]}