{"type":"Topology","objects":{"foo":{"type":"GeometryCollection","geometries":[{"type":"Polygon","arcs":[[0]],"properties":{"name":"Administrative unit not available","gaul_code":15829,"targetarea":19.4711361,"totpop":317970.136009,"country_id":"GNQ","targetpop":32573.4123535,"totalarea":612.5103411,"new_mean":0.0213916}}]}},"arcs":[[[8.787199,3.7623689],[8.7794304,3.7575018],[8.7624826,3.755352],[8.7567244,3.761308],[8.7380364,3.7588161],[8.754703,3.745954],[8.7655917,3.7318427],[8.7749992,3.7245835],[8.7905429,3.7384792],[8.8094068,3.7356919],[8.8235841,3.7564597],[8.816329,3.7569818],[8.806035,3.753253],[8.800271,3.760359],[8.7906513,3.7591641],[8.787199,3.7623689]]],"bbox":[8.7380364,3.7245835,8.8235841,3.7623689]}