{"type":"Topology","objects":{"foo":{"type":"GeometryCollection","geometries":[{"type":"Polygon","arcs":[[0]],"properties":{"name":"Administrative unit not available","gaul_code":16734,"targetarea":0.5114256,"totpop":3899.3482075,"country_id":"GRD","targetpop":0,"totalarea":23.1882519,"new_mean":0.0204311}},{"type":"Polygon","arcs":[[1]],"properties":{"name":"Administrative unit not available","gaul_code":16731,"targetarea":2.263871,"totpop":25674.7218819,"country_id":"GRD","targetpop":4033.6299362,"totalarea":99.2858496,"new_mean":0.0204392}}]}},"arcs":[[[-61.7024543,12.1999783],[-61.7101567,12.1941025],[-61.7000005,12.1912502],[-61.7024543,12.1999783]],[[-61.6206207,12.116827],[-61.618271,12.1206287],[-61.6197433,12.1322983],[-61.6361333,12.1177638],[-61.6213491,12.1102852],[-61.6206207,12.116827]]],"bbox":[-61.7101567,12.1102852,-61.618271,12.1999783]}