{"type":"Topology","objects":{"foo":{"type":"GeometryCollection","geometries":[{"type":"MultiPolygon","arcs":[[[0,1]],[[2]]],"properties":{"name":"Mahaicony/berbice","gaul_code":17157,"targetarea":2.2861919,"totpop":43478.9759094,"country_id":"GUY","targetpop":3776.1865234,"totalarea":1123.9441776,"new_mean":0.020866}},{"type":"Polygon","arcs":[[3,-1]],"properties":{"name":"East Berbice/west Canje","gaul_code":17147,"targetarea":2.0537751,"totpop":19680.2323562,"country_id":"GUY","targetpop":5717.3883057,"totalarea":1150.149169,"new_mean":0.0217898}},{"type":"Polygon","arcs":[[4]],"properties":{"name":"East Canje/east Coast Berbice","gaul_code":17148,"targetarea":2.0523053,"totpop":36557.6762046,"country_id":"GUY","targetpop":6610.663208,"totalarea":360.9729017,"new_mean":0.0210185}},{"type":"MultiPolygon","arcs":[[[5,6]],[[7,8]]],"properties":{"name":"Moblissa/la Reconnaissance","gaul_code":17145,"targetarea":52.5096581,"totpop":229917.997397,"country_id":"GUY","targetpop":145646.466988,"totalarea":880.4221632,"new_mean":0.0223378}},{"type":"Polygon","arcs":[[9]],"properties":{"name":"Mazaruni/left Bank Essequibo River","gaul_code":17143,"targetarea":2.4660056,"totpop":17704.0935857,"country_id":"GUY","targetpop":2072.8924904,"totalarea":33315.4955253,"new_mean":0.0211646}},{"type":"MultiPolygon","arcs":[[[10]],[[11,-9,12]]],"properties":{"name":"Buxton/mahaica","gaul_code":17144,"targetarea":6.9342461,"totpop":60502.2369384,"country_id":"GUY","targetpop":9606.4446106,"totalarea":1120.1421186,"new_mean":0.0224459}},{"type":"Polygon","arcs":[[-6,13]],"properties":{"name":"Lower West Demerara River","gaul_code":17155,"targetarea":4.5568109,"totpop":61030.8599509,"country_id":"GUY","targetpop":8568.5741768,"totalarea":1238.0545106,"new_mean":0.0219857}},{"type":"MultiPolygon","arcs":[[[14]],[[15]]],"properties":{"name":"Bonasika/boerasirie","gaul_code":17153,"targetarea":2.6670491,"totpop":42990.405103,"country_id":"GUY","targetpop":4899.2796631,"totalarea":952.8756877,"new_mean":0.0218352}}]}},"arcs":[[[-57.5134994,6.2340982],[-57.5171663,6.2533823]],[[-57.5171663,6.2533823],[-57.5281011,6.2374375],[-57.5134994,6.2340982]],[[-57.5361903,6.2847438],[-57.5434901,6.2774359],[-57.5333338,6.2745835],[-57.5361903,6.2847438]],[[-57.5134994,6.2340982],[-57.5083338,6.2329169],[-57.5122482,6.2605536],[-57.5171663,6.2533823]],[[-57.3526291,6.267597],[-57.3684901,6.2522772],[-57.3500005,6.2495835],[-57.3526291,6.267597]],[[-58.1789516,6.8130499],[-58.1839727,6.8022166]],[[-58.1839727,6.8022166],[-58.1750005,6.7995835],[-58.1789516,6.8130499]],[[-58.0201911,6.8046395],[-58.0575063,6.8191364],[-58.1031113,6.8204618],[-58.1341209,6.826437],[-58.1465809,6.8345452],[-58.156189,6.8284388],[-58.1613808,6.809854],[-58.1678818,6.8084763],[-58.1740158,6.7708767],[-58.12037,6.7782904],[-58.1069341,6.8101833],[-58.0817469,6.8133164],[-58.07037,6.80421],[-58.0629644,6.7949571],[-58.02467,6.7882918]],[[-58.02467,6.7882918],[-58.0201911,6.8046395]],[[-58.6131385,6.4151338],[-58.6248863,6.4145002],[-58.6339332,6.4074902],[-58.6144901,6.401485],[-58.6131385,6.4151338]],[[-58.0000005,6.7745835],[-57.9846847,6.7547349],[-57.9778242,6.7624572],[-57.9878652,6.7725225],[-58.0000005,6.7745835]],[[-58.0000005,6.7745835],[-58.0062806,6.7965498],[-58.0201911,6.8046395]],[[-58.02467,6.7882918],[-58.02037,6.7875433],[-58.0000005,6.7745835]],[[-58.1789516,6.8130499],[-58.180632,6.818777],[-58.212118,6.8104763],[-58.1839727,6.8022166]],[[-58.2916672,6.8745835],[-58.2871424,6.8640041],[-58.2725021,6.8712062],[-58.2916672,6.8745835]],[[-58.2916672,6.8745835],[-58.2961919,6.885163],[-58.3108322,6.8779608],[-58.2916672,6.8745835]]],"bbox":[-58.6339332,6.2329169,-57.3500005,6.885163]}