{"type":"Topology","objects":{"foo":{"type":"GeometryCollection","geometries":[{"type":"Polygon","arcs":[[0]],"properties":{"name":"Morazan","gaul_code":17493,"targetarea":1.9119353,"totpop":45121.3111668,"country_id":"HND","targetpop":4408.1542969,"totalarea":507.2192574,"new_mean":0.0289525}},{"type":"Polygon","arcs":[[1]],"properties":{"name":"Talanga","gaul_code":17322,"targetarea":2.6508529,"totpop":39914.5694027,"country_id":"HND","targetpop":6449.9731445,"totalarea":424.0661182,"new_mean":0.0279945}},{"type":"MultiPolygon","arcs":[[[2,3,4]],[[5]]],"properties":{"name":"La Lima","gaul_code":17287,"targetarea":14.7770691,"totpop":70116.9013844,"country_id":"HND","targetpop":45630.2358398,"totalarea":129.4114027,"new_mean":0.026675}},{"type":"MultiPolygon","arcs":[[[6,7]],[[8]],[[9]],[[10]]],"properties":{"name":"Distrito Central","gaul_code":17301,"targetarea":289.8451009,"totpop":1307047.32175,"country_id":"HND","targetpop":913907.48584,"totalarea":1477.6692135,"new_mean":0.0282}},{"type":"Polygon","arcs":[[11,12]],"properties":{"name":"Potrerillos","gaul_code":17290,"targetarea":3.1847884,"totpop":19936.2703726,"country_id":"HND","targetpop":11509.8590088,"totalarea":91.2899477,"new_mean":0.0280442}},{"type":"Polygon","arcs":[[13]],"properties":{"name":"Gracias","gaul_code":17372,"targetarea":3.9103236,"totpop":58279.2636728,"country_id":"HND","targetpop":10641.1848145,"totalarea":429.225377,"new_mean":0.0283349}},{"type":"MultiPolygon","arcs":[[[14]],[[15]],[[16,17,18,19,20,-4]]],"properties":{"name":"San Pedro Sula","gaul_code":17295,"targetarea":195.8125044,"totpop":859885.296068,"country_id":"HND","targetpop":702826.015015,"totalarea":913.5393925,"new_mean":0.0284769}},{"type":"Polygon","arcs":[[21]],"properties":{"name":"Saba","gaul_code":17236,"targetarea":3.3916885,"totpop":30658.7523847,"country_id":"HND","targetpop":6614.1065674,"totalarea":363.8229711,"new_mean":0.0291345}},{"type":"Polygon","arcs":[[22]],"properties":{"name":"Guaimaca","gaul_code":17303,"targetarea":1.7090905,"totpop":32752.4125353,"country_id":"HND","targetpop":4096.5322266,"totalarea":784.960561,"new_mean":0.0274909}},{"type":"Polygon","arcs":[[23,-8]],"properties":{"name":"Santa Lucia","gaul_code":17321,"targetarea":3.687482,"totpop":28147.9486275,"country_id":"HND","targetpop":7539.3435669,"totalarea":58.8589168,"new_mean":0.0282365}},{"type":"MultiPolygon","arcs":[[[24]],[[25]]],"properties":{"name":"Puerto Cortes","gaul_code":17291,"targetarea":25.7252008,"totpop":123103.363335,"country_id":"HND","targetpop":66464.290741,"totalarea":357.0745504,"new_mean":0.0291627}},{"type":"MultiPolygon","arcs":[[[26]],[[27]]],"properties":{"name":"Tela","gaul_code":17215,"targetarea":11.1234202,"totpop":96742.2847101,"country_id":"HND","targetpop":23733.8533936,"totalarea":1217.9211329,"new_mean":0.0293502}},{"type":"Polygon","arcs":[[28]],"properties":{"name":"Tocoa","gaul_code":17240,"targetarea":14.8196021,"totpop":110449.322762,"country_id":"HND","targetpop":52331.0388184,"totalarea":895.0265908,"new_mean":0.0281935}},{"type":"Polygon","arcs":[[29]],"properties":{"name":"Siguatepeque","gaul_code":17260,"targetarea":18.0662867,"totpop":118366.207382,"country_id":"HND","targetpop":67954.7977295,"totalarea":377.3902446,"new_mean":0.0283561}},{"type":"Polygon","arcs":[[30]],"properties":{"name":"La Paz","gaul_code":17354,"targetarea":6.9150951,"totpop":44121.6587553,"country_id":"HND","targetpop":12304.0717773,"totalarea":218.917844,"new_mean":0.0288794}},{"type":"Polygon","arcs":[[30]],"properties":{"name":"La Paz","gaul_code":17354,"targetarea":6.9150951,"totpop":44121.6587553,"country_id":"HND","targetpop":12304.0717773,"totalarea":218.917844,"new_mean":0.0284394}},{"type":"Polygon","arcs":[[31]],"properties":{"name":"Las Vegas","gaul_code":17463,"targetarea":3.6403013,"totpop":24396.1561274,"country_id":"HND","targetpop":8666.9450684,"totalarea":124.728187,"new_mean":0.0288777}},{"type":"Polygon","arcs":[[32]],"properties":{"name":"San Marcos De Colon","gaul_code":17230,"targetarea":1.9277049,"totpop":30769.9990438,"country_id":"HND","targetpop":4077.328125,"totalarea":609.6789987,"new_mean":0.0289607}},{"type":"Polygon","arcs":[[33]],"properties":{"name":"Catacamas","gaul_code":17413,"targetarea":15.938836,"totpop":196292.869037,"country_id":"HND","targetpop":41495.96521,"totalarea":8762.6384147,"new_mean":0.0268242}},{"type":"Polygon","arcs":[[34]],"properties":{"name":"Santa Cruz De Yojoa","gaul_code":17296,"targetarea":2.2205368,"totpop":86345.4341168,"country_id":"HND","targetpop":4561.6005859,"totalarea":779.1694915,"new_mean":0.0277365}},{"type":"Polygon","arcs":[[35]],"properties":{"name":"El Paraiso","gaul_code":17437,"targetarea":7.4497873,"totpop":52529.215281,"country_id":"HND","targetpop":18649.9365234,"totalarea":388.8920119,"new_mean":0.027866}},{"type":"Polygon","arcs":[[36]],"properties":{"name":"Santa Barbara","gaul_code":17477,"targetarea":5.0941943,"totpop":52107.3377056,"country_id":"HND","targetpop":11156.4338379,"totalarea":303.8629582,"new_mean":0.0280829}},{"type":"Polygon","arcs":[[37]],"properties":{"name":"Juticalpa","gaul_code":17423,"targetarea":14.0406238,"totpop":151651.213968,"country_id":"HND","targetpop":60268.2965088,"totalarea":2677.9316467,"new_mean":0.0268296}},{"type":"Polygon","arcs":[[38]],"properties":{"name":"La Ceiba","gaul_code":17212,"targetarea":44.9071664,"totpop":215452.101406,"country_id":"HND","targetpop":174499.001587,"totalarea":645.7592704,"new_mean":0.0295888}},{"type":"MultiPolygon","arcs":[[[39]],[[40]]],"properties":{"name":"Roatan","gaul_code":17347,"targetarea":8.3704444,"totpop":28746.6999493,"country_id":"HND","targetpop":20064.3370361,"totalarea":89.221372,"new_mean":0.0294318}},{"type":"MultiPolygon","arcs":[[[41,42]],[[43]],[[44,45]]],"properties":{"name":"San Manuel","gaul_code":17294,"targetarea":8.3210451,"totpop":56992.2346916,"country_id":"HND","targetpop":22743.0256348,"totalarea":134.47099,"new_mean":0.027788}},{"type":"MultiPolygon","arcs":[[[46]],[[47]]],"properties":{"name":"El Progreso","gaul_code":17491,"targetarea":36.6334706,"totpop":208077.106943,"country_id":"HND","targetpop":98669.1494751,"totalarea":548.8361506,"new_mean":0.0285388}},{"type":"Polygon","arcs":[[48]],"properties":{"name":"San Lorenzo","gaul_code":17488,"targetarea":7.1949435,"totpop":44285.131361,"country_id":"HND","targetpop":16133.8823242,"totalarea":180.372717,"new_mean":0.029961}},{"type":"MultiPolygon","arcs":[[[49]],[[50]]],"properties":{"name":"Comayagua","gaul_code":17243,"targetarea":33.2551057,"totpop":184279.60629,"country_id":"HND","targetpop":85866.071106,"totalarea":791.4615177,"new_mean":0.0283811}},{"type":"Polygon","arcs":[[51]],"properties":{"name":"Yoro","gaul_code":17499,"targetarea":6.129514,"totpop":109112.666043,"country_id":"HND","targetpop":22138.7608643,"totalarea":2253.1784085,"new_mean":0.0281114}},{"type":"Polygon","arcs":[[52]],"properties":{"name":"Intibuca","gaul_code":17333,"targetarea":6.4743438,"totpop":71761.8954206,"country_id":"HND","targetpop":18180.3172607,"totalarea":518.7029621,"new_mean":0.0290339}},{"type":"Polygon","arcs":[[53]],"properties":{"name":"Olanchito","gaul_code":17494,"targetarea":13.2417443,"totpop":128673.157589,"country_id":"HND","targetpop":34179.9642334,"totalarea":2144.3231277,"new_mean":0.0277092}},{"type":"Polygon","arcs":[[54]],"properties":{"name":"Nueva Arcadia","gaul_code":17274,"targetarea":6.9451319,"totpop":47463.2619171,"country_id":"HND","targetpop":16435.25354,"totalarea":155.8889191,"new_mean":0.0266755}},{"type":"Polygon","arcs":[[55]],"properties":{"name":"San Francisco","gaul_code":17214,"targetarea":2.8396099,"totpop":23240.6336532,"country_id":"HND","targetpop":7261.6099853,"totalarea":281.4530528,"new_mean":0.0294761}},{"type":"Polygon","arcs":[[56]],"properties":{"name":"Santa Rita","gaul_code":17495,"targetarea":4.9539254,"totpop":23712.0943143,"country_id":"HND","targetpop":11373.4967041,"totalarea":118.0293423,"new_mean":0.028042}},{"type":"Polygon","arcs":[[56]],"properties":{"name":"Santa Rita","gaul_code":17495,"targetarea":4.9539254,"totpop":23712.0943143,"country_id":"HND","targetpop":11373.4967041,"totalarea":118.0293423,"new_mean":0.0281678}},{"type":"Polygon","arcs":[[57]],"properties":{"name":"Sinuapa","gaul_code":17411,"targetarea":3.5412161,"totpop":25120.5402069,"country_id":"HND","targetpop":9748.4219971,"totalarea":127.4740762,"new_mean":0.0291421}},{"type":"MultiPolygon","arcs":[[[58]],[[59,-43,60]],[[-20,61,-46,62]]],"properties":{"name":"Villanueva","gaul_code":17297,"targetarea":40.569409,"totpop":190622.257151,"country_id":"HND","targetpop":133827.183105,"totalarea":347.7182963,"new_mean":0.0281326}},{"type":"Polygon","arcs":[[63]],"properties":{"name":"Nacaome","gaul_code":17486,"targetarea":2.2433393,"totpop":67052.7167525,"country_id":"HND","targetpop":7412.223999,"totalarea":664.5937892,"new_mean":0.0298151}},{"type":"MultiPolygon","arcs":[[[64,-18]],[[65]],[[66]]],"properties":{"name":"Choloma","gaul_code":17286,"targetarea":63.3881939,"totpop":273964.903507,"country_id":"HND","targetpop":165768.054138,"totalarea":433.5061141,"new_mean":0.0283676}},{"type":"Polygon","arcs":[[67]],"properties":{"name":"Sonaguera","gaul_code":17239,"targetarea":3.0957362,"totpop":49192.6213531,"country_id":"HND","targetpop":5604.9296875,"totalarea":446.6947131,"new_mean":0.0289339}},{"type":"Polygon","arcs":[[68]],"properties":{"name":"Choluteca","gaul_code":17217,"targetarea":2.7872139,"totpop":165314.133295,"country_id":"HND","targetpop":6544.0385742,"totalarea":1082.8377658,"new_mean":0.0293369}},{"type":"Polygon","arcs":[[69]],"properties":{"name":"Danli","gaul_code":17436,"targetarea":17.120605,"totpop":235576.522242,"country_id":"HND","targetpop":61054.2463379,"totalarea":2556.0423625,"new_mean":0.0276996}},{"type":"Polygon","arcs":[[70,-12]],"properties":{"name":"Pimienta","gaul_code":17289,"targetarea":4.217137,"totpop":24063.1925278,"country_id":"HND","targetpop":8812.7866211,"totalarea":58.5959855,"new_mean":0.0280837}},{"type":"Polygon","arcs":[[71]],"properties":{"name":"La Masica","gaul_code":17213,"targetarea":2.7174354,"totpop":29589.6909509,"country_id":"HND","targetpop":8273.5483398,"totalarea":466.7287939,"new_mean":0.029313}},{"type":"Polygon","arcs":[[71]],"properties":{"name":"La Masica","gaul_code":17213,"targetarea":2.7174354,"totpop":29589.6909509,"country_id":"HND","targetpop":8273.5483398,"totalarea":466.7287939,"new_mean":0.0296413}}]}},"arcs":[[[-87.5956709,15.3265122],[-87.6112878,15.3186712],[-87.591667,15.3079168],[-87.5956709,15.3265122]],[[-87.0780765,14.4156317],[-87.0944665,14.4010972],[-87.0750004,14.3912502],[-87.0780765,14.4156317]],[[-87.9000004,15.4495835],[-87.9096348,15.4527119]],[[-87.9096348,15.4527119],[-87.9324951,15.4306269],[-87.9429321,15.4323339],[-87.9504804,15.4469158]],[[-87.9504804,15.4469158],[-87.9372562,15.4196559],[-87.8900883,15.4206203],[-87.9000004,15.4495835]],[[-87.9000004,15.4495835],[-87.8882979,15.4586126],[-87.9079756,15.4698797],[-87.9000004,15.4495835]],[[-87.1421434,14.1286429],[-87.154167,14.1482204],[-87.1868575,14.1408921],[-87.2034834,14.1853379],[-87.2200687,14.1613185],[-87.2382653,14.1545151],[-87.2463952,14.1427394],[-87.2625004,14.1463527],[-87.2882653,14.1363185],[-87.2632653,14.1190578],[-87.2770349,14.0865342],[-87.3244633,14.0790594],[-87.2999271,14.0698797],[-87.284058,14.0468979],[-87.2319991,14.0186021],[-87.2516768,13.9883774],[-87.2118493,14.0051051],[-87.204932,13.9696519],[-87.191667,13.9662502],[-87.1873295,13.993777],[-87.1619714,14.0314316],[-87.1174641,14.0214589],[-87.1168187,14.0237465],[-87.1200687,14.0378485],[-87.1414392,14.0525986],[-87.1299877,14.0895425]],[[-87.1299877,14.0895425],[-87.1363602,14.0933237],[-87.144165,14.121417],[-87.1421434,14.1286429]],[[-87.3770918,14.2019313],[-87.3862878,14.1871364],[-87.366667,14.1829168],[-87.3770918,14.2019313]],[[-87.3142745,14.1961696],[-87.3436446,14.2142726],[-87.3571537,14.2361924],[-87.3762455,14.2444281],[-87.3938969,14.2157741],[-87.3615075,14.2047389],[-87.3488041,14.1674465],[-87.3333337,14.1579168],[-87.3294519,14.1744004],[-87.3004724,14.1653753],[-87.3142745,14.1961696]],[[-87.3979089,14.2822292],[-87.4100671,14.2946519],[-87.4200687,14.2733547],[-87.391667,14.2579168],[-87.3979089,14.2822292]],[[-87.9517772,15.2377743],[-87.9746622,15.2387507]],[[-87.9746622,15.2387507],[-87.9777998,15.2285142],[-87.9583337,15.2245835],[-87.9517772,15.2377743]],[[-88.578223,14.609695],[-88.5940352,14.5784246],[-88.5750004,14.5745835],[-88.578223,14.609695]],[[-88.154932,15.3961818],[-88.1050378,15.4040431],[-88.1030765,15.4127956],[-88.1465987,15.4196518],[-88.1668949,15.432868],[-88.1950036,15.3896999],[-88.1705977,15.3880682],[-88.1583337,15.3829168],[-88.154932,15.3961818]],[[-87.9147139,15.5202785],[-87.9371504,15.527383],[-87.9444665,15.5035142],[-87.9250004,15.4995835],[-87.9147139,15.5202785]],[[-87.9096348,15.4527119],[-87.9125817,15.4536688],[-87.9207523,15.4871649],[-87.9459151,15.4953354],[-87.9659428,15.5056504],[-87.9540124,15.5288112],[-87.9792566,15.5370021],[-87.9740385,15.5532221]],[[-87.9740385,15.5532221],[-87.9957749,15.5756089]],[[-87.9957749,15.5756089],[-88.0375817,15.5704982],[-88.050806,15.5432521],[-88.062419,15.4946763],[-88.0289148,15.44525],[-88.0292566,15.4286728],[-88.0229117,15.4163652]],[[-88.0229117,15.4163652],[-88.0161362,15.4073277],[-88.002655,15.4060745],[-87.996092,15.4119129]],[[-87.996092,15.4119129],[-87.9960941,15.4540106],[-87.9534997,15.4531398],[-87.9504804,15.4469158]],[[-86.2285357,15.5112214],[-86.216667,15.5079168],[-86.2214929,15.5363389],[-86.2353714,15.5244152],[-86.2285357,15.5112214]],[[-86.8285648,14.5603745],[-86.8362064,14.538821],[-86.8250004,14.5329168],[-86.8285648,14.5603745]],[[-87.1299877,14.0895425],[-87.1280684,14.0957342],[-87.1368168,14.1298366],[-87.1421434,14.1286429]],[[-87.8583337,15.7662502],[-87.8383956,15.7724066],[-87.8493982,15.7951808],[-87.8583337,15.7662502]],[[-87.9095544,15.8237941],[-87.9215156,15.8601561],[-87.9560013,15.8597841],[-87.9662655,15.84594],[-87.9372864,15.8329382],[-87.9344406,15.8219261],[-87.9415612,15.8115423],[-87.916667,15.8079168],[-87.9095544,15.8237941]],[[-87.6506595,15.6107692],[-87.6702966,15.6004827],[-87.6583337,15.5912502],[-87.6506595,15.6107692]],[[-87.4313073,15.7800197],[-87.4405338,15.7910713],[-87.4513702,15.7779083],[-87.4689102,15.773818],[-87.4886776,15.7786344],[-87.4950687,15.7652044],[-87.466667,15.7579168],[-87.4584069,15.7698797],[-87.4313073,15.7800197]],[[-85.9781742,15.6714056],[-86.0083418,15.6777614],[-86.0198409,15.644953],[-85.9750004,15.6412502],[-85.9781742,15.6714056]],[[-87.8082198,14.6078761],[-87.8250004,14.5996811],[-87.841667,14.6078192],[-87.8650232,14.5964137],[-87.8557946,14.5775132],[-87.8333337,14.5662502],[-87.8277347,14.5773179],[-87.8001143,14.5912908],[-87.8082198,14.6078761]],[[-87.6712976,14.3125433],[-87.6549076,14.3256618],[-87.6769291,14.3366237],[-87.6953698,14.3242295],[-87.6750004,14.3079168],[-87.6712976,14.3125433]],[[-88.0599694,14.8797186],[-88.0773767,14.8857163],[-88.0861332,14.8701808],[-88.066667,14.8662502],[-88.0599694,14.8797186]],[[-86.8040043,13.4431789],[-86.8196211,13.4353379],[-86.8000004,13.4245835],[-86.8040043,13.4431789]],[[-85.8883386,14.8295884],[-85.8699955,14.8362453],[-85.8633386,14.8521063],[-85.9010176,14.8695786],[-85.9116622,14.8295721],[-85.891667,14.8245835],[-85.8883386,14.8295884]],[[-87.8890385,14.9945338],[-87.9037032,14.9804062],[-87.8833337,14.9745835],[-87.8890385,14.9945338]],[[-86.5449955,13.8848374],[-86.5695398,13.8735907],[-86.5605228,13.8535142],[-86.541667,13.8495835],[-86.5449955,13.8848374]],[[-88.2305342,14.927383],[-88.2369144,14.9589788],[-88.2479252,14.9372056],[-88.2390791,14.9190944],[-88.2305342,14.927383]],[[-86.1940271,14.6711289],[-86.2282719,14.6827988],[-86.2401696,14.6634873],[-86.2277754,14.6458278],[-86.2083337,14.6412502],[-86.1940271,14.6711289]],[[-86.7767868,15.7928123],[-86.7846069,15.7923889],[-86.7957993,15.7793646],[-86.8188324,15.7677689],[-86.8411255,15.7614441],[-86.8733405,15.7584974],[-86.8671797,15.7365749],[-86.8333337,15.7329168],[-86.8268314,15.7430771],[-86.807056,15.7557358],[-86.7818038,15.7486354],[-86.7217452,15.7690415],[-86.7467452,15.7778346],[-86.7503862,15.7881798],[-86.7767868,15.7928123]],[[-86.5205082,16.3263413],[-86.5393233,16.3357936],[-86.5507368,16.3151911],[-86.5205082,16.3263413]],[[-86.5731468,16.3112947],[-86.5572351,16.3214219],[-86.5627038,16.3442002],[-86.5862878,16.3141017],[-86.5731468,16.3112947]],[[-87.9510099,15.3121232],[-87.9379642,15.3385809],[-87.9571758,15.3361909]],[[-87.9571758,15.3361909],[-87.9510099,15.3121232]],[[-87.9084883,15.344481],[-87.9368168,15.3298976],[-87.916667,15.3245835],[-87.9084883,15.344481]],[[-87.9600518,15.3919215],[-87.9542484,15.4040024],[-87.9694221,15.4036927]],[[-87.9694221,15.4036927],[-87.9600518,15.3919215]],[[-87.8770918,15.2602646],[-87.8862878,15.2454697],[-87.866667,15.2412502],[-87.8770918,15.2602646]],[[-87.8275563,15.3878115],[-87.8287845,15.3846462],[-87.8000004,15.3579168],[-87.7871179,15.3700303],[-87.7770918,15.4041977],[-87.7804447,15.4370835],[-87.7771651,15.4692246],[-87.8185876,15.4109238],[-87.8238839,15.3972751],[-87.8275563,15.3878115]],[[-87.4398848,13.4417913],[-87.4531091,13.4529852],[-87.4617354,13.4207261],[-87.4333337,13.4162502],[-87.4398848,13.4417913]],[[-87.6036299,14.3876206],[-87.6222009,14.4115464],[-87.6369633,14.380862],[-87.6000004,14.3745835],[-87.6036299,14.3876206]],[[-87.6118819,14.4453883],[-87.6139896,14.4596502],[-87.6424727,14.4816392],[-87.6686283,14.4658595],[-87.6536299,14.4542873],[-87.6452559,14.4242091],[-87.616667,14.4162502],[-87.6118819,14.4453883]],[[-87.1147139,15.1452785],[-87.1371504,15.152383],[-87.1444665,15.1285142],[-87.1250004,15.1245835],[-87.1147139,15.1452785]],[[-88.1564864,14.3207342],[-88.1859297,14.327383],[-88.1944665,14.3111191],[-88.1500004,14.3079168],[-88.1564864,14.3207342]],[[-86.551807,15.4828436],[-86.5805342,15.503213],[-86.5952966,15.4725286],[-86.5583337,15.4662502],[-86.551807,15.4828436]],[[-88.7572412,15.0666364],[-88.7612878,15.0557684],[-88.7500004,15.0495835],[-88.7346765,15.0617498],[-88.7275452,15.0845698],[-88.7328783,15.0823717],[-88.7503815,15.0751578],[-88.755757,15.0706225],[-88.7570543,15.0671383],[-88.7572412,15.0666364]],[[-87.052629,15.6509303],[-87.06849,15.6356105],[-87.0500004,15.6329168],[-87.052629,15.6509303]],[[-87.866667,15.1912502],[-87.866667,15.2079168],[-87.891667,15.2079168],[-87.891667,15.1912502],[-87.866667,15.1912502]],[[-89.1734999,14.4276008],[-89.1683028,14.4380519],[-89.18571,14.4440496],[-89.1944665,14.4285142],[-89.1798991,14.4255727],[-89.1734999,14.4276008]],[[-87.9750004,15.2912502],[-87.9739201,15.2829289],[-87.9657058,15.2863531],[-87.9750004,15.2912502]],[[-87.9750004,15.2912502],[-87.9510099,15.3121232]],[[-87.9571758,15.3361909],[-88.0042647,15.330333],[-88.0120365,15.3063014],[-87.9750004,15.2912502]],[[-88.0229117,15.4163652],[-88.021086,15.3954453],[-87.9957442,15.3788315],[-87.9959314,15.3699896],[-87.9703373,15.3705104],[-87.9600518,15.3919215]],[[-87.9694221,15.4036927],[-87.9962569,15.4038437],[-87.996092,15.4119129]],[[-87.4731612,13.5521999],[-87.503101,13.5449896],[-87.466667,13.5412502],[-87.4731612,13.5521999]],[[-87.9740385,15.5532221],[-87.9290857,15.5620021],[-87.9195235,15.6109849],[-87.9420007,15.6325872],[-87.9284916,15.6720688],[-87.9481937,15.6870021],[-87.9624597,15.6284938],[-87.987419,15.627855],[-87.9625899,15.5796657],[-87.9957749,15.5756089]],[[-87.9211429,15.7191432],[-87.9447676,15.703563],[-87.916667,15.6995835],[-87.9211429,15.7191432]],[[-87.8942956,15.742597],[-87.9101566,15.7272772],[-87.891667,15.7245835],[-87.8942956,15.742597]],[[-86.2644942,15.627855],[-86.2872644,15.6168524],[-86.2583337,15.6079168],[-86.2644942,15.627855]],[[-87.1833337,13.2912502],[-87.2019291,13.2872503],[-87.194084,13.2716335],[-87.1833337,13.2912502]],[[-86.5503829,14.0402736],[-86.5611413,14.0613185],[-86.5913334,14.0416652],[-86.5853194,14.0148423],[-86.5583337,14.0079168],[-86.5503829,14.0402736]],[[-87.9517772,15.2377743],[-87.9480472,15.2452785],[-87.9704838,15.252383],[-87.9746622,15.2387507]],[[-87.202629,15.6092637],[-87.21849,15.5939438],[-87.2000004,15.5912502],[-87.202629,15.6092637]]],"bbox":[-89.1944665,13.2716335,-85.8633386,16.3442002]}