{"type":"Topology","objects":{"foo":{"type":"GeometryCollection","geometries":[{"type":"MultiPolygon","arcs":[[[0,1,2]],[[3]],[[4]],[[5]],[[6,7,8]]],"properties":{"name":"Qasabat  Ajloun","gaul_code":65716,"targetarea":16.6652137,"totpop":135578.227985,"country_id":"JOR","targetpop":25360.6231689,"totalarea":333.3728823,"new_mean":0}},{"type":"MultiPolygon","arcs":[[[9]],[[10,11]]],"properties":{"name":"Al Mazar Al Janoubia","gaul_code":36741,"targetarea":11.0249147,"totpop":72899.9568729,"country_id":"JOR","targetpop":21373.1569824,"totalarea":450.1102741,"new_mean":0}},{"type":"Polygon","arcs":[[12,13,14]],"properties":{"name":"Ar Rusayfa","gaul_code":36752,"targetarea":31.7544798,"totpop":401227.587524,"country_id":"JOR","targetpop":401227.587524,"totalarea":31.7544798,"new_mean":0}},{"type":"Polygon","arcs":[[15]],"properties":{"name":"Bal Ama","gaul_code":65729,"targetarea":2.3219221,"totpop":65139.2337227,"country_id":"JOR","targetpop":3529.5797119,"totalarea":398.3469411,"new_mean":0}},{"type":"MultiPolygon","arcs":[[[16]],[[17]],[[18]]],"properties":{"name":"Deir Alla","gaul_code":36726,"targetarea":6.7059749,"totpop":68036.3116493,"country_id":"JOR","targetpop":9018.998291,"totalarea":228.479163,"new_mean":0}},{"type":"Polygon","arcs":[[19]],"properties":{"name":"Qasabat Madaba","gaul_code":65745,"targetarea":27.0534707,"totpop":137988.575706,"country_id":"JOR","targetpop":74973.5465698,"totalarea":623.189853,"new_mean":0.0000024178343}},{"type":"MultiPolygon","arcs":[[[20,21,22,23],[24]],[[25,26,27,28]]],"properties":{"name":"Ayn Al Basha","gaul_code":36725,"targetarea":53.9833566,"totpop":156988.037262,"country_id":"JOR","targetpop":132129.523621,"totalarea":98.6287494,"new_mean":0}},{"type":"MultiPolygon","arcs":[[[29,30]],[[31]],[[32]],[[33,34,35,36]]],"properties":{"name":"Bani Obayd","gaul_code":36732,"targetarea":43.5354507,"totpop":137756.439884,"country_id":"JOR","targetpop":78318.3868713,"totalarea":188.8165714,"new_mean":0}},{"type":"Polygon","arcs":[[37,-24,38,39,40,41,42,43,44,45,-14,46,47]],"properties":{"name":"Al Jamiah","gaul_code":36714,"targetarea":116.0088631,"totpop":390742.95369,"country_id":"JOR","targetpop":386029.634491,"totalarea":124.8375103,"new_mean":0}},{"type":"Polygon","arcs":[[48,49]],"properties":{"name":"Al Wastiyya","gaul_code":65739,"targetarea":7.2072294,"totpop":34371.019165,"country_id":"JOR","targetpop":11322.1559448,"totalarea":47.6413511,"new_mean":0}},{"type":"MultiPolygon","arcs":[[[50,-22,51]],[[-28,52]],[[53,-26]],[[54]],[[55]],[[56,-31]]],"properties":{"name":"Jarash","gaul_code":36737,"targetarea":62.0743778,"totpop":223002.630606,"country_id":"JOR","targetpop":99737.9957886,"totalarea":405.7449094,"new_mean":0}},{"type":"MultiPolygon","arcs":[[[50,-22,51]],[[-28,52]],[[53,-26]],[[54]],[[55]],[[56,-31]]],"properties":{"name":"Jarash","gaul_code":36737,"targetarea":62.0743778,"totpop":223002.630606,"country_id":"JOR","targetpop":99737.9957886,"totalarea":405.7449094,"new_mean":0}},{"type":"MultiPolygon","arcs":[[[57]],[[58]],[[59]],[[60,-36,61]]],"properties":{"name":"Al Mazar Ash Shamali","gaul_code":36735,"targetarea":12.9644473,"totpop":62363.373291,"country_id":"JOR","targetpop":20722.5249023,"totalarea":86.1467607,"new_mean":0}},{"type":"Polygon","arcs":[[62]],"properties":{"name":"Sabha","gaul_code":65731,"targetarea":2.4454759,"totpop":46411.3592126,"country_id":"JOR","targetpop":3775.1911011,"totalarea":946.5624901,"new_mean":0}},{"type":"Polygon","arcs":[[63,-52,-21,-38]],"properties":{"name":"Beereyn","gaul_code":65737,"targetarea":1.8656299,"totpop":24313.9275131,"country_id":"JOR","targetpop":6460.4238281,"totalarea":145.7472076,"new_mean":0}},{"type":"MultiPolygon","arcs":[[[64]],[[65,66]],[[67,68]],[[69]],[[70,-47,-13,71,72,73]]],"properties":{"name":"Qasabat Az Zarqa","gaul_code":65738,"targetarea":152.6751838,"totpop":640073.181095,"country_id":"JOR","targetpop":512328.642029,"totalarea":616.9785941,"new_mean":0}},{"type":"MultiPolygon","arcs":[[[64]],[[65,66]],[[67,68]],[[69]],[[70,-47,-13,71,72,73]]],"properties":{"name":"Qasabat Az Zarqa","gaul_code":65738,"targetarea":152.6751838,"totpop":640073.181095,"country_id":"JOR","targetpop":512328.642029,"totalarea":616.9785941,"new_mean":0}},{"type":"MultiPolygon","arcs":[[[74]],[[75]]],"properties":{"name":"Sama As Sarhan","gaul_code":65732,"targetarea":4.1642386,"totpop":52208.7034035,"country_id":"JOR","targetpop":5732.8542786,"totalarea":275.3087535,"new_mean":0}},{"type":"Polygon","arcs":[[76,77,78,79,80,81,82],[83]],"properties":{"name":"Al Quaysmh","gaul_code":36716,"targetarea":114.4577281,"totpop":330374.161186,"country_id":"JOR","targetpop":321080.948608,"totalarea":133.5580531,"new_mean":0}},{"type":"MultiPolygon","arcs":[[[84]],[[85]],[[-81,86,87]],[[88,89,90,91]]],"properties":{"name":"Naur","gaul_code":36720,"targetarea":17.9697422,"totpop":83952.9857407,"country_id":"JOR","targetpop":29253.0259094,"totalarea":194.3006172,"new_mean":0}},{"type":"Polygon","arcs":[[92]],"properties":{"name":"Fqou","gaul_code":65726,"targetarea":0.9994892,"totpop":16615.4105368,"country_id":"JOR","targetpop":1735.4128418,"totalarea":114.7021957,"new_mean":0}},{"type":"MultiPolygon","arcs":[[[93]],[[94]]],"properties":{"name":"Qasabat Al Aqabah","gaul_code":65717,"targetarea":22.0664856,"totpop":116124.679481,"country_id":"JOR","targetpop":32984.866333,"totalarea":1982.8400158,"new_mean":0}},{"type":"MultiPolygon","arcs":[[[95,96,97]],[[98]],[[99,100,101,102,-49,103,104,105,-34,106]]],"properties":{"name":"Qasabat Irbid","gaul_code":65740,"targetarea":161.7985047,"totpop":507969.650894,"country_id":"JOR","targetpop":453504.759094,"totalarea":235.7995755,"new_mean":0}},{"type":"MultiPolygon","arcs":[[[-68,107]],[[108]],[[109]]],"properties":{"name":"Qasabat Al Mafraq","gaul_code":65730,"targetarea":38.2798631,"totpop":202317.061365,"country_id":"JOR","targetpop":68618.3041687,"totalarea":776.1552084,"new_mean":0}},{"type":"MultiPolygon","arcs":[[[-43,110,111,112],[113]],[[-41,114,115]]],"properties":{"name":"Mahis Wa Al Fuhays","gaul_code":65721,"targetarea":14.9667719,"totpop":33418.3290253,"country_id":"JOR","targetpop":23615.2128906,"totalarea":29.5255964,"new_mean":0}},{"type":"Polygon","arcs":[[-45,116,-79,117]],"properties":{"name":"Qasabat Amman","gaul_code":36717,"targetarea":61.3176943,"totpop":772868.563232,"country_id":"JOR","targetpop":772868.563232,"totalarea":61.3176945,"new_mean":0}},{"type":"Polygon","arcs":[[118,119]],"properties":{"name":"Mwaqqar","gaul_code":36719,"targetarea":2.3537666,"totpop":37894.8422891,"country_id":"JOR","targetpop":2014.9564209,"totalarea":615.2030831,"new_mean":0}},{"type":"MultiPolygon","arcs":[[[-1,120,121]],[[122]]],"properties":{"name":"Kufranja","gaul_code":65715,"targetarea":6.0590048,"totpop":43052.0339355,"country_id":"JOR","targetpop":12141.8545532,"totalarea":85.9360053,"new_mean":0}},{"type":"Polygon","arcs":[[-115,-40,123]],"properties":{"name":"Qasabat As Salt","gaul_code":65722,"targetarea":40.8376894,"totpop":111597.387159,"country_id":"JOR","targetpop":64317.2690125,"totalarea":192.0175794,"new_mean":0}},{"type":"MultiPolygon","arcs":[[[-105,124,125,126]],[[127]],[[128]]],"properties":{"name":"At Tayba","gaul_code":36736,"targetarea":7.3723706,"totpop":43184.1629868,"country_id":"JOR","targetpop":11685.4421997,"totalarea":63.4666611,"new_mean":0}},{"type":"Polygon","arcs":[[129]],"properties":{"name":"Qasabat At Tafilah","gaul_code":65735,"targetarea":8.5816542,"totpop":62560.9774253,"country_id":"JOR","targetpop":11858.2752075,"totalarea":1135.2361034,"new_mean":0}},{"type":"MultiPolygon","arcs":[[[130,131]],[[-46,-118,-78,132,-72,-15]]],"properties":{"name":"Marka","gaul_code":36718,"targetarea":108.8370478,"totpop":686947.264832,"country_id":"JOR","targetpop":667198.51355,"totalarea":141.2527718,"new_mean":0}},{"type":"MultiPolygon","arcs":[[[133]],[[134]],[[135]],[[136]],[[137,-97]],[[138]],[[139]]],"properties":{"name":"Ar Ramtha","gaul_code":36730,"targetarea":42.1553877,"totpop":159216.719128,"country_id":"JOR","targetpop":75139.2027893,"totalarea":302.3283456,"new_mean":0}},{"type":"MultiPolygon","arcs":[[[140]],[[141,-101,142]],[[143]]],"properties":{"name":"Bani Kinana","gaul_code":36731,"targetarea":22.5302103,"totpop":115820.159334,"country_id":"JOR","targetpop":38208.2309265,"totalarea":260.4827104,"new_mean":0}},{"type":"MultiPolygon","arcs":[[[144]],[[-90,145,-87,-80,-117,-44,-113,146,147]]],"properties":{"name":"Wadi As Sir","gaul_code":36722,"targetarea":60.8843092,"totpop":230611.73735,"country_id":"JOR","targetpop":192768.812622,"totalarea":147.8402917,"new_mean":0}},{"type":"Polygon","arcs":[[148]],"properties":{"name":"Qasabat  Maan","gaul_code":65744,"targetarea":1.7558229,"totpop":49395.3525386,"country_id":"JOR","targetpop":2512.2359009,"totalarea":30632.7412255,"new_mean":0}},{"type":"MultiPolygon","arcs":[[[149]],[[150]]],"properties":{"name":"Busayrah","gaul_code":65734,"targetarea":1.5004204,"totpop":25638.41922,"country_id":"JOR","targetpop":2834.467102,"totalarea":226.9996612,"new_mean":0}},{"type":"Polygon","arcs":[[151]],"properties":{"name":"Wadi Musa","gaul_code":36746,"targetarea":4.9749488,"totpop":31192.6672204,"country_id":"JOR","targetpop":7975.2095947,"totalarea":236.8001652,"new_mean":0}},{"type":"MultiPolygon","arcs":[[[152,-12]],[[153]],[[154]],[[155]]],"properties":{"name":"Qasabat Al Karak","gaul_code":65727,"targetarea":13.881902,"totpop":90264.8160563,"country_id":"JOR","targetpop":22878.9499512,"totalarea":387.2545913,"new_mean":0}},{"type":"Polygon","arcs":[[156,-131,157,-83,158,-119]],"properties":{"name":"Sahab","gaul_code":36721,"targetarea":22.8828648,"totpop":81771.2126079,"country_id":"JOR","targetpop":54979.1060181,"totalarea":589.3210484,"new_mean":0}},{"type":"Polygon","arcs":[[-112,159,-147]],"properties":{"name":"Ira Wa Yarqa","gaul_code":65720,"targetarea":0.2302629,"totpop":10855.6609821,"country_id":"JOR","targetpop":0,"totalarea":103.8644261,"new_mean":0}},{"type":"MultiPolygon","arcs":[[[-8,160]],[[161]],[[-126,162]],[[163]]],"properties":{"name":"Al Koura","gaul_code":36734,"targetarea":30.3429566,"totpop":120491.169113,"country_id":"JOR","targetpop":50740.9376221,"totalarea":178.1668546,"new_mean":0}},{"type":"MultiPolygon","arcs":[[[-121,-3,164]],[[165]],[[166]],[[167]],[[168]]],"properties":{"name":"Al Aghwar Al Shamaly","gaul_code":36729,"targetarea":16.6081806,"totpop":105429.070396,"country_id":"JOR","targetpop":27195.9331665,"totalarea":192.6677138,"new_mean":0}}]}},"arcs":[[[35.5997772,32.2712364],[35.6061055,32.272797]],[[35.6061055,32.272797],[35.5958921,32.2883462]],[[35.5958921,32.2883462],[35.5945511,32.2778091],[35.5997772,32.2712364]],[[35.7615551,32.3203801],[35.7676424,32.3475042],[35.740201,32.3413518],[35.7467602,32.3120834],[35.744742,32.303038],[35.7666658,32.2995834],[35.7615551,32.3203801]],[[35.8039379,32.3539861],[35.8192211,32.3676498],[35.787727,32.3605413],[35.7999991,32.3495834],[35.8039379,32.3539861]],[[35.7249991,32.3995834],[35.7276196,32.3815699],[35.7434887,32.3968897],[35.7249991,32.3995834]],[[35.7249991,32.3995834],[35.7206204,32.4052581]],[[35.7206204,32.4052581],[35.7184764,32.4006912]],[[35.7184764,32.4006912],[35.7249991,32.3995834]],[[35.736018,31.0353053],[35.7137849,31.0282048],[35.7416658,31.0245834],[35.736018,31.0353053]],[[35.6970063,31.1037499],[35.6861482,31.061412],[35.7083325,31.0579168],[35.715131,31.0792725]],[[35.715131,31.0792725],[35.7109146,31.0823288],[35.7133636,31.0926018],[35.710022,31.103157],[35.6970063,31.1037499]],[[36.0809555,32.0220757],[36.0623665,32.0282631],[36.0538025,32.0363731],[36.0091591,32.0399208],[35.9928551,32.0353737],[35.9793892,32.035553]],[[35.9793892,32.035553],[35.9862518,32.0216751]],[[35.9862518,32.0216751],[35.992836,31.9969769],[36.0154076,31.9900169],[36.0280724,31.9944496],[36.0404816,32.0054779],[36.0523186,32.0087166],[36.0809555,32.0220757]],[[36.096923,32.2489649],[36.080533,32.2344304],[36.0999991,32.2245834],[36.096923,32.2489649]],[[35.6133292,32.1518539],[35.6058422,32.1375514],[35.6166658,32.1329168],[35.6133292,32.1518539]],[[35.6310375,32.1946721],[35.6221183,32.203213],[35.6130362,32.1671493],[35.6249991,32.1579168],[35.6310375,32.1946721]],[[35.6216625,32.2351873],[35.6141756,32.2208847],[35.6249991,32.2162501],[35.6216625,32.2351873]],[[35.8355734,31.7459204],[35.8249991,31.7435491],[35.7864575,31.7521917],[35.7632641,31.7108627],[35.7916658,31.6912501],[35.7950675,31.6961817],[35.8132641,31.7029851],[35.8284008,31.7295151],[35.8363495,31.7349978],[35.8355734,31.7459204]],[[35.8902626,32.0872345],[35.8944588,32.0908623],[35.8907356,32.1095428],[35.877121,32.1214828]],[[35.877121,32.1214828],[35.8607864,32.1296577],[35.853147,32.1284725]],[[35.853147,32.1284725],[35.8380362,32.103213],[35.81538,32.0857244],[35.8112622,32.0579168],[35.8149214,32.0331603]],[[35.8149214,32.0331603],[35.8301659,32.0308113],[35.8576279,32.0356102],[35.866066,32.0438499],[35.8668633,32.060112],[35.8819847,32.0827446],[35.8902626,32.0872345]],[[35.8565096,32.0939438],[35.8723787,32.1092636],[35.8749991,32.0912501],[35.8565096,32.0939438]],[[35.8574494,32.165521],[35.845558,32.1737789]],[[35.845558,32.1737789],[35.8386385,32.1560613],[35.8464189,32.1516249]],[[35.8464189,32.1516249],[35.8476639,32.1604004],[35.8555585,32.1614761]],[[35.8555585,32.1614761],[35.8574494,32.165521]],[[35.9609674,32.3843378],[35.9462882,32.4115463],[35.941804,32.4040485]],[[35.941804,32.4040485],[35.9459076,32.4054108],[35.9503555,32.3889503],[35.9609674,32.3843378]],[[35.9190909,32.413829],[35.9355786,32.4205836],[35.9165519,32.4270045],[35.897574,32.4111638],[35.9166658,32.4079168],[35.9190909,32.413829]],[[35.8966625,32.4518539],[35.8891756,32.4375514],[35.8999991,32.4329168],[35.8966625,32.4518539]],[[35.9229153,32.5319644],[35.9204521,32.5232201],[35.898304,32.5212135],[35.889801,32.5254707],[35.8876343,32.5318069],[35.840435,32.5212288],[35.8360296,32.5132087]],[[35.8360296,32.5132087],[35.8441072,32.5140325],[35.8555818,32.4939967],[35.8373763,32.4958545]],[[35.8373763,32.4958545],[35.8473227,32.4783565]],[[35.8473227,32.4783565],[35.8678702,32.4813909],[35.886962,32.4698796],[35.9166658,32.4662501],[35.9061678,32.5089991],[35.9251293,32.5220932],[35.9229153,32.5319644]],[[35.8964855,32.0873176],[35.8902626,32.0872345]],[[35.8149214,32.0331603],[35.808942,32.03334]],[[35.808942,32.03334],[35.7983894,32.025322]],[[35.7983894,32.025322],[35.7997347,32.0229519]],[[35.7997347,32.0229519],[35.800949,32.0192461]],[[35.800949,32.0192461],[35.8119812,31.9946938],[35.8023338,31.9824009],[35.7917366,31.9776306]],[[35.7917366,31.9776306],[35.815136,31.9738445],[35.8271408,31.9657574],[35.8493843,31.9727001],[35.8636589,31.9698467]],[[35.8636589,31.9698467],[35.8687782,31.9714298],[35.8798637,31.9647255],[35.8899384,31.9810181],[35.9164467,31.9921818],[35.9212761,31.9910851]],[[35.9212761,31.9910851],[35.929554,32.0020027],[35.9309082,32.0152779],[35.938015,32.0207825],[35.9635048,32.0180244],[35.9703941,32.022728],[35.9862518,32.0216751]],[[35.9793892,32.035553],[35.9575958,32.0374908],[35.9557193,32.0418124]],[[35.9557193,32.0418124],[35.9499991,32.0412501],[35.94274,32.0506576],[35.9284822,32.0616562],[35.9308911,32.0778793],[35.9208325,32.0793645],[35.894742,32.0755112],[35.8964855,32.0873176]],[[35.7484095,32.5643352],[35.7390938,32.5680733],[35.7314873,32.5774612],[35.7304764,32.5848656],[35.7182107,32.6035921]],[[35.7182107,32.6035921],[35.7047192,32.6049667],[35.7028963,32.5870834],[35.7212231,32.5791366],[35.7347973,32.5627833],[35.7484095,32.5643352]],[[35.878024,32.1219661],[35.8568839,32.1347193],[35.853147,32.1284725]],[[35.877121,32.1214828],[35.878024,32.1219661]],[[35.8464189,32.1516249],[35.8555585,32.1614761]],[[35.8574494,32.165521],[35.8601717,32.1713445],[35.8535636,32.1942774],[35.845558,32.1737789]],[[35.9287101,32.3146184],[35.8999991,32.3110458],[35.8871248,32.312649],[35.8702628,32.2957952],[35.8713859,32.270075],[35.8651684,32.2625432],[35.8545727,32.2876531],[35.8416658,32.2860458],[35.8150382,32.289358],[35.7962882,32.278038],[35.8851066,32.2526433],[35.8953767,32.2282903],[35.8999991,32.2245834],[35.9037101,32.2542099],[35.9188631,32.2663437],[35.9287101,32.3146184]],[[35.8427075,32.3279729],[35.8299308,32.3134425],[35.8499991,32.2995834],[35.8427075,32.3279729]],[[35.941804,32.4040485],[35.9160636,32.3610092],[35.9416658,32.3412501],[35.9363761,32.3640691],[35.9609674,32.3843378]],[[35.7871411,32.4351628],[35.7725089,32.4279607],[35.7916658,32.4245834],[35.7871411,32.4351628]],[[35.7621411,32.4851628],[35.7475089,32.4779607],[35.7666658,32.4745834],[35.7621411,32.4851628]],[[35.8166658,32.4829168],[35.8020369,32.4925821],[35.7947996,32.4961186],[35.7850252,32.4939275],[35.7884269,32.4787501],[35.7864737,32.4700302],[35.7970532,32.4545151],[35.8166658,32.4829168]],[[35.8166658,32.4829168],[35.8473227,32.4783565]],[[35.8373763,32.4958545],[35.8281892,32.4967921],[35.8166658,32.4829168]],[[36.5026359,32.3445338],[36.4879549,32.3304062],[36.5083325,32.3245834],[36.5026359,32.3445338]],[[35.8964855,32.0873176],[35.8996736,32.1089055],[35.878024,32.1219661]],[[36.1721997,32.0301173],[36.1534334,32.0396143],[36.1471997,32.0280909],[36.1749991,32.0245834],[36.1721997,32.0301173]],[[36.1499991,32.0579168],[36.1583325,32.0579168],[36.1583325,32.0662501]],[[36.1583325,32.0662501],[36.1499991,32.0662501],[36.1499991,32.0579168]],[[36.2939378,32.1355985],[36.2827034,32.1337814],[36.2716007,32.1368133]],[[36.2716007,32.1368133],[36.2551261,32.1100977],[36.2970857,32.1173202],[36.2939378,32.1355985]],[[36.0716625,32.1435206],[36.0641756,32.129218],[36.0749991,32.1245834],[36.0716625,32.1435206]],[[36.1583325,32.0662501],[36.1706209,32.0791733],[36.2157381,32.0693303],[36.2455232,32.0890813],[36.2267732,32.1052312],[36.1961092,32.1027654],[36.1872224,32.1130681],[36.1379874,32.109109],[36.129475,32.1373927],[36.1086905,32.1534408],[36.0961417,32.1117742],[36.0851066,32.102269],[36.0622062,32.1041082],[36.054475,32.0867742],[36.024576,32.0777735],[36.0380362,32.0536402],[36.0267732,32.0439356],[35.9995434,32.0461207],[35.9557193,32.0418124]],[[36.0809555,32.0220757],[36.0931549,32.0158806],[36.0957265,31.9997498]],[[36.0957265,31.9997498],[36.1312654,32.0206853],[36.1283683,32.0375554],[36.1428865,32.0483587],[36.1499991,32.0579168]],[[36.1499991,32.0579168],[36.1384106,32.0653346],[36.1513012,32.0772201],[36.1583325,32.0662501]],[[36.1538077,32.4434962],[36.1391756,32.436294],[36.1583325,32.4329168],[36.1538077,32.4434962]],[[36.2049308,32.5279851],[36.1926593,32.5247778],[36.1882641,32.5160222],[36.1999991,32.5079168],[36.2049308,32.5279851]],[[36.0103746,31.9039173],[36.0132153,31.9204168],[36.0139477,31.9413681],[36.0199332,31.9458172]],[[36.0199332,31.9458172],[36.0114403,31.9526596],[36.0034752,31.9510136],[36.0101318,31.941906],[36.0069275,31.9366283],[35.9918633,31.9357872],[35.9823914,31.938921],[35.9706841,31.928566],[35.9495888,31.9284458]],[[35.9495888,31.9284458],[35.9359703,31.9002781],[35.9159813,31.907774],[35.9045486,31.9101887],[35.8773079,31.9213276],[35.8708916,31.9328289]],[[35.8708916,31.9328289],[35.8518791,31.9293957],[35.8560829,31.9212513],[35.8571281,31.9063358],[35.8651161,31.902832],[35.8729362,31.8736038]],[[35.8729362,31.8736038],[35.8759234,31.8702596]],[[35.8759234,31.8702596],[35.8796215,31.8696233],[35.9016899,31.8083291],[35.9020005,31.8074665],[35.9037517,31.8026023],[35.9073164,31.8036774],[35.9132162,31.8116138],[35.9159563,31.8152997],[35.9166525,31.8162363],[35.9194704,31.8200268],[35.9306085,31.8271485],[35.9366483,31.8307054],[35.9555004,31.8418075],[35.953352,31.8543157],[35.9601159,31.8558473],[35.9714066,31.858404],[35.9861197,31.8599144]],[[35.9861197,31.8599144],[35.9915009,31.8719501],[36.0023956,31.8822021],[36.0005035,31.8940964],[36.0103746,31.9039173]],[[35.8975089,31.8375514],[35.9049959,31.8518539],[35.9083325,31.8329168],[35.8975089,31.8375514]],[[35.8249991,31.8245834],[35.8144197,31.8200546],[35.8216137,31.8054184],[35.8249991,31.8245834]],[[35.7999991,31.8579168],[35.7810538,31.8545802],[35.7953605,31.8470851],[35.7999991,31.8579168]],[[35.8729362,31.8736038],[35.8651992,31.8721046]],[[35.8651992,31.8721046],[35.8759234,31.8702596]],[[35.8249991,31.8245834],[35.8556306,31.8453883],[35.8437654,31.8542221],[35.8473624,31.8751734],[35.852668,31.8742606]],[[35.852668,31.8742606],[35.819692,31.8842954]],[[35.819692,31.8842954],[35.7999991,31.8579168]],[[35.7999991,31.8579168],[35.8249991,31.8579168],[35.8249991,31.8245834]],[[35.7049959,31.3768539],[35.6975089,31.3625514],[35.7083325,31.3579168],[35.7049959,31.3768539]],[[34.972867,29.3901433],[34.9662249,29.3878757],[34.9668286,29.3787501],[34.9609661,29.3682129],[34.9749991,29.3662501],[34.972867,29.3901433]],[[34.9971183,29.5649724],[34.9789367,29.5414216],[34.9981809,29.5287146],[35.0000014,29.5160926],[34.9937935,29.5101041],[34.9999991,29.4995834],[35.0213696,29.528213],[35.0286287,29.5459539],[35.0381827,29.5533229],[35.0366365,29.5638006],[35.0208325,29.561469],[34.9971183,29.5649724]],[[35.9166658,32.5912501],[35.9299308,32.5946518],[35.9444133,32.6056217]],[[35.9444133,32.6056217],[35.9454659,32.6226363]],[[35.9454659,32.6226363],[35.9441967,32.6242689],[35.9403436,32.6265479],[35.9166658,32.5912501]],[[35.7583325,32.6245834],[35.7561439,32.6323905],[35.7535701,32.6328297],[35.7583325,32.6245834]],[[35.9166658,32.5912501],[35.8976066,32.5966985],[35.9131827,32.6372096],[35.9079744,32.644957],[35.8758292,32.604808],[35.8727328,32.6086727]],[[35.8727328,32.6086727],[35.8583946,32.6016388],[35.8369637,32.6266518],[35.8224401,32.6268244]],[[35.8224401,32.6268244],[35.8195141,32.6198593],[35.8450675,32.6103012],[35.8381176,32.5943141],[35.8166658,32.5995834],[35.8139152,32.5827581],[35.7999991,32.5935491],[35.7858878,32.5825953],[35.7746411,32.5970769],[35.8166658,32.5995834],[35.8166658,32.6079168],[35.7749991,32.6079168],[35.7749991,32.6245834],[35.7583325,32.6245834]],[[35.7583325,32.6245834],[35.754475,32.6029648],[35.7373689,32.612767],[35.7288403,32.602509],[35.7182107,32.6035921]],[[35.7484095,32.5643352],[35.7600577,32.5783635],[35.7636059,32.5688502],[35.7624233,32.5571751],[35.7648618,32.5510829],[35.7861482,32.5333969],[35.7709214,32.5349504]],[[35.7709214,32.5349504],[35.7611656,32.5334396],[35.7561038,32.523595]],[[35.7561038,32.523595],[35.7594067,32.5275701],[35.7932771,32.508165],[35.8041658,32.5212672],[35.8128247,32.5108424],[35.8360296,32.5132087]],[[35.9229153,32.5319644],[35.9165356,32.560407],[35.9283373,32.568553],[35.9298915,32.5712074],[35.9200675,32.5779851],[35.9166658,32.5912501]],[[36.2939378,32.1355985],[36.2926098,32.143309],[36.2999991,32.1745834],[36.2687491,32.1533635],[36.2716007,32.1368133]],[[36.0871411,32.3768295],[36.0725089,32.3696274],[36.0916658,32.3662501],[36.0871411,32.3768295]],[[36.2536287,32.333816],[36.2463696,32.3459539],[36.2322582,32.3568425],[36.2132804,32.3814397],[36.1797029,32.3361598],[36.1870271,32.3197332],[36.2029451,32.322085],[36.2249991,32.3079168],[36.2322582,32.3173243],[36.2536287,32.333816]],[[35.800949,32.0192461],[35.7878247,32.0114202],[35.7695792,32.0141179],[35.7633684,31.9721283]],[[35.7633684,31.9721283],[35.7683449,31.9706764]],[[35.7683449,31.9706764],[35.7917366,31.9776306]],[[35.7833325,31.9912501],[35.7879711,32.0020818],[35.8022778,31.9945867],[35.7833325,31.9912501]],[[35.7983894,32.025322],[35.795654,32.025161]],[[35.795654,32.025161],[35.7997347,32.0229519]],[[35.8636589,31.9698467],[35.8613167,31.9612846],[35.8760567,31.9558449],[35.8751259,31.9496708],[35.8810806,31.9417286],[35.8708916,31.9328289]],[[35.9495888,31.9284458],[35.9476852,31.9433765],[35.953022,31.9511986],[35.965004,31.9618397],[35.971447,31.9709053],[35.9381027,31.9831867],[35.9212761,31.9910851]],[[36.023704,31.8430261],[36.0156441,31.8435669],[35.9932587,31.8503186]],[[35.9932587,31.8503186],[36.0065747,31.8324203],[36.023704,31.8430261]],[[35.5997772,32.2712364],[35.5989532,32.2631989],[35.6034149,32.2514753]],[[35.6034149,32.2514753],[35.6114469,32.2452773],[35.6160634,32.2434145],[35.6091951,32.2680934],[35.6061055,32.272797]],[[35.7119402,32.3069329],[35.6962767,32.3044339],[35.679475,32.2961166],[35.7166658,32.2912501],[35.7119402,32.3069329]],[[35.808942,32.03334],[35.7652986,32.0596705],[35.7286287,32.0698796],[35.7130034,32.0901161],[35.7066909,32.0915204],[35.7048168,32.0785059],[35.6897941,32.0402735],[35.7123038,32.0111069],[35.7286287,32.0209539],[35.7463696,32.028213],[35.7592277,32.0448796],[35.795654,32.025161]],[[35.7709214,32.5349504],[35.7455069,32.5375432],[35.7316934,32.523217]],[[35.7316934,32.523217],[35.7458458,32.5167542],[35.7525058,32.5192648]],[[35.7525058,32.5192648],[35.7561038,32.523595]],[[35.7271801,32.5528549],[35.7043937,32.5418523],[35.7333325,32.5329168],[35.7271801,32.5528549]],[[35.6998666,32.5665601],[35.6917785,32.5750104],[35.6808422,32.5696274],[35.6998666,32.5665601]],[[35.5997387,30.8267075],[35.6471671,30.8367131],[35.6326489,30.853213],[35.5797029,30.8254827],[35.5916658,30.8162501],[35.5997387,30.8267075]],[[36.0240233,31.8955832],[36.035759,31.8881836],[36.0566101,31.8989525],[36.0764999,31.8966103],[36.0738521,31.913926]],[[36.0738521,31.913926],[36.0671215,31.9247991],[36.0305486,31.9185023],[36.0280076,31.914668],[36.0315096,31.8942937],[36.0240233,31.8955832]],[[36.0199332,31.9458172],[36.0297843,31.9531397],[36.0376782,31.963768],[36.0458325,31.9432643],[36.0644685,31.9464747],[36.0617179,31.9624293],[36.0737296,31.9818385],[36.0981762,31.977627],[36.0957265,31.9997498]],[[36.0610788,32.4672351],[36.063876,32.4727731],[36.0621411,32.4768295],[36.0475089,32.4696274],[36.0610788,32.4672351]],[[36.0293286,32.5098455],[36.0137198,32.5020045],[36.0333325,32.4912501],[36.0293286,32.5098455]],[[36.0333325,32.5745834],[36.0028474,32.5815048],[35.9796215,32.5658961],[35.9965161,32.5371526],[35.9787101,32.4958766],[35.9749991,32.4829168],[35.9963533,32.4883977],[36.0117342,32.5295151],[36.0239249,32.5379298],[36.0333325,32.5745834]],[[36.0333325,32.5745834],[36.0522778,32.57792],[36.0379711,32.5854151],[36.0333325,32.5745834]],[[35.9444133,32.6056217],[35.9534008,32.6124293],[35.9454659,32.6226363]],[[35.9355817,32.6329168],[35.9583325,32.6329168],[35.9583325,32.6495834],[35.9333325,32.6495834],[35.9333325,32.6344804],[35.9355817,32.6329168]],[[35.9999991,32.6245834],[35.9999991,32.6495834],[35.9833325,32.6495834],[35.9833325,32.6245834],[35.9999991,32.6245834]],[[35.6943514,32.6603053],[35.6721183,32.6532048],[35.6999991,32.6495834],[35.6943514,32.6603053]],[[35.7833325,32.6829168],[35.7919262,32.6704574],[35.836018,32.6591456],[35.8224401,32.6268244]],[[35.8727328,32.6086727],[35.8629549,32.6208766],[35.8457999,32.6346135],[35.8331534,32.6930974],[35.8166658,32.6725123],[35.8044913,32.6877223],[35.7833325,32.6829168]],[[35.7833325,32.6829168],[35.7799959,32.7018539],[35.7725089,32.6875514],[35.7833325,32.6829168]],[[35.7871411,31.9434962],[35.7725089,31.936294],[35.7916658,31.9329168],[35.7871411,31.9434962]],[[35.852668,31.8742606],[35.8651992,31.8721046]],[[35.7683449,31.9706764],[35.7621172,31.9636694]],[[35.7621172,31.9636694],[35.7583325,31.9495834],[35.7807283,31.9607162],[35.8103995,31.9540186],[35.7978833,31.9283757],[35.8166658,31.9245834],[35.8213045,31.9354151],[35.8356111,31.92792],[35.8166658,31.9245834],[35.8226391,31.8882431],[35.819692,31.8842954]],[[35.7312491,30.2102646],[35.7220532,30.1954697],[35.7416658,30.1912501],[35.7312491,30.2102646]],[[35.6388175,30.6597437],[35.6315096,30.6524358],[35.6416658,30.6495834],[35.6388175,30.6597437]],[[35.6371411,30.6851629],[35.6225089,30.6779607],[35.6416658,30.6745834],[35.6371411,30.6851629]],[[35.4885408,30.3334701],[35.4639477,30.3292587],[35.4733553,30.3114934],[35.4916658,30.3079168],[35.4885408,30.3334701]],[[35.715131,31.0792725],[35.7230297,31.098086],[35.7193514,31.1145533],[35.6985831,31.1098984],[35.6970063,31.1037499]],[[35.7221508,31.1430771],[35.7148429,31.1357691],[35.7249991,31.1329168],[35.7221508,31.1430771]],[[35.7054842,31.1597437],[35.6981762,31.1524358],[35.7083325,31.1495834],[35.7054842,31.1597437]],[[35.7384757,31.202684],[35.7282218,31.1716008],[35.7035473,31.189358],[35.6968904,31.1713974],[35.7218904,31.1631495],[35.7333325,31.1495834],[35.7390291,31.1620265],[35.7384757,31.202684]],[[36.023704,31.8430261],[36.0309562,31.8475164],[36.0283846,31.8624822],[36.057714,31.8983953],[36.0865388,31.8934311],[36.0738521,31.913926]],[[36.0240233,31.8955832],[36.0093741,31.8981064],[36.0103746,31.9039173]],[[35.9861197,31.8599144],[35.9932587,31.8503186]],[[35.7633684,31.9721283],[35.7621172,31.9636694]],[[35.7206204,32.4052581],[35.7096834,32.4194321],[35.6963696,32.4044459],[35.7184764,32.4006912]],[[35.6784008,32.4128484],[35.7062329,32.4320582],[35.7017569,32.4519882],[35.7139477,32.4707057],[35.7034008,32.4779851],[35.6965974,32.5045151],[35.6831046,32.5196518],[35.6672029,32.4966293],[35.6799308,32.4878484],[35.6888663,32.4639796],[35.6865714,32.4537501],[35.6895662,32.4403915],[35.6587556,32.4191269],[35.6749991,32.4079168],[35.6784008,32.4128484]],[[35.7316934,32.523217],[35.7212231,32.5145208],[35.738492,32.5023992],[35.7525058,32.5192648]],[[35.7121411,32.5268295],[35.6975089,32.5196274],[35.7166658,32.5162501],[35.7121411,32.5268295]],[[35.5958921,32.2883462],[35.5916007,32.2948796],[35.5973136,32.2561834],[35.6034149,32.2514753]],[[35.6063142,32.445608],[35.5963533,32.4607162],[35.5888663,32.4385483],[35.5999991,32.4329168],[35.6063142,32.445608]],[[35.5954744,32.5018295],[35.5872699,32.4934942],[35.5999991,32.4912501],[35.5954744,32.5018295]],[[35.6049959,32.5435206],[35.5975089,32.529218],[35.6083325,32.5245834],[35.6049959,32.5435206]],[[35.627211,32.6109583],[35.6205558,32.644428],[35.6044913,32.6183497],[35.5968253,32.587592],[35.6166658,32.5829168],[35.6274861,32.6095749],[35.627211,32.6109583]]],"bbox":[34.9609661,29.3662501,36.5083325,32.7018539]}