{"type":"Topology","objects":{"foo":{"type":"GeometryCollection","geometries":[{"type":"Polygon","arcs":[[0]],"properties":{"name":"Banteay Meas","gaul_code":12335,"targetarea":0.5749547,"totpop":85786.5734901,"country_id":"KHM","targetpop":1934.5314941,"new_mean":0.1506311,"totalarea":400.9441072}},{"type":"MultiPolygon","arcs":[[[1,2]],[[3]]],"properties":{"name":"Puok","gaul_code":12433,"targetarea":1.7813839,"totpop":162144.345985,"country_id":"KHM","targetpop":4024.828125,"new_mean":0.1510106,"totalarea":1087.4430025}},{"type":"Polygon","arcs":[[4]],"properties":{"name":"Lvea Aem","gaul_code":12348,"targetarea":1.1194283,"totpop":67623.4813099,"country_id":"KHM","targetpop":3337.072876,"new_mean":0.1289169,"totalarea":258.6373704}},{"type":"Polygon","arcs":[[5]],"properties":{"name":"Stueng Saen","gaul_code":12332,"targetarea":1.1267776,"totpop":73966.8001366,"country_id":"KHM","targetpop":7938.9711914,"new_mean":0.1675287,"totalarea":454.5877213}},{"type":"MultiPolygon","arcs":[[[6]],[[7]]],"properties":{"name":"Samraong","gaul_code":12381,"targetarea":10.6869893,"totpop":151841.61599,"country_id":"KHM","targetpop":50202.9371338,"new_mean":0.0843265,"totalarea":1373.9907565}},{"type":"Polygon","arcs":[[8,9]],"properties":{"name":"Bati","gaul_code":12453,"targetarea":0.4344831,"totpop":158350.112312,"country_id":"KHM","targetpop":2164.204834,"new_mean":0.1277228,"totalarea":373.9542186}},{"type":"Polygon","arcs":[[10,11]],"properties":{"name":"Odongk","gaul_code":12321,"targetarea":0.9354636,"totpop":150465.008331,"country_id":"KHM","targetpop":5286.9454346,"new_mean":0.1628542,"totalarea":521.8399232}},{"type":"Polygon","arcs":[[12]],"properties":{"name":"Tram Kak","gaul_code":12461,"targetarea":1.9901974,"totpop":165282.883568,"country_id":"KHM","targetpop":6146.227417,"new_mean":0.137689,"totalarea":561.2718661}},{"type":"MultiPolygon","arcs":[[[13]],[[14]]],"properties":{"name":"Kaoh Thum","gaul_code":12344,"targetarea":6.0379817,"totpop":162088.141407,"country_id":"KHM","targetpop":11532.7832031,"new_mean":0.0962093,"totalarea":485.5991385}},{"type":"Polygon","arcs":[[15]],"properties":{"name":"Soutr Nikom","gaul_code":12435,"targetarea":0.569646,"totpop":108964.320822,"country_id":"KHM","targetpop":1738.3144531,"new_mean":0.1528151,"totalarea":780.2414045}},{"type":"Polygon","arcs":[[16,17]],"properties":{"name":"Samraong Tong","gaul_code":12323,"targetarea":0.5103587,"totpop":182297.013039,"country_id":"KHM","targetpop":3116.331543,"new_mean":0.1709306,"totalarea":735.4985242}},{"type":"Polygon","arcs":[[18,19,20,21,22,23,24]],"properties":{"name":"Ta Khmau","gaul_code":12352,"targetarea":18.9988046,"totpop":125159.916321,"country_id":"KHM","targetpop":112447.398926,"new_mean":0.0736271,"totalarea":31.4761854}},{"type":"MultiPolygon","arcs":[[[25]],[[26,27]]],"properties":{"name":"Prasat Bakong","gaul_code":12432,"targetarea":1.8705957,"totpop":94546.8766241,"country_id":"KHM","targetpop":5720.1301269,"new_mean":0.1354317,"totalarea":397.5871401}},{"type":"Polygon","arcs":[[28]],"properties":{"name":"Trapeang Prasat","gaul_code":12382,"targetarea":0.5674229,"totpop":561190.211623,"country_id":"KHM","targetpop":1996.5678711,"new_mean":0.014818,"totalarea":1485.0605135}},{"type":"Polygon","arcs":[[29]],"properties":{"name":"Stueng Traeng","gaul_code":12443,"targetarea":0.568993,"totpop":42493.9933205,"country_id":"KHM","targetpop":1525.5904541,"new_mean":0.2033732,"totalarea":696.3434767}},{"type":"MultiPolygon","arcs":[[[30]],[[31,32]],[[33,34,35,36]]],"properties":{"name":"Phnum Proek","gaul_code":12285,"targetarea":59.2794175,"totpop":354801.855505,"country_id":"KHM","targetpop":180612.639282,"new_mean":0.0211583,"totalarea":649.6361248}},{"type":"Polygon","arcs":[[37]],"properties":{"name":"Mittakpheap","gaul_code":12370,"targetarea":25.217823,"totpop":117105.822183,"country_id":"KHM","targetpop":79786.1624756,"new_mean":0.2049166,"totalarea":116.1590607}},{"type":"Polygon","arcs":[[38]],"properties":{"name":"Kiri Vong","gaul_code":12457,"targetarea":1.1391605,"totpop":106044.912868,"country_id":"KHM","targetpop":4060.5784912,"new_mean":0.1442917,"totalarea":582.8181509}},{"type":"Polygon","arcs":[[39,40]],"properties":{"name":"Smach Mean Chey","gaul_code":12360,"targetarea":4.1845681,"totpop":22554.6357765,"country_id":"KHM","targetpop":12289.4468384,"new_mean":0.1861145,"totalarea":100.4582659}},{"type":"Polygon","arcs":[[41,42]],"properties":{"name":"Kandieng","gaul_code":12412,"targetarea":0.0547711,"totpop":60225.4022856,"country_id":"KHM","targetpop":0,"new_mean":0.1672619,"totalarea":547.1231093}},{"type":"Polygon","arcs":[[43]],"properties":{"name":"Baribour","gaul_code":12308,"targetarea":1.1410315,"totpop":61517.6523571,"country_id":"KHM","targetpop":3523.6621094,"new_mean":0.1828333,"totalarea":439.269793}},{"type":"Polygon","arcs":[[44,45,46,47]],"properties":{"name":"Chamkar Mon","gaul_code":12386,"targetarea":9.6009374,"totpop":260657.140869,"country_id":"KHM","targetpop":260657.140869,"new_mean":0.1968931,"totalarea":9.6009373}},{"type":"Polygon","arcs":[[48]],"properties":{"name":"Area under National Administration 2","gaul_code":65291,"targetarea":0.5641046,"totpop":11787.1440044,"country_id":"KHM","targetpop":1932.4451904,"new_mean":0.0010175,"totalarea":2549.5547571}},{"type":"Polygon","arcs":[[49]],"properties":{"name":"Kracheh","gaul_code":12366,"targetarea":1.7216151,"totpop":111286.992952,"country_id":"KHM","targetpop":7823.5938721,"new_mean":0.1805084,"totalarea":1547.5295626}},{"type":"MultiPolygon","arcs":[[[50]],[[51]],[[52]],[[53,-19,54,55]],[[56]],[[57,58]]],"properties":{"name":"Kien Svay","gaul_code":12346,"targetarea":24.0547375,"totpop":210122.8206,"country_id":"KHM","targetpop":67548.3063965,"new_mean":0.127119,"totalarea":384.9786111}},{"type":"Polygon","arcs":[[59]],"properties":{"name":"Kaeb","gaul_code":12364,"targetarea":1.1353849,"totpop":27278.8308706,"country_id":"KHM","targetpop":4213.1320801,"new_mean":0.1314287,"totalarea":81.0887528}},{"type":"MultiPolygon","arcs":[[[60]],[[-55,-25,61]]],"properties":{"name":"S'ang","gaul_code":12351,"targetarea":13.3884676,"totpop":243541.386463,"country_id":"KHM","targetpop":43047.0483398,"new_mean":0.0902121,"totalarea":519.0899597}},{"type":"Polygon","arcs":[[62]],"properties":{"name":"Saen Monourom","gaul_code":12377,"targetarea":1.1409601,"totpop":24440.3115954,"country_id":"KHM","targetpop":3303.6514893,"new_mean":0.1007679,"totalarea":488.8435992}},{"type":"Polygon","arcs":[[63,64]],"properties":{"name":"Peam Ro","gaul_code":12407,"targetarea":2.8520195,"totpop":59115.2671127,"country_id":"KHM","targetpop":8245.5527344,"new_mean":0.1410002,"totalarea":193.7332598}},{"type":"MultiPolygon","arcs":[[[65]],[[66]]],"properties":{"name":"Chbar Mon","gaul_code":12319,"targetarea":4.4272615,"totpop":53216.9075394,"country_id":"KHM","targetpop":16127.0493164,"new_mean":0.1430419,"totalarea":79.839974}},{"type":"Polygon","arcs":[[67,68]],"properties":{"name":"Sangkae","gaul_code":12289,"targetarea":3.4242727,"totpop":118230.525146,"country_id":"KHM","targetpop":3314.8959961,"new_mean":0.1516674,"totalarea":1169.3574944}},{"type":"Polygon","arcs":[[-42,69]],"properties":{"name":"Sampov Meas","gaul_code":12416,"targetarea":3.2614935,"totpop":63163.7295837,"country_id":"KHM","targetpop":11420.8173828,"new_mean":0.1738952,"totalarea":366.2566937}},{"type":"Polygon","arcs":[[70]],"properties":{"name":"Preah Sdach","gaul_code":12408,"targetarea":0.6559446,"totpop":118648.727585,"country_id":"KHM","targetpop":1463.295166,"new_mean":0.1426756,"totalarea":483.4117417}},{"type":"Polygon","arcs":[[71,72,73,74]],"properties":{"name":"Kampong Cham","gaul_code":12296,"targetarea":8.2178602,"totpop":51006.1958466,"country_id":"KHM","targetpop":40607.4152832,"new_mean":0.0980238,"totalarea":23.2560129}},{"type":"Polygon","arcs":[[75]],"properties":{"name":"Cheung Prey","gaul_code":12294,"targetarea":3.2022477,"totpop":98508.6735878,"country_id":"KHM","targetpop":9093.411499,"new_mean":0.1302961,"totalarea":369.9470956}},{"type":"Polygon","arcs":[[76]],"properties":{"name":"Kampong Leav","gaul_code":12401,"targetarea":2.2531207,"totpop":51479.6765399,"country_id":"KHM","targetpop":4900.3217773,"new_mean":0.1390649,"totalarea":262.143358}},{"type":"Polygon","arcs":[[77]],"properties":{"name":"Stueng Trang","gaul_code":12306,"targetarea":0.5718242,"totpop":141863.661386,"country_id":"KHM","targetpop":1648.9147949,"new_mean":0.156568,"totalarea":1097.4101713}},{"type":"MultiPolygon","arcs":[[[78]],[[79,80,81,82]],[[83,84,85]],[[86,-23,87,88]]],"properties":{"name":"Kandal Stueng","gaul_code":12343,"targetarea":1.4775452,"totpop":138161.881622,"country_id":"KHM","targetpop":4295.0467529,"new_mean":0.1509255,"totalarea":263.7036063}},{"type":"Polygon","arcs":[[-41,89]],"properties":{"name":"Mondol Seima","gaul_code":12359,"targetarea":0.4586714,"totpop":16558.7576883,"country_id":"KHM","targetpop":0,"new_mean":0.1697611,"totalarea":1480.5235893}},{"type":"MultiPolygon","arcs":[[[90,91]],[[92]]],"properties":{"name":"Kampong Chhnang","gaul_code":12310,"targetarea":6.1442912,"totpop":45243.3726883,"country_id":"KHM","targetpop":20312.0668945,"new_mean":0.1132602,"totalarea":46.6952997}},{"type":"Polygon","arcs":[[93]],"properties":{"name":"Prey Chhor","gaul_code":12304,"targetarea":2.2485347,"totpop":121742.48722,"country_id":"KHM","targetpop":5113.6837158,"new_mean":0.1599156,"totalarea":453.3551695}},{"type":"Polygon","arcs":[[94]],"properties":{"name":"Moung Ruessei","gaul_code":12284,"targetarea":1.1395855,"totpop":251313.224745,"country_id":"KHM","targetpop":3953.8797607,"new_mean":0.08061,"totalarea":1825.610216}},{"type":"MultiPolygon","arcs":[[[95]],[[96]]],"properties":{"name":"Kampong Trach","gaul_code":12340,"targetarea":1.1492392,"totpop":87995.7306499,"country_id":"KHM","targetpop":3584.9818115,"new_mean":0.1620095,"totalarea":369.9662615}},{"type":"Polygon","arcs":[[97]],"properties":{"name":"Serei Saophoan","gaul_code":12275,"targetarea":8.9288736,"totpop":103753.988132,"country_id":"KHM","targetpop":31161.022583,"new_mean":0.1905892,"totalarea":382.0076825}},{"type":"Polygon","arcs":[[98]],"properties":{"name":"Batheay","gaul_code":12292,"targetarea":0.5722951,"totpop":118502.913254,"country_id":"KHM","targetpop":1726.3127441,"new_mean":0.1295079,"totalarea":666.6929579}},{"type":"MultiPolygon","arcs":[[[99]],[[100]]],"properties":{"name":"Pailin","gaul_code":12383,"targetarea":6.0264768,"totpop":153656.586906,"country_id":"KHM","targetpop":19027.1452637,"new_mean":0.0454311,"totalarea":564.1034418}},{"type":"Polygon","arcs":[[101]],"properties":{"name":"Thma Koul","gaul_code":12280,"targetarea":0.569608,"totpop":110584.347626,"country_id":"KHM","targetpop":1539.1303711,"new_mean":0.1468185,"totalarea":855.8864874}},{"type":"Polygon","arcs":[[-92,102]],"properties":{"name":"Rolea B'ier","gaul_code":12313,"targetarea":0.1040171,"totpop":108976.974335,"country_id":"KHM","targetpop":0,"new_mean":0.1881417,"totalarea":707.654204}},{"type":"Polygon","arcs":[[103]],"properties":{"name":"Doun Kaev","gaul_code":12455,"targetarea":4.1214584,"totpop":44511.6604805,"country_id":"KHM","targetpop":12991.1711426,"new_mean":0.1393793,"totalarea":94.7100202}},{"type":"MultiPolygon","arcs":[[[104,-17]],[[105]],[[106]],[[107]],[[108,109,110]]],"properties":{"name":"Angk Snuol","gaul_code":12342,"targetarea":17.4217034,"totpop":222467.696804,"country_id":"KHM","targetpop":59978.472168,"new_mean":0.0048816,"totalarea":303.1256161}},{"type":"MultiPolygon","arcs":[[[111,112]],[[113,114]],[[115,116]],[[117]]],"properties":{"name":"Kampot","gaul_code":12341,"targetarea":1.4447035,"totpop":142828.866262,"country_id":"KHM","targetpop":3520.1530762,"new_mean":0.1198169,"totalarea":1555.9855753}},{"type":"Polygon","arcs":[[118,119,-47,120,121,122,123,124,125,-20,-54,126,-58]],"properties":{"name":"Mean Chey","gaul_code":12389,"targetarea":40.5516513,"totpop":594942.026062,"country_id":"KHM","targetpop":589013.612549,"new_mean":0.0495702,"totalarea":48.6126002}},{"type":"Polygon","arcs":[[127]],"properties":{"name":"Chi Kraeng","gaul_code":12430,"targetarea":0.5699297,"totpop":156005.113135,"country_id":"KHM","targetpop":1821.5371094,"new_mean":0.1589776,"totalarea":2364.4887675}},{"type":"Polygon","arcs":[[128,129]],"properties":{"name":"Ban Lung","gaul_code":12419,"targetarea":7.3167548,"totpop":54579.0590515,"country_id":"KHM","targetpop":31349.3419189,"new_mean":0.1279599,"totalarea":201.652077}},{"type":"Polygon","arcs":[[130]],"properties":{"name":"Stoung","gaul_code":12331,"targetarea":0.5703412,"totpop":117813.966814,"country_id":"KHM","targetpop":2243.6037598,"new_mean":0.1507602,"totalarea":1708.5544572}},{"type":"Polygon","arcs":[[131,-116,132,-112,133,-115]],"properties":{"name":"Kampong Bay","gaul_code":12339,"targetarea":8.1438337,"totpop":40557.8603554,"country_id":"KHM","targetpop":24821.3206787,"new_mean":0.1977927,"totalarea":52.7711294}},{"type":"Polygon","arcs":[[134]],"properties":{"name":"Bavel","gaul_code":12281,"targetarea":0.5696269,"totpop":168429.24062,"country_id":"KHM","targetpop":1666.6883545,"new_mean":0.0883021,"totalarea":961.9455316}},{"type":"Polygon","arcs":[[135]],"properties":{"name":"Prey Veaeng","gaul_code":12409,"targetarea":0.5732278,"totpop":94990.5139618,"country_id":"KHM","targetpop":1589.118042,"new_mean":0.171663,"totalarea":472.899397}},{"type":"Polygon","arcs":[[136]],"properties":{"name":"Mongkol Borei","gaul_code":12271,"targetarea":1.1230965,"totpop":141417.16806,"country_id":"KHM","targetpop":3273.0721435,"new_mean":0.1750384,"totalarea":807.187437}},{"type":"MultiPolygon","arcs":[[[137,-33]],[[138,-35]],[[139,-37]],[[140]],[[141]]],"properties":{"name":"Sampov Lun","gaul_code":12288,"targetarea":24.527699,"totpop":182487.723483,"country_id":"KHM","targetpop":79057.1540527,"new_mean":0.0216957,"totalarea":450.0369338}},{"type":"Polygon","arcs":[[142]],"properties":{"name":"Kamrieng","gaul_code":12282,"targetarea":4.4064965,"totpop":208878.728741,"country_id":"KHM","targetpop":33898.1577148,"new_mean":0.0288012,"totalarea":529.3800298}},{"type":"MultiPolygon","arcs":[[[143]],[[144]]],"properties":{"name":"Ou Chrov","gaul_code":12272,"targetarea":25.6196096,"totpop":304699.98477,"country_id":"KHM","targetpop":135657.26709,"new_mean":0.0635992,"totalarea":793.3743898}},{"type":"Polygon","arcs":[[145]],"properties":{"name":"Stueng hav","gaul_code":12372,"targetarea":0.3914902,"totpop":16690.4282103,"country_id":"KHM","targetpop":0,"new_mean":0.2425382,"totalarea":139.0032694}},{"type":"Polygon","arcs":[[146,-69]],"properties":{"name":"Bat Damabng","gaul_code":12290,"targetarea":25.6278121,"totpop":153153.256855,"country_id":"KHM","targetpop":109093.791992,"new_mean":0.121385,"totalarea":115.7403231}},{"type":"MultiPolygon","arcs":[[[147]],[[148]],[[149]]],"properties":{"name":"Khsach Kandal","gaul_code":12345,"targetarea":2.290348,"totpop":132914.631516,"country_id":"KHM","targetpop":7341.635376,"new_mean":0.1218348,"totalarea":361.9069272}},{"type":"Polygon","arcs":[[150]],"properties":{"name":"Chamkar Leu","gaul_code":12293,"targetarea":0.5717008,"totpop":97556.949173,"country_id":"KHM","targetpop":1699.0598144,"new_mean":0.2199325,"totalarea":600.5190537}},{"type":"Polygon","arcs":[[151,-73]],"properties":{"name":"Kampong Siem","gaul_code":12297,"targetarea":3.5149742,"totpop":104112.825616,"country_id":"KHM","targetpop":6722.9105225,"new_mean":0.1689747,"totalarea":429.539606}},{"type":"MultiPolygon","arcs":[[[152,153]],[[154]],[[155,-11]]],"properties":{"name":"Ponhea Lueu","gaul_code":12350,"targetarea":3.5943467,"totpop":146307.076117,"country_id":"KHM","targetpop":14407.440918,"new_mean":0.096426,"totalarea":336.7028059}},{"type":"MultiPolygon","arcs":[[[156]],[[157,-75]]],"properties":{"name":"Tboung Khmum","gaul_code":12307,"targetarea":3.2383584,"totpop":219442.133999,"country_id":"KHM","targetpop":7543.3306885,"new_mean":0.2049714,"totalarea":1000.405906}},{"type":"Polygon","arcs":[[158]],"properties":{"name":"Tbaeng Mean chey","gaul_code":12398,"targetarea":1.7126342,"totpop":47796.7668598,"country_id":"KHM","targetpop":6279.1051025,"new_mean":0.1867735,"totalarea":929.7794096}},{"type":"Polygon","arcs":[[159]],"properties":{"name":"Rotanak Mondol","gaul_code":12286,"targetarea":0.5704339,"totpop":95716.8010902,"country_id":"KHM","targetpop":1751.0402832,"new_mean":0.0825669,"totalarea":970.2037166}},{"type":"MultiPolygon","arcs":[[[-82,160]],[[161,-85,162,-80]],[[163,-88,-22]],[[164]],[[165,166]],[[-125,167]],[[168,-123,169,170,-110,171,172]],[[173]],[[174]]],"properties":{"name":"Dangkao","gaul_code":12387,"targetarea":63.1258482,"totpop":527472.139244,"country_id":"KHM","targetpop":421043.998413,"new_mean":0.0011138,"totalarea":188.1102216}},{"type":"MultiPolygon","arcs":[[[175,-153,176,-170,-122,177,178,179]],[[180,181,182]]],"properties":{"name":"Ruessei Kaev","gaul_code":12390,"targetarea":83.1923959,"totpop":576920.330982,"country_id":"KHM","targetpop":553011.452423,"new_mean":0.0048258,"totalarea":109.6885497}},{"type":"MultiPolygon","arcs":[[[183,-182]],[[184]],[[185]],[[186]],[[187]],[[188]]],"properties":{"name":"Mukh Kampul","gaul_code":12349,"targetarea":3.9990096,"totpop":108459.591665,"country_id":"KHM","targetpop":12112.9296875,"new_mean":0.1074308,"totalarea":249.0437774}},{"type":"Polygon","arcs":[[189]],"properties":{"name":"Ou Reang Ov","gaul_code":12302,"targetarea":0.5727744,"totpop":78835.9447784,"country_id":"KHM","targetpop":1773.7568359,"new_mean":0.1959475,"totalarea":342.1517821}},{"type":"Polygon","arcs":[[190,-2,191,-28]],"properties":{"name":"Siem Reab","gaul_code":12434,"targetarea":51.0953255,"totpop":402072.116394,"country_id":"KHM","targetpop":302001.804443,"new_mean":0.0920323,"totalarea":340.1183391}},{"type":"Polygon","arcs":[[192]],"properties":{"name":"Chantrea","gaul_code":12445,"targetarea":1.3680852,"totpop":66580.6953316,"country_id":"KHM","targetpop":2474.1641235,"new_mean":0.1164143,"totalarea":415.521001}},{"type":"MultiPolygon","arcs":[[[193]],[[194]]],"properties":{"name":"Anlong Veaeng","gaul_code":12378,"targetarea":7.8543001,"totpop":452724.917479,"country_id":"KHM","targetpop":28248.3139648,"new_mean":0.0230682,"totalarea":1528.8336549}},{"type":"Polygon","arcs":[[195]],"properties":{"name":"Kralanh","gaul_code":12431,"targetarea":0.5688567,"totpop":60119.7042027,"country_id":"KHM","targetpop":1520.7199707,"new_mean":0.1166118,"totalarea":567.8972533}},{"type":"Polygon","arcs":[[-130,196]],"properties":{"name":"Ou Chum","gaul_code":12423,"targetarea":0.1620023,"totpop":26089.9995809,"country_id":"KHM","targetpop":0,"new_mean":0.1602391,"totalarea":501.485743}},{"type":"Polygon","arcs":[[-10,197]],"properties":{"name":"Kong Pisei","gaul_code":12320,"targetarea":0.6981138,"totpop":133755.087906,"country_id":"KHM","targetpop":1902.7072754,"new_mean":0.1535215,"totalarea":381.3574762}},{"type":"MultiPolygon","arcs":[[[198]],[[199]]],"properties":{"name":"Sala Krau","gaul_code":12384,"targetarea":4.6940067,"totpop":254666.118057,"country_id":"KHM","targetpop":16590.3913574,"new_mean":0.0201806,"totalarea":502.0569434}},{"type":"Polygon","arcs":[[-178,-121,-46,200,201]],"properties":{"name":"Tuol Kouk","gaul_code":12391,"targetarea":7.9456288,"totpop":163408.06543,"country_id":"KHM","targetpop":0,"new_mean":0,"totalarea":7.9456288}},{"type":"Polygon","arcs":[[202]],"properties":{"name":"Svay Chrum","gaul_code":12450,"targetarea":2.9852921,"totpop":21550.1285095,"country_id":"KHM","targetpop":10765.9354248,"new_mean":0,"totalarea":21.7601749}},{"type":"Polygon","arcs":[[-179,-202,203,-48,-120,204]],"properties":{"name":"Doun Penh","gaul_code":12388,"targetarea":7.3247701,"totpop":130474.567383,"country_id":"KHM","targetpop":0,"new_mean":0,"totalarea":7.3449907}},{"type":"Polygon","arcs":[[-65,205]],"properties":{"name":"Leuk Daek","gaul_code":12347,"targetarea":0.3595605,"totpop":56456.6928766,"country_id":"KHM","targetpop":0,"new_mean":0.2147643,"totalarea":376.6440348}},{"type":"Polygon","arcs":[[-204,-201,-45]],"properties":{"name":"Prampir Meakkara","gaul_code":12385,"targetarea":2.1940293,"totpop":81563.7792969,"country_id":"KHM","targetpop":0,"new_mean":0,"totalarea":2.1940294}}]}},"arcs":[[[104.5638009,10.6764105],[104.5565093,10.6691026],[104.5666655,10.6662502],[104.5638009,10.6764105]],[[103.8198169,13.3877271],[103.8222504,13.3853006],[103.8263321,13.3833694],[103.8295441,13.3832226],[103.835701,13.3810863],[103.8369366,13.3860111]],[[103.8369366,13.3860111],[103.8363595,13.3856716],[103.8198169,13.3877271]],[[103.7299793,13.451854],[103.7224924,13.4375514],[103.7333322,13.4329168],[103.7299793,13.451854]],[[104.9492456,11.5693186],[104.9666655,11.5662502],[104.9621695,11.5767625],[104.9615975,11.5765625],[104.949163,11.5704488],[104.9492456,11.5693186]],[[104.8954741,12.7184963],[104.8808257,12.7112941],[104.8999989,12.7079168],[104.8954741,12.7184963]],[[103.5264312,14.185875],[103.5130197,14.1940496],[103.5055327,14.1718817],[103.5166655,14.1662502],[103.5264312,14.185875]],[[103.7061882,14.4243407],[103.7054486,14.4300062],[103.7001724,14.4341764],[103.6931481,14.4351721],[103.6711577,14.4146999],[103.70632,14.408284],[103.7061882,14.4243407]],[[104.7109082,11.283931],[104.7166655,11.2829168],[104.7121408,11.2934963],[104.7103865,11.2926338]],[[104.7103865,11.2926338],[104.7109082,11.283931]],[[104.7546293,11.8167314],[104.7535782,11.8201199],[104.7499619,11.8204966],[104.7423717,11.8236733]],[[104.7423717,11.8236733],[104.7304676,11.8198716],[104.7546293,11.8167314]],[[104.6729155,11.0269313],[104.6637033,11.0121364],[104.6833322,11.0079168],[104.6729155,11.0269313]],[[105.1200835,10.9647162],[105.0789051,10.9554836],[105.0715809,10.9410223],[105.0811917,10.9343932],[105.0841064,10.9365101],[105.0869827,10.9491997],[105.0899811,10.9513197],[105.1097107,10.9559402],[105.1168211,10.9551261],[105.1200835,10.9647162]],[[105.0638009,11.1180772],[105.0565093,11.1107692],[105.0666655,11.1079168],[105.0638009,11.1180772]],[[104.1221343,13.2514105],[104.1148426,13.2441025],[104.1249989,13.2412502],[104.1221343,13.2514105]],[[104.6654255,11.4929365],[104.6684494,11.4982967],[104.6687217,11.500968]],[[104.6687217,11.500968],[104.6558257,11.4946275],[104.6654255,11.4929365]],[[104.977417,11.4606676],[104.9707642,11.46208],[104.9658203,11.4650621],[104.9570694,11.4790783],[104.9506073,11.4918451]],[[104.9506073,11.4918451],[104.9306278,11.4844656]],[[104.9306278,11.4844656],[104.9255616,11.4530706]],[[104.9255616,11.4530706],[104.9265976,11.4496012]],[[104.9265976,11.4496012],[104.926616,11.449196]],[[104.926616,11.449196],[104.9720321,11.4383127]],[[104.9720321,11.4383127],[104.9638672,11.4532709],[104.977417,11.4606676]],[[104.0121408,13.3434963],[103.9974924,13.3362941],[104.0166655,13.3329168],[104.0121408,13.3434963]],[[103.9101201,13.3500432],[103.9203765,13.3562526],[103.9104166,13.3623011]],[[103.9104166,13.3623011],[103.9101201,13.3500432]],[[104.3554676,14.1930771],[104.3481759,14.1857692],[104.3583322,14.1829168],[104.3554676,14.1930771]],[[105.9721343,13.5347438],[105.9648426,13.5274359],[105.9749989,13.5245835],[105.9721343,13.5347438]],[[102.4343739,13.2269028],[102.3840158,13.2364731],[102.3890939,13.2070623],[102.4166655,13.1995835],[102.4343739,13.2269028]],[[102.3999989,13.3570709],[102.3999989,13.3412502],[102.5833322,13.3412502],[102.5833322,13.3579168],[102.4717919,13.3579168]],[[102.4717919,13.3579168],[102.3999989,13.3570709]],[[102.3600021,13.3841686],[102.3583527,13.3684969],[102.3564027,13.3602631],[102.3749989,13.3579168],[102.3777983,13.3634507],[102.3960755,13.3687253]],[[102.3960755,13.3687253],[102.3960334,13.380294]],[[102.3960334,13.380294],[102.3703782,13.384189]],[[102.3703782,13.384189],[102.3600021,13.3841686]],[[103.5232328,10.6666182],[103.5208893,10.6664286],[103.5201111,10.6545906],[103.5181427,10.6505909],[103.5132065,10.645154],[103.5106506,10.6451426],[103.5093918,10.6476135],[103.5032806,10.6453819],[103.5011902,10.6454182],[103.5014038,10.6395483],[103.4985275,10.6308651],[103.4950613,10.6270794],[103.5055327,10.621784],[103.5091899,10.6091116],[103.5135269,10.607955],[103.5174789,10.6043043],[103.5211334,10.6061106],[103.5239716,10.6049767],[103.5278778,10.6018305],[103.5348909,10.5943313],[103.5417306,10.6078517],[103.5665679,10.6204168],[103.5527983,10.627383],[103.5471994,10.6384507],[103.5277983,10.6440497],[103.5232328,10.6666182]],[[104.8788075,10.6518296],[104.864159,10.6446275],[104.8833322,10.6412502],[104.8788075,10.6518296]],[[102.9755799,11.5951716],[102.9833322,11.5912502],[102.9920887,11.608869],[102.9794759,11.6268028],[102.9786847,11.6256814],[102.9764031,11.6155493]],[[102.9764031,11.6155493],[102.9762421,11.6057339],[102.9755799,11.5951716]],[[103.9245051,12.5408467],[103.924614,12.5381613],[103.9268504,12.5365256]],[[103.9268504,12.5365256],[103.9245051,12.5408467]],[[104.4633127,12.451854],[104.4558257,12.4375514],[104.4666655,12.4329168],[104.4633127,12.451854]],[[104.9241943,11.553731],[104.9135132,11.5540724],[104.9119644,11.5557413]],[[104.9119644,11.5557413],[104.9022446,11.5465488]],[[104.9022446,11.5465488],[104.9046707,11.5425901],[104.9102707,11.5410538],[104.9163055,11.5328989],[104.9182816,11.5286236],[104.9211655,11.5250731],[104.9240723,11.5247202],[104.9317856,11.5275984],[104.9370651,11.5281591],[104.9352798,11.534174],[104.9363556,11.5379047],[104.9402771,11.5440178],[104.9458618,11.5556173]],[[104.9458618,11.5556173],[104.9241943,11.553731]],[[104.2163978,12.5755331],[104.2138009,12.5847438],[104.2065093,12.5774359],[104.2153449,12.5749544],[104.2163978,12.5755331]],[[106.0214181,12.5020412],[106.0138009,12.4804876],[106.0249989,12.4745835],[106.0214181,12.5020412]],[[105.1333322,11.4745835],[105.1378569,11.4640041],[105.1525054,11.4712062],[105.1333322,11.4745835]],[[105.1333322,11.4745835],[105.1304676,11.4847438],[105.1231759,11.4774359],[105.1333322,11.4745835]],[[105.1121408,11.4934963],[105.0974923,11.4862941],[105.1166655,11.4829168],[105.1121408,11.4934963]],[[104.9612001,11.4951552],[104.9575119,11.4945326],[104.9566956,11.4922333],[104.9538727,11.4905519],[104.9506073,11.4918451]],[[104.977417,11.4606676],[104.9891222,11.4608237]],[[104.9891222,11.4608237],[104.9871082,11.4616969],[104.959797,11.4813625],[104.9612001,11.4951552]],[[105.0796864,11.5042873],[105.0394194,11.5207708],[105.0130197,11.5242214],[105.0549468,11.4991522],[105.0833322,11.4912502],[105.0796864,11.5042873]],[[104.9659507,11.5441801],[104.9660339,11.5391626],[104.9689255,11.5374088],[104.9690247,11.5218748]],[[104.9690247,11.5218748],[104.9952788,11.5192002],[105.0121082,11.5339422],[104.9659507,11.5441801]],[[104.3204741,10.5434963],[104.3058257,10.5362941],[104.3249989,10.5329168],[104.3204741,10.5434963]],[[105.0183257,11.3672023],[104.9965809,11.3608628],[105.0249989,11.3412502],[105.0183257,11.3672023]],[[104.9720321,11.4383127],[104.9901681,11.4339666],[105.0121082,11.4508571],[104.9891222,11.4608237]],[[107.1883127,12.4685207],[107.1808257,12.4542181],[107.1916655,12.4495835],[107.1883127,12.4685207]],[[105.284747,11.254291],[105.2999989,11.2495835],[105.2912098,11.278034],[105.2844356,11.2653698]],[[105.2844356,11.2653698],[105.284747,11.254291]],[[104.4888009,11.4514105],[104.4815093,11.4441025],[104.4916655,11.4412502],[104.4888009,11.4514105]],[[104.5362944,11.474787],[104.5051421,11.4618109],[104.5249989,11.4495835],[104.5362944,11.474787]],[[103.2038673,13.0610068],[103.2083322,13.0579168],[103.2166004,13.0698797],[103.2421213,13.0794297],[103.2291437,13.0883937]],[[103.2291437,13.0883937],[103.2282486,13.0841417],[103.2309265,13.0828257],[103.2292557,13.078969],[103.2203598,13.0765419],[103.2197723,13.0720663],[103.215004,13.076169],[103.210968,13.0778818],[103.20578,13.0769186],[103.2069702,13.0720901],[103.2062607,13.0682096],[103.2075348,13.0648375],[103.2038673,13.0610068]],[[103.9245051,12.5408467],[103.9218541,12.545731],[103.9201784,12.5462715],[103.9049142,12.5318711],[103.9333322,12.5245835],[103.9268504,12.5365256]],[[105.4296781,10.9664605],[105.4288075,10.9684963],[105.414159,10.9612941],[105.4241754,10.9595298],[105.4263229,10.9633904],[105.4296781,10.9664605]],[[105.475922,12.0014741],[105.4593192,12.0054548]],[[105.4593192,12.0054548],[105.4570389,12.0020361],[105.4487305,12.001277],[105.4484253,11.9973803],[105.451561,11.9933157],[105.451416,11.9906111],[105.4486771,11.9884586],[105.445282,11.9907827],[105.4416656,11.9904089],[105.440626,11.9856328]],[[105.440626,11.9856328],[105.4416655,11.9810003],[105.4666655,11.9745835],[105.4752007,11.9949203]],[[105.4752007,11.9949203],[105.475922,12.0014741]],[[105.0788726,12.0691432],[105.0552397,12.053563],[105.0833322,12.0495835],[105.0788726,12.0691432]],[[105.3359689,11.4945339],[105.3212879,11.4804063],[105.3416655,11.4745835],[105.3359689,11.4945339]],[[105.5388009,12.2597438],[105.5315093,12.2524359],[105.5416655,12.2495835],[105.5388009,12.2597438]],[[104.8066728,11.4304693],[104.8043042,11.4335778],[104.7981759,11.4274359],[104.8083322,11.4245835],[104.8066728,11.4304693]],[[104.9236164,11.4463439],[104.9215757,11.4489806]],[[104.9215757,11.4489806],[104.9200336,11.448709]],[[104.9200336,11.448709],[104.9162445,11.4459162],[104.9140539,11.4476559]],[[104.9140539,11.4476559],[104.9060535,11.4462469],[104.9203765,11.4387518],[104.9236164,11.4463439]],[[104.9249989,11.4495835],[104.9245012,11.4494959]],[[104.9245012,11.4494959],[104.9248779,11.4493001]],[[104.9248779,11.4493001],[104.9249989,11.4495835]],[[104.9249989,11.4495835],[104.926616,11.449196]],[[104.9265976,11.4496012],[104.9251494,11.4505161]],[[104.9251494,11.4505161],[104.9249989,11.4495835]],[[102.9764031,11.6155493],[102.9721994,11.5968817],[102.9755799,11.5951716]],[[104.6692413,12.2187118],[104.6749989,12.2162502],[104.671646,12.2351873],[104.6657115,12.2238506]],[[104.6657115,12.2238506],[104.6692413,12.2187118]],[[104.6871408,12.2751165],[104.656021,12.2582017],[104.6749989,12.2412502],[104.6871408,12.2751165]],[[105.2609689,12.0695339],[105.2462879,12.0554063],[105.2666655,12.0495835],[105.2609689,12.0695339]],[[103.446646,12.7851873],[103.439159,12.7708848],[103.4499989,12.7662502],[103.446646,12.7851873]],[[104.4582402,10.4249097],[104.4554676,10.4347438],[104.4481759,10.4274359],[104.4582402,10.4249097]],[[104.4721343,10.5680772],[104.4648426,10.5607692],[104.4749989,10.5579168],[104.4721343,10.5680772]],[[102.9886056,13.5960028],[102.9598621,13.6113185],[102.9635731,13.5948594],[102.9474924,13.5837754],[102.9833322,13.5745835],[102.9886056,13.5960028]],[[104.9721343,12.0347438],[104.9648426,12.0274359],[104.9749989,12.0245835],[104.9721343,12.0347438]],[[102.6249989,12.8495835],[102.6351551,12.8524359],[102.6278635,12.8597438],[102.6249989,12.8495835]],[[102.6249989,12.8495835],[102.6196278,12.8525335],[102.6114898,12.8673488],[102.5887033,12.8618841],[102.618814,12.8383001],[102.6249989,12.8495835]],[[103.088801,13.2680772],[103.0815093,13.2607692],[103.0916655,13.2579168],[103.088801,13.2680772]],[[104.6657115,12.2238506],[104.664159,12.2208848],[104.6692413,12.2187118]],[[104.7874338,10.9995632],[104.7630197,10.9825547],[104.7916655,10.9745835],[104.7874338,10.9995632]],[[104.6654255,11.4929365],[104.6749989,11.4912502],[104.6704741,11.5018296],[104.6687217,11.500968]],[[104.6888009,11.5097438],[104.6815093,11.5024359],[104.6916655,11.4995835],[104.6888009,11.5097438]],[[104.7221343,11.5180772],[104.7148426,11.5107692],[104.7249989,11.5079168],[104.7221343,11.5180772]],[[104.7749989,11.5162502],[104.745409,11.5278794],[104.7296864,11.4995184],[104.7662424,11.504922],[104.7749989,11.5162502]],[[104.7749989,11.5162502],[104.812922,11.5209865],[104.8187101,11.5072216]],[[104.8187101,11.5072216],[104.8237915,11.5079708],[104.8250122,11.516325],[104.8203659,11.5230141],[104.8179245,11.5312967],[104.8166351,11.5317764],[104.8076706,11.5291777],[104.8051682,11.5293484],[104.8031387,11.5318184],[104.7994003,11.5412912],[104.7994995,11.5460777],[104.7961301,11.5466225]],[[104.7961301,11.5466225],[104.7971994,11.5361069],[104.7787749,11.5208034],[104.7749989,11.5162502]],[[104.1983685,10.6050136],[104.1951523,10.6018486],[104.1930218,10.594035]],[[104.1930218,10.594035],[104.1983685,10.6050136]],[[104.2005738,10.609542],[104.2023426,10.613174],[104.1949674,10.6178179]],[[104.1949674,10.6178179],[104.1956024,10.6134233],[104.2005692,10.6109695],[104.2005738,10.609542]],[[104.1725744,10.6175953],[104.173912,10.6158829],[104.1771317,10.6194611],[104.1835003,10.6250383]],[[104.1835003,10.6250383],[104.1796538,10.6274603],[104.1725744,10.6175953]],[[104.2721343,10.6930772],[104.2648426,10.6857692],[104.2749989,10.6829168],[104.2721343,10.6930772]],[[104.9659507,11.5441801],[104.9484689,11.5480576],[104.9464035,11.5573791]],[[104.9464035,11.5573791],[104.9458618,11.5556173]],[[104.9022446,11.5465488],[104.8945694,11.5478373]],[[104.8945694,11.5478373],[104.8931503,11.5470686],[104.8840256,11.5457907],[104.87603,11.5451927],[104.8653336,11.543128]],[[104.8653336,11.543128],[104.866745,11.519845],[104.8875732,11.5199718],[104.8923416,11.520525],[104.9007012,11.5190252]],[[104.9007012,11.5190252],[104.9034223,11.5182572]],[[104.9034223,11.5182572],[104.9173508,11.5144148],[104.9174077,11.5098792]],[[104.9174077,11.5098792],[104.933202,11.5004177],[104.9306278,11.4844656]],[[104.9612001,11.4951552],[104.962922,11.5120835],[104.9618478,11.522606],[104.9690247,11.5218748]],[[104.3471343,13.1264105],[104.3398426,13.1191025],[104.3499989,13.1162502],[104.3471343,13.1264105]],[[106.9749989,13.7459282],[106.9749989,13.7245835],[106.9999989,13.7245835],[106.9999989,13.7495835],[106.9813972,13.7495835]],[[106.9813972,13.7495835],[106.9749989,13.7459282]],[[104.5721343,12.9430772],[104.5648426,12.9357692],[104.5749989,12.9329168],[104.5721343,12.9430772]],[[104.1949674,10.6178179],[104.1835003,10.6250383]],[[104.1725744,10.6175953],[104.1638009,10.6053696],[104.1916655,10.5912502],[104.1930218,10.594035]],[[104.1983685,10.6050136],[104.2005738,10.609542]],[[102.8804676,13.2597438],[102.873176,13.2524359],[102.8833322,13.2495835],[102.8804676,13.2597438]],[[105.4221343,11.5764105],[105.4148426,11.5691025],[105.4249989,11.5662502],[105.4221343,11.5764105]],[[103.0288075,13.5434963],[103.014159,13.5362941],[103.0333322,13.5329168],[103.0288075,13.5434963]],[[102.4717919,13.3579168],[102.3999989,13.3579168],[102.3999989,13.3570709]],[[102.3960755,13.3687253],[102.3971994,13.3690496],[102.4027983,13.3792669],[102.3960334,13.380294]],[[102.3703782,13.384189],[102.3604042,13.3857032],[102.3600021,13.3841686]],[[102.6621408,13.4518296],[102.6474924,13.4446274],[102.6666655,13.4412502],[102.6621408,13.4518296]],[[102.4112944,13.4372259],[102.4988921,13.4454453],[102.3626942,13.4552923],[102.3614475,13.4513939],[102.3657074,13.4339504],[102.3655131,13.4281773],[102.3999989,13.4245835],[102.4112944,13.4372259]],[[102.4362356,13.0925544],[102.4434559,13.0850653],[102.4666655,13.0829168],[102.4645497,13.0974635],[102.4347124,13.0977294],[102.4362356,13.0925544]],[[102.6095366,13.6524603],[102.5834624,13.6870021],[102.5800629,13.6841478],[102.568367,13.6760893],[102.5630569,13.6692905],[102.5587311,13.6594658],[102.5581207,13.6534519],[102.5730286,13.6369858],[102.5783386,13.6322756],[102.5942607,13.6257035],[102.5999989,13.6245835],[102.6095366,13.6524603]],[[102.8831694,13.719481],[102.8548491,13.7048976],[102.8749989,13.6995835],[102.8831694,13.719481]],[[103.5471343,10.7180772],[103.5446319,10.7155692],[103.5449717,10.7093287],[103.5499989,10.7079168],[103.5471343,10.7180772]],[[103.2291437,13.0883937],[103.2200835,13.0946519],[103.2126616,13.132632],[103.1686512,13.1039699],[103.1818348,13.0948594],[103.1780913,13.0781073],[103.1965809,13.0711818],[103.2038673,13.0610068]],[[104.9549793,11.6435207],[104.9474924,11.6292181],[104.9583322,11.6245835],[104.9549793,11.6435207]],[[105.0138009,11.7514105],[105.0065093,11.7441025],[105.0166655,11.7412502],[105.0138009,11.7514105]],[[105.0304676,11.7764105],[105.0231759,11.7691025],[105.0333322,11.7662502],[105.0304676,11.7764105]],[[105.2804676,12.3180772],[105.2731759,12.3107692],[105.2833322,12.3079168],[105.2804676,12.3180772]],[[105.4593192,12.0054548],[105.4348621,12.0113185],[105.440626,11.9856328]],[[104.8477343,11.6402165],[104.8579788,11.6484404],[104.8706088,11.656907]],[[104.8706088,11.656907],[104.8586903,11.6654811],[104.8477343,11.6402165]],[[104.8054676,11.8180772],[104.7981759,11.8107692],[104.8083322,11.8079168],[104.8054676,11.8180772]],[[104.7546293,11.8167314],[104.7583322,11.8162502],[104.7527007,11.826972],[104.7423717,11.8236733]],[[105.6605132,11.9195217],[105.6377267,11.9085191],[105.6666655,11.8995835],[105.6605132,11.9195217]],[[105.4752007,11.9949203],[105.4777658,12.0010321],[105.475922,12.0014741]],[[104.9797515,13.8187078],[104.9721343,13.7971543],[104.9833322,13.7912502],[104.9797515,13.8187078]],[[102.9804676,12.9014105],[102.973176,12.8941025],[102.9833322,12.8912502],[102.9804676,12.9014105]],[[104.9200336,11.448709],[104.9140539,11.4476559]],[[104.9236164,11.4463439],[104.9248779,11.4493001]],[[104.9245012,11.4494959],[104.9215757,11.4489806]],[[104.9255616,11.4530706],[104.9251494,11.4505161]],[[104.8471343,11.4680772],[104.8398426,11.4607692],[104.8499989,11.4579168],[104.8471343,11.4680772]],[[104.8416655,11.4912502],[104.8458322,11.4805772],[104.8499989,11.4912502]],[[104.8499989,11.4912502],[104.8416655,11.4912502]],[[104.9034223,11.5182572],[104.9174077,11.5098792]],[[104.8499989,11.4912502],[104.8712879,11.494957],[104.8824533,11.5089097],[104.8985015,11.4708766],[104.9047189,11.4868475],[104.9007012,11.5190252]],[[104.8653336,11.543128],[104.8665924,11.552803],[104.8667374,11.5586452],[104.8681183,11.5656404],[104.8543777,11.5643139],[104.8386078,11.5645447],[104.8386078,11.5709267],[104.8482208,11.573761],[104.8461562,11.5866391]],[[104.8461562,11.5866391],[104.8370431,11.5790757],[104.8379546,11.5700913],[104.8287749,11.5624701],[104.8152332,11.5461655],[104.8045562,11.5708034],[104.7929025,11.5783636],[104.7961301,11.5466225]],[[104.8187101,11.5072216],[104.8232085,11.4965236],[104.8416655,11.4912502]],[[104.8416655,11.4912502],[104.8458322,11.5019232],[104.8499989,11.4912502]],[[104.8166655,11.6162502],[104.8065093,11.6133978],[104.8138009,11.6060899],[104.8166655,11.6162502]],[[104.8166655,11.6162502],[104.8268218,11.6191025],[104.8195301,11.6264105],[104.8166655,11.6162502]],[[104.9166655,11.6745835],[104.9096994,11.6687892],[104.9129546,11.6368312],[104.9092111,11.6291367],[104.8706088,11.656907]],[[104.8477343,11.6402165],[104.8421275,11.6272872],[104.8423045,11.6255029],[104.8546213,11.6040187],[104.8534819,11.5927191],[104.8461562,11.5866391]],[[104.8945694,11.5478373],[104.8921432,11.5496922],[104.8906174,11.5532255],[104.8910446,11.5553703],[104.8943863,11.5594988],[104.8923874,11.5637054],[104.8912354,11.581645],[104.8946686,11.584774],[104.9013214,11.5889282],[104.904541,11.5837669],[104.9116592,11.5813313]],[[104.9116592,11.5813313],[104.9182663,11.5830526],[104.9182434,11.585824],[104.9247894,11.5868893],[104.9375305,11.566123],[104.9409409,11.5628099],[104.9457643,11.5602637]],[[104.9457643,11.5602637],[104.9378895,11.5958034],[104.9287098,11.6118149],[104.9302723,11.6271917],[104.9204416,11.6533636],[104.9166655,11.6745835]],[[104.9166655,11.6745835],[104.9182894,11.6750396]],[[104.9182894,11.6750396],[104.9169453,11.6755759]],[[104.9169453,11.6755759],[104.9166655,11.6745835]],[[104.9182894,11.6750396],[104.9268218,11.6774359],[104.9195301,11.6847438],[104.9169453,11.6755759]],[[104.9804676,11.7430772],[104.9731759,11.7357692],[104.9833322,11.7329168],[104.9804676,11.7430772]],[[104.9971343,11.7597438],[104.9898426,11.7524359],[104.9999989,11.7495835],[104.9971343,11.7597438]],[[105.0138009,11.7847438],[105.0065093,11.7774359],[105.0166655,11.7745835],[105.0138009,11.7847438]],[[104.9804676,11.8347438],[104.9731759,11.8274359],[104.9833322,11.8245835],[104.9804676,11.8347438]],[[104.996646,11.8601873],[104.989159,11.8458848],[104.9999989,11.8412502],[104.996646,11.8601873]],[[105.5054676,11.8014105],[105.4981759,11.7941025],[105.5083322,11.7912502],[105.5054676,11.8014105]],[[103.9104166,13.3623011],[103.8544259,13.3963039],[103.8369366,13.3860111]],[[103.8198169,13.3877271],[103.8144194,13.3883978],[103.8296213,13.3625433],[103.8453765,13.3032904],[103.8499989,13.2995835],[103.8620431,13.32921],[103.8879546,13.3366237],[103.9101201,13.3500432]],[[106.1792656,11.0709457],[106.1767807,11.0767498],[106.1742665,11.0798113],[106.1627267,11.077208],[106.1749989,11.0662502],[106.1792656,11.0709457]],[[104.0868153,14.2211045],[104.1032866,14.2329168],[104.0796864,14.2498317],[104.0715158,14.2247178],[104.0833322,14.2162502],[104.0868153,14.2211045]],[[104.070239,14.3423276],[104.0518188,14.3379335],[104.0471994,14.3364243],[104.0749989,14.3329168],[104.070239,14.3423276]],[[103.4221343,13.5930771],[103.4148426,13.5857692],[103.4249989,13.5829168],[103.4221343,13.5930771]],[[106.9813972,13.7495835],[106.9749989,13.7495835],[106.9749989,13.7459282]],[[104.7103865,11.2926338],[104.6974924,11.2862941],[104.7109082,11.283931]],[[102.5052723,12.9406317],[102.4971248,12.9334137],[102.5005264,12.9250269],[102.5017763,12.9195665],[102.5083322,12.9162502],[102.5052723,12.9406317]],[[102.5930002,12.9527655],[102.5796864,12.9377793],[102.6083322,12.9329168],[102.5930002,12.9527655]],[[104.9119644,11.5557413],[104.9101257,11.568532]],[[104.9101257,11.568532],[104.907692,11.5722942],[104.9098206,11.5787067],[104.9116592,11.5813313]],[[105.8013335,11.0944321],[105.7880197,11.079446],[105.8166655,11.0745835],[105.8013335,11.0944321]],[[104.9101257,11.568532],[104.9219818,11.5696669],[104.9241943,11.553731]],[[104.9464035,11.5573791],[104.9457643,11.5602637]],[[105.2844356,11.2653698],[105.2793934,11.2559434],[105.284747,11.254291]]],"bbox":[102.3564027,10.4249097,107.1916655,14.4351721]}