{"type":"Topology","objects":{"foo":{"type":"GeometryCollection","geometries":[{"type":"MultiPolygon","arcs":[[[0]],[[1]],[[2]]],"properties":{"name":"Sanasomboon","gaul_code":18656,"targetarea":1.6943888,"totpop":73478.6970696,"country_id":"LAO","targetpop":4358.895874,"new_mean":0.2575907,"totalarea":904.144727}},{"type":"Polygon","arcs":[[3]],"properties":{"name":"Nhommalath","gaul_code":18672,"targetarea":0.5581001,"totpop":39215.9011034,"country_id":"LAO","targetpop":1674.8968506,"new_mean":0.0800847,"totalarea":1508.0667616}},{"type":"Polygon","arcs":[[4]],"properties":{"name":"Thateng","gaul_code":18736,"targetarea":1.1137967,"totpop":62035.6322262,"country_id":"LAO","targetpop":4130.6549072,"new_mean":0.1052909,"totalarea":550.9899282}},{"type":"Polygon","arcs":[[5]],"properties":{"name":"Khongxedone","gaul_code":18703,"targetarea":0.5638628,"totpop":65351.096147,"country_id":"LAO","targetpop":2108.9609375,"new_mean":0.1856102,"totalarea":790.238877}},{"type":"MultiPolygon","arcs":[[[6]],[[7]]],"properties":{"name":"Songkhone","gaul_code":74332,"targetarea":1.1244933,"totpop":100730.477986,"country_id":"LAO","targetpop":3690.8278809,"new_mean":0.1046916,"totalarea":1622.6292861}},{"type":"Polygon","arcs":[[8]],"properties":{"name":"Namtha","gaul_code":18686,"targetarea":4.2695834,"totpop":64312.6153103,"country_id":"LAO","targetpop":8395.4948731,"new_mean":0.0970571,"totalarea":2299.2648211}},{"type":"Polygon","arcs":[[9]],"properties":{"name":"Naxaithong","gaul_code":18739,"targetarea":3.7838937,"totpop":103680.050128,"country_id":"LAO","targetpop":14265.5894775,"new_mean":0.08803,"totalarea":903.3729356}},{"type":"Polygon","arcs":[[10]],"properties":{"name":"Sepone","gaul_code":18718,"targetarea":0.5607701,"totpop":60120.6136249,"country_id":"LAO","targetpop":1405.8837891,"new_mean":0.1104887,"totalarea":2271.7392426}},{"type":"Polygon","arcs":[[11]],"properties":{"name":"Lao Ngarm","gaul_code":18705,"targetarea":1.1136222,"totpop":91455.5426081,"country_id":"LAO","targetpop":3028.3854981,"new_mean":0.1588704,"totalarea":901.1926681}},{"type":"Polygon","arcs":[[12]],"properties":{"name":"Vapy","gaul_code":18710,"targetarea":0.5635495,"totpop":43663.3625237,"country_id":"LAO","targetpop":1351.4620361,"new_mean":0.1312404,"totalarea":942.084792}},{"type":"MultiPolygon","arcs":[[[13]],[[14]],[[15]]],"properties":{"name":"Lamarm","gaul_code":18735,"targetarea":2.2559577,"totpop":49844.6326091,"country_id":"LAO","targetpop":7545.5184326,"new_mean":0.1259466,"totalarea":1867.1708923}},{"type":"MultiPolygon","arcs":[[[16]],[[17]]],"properties":{"name":"Samakkhixay","gaul_code":18633,"targetarea":2.2254603,"totpop":49445.4650431,"country_id":"LAO","targetpop":12234.6783447,"new_mean":0.1245033,"totalarea":254.9967076}},{"type":"Polygon","arcs":[[18]],"properties":{"name":"Pakkading","gaul_code":18644,"targetarea":1.0982073,"totpop":73579.6360818,"country_id":"LAO","targetpop":4064.2998047,"new_mean":0.0849487,"totalarea":2469.788954}},{"type":"Polygon","arcs":[[19]],"properties":{"name":"Paksong","gaul_code":18653,"targetarea":1.1280632,"totpop":110869.577022,"country_id":"LAO","targetpop":6396.6875,"new_mean":0.2093729,"totalarea":3433.8924333}},{"type":"Polygon","arcs":[[20]],"properties":{"name":"Khamkheuth","gaul_code":18643,"targetarea":3.3031802,"totpop":103613.733017,"country_id":"LAO","targetpop":12226.8409424,"new_mean":0.0856761,"totalarea":4527.054225}},{"type":"MultiPolygon","arcs":[[[21]],[[22,23,24,25,26]],[[27]],[[28]],[[29]],[[30]]],"properties":{"name":"Xaythany","gaul_code":18745,"targetarea":15.8758127,"totpop":202017.545434,"country_id":"LAO","targetpop":51759.90979,"new_mean":0.0723804,"totalarea":593.4615801}},{"type":"Polygon","arcs":[[31,32,33,34,-26,35,-24,36]],"properties":{"name":"Chanthabuly","gaul_code":18737,"targetarea":30.8005302,"totpop":173084.311104,"country_id":"LAO","targetpop":155376.55603,"new_mean":0.0927972,"totalarea":54.0735221}},{"type":"MultiPolygon","arcs":[[[37]],[[38]]],"properties":{"name":"Xay","gaul_code":18695,"targetarea":5.900245,"totpop":110898.924114,"country_id":"LAO","targetpop":26405.1621094,"new_mean":0.0849279,"totalarea":2160.7613074}},{"type":"MultiPolygon","arcs":[[[39]],[[40]]],"properties":{"name":"Xaybuly","gaul_code":18722,"targetarea":1.1194665,"totpop":78043.0928019,"country_id":"LAO","targetpop":2845.1748047,"new_mean":0.0749397,"totalarea":918.8317811}},{"type":"MultiPolygon","arcs":[[[41]],[[42]]],"properties":{"name":"Saravane","gaul_code":18707,"targetarea":4.1939313,"totpop":136053.795104,"country_id":"LAO","targetpop":11433.163208,"new_mean":0.1293245,"totalarea":2381.6561495}},{"type":"MultiPolygon","arcs":[[[43]],[[44]]],"properties":{"name":"Champhone","gaul_code":74322,"targetarea":4.0526855,"totpop":131062.211641,"country_id":"LAO","targetpop":9880.4957275,"new_mean":0.0794838,"totalarea":1047.8442027}},{"type":"Polygon","arcs":[[45]],"properties":{"name":"Champassack","gaul_code":18649,"targetarea":0.5657796,"totpop":63985.3378313,"country_id":"LAO","targetpop":1369.4157715,"new_mean":0.2328642,"totalarea":884.4424878}},{"type":"Polygon","arcs":[[46]],"properties":{"name":"Phine","gaul_code":74331,"targetarea":1.1076074,"totpop":69833.9290178,"country_id":"LAO","targetpop":3609.0449219,"new_mean":0.0886821,"totalarea":3348.9179673}},{"type":"Polygon","arcs":[[47]],"properties":{"name":"Atsaphone","gaul_code":18711,"targetarea":0.5603387,"totpop":69084.9759743,"country_id":"LAO","targetpop":1441.6876221,"new_mean":0.0820681,"totalarea":1469.0928539}},{"type":"Polygon","arcs":[[48]],"properties":{"name":"Sanamxay","gaul_code":18634,"targetarea":0.5660339,"totpop":39815.2831356,"country_id":"LAO","targetpop":1698.3547363,"new_mean":0.1854474,"totalarea":1928.2193715}},{"type":"MultiPolygon","arcs":[[[49]],[[50]]],"properties":{"name":"Louangphrabang","gaul_code":18674,"targetarea":12.681582,"totpop":97766.3467689,"country_id":"LAO","targetpop":51150.9152832,"new_mean":0.1002023,"totalarea":828.6236525}},{"type":"Polygon","arcs":[[51]],"properties":{"name":"Xayabury","gaul_code":18731,"targetarea":7.1138911,"totpop":104774.272017,"country_id":"LAO","targetpop":17374.0532227,"new_mean":0.0009297,"totalarea":3145.4804125}},{"type":"Polygon","arcs":[[52]],"properties":{"name":"Sing","gaul_code":18687,"targetarea":1.6244861,"totpop":49101.1540186,"country_id":"LAO","targetpop":4829.1472168,"new_mean":0.090488,"totalarea":1397.3797962}},{"type":"MultiPolygon","arcs":[[[53]],[[54]],[[55]],[[56,57]]],"properties":{"name":"Hadxaifong","gaul_code":18738,"targetarea":15.1286939,"totpop":99489.0224812,"country_id":"LAO","targetpop":32605.1461792,"new_mean":0.0917734,"totalarea":226.3878242}},{"type":"MultiPolygon","arcs":[[[58,-27,-35,59,60]],[[61]]],"properties":{"name":"Xaysetha","gaul_code":18742,"targetarea":16.8447735,"totpop":95156.0600686,"country_id":"LAO","targetpop":54260.4217529,"new_mean":0.080983,"totalarea":136.3455125}},{"type":"Polygon","arcs":[[62]],"properties":{"name":"Khong","gaul_code":18650,"targetarea":0.5678676,"totpop":91312.8204394,"country_id":"LAO","targetpop":1414.8426514,"new_mean":0.0033519,"totalarea":1524.3107775}},{"type":"MultiPolygon","arcs":[[[63]],[[64]],[[65]]],"properties":{"name":"Bachiangchaleunsook","gaul_code":18648,"targetarea":2.3522947,"totpop":82563.1627131,"country_id":"LAO","targetpop":6363.6171875,"new_mean":0.169149,"totalarea":868.0267163}},{"type":"Polygon","arcs":[[66]],"properties":{"name":"Hoon","gaul_code":18690,"targetarea":2.7359381,"totpop":93988.2548335,"country_id":"LAO","targetpop":9423.9599609,"new_mean":0.0901194,"totalarea":2146.479991}},{"type":"MultiPolygon","arcs":[[[67]],[[68]],[[69]],[[70]],[[71]],[[72]]],"properties":{"name":"Kaysone Phomvihane","gaul_code":74326,"targetarea":11.5628868,"totpop":98301.9142449,"country_id":"LAO","targetpop":31421.1203613,"new_mean":0.120452,"totalarea":687.3344099}},{"type":"Polygon","arcs":[[73]],"properties":{"name":"Thakhek","gaul_code":18671,"targetarea":10.0244931,"totpop":104667.205913,"country_id":"LAO","targetpop":27932.395752,"new_mean":0.0453329,"totalarea":941.2314233}},{"type":"Polygon","arcs":[[74]],"properties":{"name":"Houixai","gaul_code":18637,"targetarea":3.4165503,"totpop":79440.4754994,"country_id":"LAO","targetpop":8618.3010254,"new_mean":0.0767386,"totalarea":1782.0446825}},{"type":"Polygon","arcs":[[75]],"properties":{"name":"Pek","gaul_code":18762,"targetarea":5.7495783,"totpop":91994.4219354,"country_id":"LAO","targetpop":19951.1252441,"new_mean":0.0985789,"totalarea":1177.8822484}},{"type":"MultiPolygon","arcs":[[[76]],[[77,78]],[[79]]],"properties":{"name":"Pakxe","gaul_code":18652,"targetarea":14.5741177,"totpop":107513.648803,"country_id":"LAO","targetpop":62818.2751465,"new_mean":0.1778268,"totalarea":135.4000101}},{"type":"MultiPolygon","arcs":[[[-32,80]],[[81]]],"properties":{"name":"Sikhottabong","gaul_code":18743,"targetarea":16.7483548,"totpop":116993.749248,"country_id":"LAO","targetpop":77737.3256226,"new_mean":0.1054747,"totalarea":151.9409452}},{"type":"Polygon","arcs":[[82]],"properties":{"name":"Phonhong","gaul_code":18754,"targetarea":1.1098416,"totpop":45821.5134985,"country_id":"LAO","targetpop":6165.7578125,"new_mean":0.1110392,"totalarea":476.6704224}},{"type":"MultiPolygon","arcs":[[[83]],[[84]]],"properties":{"name":"Nongbok","gaul_code":18668,"targetarea":1.1198556,"totpop":45180.5705085,"country_id":"LAO","targetpop":3034.6749268,"new_mean":0.1020971,"totalarea":320.4561366}},{"type":"Polygon","arcs":[[85]],"properties":{"name":"Bolikhanh","gaul_code":18642,"targetarea":3.5875167,"totpop":97025.6797282,"country_id":"LAO","targetpop":10824.704834,"new_mean":0.0436851,"totalarea":1948.3867233}},{"type":"Polygon","arcs":[[86]],"properties":{"name":"Paksane","gaul_code":18645,"targetarea":2.14118,"totpop":58156.1872282,"country_id":"LAO","targetpop":6137.0531006,"new_mean":0.0756313,"totalarea":757.9335113}},{"type":"Polygon","arcs":[[87]],"properties":{"name":"Xanakharm","gaul_code":18755,"targetarea":1.6663895,"totpop":91925.9120826,"country_id":"LAO","targetpop":6575.5749512,"new_mean":0.0854602,"totalarea":2906.6106361}},{"type":"MultiPolygon","arcs":[[[88]],[[89]]],"properties":{"name":"Phonthong","gaul_code":18655,"targetarea":1.5309501,"totpop":99205.4662849,"country_id":"LAO","targetpop":4347.8410644,"new_mean":0.2492093,"totalarea":874.7352995}},{"type":"Polygon","arcs":[[90]],"properties":{"name":"Outhoomphone","gaul_code":18716,"targetarea":3.6098621,"totpop":103593.621767,"country_id":"LAO","targetpop":11311.1865234,"new_mean":0.0859732,"totalarea":1070.9466582}},{"type":"Polygon","arcs":[[91]],"properties":{"name":"Xamneua","gaul_code":18659,"targetarea":3.9419714,"totpop":68409.6957395,"country_id":"LAO","targetpop":11298.8237305,"new_mean":0.0982126,"totalarea":2672.9250601}},{"type":"MultiPolygon","arcs":[[[92,93]],[[94,-60,-34,95,-57,96,97]]],"properties":{"name":"Sisattanak","gaul_code":18744,"targetarea":27.979443,"totpop":124489.406006,"country_id":"LAO","targetpop":113826.574158,"new_mean":0.0178203,"totalarea":38.7264688}},{"type":"MultiPolygon","arcs":[[[98]],[[99]],[[100]]],"properties":{"name":"Sukhuma","gaul_code":18657,"targetarea":1.6987964,"totpop":70927.9347579,"country_id":"LAO","targetpop":5593.7441406,"new_mean":0.2228827,"totalarea":1172.9380157}}]}},"arcs":[[[105.7166655,15.1912502],[105.7195301,15.1810898],[105.7268218,15.1883978],[105.7166655,15.1912502]],[[105.7166655,15.1912502],[105.7138009,15.2014105],[105.7065093,15.1941025],[105.7166655,15.1912502]],[[105.7471343,15.3014105],[105.7398426,15.2941025],[105.7499989,15.2912502],[105.7471343,15.3014105]],[[105.1721343,17.6097438],[105.1648426,17.6024359],[105.1749989,17.5995835],[105.1721343,17.6097438]],[[106.3871408,15.4351629],[106.3724923,15.4279608],[106.3916655,15.4245835],[106.3871408,15.4351629]],[[105.8138009,15.5847438],[105.8065093,15.5774359],[105.8166655,15.5745835],[105.8138009,15.5847438]],[[105.2138009,16.0597438],[105.2065093,16.0524359],[105.2166488,16.0496426],[105.2138009,16.0597438]],[[105.2138009,16.2430771],[105.2065093,16.2357692],[105.2166655,16.2329168],[105.2138009,16.2430771]],[[101.4164051,21.0200587],[101.4043283,20.9967881],[101.4333322,20.9912501],[101.4164051,21.0200587]],[[102.5788075,18.1934962],[102.564159,18.1862941],[102.5833322,18.1829168],[102.5788075,18.1934962]],[[106.2138009,16.7014105],[106.2065093,16.6941025],[106.2166655,16.6912502],[106.2138009,16.7014105]],[[106.1704741,15.4684963],[106.1558257,15.4612941],[106.1749989,15.4579168],[106.1704741,15.4684963]],[[106.0138009,15.7014105],[106.0065093,15.6941025],[106.0166655,15.6912502],[106.0138009,15.7014105]],[[106.7133127,15.351854],[106.7058257,15.3375514],[106.7166655,15.3329168],[106.7133127,15.351854]],[[106.7304676,15.3597438],[106.7231759,15.3524359],[106.7333322,15.3495835],[106.7304676,15.3597438]],[[106.7054676,15.4180771],[106.6981759,15.4107692],[106.7083322,15.4079168],[106.7054676,15.4180771]],[[106.8249989,14.8162502],[106.8148426,14.8133978],[106.8221343,14.8060898],[106.8249989,14.8162502]],[[106.8333322,14.8162502],[106.8366851,14.797313],[106.844172,14.8116156],[106.8333322,14.8162502]],[[104.2371408,18.1768296],[104.2224924,18.1696274],[104.2416655,18.1662501],[104.2371408,18.1768296]],[[106.2383127,15.1851873],[106.2308257,15.1708848],[106.2416655,15.1662502],[106.2383127,15.1851873]],[[104.9760405,18.2113063],[104.9632476,18.1967759],[104.9833322,18.1829168],[104.9760405,18.2113063]],[[102.6721343,18.0514105],[102.6648426,18.0441025],[102.6749989,18.0412501],[102.6721343,18.0514105]],[[102.6557889,18.0161048],[102.6612293,18.0436468],[102.6295236,18.0558782],[102.623484,18.047472]],[[102.623484,18.047472],[102.6344284,18.0380654]],[[102.6344284,18.0380654],[102.6454741,18.0434962],[102.6499989,18.0329168],[102.6368175,18.0352387]],[[102.6368175,18.0352387],[102.6523285,18.0124207]],[[102.6523285,18.0124207],[102.6557889,18.0161048]],[[102.7871408,18.0684962],[102.7724924,18.0612941],[102.7916655,18.0579168],[102.7871408,18.0684962]],[[102.6626616,18.1181789],[102.6470366,18.1103379],[102.6666655,18.0995835],[102.6626616,18.1181789]],[[102.6228732,18.1278937],[102.6416655,18.1245835],[102.6371408,18.1351629],[102.6227377,18.1280814],[102.6228732,18.1278937]],[[102.7749989,18.1662501],[102.7795236,18.1556707],[102.794172,18.1628729],[102.7749989,18.1662501]],[[102.5908135,17.9829168],[102.5924302,17.9649358]],[[102.5924302,17.9649358],[102.6078178,17.9560254]],[[102.6078178,17.9560254],[102.6220093,17.9658775],[102.6302109,17.9797478]],[[102.6302109,17.9797478],[102.6464462,17.9940071],[102.6523285,18.0124207]],[[102.6368175,18.0352387],[102.6344284,18.0380654]],[[102.623484,18.047472],[102.6191395,18.0414251],[102.6249012,18.012291],[102.6083322,18.0079168],[102.5916655,17.9829168],[102.5908135,17.9829168]],[[101.9999989,20.6829168],[101.9999989,20.6995835],[101.9749989,20.6995835],[101.9749989,20.6829168],[101.9999989,20.6829168]],[[102.0133127,20.701854],[102.0058257,20.6875514],[102.0166655,20.6829168],[102.0133127,20.701854]],[[104.8971343,17.0430771],[104.8898426,17.0357692],[104.8999989,17.0329168],[104.8971343,17.0430771]],[[105.1054676,17.0764105],[105.0981759,17.0691025],[105.1083322,17.0662501],[105.1054676,17.0764105]],[[106.2388009,15.7097438],[106.2315093,15.7024359],[106.2416655,15.6995835],[106.2388009,15.7097438]],[[106.4298491,15.7331121],[106.4219715,15.7192775],[106.39759,15.7114853],[106.4333322,15.7079168],[106.4298491,15.7331121]],[[105.2055327,16.4551173],[105.190396,16.4607163],[105.2025705,16.4357611],[105.2166655,16.4329168],[105.2055327,16.4551173]],[[105.0971343,16.4680771],[105.0898426,16.4607692],[105.0999989,16.4579168],[105.0971343,16.4680771]],[[105.8721343,14.8514105],[105.8648426,14.8441025],[105.8749989,14.8412502],[105.8721343,14.8514105]],[[105.9288075,16.5768296],[105.914159,16.5696274],[105.9333322,16.5662502],[105.9288075,16.5768296]],[[105.3471343,16.8514105],[105.3398426,16.8441025],[105.3499989,16.8412502],[105.3471343,16.8514105]],[[106.6971343,14.7514105],[106.6898426,14.7441025],[106.6999989,14.7412502],[106.6971343,14.7514105]],[[102.1583322,19.8995835],[102.1440008,19.8973246],[102.1333412,19.8912631],[102.1299142,19.8863185],[102.1087554,19.8717067],[102.1267892,19.8592677],[102.1648426,19.8840602],[102.1583322,19.8995835]],[[102.1583322,19.8995835],[102.1676544,19.9032718],[102.1588309,19.9013524],[102.1583322,19.8995835]],[[101.7249338,19.2495346],[101.7187814,19.2620835],[101.7232411,19.2712021],[101.7120757,19.277383],[101.7055327,19.2385483],[101.7166655,19.2329168],[101.7249338,19.2495346]],[[101.1621408,21.1934962],[101.1474924,21.1862941],[101.1666655,21.1829168],[101.1621408,21.1934962]],[[102.6538075,17.8351629],[102.639159,17.8279608],[102.6583322,17.8245835],[102.6538075,17.8351629]],[[102.6721343,17.8764105],[102.6648426,17.8691025],[102.6749989,17.8662501],[102.6721343,17.8764105]],[[102.7583322,17.8995835],[102.7416655,17.8995835],[102.7416655,17.8884575],[102.7551116,17.8922005],[102.7583322,17.8995835]],[[102.6509582,17.9084177],[102.6143764,17.9096925]],[[102.6143764,17.9096925],[102.6107411,17.8740952],[102.6347645,17.9030014],[102.6454416,17.8783636],[102.6555653,17.8708034],[102.6509582,17.9084177]],[[102.6749989,17.9995835],[102.6532215,18.0031072],[102.6557889,18.0161048]],[[102.6302109,17.9797478],[102.6458054,17.9762115],[102.6623001,17.9603882],[102.6666964,17.9495586]],[[102.6666964,17.9495586],[102.6829741,17.9376206],[102.6701812,17.9701971],[102.6749989,17.9995835]],[[102.6749989,17.9995835],[102.6855783,18.0041123],[102.6783843,18.0187485],[102.6749989,17.9995835]],[[105.9221343,14.0097438],[105.9148426,14.0024359],[105.9249989,13.9995835],[105.9221343,14.0097438]],[[105.8888009,15.1180771],[105.8815093,15.1107692],[105.8916655,15.1079168],[105.8888009,15.1180771]],[[105.8883127,15.1851873],[105.8808257,15.1708848],[105.8916655,15.1662502],[105.8883127,15.1851873]],[[105.9304676,15.2597438],[105.9231759,15.2524359],[105.9333322,15.2495835],[105.9304676,15.2597438]],[[101.4704741,20.1518296],[101.4558257,20.1446274],[101.4749989,20.1412501],[101.4704741,20.1518296]],[[104.8471343,16.5430771],[104.8398426,16.5357692],[104.8499989,16.5329168],[104.8471343,16.5430771]],[[104.8804676,16.5597438],[104.8731759,16.5524359],[104.8833322,16.5495835],[104.8804676,16.5597438]],[[104.7666655,16.5579168],[104.7768218,16.5607692],[104.7695301,16.5680771],[104.7666655,16.5579168]],[[104.7666655,16.5579168],[104.7610666,16.560639],[104.7551095,16.5820257],[104.7408589,16.5795885],[104.7480457,16.5620835],[104.742362,16.5513527],[104.7447326,16.5438769],[104.7628895,16.538528],[104.7666655,16.5579168]],[[104.771646,16.601854],[104.764159,16.5875514],[104.7749989,16.5829168],[104.771646,16.601854]],[[104.7804676,16.6180771],[104.7731759,16.6107692],[104.7833322,16.6079168],[104.7804676,16.6180771]],[[104.8071125,17.3841276],[104.8166655,17.3745835],[104.8196278,17.3799668],[104.8407866,17.3915757],[104.8309233,17.4155462],[104.8128569,17.4018865],[104.8029633,17.4001503],[104.8071125,17.3841276]],[[100.4221994,20.2801173],[100.4070627,20.2857163],[100.4192372,20.260761],[100.4333322,20.2579168],[100.4221994,20.2801173]],[[103.2273101,19.4612168],[103.1878895,19.4493475],[103.2166655,19.4329168],[103.2273101,19.4612168]],[[105.8416655,15.1162502],[105.8606108,15.1195867],[105.8462879,15.1270819],[105.8416655,15.1162502]],[[105.8416655,15.1162502],[105.8305327,15.121784],[105.8027983,15.127383],[105.7916655,15.1329168]],[[105.7916655,15.1329168],[105.7838205,15.1142116],[105.8317697,15.1019028],[105.8416655,15.1162502]],[[105.7916655,15.1329168],[105.786034,15.1436387],[105.7638009,15.1365382],[105.7916655,15.1329168]],[[102.5908135,17.9829168],[102.5833322,17.9829168],[102.5804676,17.9727565],[102.573176,17.9800644],[102.5833322,17.9829168],[102.57884,17.9883245],[102.5529611,17.9876328],[102.5546213,18.0040472],[102.5487293,18.0116969],[102.5378569,17.9866237],[102.5289051,17.9875351],[102.5128895,17.98004],[102.5619241,17.969167],[102.5924302,17.9649358]],[[102.5288075,18.0268296],[102.514159,18.0196274],[102.5333322,18.0162501],[102.5288075,18.0268296]],[[102.4299793,18.3601873],[102.4224924,18.3458847],[102.4333322,18.3412501],[102.4299793,18.3601873]],[[104.8304676,16.9847438],[104.8231759,16.9774359],[104.8333322,16.9745835],[104.8304676,16.9847438]],[[104.8138009,17.0014105],[104.8065093,16.9941025],[104.8166655,16.9912501],[104.8138009,17.0014105]],[[103.736034,18.5686387],[103.7138009,18.5615382],[103.7416655,18.5579168],[103.736034,18.5686387]],[[103.6626616,18.4015122],[103.6470366,18.3936712],[103.6666655,18.3829168],[103.6626616,18.4015122]],[[101.9633127,18.301854],[101.9558257,18.2875514],[101.9666655,18.2829168],[101.9633127,18.301854]],[[105.6638009,15.1014105],[105.6565093,15.0941025],[105.6666655,15.0912502],[105.6638009,15.1014105]],[[105.7804676,15.1097438],[105.7731759,15.1024359],[105.7833322,15.0995835],[105.7804676,15.1097438]],[[105.0067046,16.6797186],[104.9892892,16.6857163],[104.9805327,16.6701808],[104.9999989,16.6662502],[105.0067046,16.6797186]],[[104.0418283,20.4365464],[104.0294911,20.4166041],[104.0583322,20.4079168],[104.0418283,20.4365464]],[[102.6499989,17.9162501],[102.66162,17.9245835],[102.6499989,17.9329168]],[[102.6499989,17.9329168],[102.6499989,17.9162501]],[[102.6499989,17.9329168],[102.6548166,17.9451727],[102.6512033,17.9696111],[102.6666964,17.9495586]],[[102.6078178,17.9560254],[102.6190744,17.9556951],[102.6143764,17.9096925]],[[102.6509582,17.9084177],[102.6499989,17.9162501]],[[102.6499989,17.9162501],[102.6383778,17.9245835],[102.6499989,17.9329168]],[[105.8554676,14.6347438],[105.8481759,14.6274359],[105.8583322,14.6245835],[105.8554676,14.6347438]],[[105.7971343,14.6430771],[105.7898426,14.6357692],[105.7999989,14.6329168],[105.7971343,14.6430771]],[[105.5971343,14.7014105],[105.5898426,14.6941025],[105.5999989,14.6912502],[105.5971343,14.7014105]]],"bbox":[100.4070627,13.9995835,106.844172,21.1934962]}