{"type":"Topology","objects":{"foo":{"type":"GeometryCollection","geometries":[{"type":"Polygon","arcs":[[0]],"properties":{"name":"Administrative unit not available","gaul_code":25298,"targetarea":11.4664938,"totpop":55009.1701961,"country_id":"LCA","targetpop":25731.7058716,"new_mean":0.0809458,"totalarea":69.3138811}},{"type":"Polygon","arcs":[[1]],"properties":{"name":"Administrative unit not available","gaul_code":25294,"targetarea":0.5684453,"totpop":14686.8534502,"country_id":"LCA","targetpop":1221.2884522,"new_mean":0.0844031,"totalarea":85.6716903}}]}},"arcs":[[[-60.9721434,14.0381157],[-60.9742251,14.0393797],[-60.9829674,14.02456],[-60.9869995,14.020689],[-60.9965594,14.0216275],[-61.0033289,13.9990057],[-60.9916671,13.9912502],[-60.9883387,13.996255],[-60.9638351,14.0051458],[-60.9721434,14.0381157]],[[-60.8945236,13.8264105],[-60.9018234,13.8191025],[-60.8916671,13.8162502],[-60.8945236,13.8264105]]],"bbox":[-61.0033289,13.8162502,-60.8916671,14.0393797]}