{"type":"Topology","objects":{"foo":{"type":"GeometryCollection","geometries":[{"type":"MultiPolygon","arcs":[[[0]],[[1,2]]],"properties":{"name":"Toamasina I","gaul_code":19270,"targetarea":71.390408,"totpop":347313.931974,"country_id":"MDG","targetpop":233286.916199,"totalarea":244.1363781,"new_mean":0.00793}},{"type":"Polygon","arcs":[[3,4]],"properties":{"name":"Fianarantsoa I","gaul_code":19220,"targetarea":4.362123,"totpop":31867.2207308,"country_id":"MDG","targetpop":9970.3531494,"totalarea":146.3347855,"new_mean":0.0004274}},{"type":"Polygon","arcs":[[5]],"properties":{"name":"Mahabo","gaul_code":19286,"targetarea":4.73127,"totpop":191928.430913,"country_id":"MDG","targetpop":8290.055542,"totalarea":13905.3153859,"new_mean":0.0022997}},{"type":"Polygon","arcs":[[6,7]],"properties":{"name":"Antsirabe I","gaul_code":19194,"targetarea":26.0952742,"totpop":117014.549183,"country_id":"MDG","targetpop":64986.7260742,"totalarea":145.7496863,"new_mean":0.0025121}},{"type":"MultiPolygon","arcs":[[[8]],[[9]],[[10,11,12,13,14,15]]],"properties":{"name":"Antananarivo-Avaradrano","gaul_code":19191,"targetarea":151.0999701,"totpop":1111335.29466,"country_id":"MDG","targetpop":891782.752686,"totalarea":472.6419504,"new_mean":0.0039373}},{"type":"Polygon","arcs":[[16,-15,17]],"properties":{"name":"Antananarivo-Renivohitra","gaul_code":19192,"targetarea":28.6343281,"totpop":219541.425797,"country_id":"MDG","targetpop":209102.11145,"totalarea":43.7910156,"new_mean":0.0020912}},{"type":"Polygon","arcs":[[18]],"properties":{"name":"Vohipeno","gaul_code":19234,"targetarea":2.5331768,"totpop":212537.283534,"country_id":"MDG","targetpop":5148.7539062,"totalarea":1171.0552135,"new_mean":0.00687}},{"type":"Polygon","arcs":[[19]],"properties":{"name":"Mahajanga II","gaul_code":19248,"targetarea":72.152812,"totpop":413107.022235,"country_id":"MDG","targetpop":291991.5672,"totalarea":4410.9097424,"new_mean":0.002635}},{"type":"Polygon","arcs":[[20]],"properties":{"name":"Antsiranana II","gaul_code":19209,"targetarea":4.0567166,"totpop":184410.917509,"country_id":"MDG","targetpop":8498.029419,"totalarea":5511.4245552,"new_mean":0.0056725}},{"type":"Polygon","arcs":[[21]],"properties":{"name":"Maevatanana","gaul_code":19246,"targetarea":3.6029092,"totpop":182609.139892,"country_id":"MDG","targetpop":6971.6552734,"totalarea":11862.4485752,"new_mean":0.0021691}},{"type":"Polygon","arcs":[[-3,22]],"properties":{"name":"Toamasina II","gaul_code":19271,"targetarea":7.2159153,"totpop":287657.862975,"country_id":"MDG","targetpop":14622.1043701,"totalarea":4731.2839484,"new_mean":0.0111584}},{"type":"Polygon","arcs":[[23]],"properties":{"name":"Toliara II","gaul_code":19294,"targetarea":16.8716467,"totpop":431433.47138,"country_id":"MDG","targetpop":38083.0997314,"totalarea":6958.5703563,"new_mean":0.0029068}},{"type":"Polygon","arcs":[[24]],"properties":{"name":"Manakara","gaul_code":19228,"targetarea":16.4658071,"totpop":487986.447289,"country_id":"MDG","targetpop":58417.1269531,"totalarea":3279.6069988,"new_mean":0.0068972}},{"type":"Polygon","arcs":[[25]],"properties":{"name":"Vohimarina","gaul_code":19210,"targetarea":6.0199089,"totpop":348204.959159,"country_id":"MDG","targetpop":15561.6012878,"totalarea":8406.7779888,"new_mean":0.0061757}},{"type":"Polygon","arcs":[[26]],"properties":{"name":"Farafangana","gaul_code":19219,"targetarea":18.2998299,"totpop":555166.33454,"country_id":"MDG","targetpop":39139.449955,"totalarea":3050.0585276,"new_mean":0.0058142}},{"type":"Polygon","arcs":[[27,28,29,-16,-17,30]],"properties":{"name":"Antananarivo-Atsimondrano","gaul_code":19190,"targetarea":205.845285,"totpop":1958033.89517,"country_id":"MDG","targetpop":1838853.6521,"totalarea":475.9086876,"new_mean":0.0026926}},{"type":"Polygon","arcs":[[31]],"properties":{"name":"Marovoay","gaul_code":19252,"targetarea":13.1554609,"totpop":248151.134944,"country_id":"MDG","targetpop":44846.1513672,"totalarea":4445.5849057,"new_mean":0.0021526}},{"type":"Polygon","arcs":[[31]],"properties":{"name":"Marovoay","gaul_code":19252,"targetarea":13.1554609,"totpop":248151.134944,"country_id":"MDG","targetpop":44846.1513672,"totalarea":4445.5849057,"new_mean":0.0017634}},{"type":"Polygon","arcs":[[32]],"properties":{"name":"Morondava","gaul_code":19290,"targetarea":8.4594766,"totpop":184089.780407,"country_id":"MDG","targetpop":19643.7922363,"totalarea":5364.6657549,"new_mean":0.0024851}},{"type":"Polygon","arcs":[[33]],"properties":{"name":"Ihosy","gaul_code":19224,"targetarea":11.1875282,"totpop":396679.399951,"country_id":"MDG","targetpop":44640.0522461,"totalarea":16773.7629481,"new_mean":0.0020399}},{"type":"MultiPolygon","arcs":[[[34]],[[35,-5]]],"properties":{"name":"Fianarantsoa II","gaul_code":19221,"targetarea":27.1231114,"totpop":639841.834928,"country_id":"MDG","targetpop":142823.305908,"totalarea":4322.9939567,"new_mean":0.0016227}},{"type":"Polygon","arcs":[[36]],"properties":{"name":"Nosy Be","gaul_code":19211,"targetarea":13.6878007,"totpop":134294.4621,"country_id":"MDG","targetpop":27484.0047607,"totalarea":317.9543891,"new_mean":0.0087887}},{"type":"MultiPolygon","arcs":[[[37,-13,38]],[[39,-11,-30,40,-28,41],[42]],[[43]],[[44]],[[45]]],"properties":{"name":"Ambohidratrimo","gaul_code":19186,"targetarea":117.3667147,"totpop":723065.814522,"country_id":"MDG","targetpop":268969.068176,"totalarea":1213.0578875,"new_mean":0.0023415}},{"type":"Polygon","arcs":[[46]],"properties":{"name":"Ambositra","gaul_code":19216,"targetarea":7.1014446,"totpop":252221.150362,"country_id":"MDG","targetpop":15082.1955566,"totalarea":3166.9443766,"new_mean":0.0027186}},{"type":"Polygon","arcs":[[47,-7]],"properties":{"name":"Antsirabe II","gaul_code":19195,"targetarea":73.5318211,"totpop":552403.479424,"country_id":"MDG","targetpop":225608.692322,"totalarea":2348.8621871,"new_mean":0.0042562}},{"type":"Polygon","arcs":[[48]],"properties":{"name":"Antsiranana I","gaul_code":19208,"targetarea":16.9881431,"totpop":115438.972487,"country_id":"MDG","targetpop":29615.5857544,"totalarea":246.9632049,"new_mean":0.0024918}}]}},"arcs":[[[49.3999991,-18.092083],[49.3999991,-18.067083],[49.3833324,-18.067083],[49.3833324,-18.092083],[49.3999991,-18.092083]],[[49.3202746,-18.0551097],[49.3499991,-18.067083],[49.3536286,-18.0540459],[49.3805329,-18.0430352],[49.377294,-18.0210869],[49.4250857,-18.0077758],[49.4340978,-17.9745454],[49.3717764,-17.9837497],[49.3624991,-18.0064304],[49.3291657,-18.0015069],[49.3010816,-18.005656]],[[49.3010816,-18.005656],[49.3044243,-18.0279369],[49.3202746,-18.0551097]],[[47.1056508,-21.5108198],[47.1169099,-21.5021335],[47.1023591,-21.4780043],[47.0870469,-21.4802662]],[[47.0870469,-21.4802662],[47.0951805,-21.4856892],[47.1056508,-21.5108198]],[[44.567834,-20.3484033],[44.6105785,-20.3376804],[44.5741966,-20.3332654],[44.567834,-20.3484033]],[[47.089899,-19.8353213],[47.067379,-19.8109264],[47.0406914,-19.7931328],[47.0216637,-19.7887423]],[[47.0216637,-19.7887423],[47.0290193,-19.814487],[47.0564607,-19.8110772],[47.0227204,-19.8532647],[47.0469717,-19.8562757],[47.0626456,-19.8367038],[47.0749991,-19.8587497],[47.089899,-19.8353213]],[[47.5749991,-19.092083],[47.5854158,-19.1111016],[47.5946117,-19.0963067],[47.5749991,-19.092083]],[[47.5666658,-19.0837497],[47.5516267,-19.0537774],[47.5249991,-19.0504164],[47.5439932,-19.077931],[47.5666658,-19.0837497]],[[47.4976997,-18.8099823],[47.4682177,-18.8273194]],[[47.4682177,-18.8273194],[47.4513419,-18.832106]],[[47.4513419,-18.832106],[47.4418851,-18.8348991]],[[47.4418851,-18.8348991],[47.4536775,-18.8963962],[47.4548331,-18.925571],[47.4286449,-18.9379326],[47.4754385,-18.9561618],[47.5040193,-19.0047539],[47.5206859,-19.0040948],[47.5452139,-19.0305759],[47.5708975,-19.0054457],[47.5737007,-18.9849171]],[[47.5737007,-18.9849171],[47.5266609,-18.9613113],[47.5120659,-18.9353657]],[[47.5120659,-18.9353657],[47.5066452,-18.9257259],[47.5110931,-18.8856907],[47.519989,-18.8523293],[47.4976997,-18.8099823]],[[47.5803309,-18.9363626],[47.5466766,-18.9279499],[47.5120659,-18.9353657]],[[47.5737007,-18.9849171],[47.5803309,-18.9363626]],[[47.8498363,-22.3971856],[47.821516,-22.4117689],[47.8416658,-22.417083],[47.8498363,-22.3971856]],[[46.4120759,-15.6894707],[46.3371085,-15.7075372],[46.308403,-15.7252693],[46.3287697,-15.729517],[46.3359146,-15.7235899],[46.3521614,-15.7434196],[46.3510666,-15.7682009],[46.337707,-15.7803365],[46.3833324,-15.7837497],[46.3868155,-15.7788995],[46.4267081,-15.7635105],[46.4120759,-15.6894707]],[[49.3638663,-12.4282159],[49.3385082,-12.4153904],[49.3305329,-12.4304376],[49.3638663,-12.4282159]],[[46.8400219,-16.9452813],[46.8226228,-16.9392836],[46.8138663,-16.954819],[46.8333324,-16.9587497],[46.8400219,-16.9452813]],[[49.3010816,-18.005656],[49.2880362,-18.0421237],[49.3202746,-18.0551097]],[[43.8116039,-23.3638766],[43.7628083,-23.3743991],[43.7839184,-23.4122409],[43.7999991,-23.417083],[43.8116039,-23.3638766]],[[48.0290298,-22.1367931],[48.038199,-22.1124281],[47.9960277,-22.1006768],[47.9880362,-22.1377617],[48.0278887,-22.1415637],[48.0290298,-22.1367931]],[[50.0227165,-13.3594294],[50.0056697,-13.3526355],[49.9973461,-13.371502],[50.0225365,-13.3750678],[50.0227165,-13.3594294]],[[47.8401837,-22.8493463],[47.8366202,-22.8066989],[47.7879874,-22.8245537],[47.8205232,-22.8548923],[47.8363559,-22.8640214],[47.8401837,-22.8493463]],[[47.5945645,-18.7211329],[47.5501976,-18.7436676],[47.5381241,-18.7652035],[47.5082016,-18.7847595],[47.5024104,-18.8001707]],[[47.5024104,-18.8001707],[47.50038,-18.806708]],[[47.50038,-18.806708],[47.4976997,-18.8099823]],[[47.5803309,-18.9363626],[47.5830069,-18.9167657],[47.596223,-18.9045342],[47.5784822,-18.8961602],[47.5966625,-18.8617933],[47.6296703,-18.8631035],[47.6297029,-18.8287367],[47.5913565,-18.8292412],[47.6044587,-18.8044854],[47.5797191,-18.7928073],[47.6083324,-18.7837497],[47.6223786,-18.7612562],[47.6200674,-18.7325127],[47.5945645,-18.7211329]],[[46.6999991,-16.0920831],[46.6999991,-16.0587497],[46.6666658,-16.0587497],[46.6666658,-16.0920831],[46.6999991,-16.0920831]],[[44.3046215,-20.2957858],[44.2848803,-20.2799789],[44.2655129,-20.3033973],[44.3083324,-20.3087497],[44.3046215,-20.2957858]],[[46.1197745,-22.3201836],[46.1410147,-22.307586],[46.1378246,-22.2806491],[46.1130199,-22.2891696],[46.1052237,-22.3186374],[46.1197745,-22.3201836]],[[47.0999991,-21.567083],[47.0999991,-21.5504164],[47.0749991,-21.5504164],[47.0749991,-21.567083],[47.0999991,-21.567083]],[[47.0870469,-21.4802662],[47.059309,-21.4784925],[47.0463695,-21.5177178],[47.0916658,-21.5254164],[47.1056508,-21.5108198]],[[48.2358389,-13.3722426],[48.2531729,-13.4055759],[48.2656403,-13.4002829],[48.2771645,-13.4064789],[48.302001,-13.3940036],[48.2358389,-13.3722426]],[[47.4416658,-18.8337497],[47.4418851,-18.8348991]],[[47.4513419,-18.832106],[47.4416658,-18.8337497]],[[47.4416658,-18.8337497],[47.4573396,-18.8134535],[47.4682177,-18.8273194]],[[47.50038,-18.806708],[47.4799307,-18.801458],[47.4894685,-18.7814222],[47.5024104,-18.8001707]],[[47.5945645,-18.7211329],[47.5899568,-18.7190769],[47.536197,-18.7388197],[47.4865225,-18.7383314],[47.4889314,-18.7682631],[47.4372061,-18.7541029],[47.404475,-18.7761325],[47.431949,-18.8253838],[47.4416658,-18.8337497]],[[47.4583324,-18.8004164],[47.4302237,-18.7964369],[47.4414704,-18.7639825],[47.4552237,-18.778517],[47.4583324,-18.8004164]],[[47.3916658,-18.742083],[47.4098786,-18.7261162],[47.4452953,-18.731349],[47.461962,-18.7144056],[47.4142244,-18.7011081],[47.4047029,-18.7134535],[47.3549633,-18.7273044],[47.3916658,-18.742083]],[[47.3277986,-18.7282159],[47.3361319,-18.7142836],[47.3283357,-18.6988783],[47.3028637,-18.7113213],[47.2971996,-18.7302422],[47.3277986,-18.7282159]],[[47.3664216,-18.6802666],[47.3461417,-18.6921156],[47.3749991,-18.7087497],[47.3664216,-18.6802666]],[[47.2130362,-20.5540459],[47.1952953,-20.5467868],[47.1827628,-20.5305433],[47.1630362,-20.5545505],[47.2130362,-20.5540459]],[[47.089899,-19.8353213],[47.094449,-19.828167],[47.1015453,-19.7710951],[47.0879385,-19.7540948],[47.0370271,-19.7133802],[47.0203767,-19.7207858],[46.9999991,-19.760418],[47.0175935,-19.7744968],[47.0216637,-19.7887423]],[[49.3056143,-12.280462],[49.2929678,-12.2633803],[49.2770336,-12.2832777],[49.2816234,-12.3201592],[49.2999991,-12.3254164],[49.3056143,-12.280462]]],"bbox":[43.7628083,-23.417083,50.0227165,-12.2633803]}