{"type":"Topology","objects":{"foo":{"type":"GeometryCollection","geometries":[{"type":"Polygon","arcs":[[0]],"properties":{"name":"Koulikoro","gaul_code":19392,"targetarea":8.8003393,"totpop":305156.87016,"country_id":"MLI","targetpop":52182.1606445,"new_mean":0.0253683,"totalarea":6246.7199147}},{"type":"Polygon","arcs":[[1]],"properties":{"name":"Djenne","gaul_code":19396,"targetarea":6.7888474,"totpop":317968.970161,"country_id":"MLI","targetpop":18166.482666,"new_mean":0.0201225,"totalarea":4308.6600018}},{"type":"Polygon","arcs":[[2]],"properties":{"name":"Niono","gaul_code":19405,"targetarea":8.9994227,"totpop":594703.590392,"country_id":"MLI","targetpop":31415.7613525,"new_mean":0.0224501,"totalarea":16031.8873011}},{"type":"MultiPolygon","arcs":[[[3]],[[4]],[[5]]],"properties":{"name":"Kadiolo","gaul_code":19410,"targetarea":9.5977575,"totpop":519027.0081,"country_id":"MLI","targetpop":40563.8685303,"new_mean":0.0292692,"totalarea":5215.4149464}},{"type":"Polygon","arcs":[[6]],"properties":{"name":"Bougouni","gaul_code":19409,"targetarea":10.0597471,"totpop":690228.342928,"country_id":"MLI","targetpop":49477.5124512,"new_mean":0.0287393,"totalarea":19475.7111653}},{"type":"Polygon","arcs":[[7,8,9,10,11,12,13]],"properties":{"name":"Commune 2","gaul_code":19367,"targetarea":16.1530751,"totpop":153629.604431,"country_id":"MLI","targetpop":151013.514404,"new_mean":0.056522,"totalarea":18.4744077}},{"type":"Polygon","arcs":[[14]],"properties":{"name":"San","gaul_code":19406,"targetarea":11.7230525,"totpop":456982.557189,"country_id":"MLI","targetpop":58922.0333252,"new_mean":0.025425,"totalarea":6180.9511592}},{"type":"MultiPolygon","arcs":[[[15]],[[16]],[[17]]],"properties":{"name":"Mopti","gaul_code":19399,"targetarea":30.2415443,"totpop":518659.708287,"country_id":"MLI","targetpop":163282.153931,"new_mean":0.02062,"totalarea":7139.0731058}},{"type":"MultiPolygon","arcs":[[[18]],[[19]]],"properties":{"name":"Dioila","gaul_code":19388,"targetarea":9.2930173,"totpop":740740.155642,"country_id":"MLI","targetpop":43252.1453857,"new_mean":0.0239079,"totalarea":12597.9436068}},{"type":"Polygon","arcs":[[20,-14,21]],"properties":{"name":"Commune 1","gaul_code":19366,"targetarea":26.4649992,"totpop":479762.51828,"country_id":"MLI","targetpop":473078.884155,"new_mean":0.0254233,"totalarea":34.8242237}},{"type":"MultiPolygon","arcs":[[[22]],[[23]],[[24]]],"properties":{"name":"Tombouctou","gaul_code":19420,"targetarea":14.4551149,"totpop":248727.623568,"country_id":"MLI","targetpop":96439.4736328,"new_mean":0.0047399,"totalarea":331047.556397}},{"type":"Polygon","arcs":[[25]],"properties":{"name":"Douentza","gaul_code":19397,"targetarea":4.6123608,"totpop":429643.166655,"country_id":"MLI","targetpop":13117.0461426,"new_mean":0.0167535,"totalarea":24878.1019441}},{"type":"Polygon","arcs":[[26]],"properties":{"name":"Ke-macina","gaul_code":19404,"targetarea":1.120082,"totpop":325521.686353,"country_id":"MLI","targetpop":3844.7268066,"new_mean":0.0243054,"totalarea":6138.1394264}},{"type":"MultiPolygon","arcs":[[[27]],[[28]]],"properties":{"name":"Kayes","gaul_code":19378,"targetarea":38.2455791,"totpop":834877.970073,"country_id":"MLI","targetpop":238527.896973,"new_mean":0.0179152,"totalarea":22819.0788813}},{"type":"Polygon","arcs":[[29,30,31,32,33,-9]],"properties":{"name":"Commune 3","gaul_code":19368,"targetarea":19.1120537,"totpop":197319.450989,"country_id":"MLI","targetpop":0,"new_mean":0,"totalarea":19.739019}},{"type":"Polygon","arcs":[[34]],"properties":{"name":"Koutiala","gaul_code":19412,"targetarea":31.5862819,"totpop":910572.884528,"country_id":"MLI","targetpop":227351.703613,"new_mean":0.0218745,"totalarea":9366.7739458}},{"type":"Polygon","arcs":[[35]],"properties":{"name":"Sikasso","gaul_code":19413,"targetarea":44.7470542,"totpop":1060012.41167,"country_id":"MLI","targetpop":278268.761108,"new_mean":0.0278847,"totalarea":15403.9185315}},{"type":"MultiPolygon","arcs":[[[36]],[[37]],[[38,39,40]],[[41,42]],[[43,44]],[[-30,-8,-21,45]],[[46]]],"properties":{"name":"Kati","gaul_code":19390,"targetarea":227.6860728,"totpop":2517562.62213,"country_id":"MLI","targetpop":1498856.48206,"new_mean":0.0018982,"totalarea":16624.0697445}},{"type":"Polygon","arcs":[[47,-33,48,49,50,51,52,-39,53,54,-11]],"properties":{"name":"Commune 5","gaul_code":19370,"targetarea":38.7298144,"totpop":931330.393265,"country_id":"MLI","targetpop":930491.91272,"new_mean":0.0118949,"totalarea":41.3430219}},{"type":"Polygon","arcs":[[55,-12,-55,56,-43]],"properties":{"name":"Commune 6","gaul_code":19371,"targetarea":48.7150336,"totpop":995582.850025,"country_id":"MLI","targetpop":973644.054932,"new_mean":0.0177201,"totalarea":92.2087804}},{"type":"Polygon","arcs":[[57]],"properties":{"name":"Nara","gaul_code":19393,"targetarea":1.8091324,"totpop":358126.533976,"country_id":"MLI","targetpop":3330.1660156,"new_mean":0.0257902,"totalarea":31416.9956895}},{"type":"Polygon","arcs":[[58]],"properties":{"name":"Gao","gaul_code":19374,"targetarea":31.9241605,"totpop":420833.64804,"country_id":"MLI","targetpop":143484.638977,"new_mean":0.0109874,"totalarea":29759.3846358}},{"type":"Polygon","arcs":[[59]],"properties":{"name":"Tenenkou","gaul_code":19400,"targetarea":3.1731016,"totpop":233573.289225,"country_id":"MLI","targetpop":10701.6156006,"new_mean":0.0237582,"totalarea":12720.6161094}},{"type":"MultiPolygon","arcs":[[[60,-51,61]],[[62,-49,-32,63,-45,64,-40,-53,65]]],"properties":{"name":"Commune 4","gaul_code":19369,"targetarea":35.5392757,"totpop":454187.155792,"country_id":"MLI","targetpop":439332.609497,"new_mean":0.0406964,"totalarea":38.7148206}},{"type":"Polygon","arcs":[[66]],"properties":{"name":"Nioro","gaul_code":19381,"targetarea":7.5169147,"totpop":319706.714483,"country_id":"MLI","targetpop":21310.5772705,"new_mean":0.022494,"totalarea":10366.1700237}},{"type":"Polygon","arcs":[[67]],"properties":{"name":"Yanfolila","gaul_code":19414,"targetarea":2.2529626,"totpop":285496.565151,"country_id":"MLI","targetpop":7310.4251709,"new_mean":0.0386742,"totalarea":9295.240192}},{"type":"Polygon","arcs":[[68]],"properties":{"name":"Koro","gaul_code":19398,"targetarea":3.6522997,"totpop":475688.197951,"country_id":"MLI","targetpop":9345.4959717,"new_mean":0.0238555,"totalarea":10916.9687121}},{"type":"Polygon","arcs":[[69]],"properties":{"name":"Baroueli","gaul_code":19402,"targetarea":1.1248359,"totpop":287318.29294,"country_id":"MLI","targetpop":5919.1572266,"new_mean":0.0257558,"totalarea":4689.5080326}},{"type":"Polygon","arcs":[[70]],"properties":{"name":"Bla","gaul_code":19403,"targetarea":3.669006,"totpop":405232.609897,"country_id":"MLI","targetpop":16327.8359375,"new_mean":0.0244861,"totalarea":6163.5664625}},{"type":"Polygon","arcs":[[71]],"properties":{"name":"Kita","gaul_code":19380,"targetarea":8.7226473,"totpop":635112.467766,"country_id":"MLI","targetpop":52555.3460693,"new_mean":0.0214224,"totalarea":35568.2805267}},{"type":"MultiPolygon","arcs":[[[72]],[[73]],[[74]]],"properties":{"name":"Segou","gaul_code":19407,"targetarea":52.3706208,"totpop":984610.506247,"country_id":"MLI","targetpop":221711.743896,"new_mean":0.023326,"totalarea":15232.5582991}},{"type":"Polygon","arcs":[[75]],"properties":{"name":"Dire","gaul_code":19416,"targetarea":2.2082538,"totpop":145291.143312,"country_id":"MLI","targetpop":5350.8564453,"new_mean":0.0128984,"totalarea":2296.1952658}},{"type":"Polygon","arcs":[[76]],"properties":{"name":"Bandiagara","gaul_code":19394,"targetarea":2.9466305,"totpop":441426.749276,"country_id":"MLI","targetpop":8853.0900879,"new_mean":0.0239546,"totalarea":7694.5044067}}]}},"arcs":[[[-7.6000007,12.8329168],[-7.5867357,12.8363185],[-7.5467292,12.8623724],[-7.5585619,12.8779852],[-7.570069,12.8613185],[-7.5897956,12.8477077],[-7.6000007,12.8329168]],[[-4.5337898,13.9096136],[-4.5675463,13.9195786],[-4.5616543,13.8962388],[-4.5416674,13.8912502],[-4.5337898,13.9096136]],[[-5.9592292,14.2775457],[-6.004086,14.248554],[-5.9666674,14.2412502],[-5.9592292,14.2775457]],[[-5.633806,10.4903998],[-5.6538256,10.502383],[-5.6611335,10.4785142],[-5.6416674,10.4745835],[-5.633806,10.4903998]],[[-5.754737,10.5691392],[-5.7702969,10.5569159],[-5.7500007,10.5412502],[-5.754737,10.5691392]],[[-6.0616706,10.8101873],[-6.0691576,10.7958848],[-6.058334,10.7912502],[-6.0616706,10.8101873]],[[-7.4666674,11.4079168],[-7.4666674,11.4329168],[-7.5000007,11.4329168],[-7.5000007,11.4079168],[-7.4666674,11.4079168]],[[-7.9902635,12.6753368],[-7.9943447,12.6755981]],[[-7.9943447,12.6755981],[-7.9829788,12.667449],[-7.9841633,12.6624212],[-7.9988647,12.6558437],[-7.993884,12.6310784]],[[-7.993884,12.6310784],[-7.9806485,12.6353053],[-7.9840685,12.6257613]],[[-7.9840685,12.6257613],[-7.9793444,12.6227245],[-7.9652586,12.6251631]],[[-7.9652586,12.6251631],[-7.9547466,12.6289796]],[[-7.9547466,12.6289796],[-7.9633308,12.6369289],[-7.9522861,12.6421414]],[[-7.9522861,12.6421414],[-7.9602523,12.6559496],[-7.9675579,12.6638536],[-7.9902635,12.6753368]],[[-4.8735521,13.305215],[-4.8974779,13.3195013],[-4.9199226,13.2868719],[-4.883334,13.2829168],[-4.8735521,13.305215]],[[-4.1666674,14.4662502],[-4.1562507,14.4472357],[-4.1470547,14.4620306],[-4.1666674,14.4662502]],[[-4.1666674,14.4662502],[-4.1757168,14.5014919],[-4.1918952,14.5196519],[-4.2065274,14.4984604],[-4.1948737,14.4706935],[-4.1666674,14.4662502]],[[-4.0787767,14.53747],[-4.0982754,14.5450303],[-4.1121101,14.5283636],[-4.1285001,14.5147609],[-4.0750007,14.5079168],[-4.0787767,14.53747]],[[-6.7942878,12.5009303],[-6.8101569,12.4856105],[-6.7916674,12.4829168],[-6.7942878,12.5009303]],[[-6.9352872,12.7790879],[-6.9544278,12.802383],[-6.9694668,12.7801906],[-6.9416674,12.7662502],[-6.9352872,12.7790879]],[[-7.9117496,12.6612724],[-7.9121351,12.6729288],[-7.9315906,12.6778517],[-7.9427752,12.7047968],[-7.9815874,12.6757536],[-7.9902635,12.6753368]],[[-7.9522861,12.6421414],[-7.9117496,12.6612724]],[[-2.9795254,16.7101629],[-2.9941576,16.7029608],[-2.9750007,16.6995835],[-2.9795254,16.7101629]],[[-3.0000007,16.7412502],[-2.9966641,16.722313],[-2.9891771,16.7366155],[-3.0000007,16.7412502]],[[-3.0000007,16.7412502],[-2.9889981,16.7647894],[-2.9998054,16.7934393],[-3.0249356,16.7839626],[-3.0068041,16.7451238],[-3.0000007,16.7412502]],[[-2.9465014,15.0196722],[-2.9702969,14.9992213],[-2.9416674,14.9912502],[-2.9465014,15.0196722]],[[-5.3545254,13.9684963],[-5.3691576,13.9612941],[-5.3500007,13.9579168],[-5.3545254,13.9684963]],[[-11.4253587,14.4782904],[-11.4553229,14.4606715],[-11.4784349,14.4635483],[-11.4619147,14.4205389],[-11.408334,14.4162502],[-11.4035977,14.4541001],[-11.4253587,14.4782904]],[[-11.6033373,14.5601873],[-11.6108242,14.5458848],[-11.6000007,14.5412502],[-11.6033373,14.5601873]],[[-7.9943447,12.6755981],[-8.0083323,12.6764917],[-8.0197744,12.6721992],[-8.0181351,12.6595716],[-8.0327883,12.6580515],[-8.043077,12.6738889]],[[-8.043077,12.6738889],[-8.0457127,12.6610133]],[[-8.0457127,12.6610133],[-8.0413504,12.6611404],[-8.0292397,12.6477766],[-8.0190601,12.6433306],[-8.0249882,12.6342583],[-8.0046177,12.6212845]],[[-8.0046177,12.6212845],[-7.9946586,12.6271368]],[[-7.9946586,12.6271368],[-7.993884,12.6310784]],[[-5.4364753,12.3700384],[-5.4403002,12.3870835],[-5.4330085,12.4196519],[-5.471599,12.4128485],[-5.4784024,12.3946519],[-5.4950691,12.3831447],[-5.4834805,12.3601833],[-5.4704597,12.3631008],[-5.4500007,12.3495835],[-5.4364753,12.3700384]],[[-5.6324877,11.2948146],[-5.6109056,11.3036484],[-5.6380378,11.3198797],[-5.6620612,11.3544297],[-5.6725593,11.3528794],[-5.6701504,11.3365789],[-5.708448,11.3284979],[-5.7032559,11.2933783],[-5.6416674,11.2829168],[-5.6324877,11.2948146]],[[-7.9072924,12.0113063],[-7.920069,11.9967759],[-7.9000007,11.9829168],[-7.9072924,12.0113063]],[[-8.035043,12.4879014],[-8.0551439,12.4980658],[-8.0611335,12.4785142],[-8.0416674,12.4745835],[-8.035043,12.4879014]],[[-7.9907463,12.5326336],[-8.0030861,12.5677433],[-8.0169945,12.5764294],[-8.0355701,12.5937643],[-8.0400057,12.5830622],[-8.0354891,12.5750074],[-8.0416031,12.5705633]],[[-8.0416031,12.5705633],[-8.065093,12.560524],[-8.0721389,12.5699745]],[[-8.0721389,12.5699745],[-8.1046394,12.5699041],[-8.1039558,12.5526027],[-8.0666674,12.5540798],[-8.0540209,12.5535793],[-8.0344245,12.5702581],[-8.0514818,12.5215684],[-7.9965013,12.5084702],[-7.9907463,12.5326336]],[[-7.9549145,12.5116962],[-7.9518724,12.4789089],[-7.902377,12.4962551],[-7.9043464,12.5455633],[-7.8798998,12.5706121],[-7.8461433,12.5692734],[-7.8311042,12.6011257],[-7.9016608,12.6145981],[-7.9056904,12.6231441]],[[-7.9056904,12.6231441],[-7.9059272,12.6064968],[-7.9224682,12.5839157],[-7.9205141,12.5726261],[-7.9155302,12.5161142],[-7.9331927,12.5052071],[-7.9549145,12.5116962]],[[-8.0549178,12.6438006],[-8.0713223,12.6286037],[-8.071345,12.5867176]],[[-8.071345,12.5867176],[-8.0549178,12.6438006]],[[-7.9117496,12.6612724],[-7.8863125,12.6732773],[-7.8287279,12.6869899],[-7.8456713,12.7039089],[-7.8959968,12.7119248],[-7.9123705,12.7205877],[-7.9370612,12.7196071],[-7.9456713,12.7289089],[-7.9647956,12.7452581],[-7.9962898,12.7112534],[-7.995655,12.6949123],[-8.0212735,12.6959295],[-8.033334,12.6829168],[-8.0141771,12.6795396],[-8.0288093,12.6723374],[-8.033334,12.6829168],[-8.043077,12.6738889]],[[-8.045069,12.7211818],[-8.0551602,12.7451849],[-8.0530931,12.7543931],[-8.0772631,12.7634425],[-8.1021166,12.7578761],[-8.1117357,12.7464015],[-8.0784024,12.7378485],[-8.0611986,12.7129299],[-8.0416674,12.7079168],[-8.045069,12.7211818]],[[-7.9840685,12.6257613],[-7.9946586,12.6271368]],[[-8.0046177,12.6212845],[-8.0178795,12.6096144],[-8.0331009,12.6040257]],[[-8.0331009,12.6040257],[-8.0363927,12.6010649]],[[-8.0363927,12.6010649],[-8.0432995,12.5870481]],[[-8.0432995,12.5870481],[-8.0446844,12.5764114]],[[-8.0446844,12.5764114],[-8.0416031,12.5705633]],[[-7.9907463,12.5326336],[-7.9868334,12.5490627],[-7.9770944,12.5553516]],[[-7.9770944,12.5553516],[-7.9791164,12.5838223],[-7.9739594,12.5996885],[-7.9736471,12.6141968],[-7.9652586,12.6251631]],[[-7.9056904,12.6231441],[-7.9148256,12.6405006],[-7.9203442,12.6393008],[-7.9340664,12.5959662],[-7.9456713,12.6205755],[-7.9547466,12.6289796]],[[-7.9770944,12.5553516],[-7.9317227,12.5846502],[-7.9203946,12.5606593],[-7.9210944,12.5430324],[-7.9549145,12.5116962]],[[-7.275668,15.1774359],[-7.2952969,15.1671494],[-7.283334,15.1579168],[-7.275668,15.1774359]],[[0.0035475,16.2490749],[-0.0131192,16.2614731],[-0.0222012,16.3056667],[-0.0508471,16.300735],[-0.0618822,16.2406561],[-0.0333341,16.2329168],[-0.0297208,16.2462306],[-0.0155606,16.2437892],[0.0035475,16.2490749]],[[-4.9044766,14.4691432],[-4.9281094,14.453563],[-4.9000007,14.4495835],[-4.9044766,14.4691432]],[[-8.0416674,12.5995835],[-8.0432995,12.5870481]],[[-8.0363927,12.6010649],[-8.0416674,12.5995835]],[[-8.0416674,12.5995835],[-8.0331009,12.6040257]],[[-8.0457127,12.6610133],[-8.0460619,12.6520046],[-8.0549178,12.6438006]],[[-8.071345,12.5867176],[-8.0721389,12.5699745]],[[-8.0446844,12.5764114],[-8.0523933,12.5939357],[-8.0416674,12.5995835]],[[-9.5784024,15.2378485],[-9.6011237,15.2446518],[-9.6117357,15.2256781],[-9.5750007,15.2162502],[-9.5784024,15.2378485]],[[-8.1889818,11.651972],[-8.2112149,11.6448716],[-8.183334,11.6412502],[-8.1889818,11.651972]],[[-3.0683113,14.0713853],[-3.0857103,14.077383],[-3.0944669,14.0618475],[-3.0750007,14.0579168],[-3.0683113,14.0713853]],[[-6.7545254,12.9268296],[-6.7691576,12.9196274],[-6.7500007,12.9162502],[-6.7545254,12.9268296]],[[-5.7433112,12.9547186],[-5.7607103,12.9607163],[-5.7694668,12.9451808],[-5.7500007,12.9412502],[-5.7433112,12.9547186]],[[-9.4669278,13.0410752],[-9.4937181,13.0529852],[-9.5034024,13.0301092],[-9.483334,13.0162502],[-9.4669278,13.0410752]],[[-6.1880378,13.4595485],[-6.204558,13.4628037],[-6.2120775,13.4530706],[-6.2213711,13.454446],[-6.2864265,13.4433945],[-6.3202969,13.4172511],[-6.2837572,13.4107896],[-6.2532559,13.415298],[-6.208334,13.4079168],[-6.1880378,13.4595485]],[[-6.0702318,13.6937078],[-6.0778816,13.6721543],[-6.0666674,13.6662502],[-6.0702318,13.6937078]],[[-5.9961921,13.7268296],[-6.0108243,13.7196274],[-5.9916674,13.7162502],[-5.9961921,13.7268296]],[[-3.3890307,16.2778672],[-3.4037116,16.2637396],[-3.383334,16.2579168],[-3.3890307,16.2778672]],[[-3.6069831,14.3610988],[-3.6202969,14.3461126],[-3.5916674,14.3412502],[-3.6069831,14.3610988]]],"bbox":[-11.6108242,10.4745835,0.0035475,16.7934393]}