{"type":"Topology","objects":{"foo":{"type":"GeometryCollection","geometries":[{"type":"Polygon","arcs":[[0]],"properties":{"name":"Nouakchott","gaul_code":19522,"targetarea":155.6988435,"totpop":1353219.19183,"country_id":"MRT","targetpop":1269835.80951,"totalarea":1501.8447375,"new_mean":0.0070894}},{"type":"Polygon","arcs":[[1]],"properties":{"name":"Kaedi","gaul_code":19505,"targetarea":2.2085929,"totpop":147911.144759,"country_id":"MRT","targetpop":4016.7353516,"totalarea":4239.0001436,"new_mean":0.0044579}},{"type":"Polygon","arcs":[[2]],"properties":{"name":"F Derik","gaul_code":19527,"targetarea":4.3808977,"totpop":56485.6914947,"country_id":"MRT","targetpop":8777.8842773,"totalarea":172161.427658,"new_mean":0.0000453}},{"type":"Polygon","arcs":[[3]],"properties":{"name":"Nema","gaul_code":19514,"targetarea":6.3233781,"totpop":104769.722144,"country_id":"MRT","targetpop":16663.0141602,"totalarea":9927.1021086,"new_mean":0.0079276}},{"type":"Polygon","arcs":[[4]],"properties":{"name":"Nouadhibou","gaul_code":19504,"targetarea":40.9087685,"totpop":153771.327892,"country_id":"MRT","targetpop":108756.849457,"totalarea":17105.0962031,"new_mean":0.0099232}},{"type":"Polygon","arcs":[[5]],"properties":{"name":"Selibaby","gaul_code":19510,"targetarea":4.1750712,"totpop":252395.419944,"country_id":"MRT","targetpop":6681.1149902,"totalarea":7130.2221586,"new_mean":0.0082875}}]}},"arcs":[[[-15.9181647,18.1460231],[-16.0300642,18.1372652],[-16.0230638,18.061701],[-16.0063483,18.0626979],[-15.98003,18.0391912],[-15.9802253,17.9984726],[-15.9710619,17.9785141],[-15.958334,17.9745835],[-15.9377285,18.0289861],[-15.9289395,18.0368475],[-15.9171068,18.0626084],[-15.8877285,18.0608546],[-15.9043952,18.0868475],[-15.9181647,18.1460231]],[[-13.4917759,16.1416305],[-13.4973639,16.1612005],[-13.5120449,16.1470729],[-13.4917759,16.1416305]],[[-12.4661953,22.7528224],[-12.4869636,22.7294459],[-12.458334,22.7245835],[-12.4661953,22.7528224]],[[-7.2479662,16.6283107],[-7.2956062,16.6125189],[-7.2416674,16.6079168],[-7.2479662,16.6283107]],[[-17.0353527,20.824543],[-17.0280432,20.843441],[-17.0290508,20.8566704],[-17.0535163,20.8736028],[-17.0490665,20.9024849],[-17.0316738,20.9137965],[-17.0182624,20.9856797],[-17.0318203,20.9951808],[-17.0659349,20.9018133],[-17.0473477,20.8148178],[-17.0353527,20.824543]],[[-12.1858242,15.177326],[-12.195069,15.1540594],[-12.1666673,15.1495835],[-12.1858242,15.177326]]],"bbox":[-17.0659349,15.1495835,-7.2416674,22.7528224]}