{"type":"Topology","objects":{"foo":{"type":"GeometryCollection","geometries":[{"type":"Polygon","arcs":[[0]],"properties":{"name":"Gaya","gaul_code":22560,"targetarea":0.5728499,"totpop":484186.833511,"country_id":"NER","targetpop":1251.1694336,"new_mean":0.0243092,"totalarea":4041.4873761}},{"type":"Polygon","arcs":[[1,2,3]],"properties":{"name":"Commune 3","gaul_code":22570,"targetarea":40.6658195,"totpop":181926.950684,"country_id":"NER","targetpop":181926.950684,"new_mean":0.0698468,"totalarea":40.6658194}},{"type":"Polygon","arcs":[[4,5,6,7,-2,8,9]],"properties":{"name":"Commune 1","gaul_code":22568,"targetarea":81.4463808,"totpop":372832.027649,"country_id":"NER","targetpop":371191.543091,"new_mean":0.0116107,"totalarea":82.9988172}},{"type":"MultiPolygon","arcs":[[[10,-10,11]],[[12,-6,13,14,15,16,-3,-8]]],"properties":{"name":"Kollo","gaul_code":22579,"targetarea":83.769655,"totpop":798030.991525,"country_id":"NER","targetpop":243593.507935,"new_mean":0.0177458,"totalarea":8016.8064531}},{"type":"Polygon","arcs":[[-15,17]],"properties":{"name":"Say","gaul_code":22581,"targetarea":3.0034972,"totpop":614706.479416,"country_id":"NER","targetpop":6574.4836426,"new_mean":0.0215159,"totalarea":14793.8708985}},{"type":"Polygon","arcs":[[-12,-9,-4,-17,18]],"properties":{"name":"Commune 2","gaul_code":22569,"targetarea":114.5812307,"totpop":477179.355713,"country_id":"NER","targetpop":470654.092896,"new_mean":0.0201843,"totalarea":123.8800788}},{"type":"Polygon","arcs":[[19,20]],"properties":{"name":"Guidan Roumji","gaul_code":22564,"targetarea":36.7373238,"totpop":961391.700886,"country_id":"NER","targetpop":224374.222046,"new_mean":0.0166838,"totalarea":4776.4082547}},{"type":"Polygon","arcs":[[21]],"properties":{"name":"Matamey","gaul_code":22586,"targetarea":0.2919342,"totpop":573713.223045,"country_id":"NER","targetpop":0,"new_mean":0.0185485,"totalarea":2215.1929971}},{"type":"MultiPolygon","arcs":[[[22]],[[23]],[[24]]],"properties":{"name":"Magaria","gaul_code":22585,"targetarea":3.060165,"totpop":1450316.48486,"country_id":"NER","targetpop":6945.708374,"new_mean":0.0180901,"totalarea":8011.8803722}},{"type":"MultiPolygon","arcs":[[[25]],[[26]]],"properties":{"name":"Birni N'konni","gaul_code":22571,"targetarea":8.5394325,"totpop":746130.695269,"country_id":"NER","targetpop":16799.2625732,"new_mean":0.0232149,"totalarea":4836.1039449}},{"type":"Polygon","arcs":[[27]],"properties":{"name":"Miria","gaul_code":22587,"targetarea":106.098959,"totpop":2005184.1983,"country_id":"NER","targetpop":398364.964294,"new_mean":0.0127988,"totalarea":13417.97345}},{"type":"MultiPolygon","arcs":[[[28]],[[-21,29]]],"properties":{"name":"Madarounfa","gaul_code":22565,"targetarea":26.7265862,"totpop":791080.99728,"country_id":"NER","targetpop":184259.89978,"new_mean":0.0227486,"totalarea":3643.219011}},{"type":"Polygon","arcs":[[30]],"properties":{"name":"Aguie","gaul_code":22562,"targetarea":0.990341,"totpop":555742.215622,"country_id":"NER","targetpop":2603.4075928,"new_mean":0.0197788,"totalarea":2853.5834339}},{"type":"Polygon","arcs":[[31]],"properties":{"name":"Tahoua","gaul_code":22576,"targetarea":5.4856072,"totpop":740593.285819,"country_id":"NER","targetpop":9048.7335205,"new_mean":0.0161532,"totalarea":9122.7567204}}]}},"arcs":[[[3.4638176,11.9014105],[3.4565097,11.8941025],[3.4666659,11.8912502],[3.4638176,11.9014105]],[[2.1068754,13.5077925],[2.1037931,13.5084896],[2.0906067,13.515233],[2.083576,13.5167809],[2.0753078,13.5208912],[2.0660863,13.5197811],[2.0564294,13.5218153],[2.0483906,13.5212879],[2.0394547,13.5243635]],[[2.0394547,13.5243635],[2.0614393,13.4860497],[2.1410849,13.4416561]],[[2.1410849,13.4416561],[2.1366372,13.4481459],[2.1355233,13.452035],[2.1342478,13.4655304],[2.1306024,13.4791002],[2.1281307,13.4839783],[2.1207004,13.4909086],[2.1068754,13.5077925]],[[2.1380295,13.5922604],[2.1126862,13.5960051]],[[2.1126862,13.5960051],[2.0271654,13.5457745],[2.0384759,13.5260688]],[[2.0384759,13.5260688],[2.0393311,13.5245788]],[[2.0393311,13.5245788],[2.0394547,13.5243635]],[[2.1068754,13.5077925],[2.1170304,13.5155611],[2.1253595,13.5235958],[2.1253419,13.5284681],[2.1288953,13.5294371],[2.141499,13.5427866],[2.1447291,13.5453577],[2.1648464,13.5644417]],[[2.1648464,13.5644417],[2.1380295,13.5922604]],[[2.2280612,13.5000448],[2.2286288,13.5004827],[2.2184237,13.5409857],[2.1963697,13.5542873],[2.1608879,13.5688055],[2.1434075,13.5914658],[2.1380295,13.5922604]],[[2.1648464,13.5644417],[2.2280612,13.5000448]],[[2.0393311,13.5245788],[2.0416659,13.5162502],[2.0315097,13.5191025],[2.0384759,13.5260688]],[[2.1126862,13.5960051],[2.0987948,13.5980576],[2.079703,13.5865464],[2.0130364,13.5784002],[2.0283521,13.4900702],[2.0619622,13.4763169],[2.0819166,13.4609157],[2.0913314,13.4379087]],[[2.0913314,13.4379087],[2.09396,13.4404001],[2.1002901,13.4424],[2.1087401,13.4343996],[2.1129601,13.4263],[2.1192901,13.4243002],[2.1319599,13.4182997],[2.1361799,13.4141998],[2.1430807,13.4105072]],[[2.1430807,13.4105072],[2.1583326,13.4079168],[2.1619622,13.4126206],[2.1920728,13.4249456],[2.2011685,13.4372141]],[[2.2011685,13.4372141],[2.1721351,13.4252005],[2.1410849,13.4416561]],[[2.0913314,13.4379087],[2.0953606,13.4280625],[2.1067864,13.4297511],[2.1369622,13.4115464],[2.1430807,13.4105072]],[[2.2011685,13.4372141],[2.2162428,13.4575466],[2.2118157,13.4875107],[2.2280612,13.5000448]],[[7.156545,13.5384163],[7.1594394,13.5435085],[7.1347486,13.5545314],[7.0858716,13.5506048],[7.0387851,13.5243312],[7.0518495,13.5161461]],[[7.0518495,13.5161461],[7.0610199,13.5128002],[7.0736899,13.5108004],[7.0779099,13.5087996],[7.09058,13.5087996],[7.09269,13.5067997],[7.10113,13.5087996],[7.10957,13.5128002],[7.11169,13.5167999],[7.1201301,13.5249004],[7.1243501,13.5309],[7.1328001,13.5349998],[7.156545,13.5384163]],[[8.293479,13.16736],[8.2861483,13.1779771],[8.2838559,13.1759648],[8.293479,13.16736]],[[9.4364087,12.8231268],[9.4356086,12.8192632],[9.4479666,12.817279],[9.4364087,12.8231268]],[[8.9109693,13.0112005],[8.8962883,12.9970729],[8.9166659,12.9912502],[8.9109693,13.0112005]],[[8.4938143,13.0776597],[8.4856762,13.0696926],[8.4954,13.0683255],[8.4938143,13.0776597]],[[5.2638664,13.8051174],[5.2461256,13.8107163],[5.2388664,13.786229],[5.2749993,13.7829168],[5.2638664,13.8051174]],[[5.5204745,13.9601629],[5.5058424,13.9529608],[5.5249993,13.9495835],[5.5204745,13.9601629]],[[8.9916659,13.8995835],[8.9881828,13.9044378],[8.9751295,13.9113958],[8.9557121,13.8843084],[8.9347649,13.8884466],[8.9398104,13.8628525],[8.9736158,13.8386338],[8.9639804,13.7899481],[8.9984693,13.7967596],[9.0454745,13.8266058],[9.0558423,13.8410752],[9.0533358,13.8537502],[9.0575676,13.8751532],[9.0445793,13.8956284],[8.9916659,13.8995835],[8.9916659,13.8912502],[9.0018222,13.8883978],[8.9945142,13.8810898],[8.9916659,13.8912502],[8.9809888,13.8954168],[8.9916659,13.8995835]],[[7.2217412,13.1038637],[7.2272088,13.110147],[7.2211744,13.1107163],[7.2217412,13.1038637]],[[7.0518495,13.5161461],[7.0736483,13.5024888],[7.08719,13.4867743],[7.1249993,13.4829168],[7.156545,13.5384163]],[[7.9222898,13.5309],[7.9173324,13.5336163],[7.9058423,13.5279608],[7.9249992,13.5245835],[7.9222898,13.5309]],[[5.2555982,14.8939845],[5.2759921,14.9042954],[5.2463534,14.9107163],[5.2388664,14.8885483],[5.2499993,14.8829168],[5.2555982,14.8939845]]],"bbox":[2.0130364,11.8912502,9.4479666,14.9107163]}