{"type":"Topology","objects":{"foo":{"type":"GeometryCollection","geometries":[{"type":"Polygon","arcs":[[0]],"properties":{"name":"Al Buraimi","gaul_code":23591,"targetarea":24.2095119,"totpop":110728.04414,"country_id":"OMN","targetpop":30635.9726562,"totalarea":1907.8247809,"new_mean":0}},{"type":"MultiPolygon","arcs":[[[1,2]],[[3,4]]],"properties":{"name":"Bid Bid","gaul_code":23567,"targetarea":2.8224897,"totpop":62388.7934437,"country_id":"OMN","targetpop":4154.8007202,"totalarea":1450.715136,"new_mean":0.000039}},{"type":"Polygon","arcs":[[5,6]],"properties":{"name":"Barka","gaul_code":23585,"targetarea":27.2509389,"totpop":169916.846844,"country_id":"OMN","targetpop":35188.9221191,"totalarea":445.688032,"new_mean":0}},{"type":"Polygon","arcs":[[7,8]],"properties":{"name":"Muscat","gaul_code":23610,"targetarea":26.1549265,"totpop":96305.2891355,"country_id":"OMN","targetpop":50914.5855103,"totalarea":434.3174437,"new_mean":0.0022255}},{"type":"Polygon","arcs":[[9,10,11,12]],"properties":{"name":"Bausher","gaul_code":23609,"targetarea":57.6965528,"totpop":189124.92803,"country_id":"OMN","targetpop":93583.0559082,"totalarea":536.5497835,"new_mean":0.0001619}},{"type":"MultiPolygon","arcs":[[[13]],[[14,-2,15]],[[16,-4,17]],[[18]],[[19,-12,20,-7,21,22],[23]]],"properties":{"name":"A Seeb","gaul_code":23608,"targetarea":239.7589229,"totpop":464673.662823,"country_id":"OMN","targetpop":336740.656281,"totalarea":494.3801612,"new_mean":0.0006261}},{"type":"Polygon","arcs":[[24,-10,25,-9]],"properties":{"name":"Muttrah","gaul_code":23611,"targetarea":55.7353848,"totpop":116427.305328,"country_id":"OMN","targetpop":103426.695374,"totalarea":79.8161419,"new_mean":0.0003843}}]}},"arcs":[[[55.8471507,24.2459742],[55.813736,24.2584742],[55.8299307,24.2696518],[55.8367341,24.2934515],[55.8042997,24.28618],[55.7969255,24.2784368],[55.7861319,24.2363592],[55.8416657,24.2329168],[55.8471507,24.2459742]],[[58.2927112,23.4834536],[58.2648295,23.4800062]],[[58.2648295,23.4800062],[58.2838369,23.471491],[58.2927112,23.4834536]],[[58.324999,23.4874458],[58.3123937,23.4858872]],[[58.3123937,23.4858872],[58.324999,23.4829168],[58.324999,23.4874458]],[[58.1212239,23.6874682],[58.1021884,23.7069782],[58.0847112,23.7112751],[58.0697744,23.6932928],[58.0713858,23.6775335],[58.1001455,23.6804632],[58.0869131,23.6452622],[58.1067236,23.6227759]],[[58.1067236,23.6227759],[58.1212239,23.6874682]],[[58.5331267,23.5712448],[58.5704418,23.5616969],[58.5954418,23.5597153],[58.5703767,23.6034816],[58.5641315,23.632684],[58.5485676,23.6278584]],[[58.5485676,23.6278584],[58.5331267,23.5712448]],[[58.4578755,23.5772987],[58.417474,23.6061576]],[[58.417474,23.6061576],[58.3841354,23.6033112]],[[58.3841354,23.6033112],[58.3365595,23.4922979]],[[58.3365595,23.4922979],[58.3460928,23.48629],[58.3592764,23.5312037],[58.3950837,23.5275538],[58.4309724,23.5533758],[58.4578755,23.5772987]],[[58.2583324,23.4829168],[58.2500605,23.47818],[58.2572538,23.4790695],[58.2583324,23.4829168]],[[58.2583324,23.4829168],[58.2648295,23.4800062]],[[58.2927112,23.4834536],[58.2654287,23.494428],[58.2583324,23.4829168]],[[58.324999,23.4995835],[58.3123937,23.4858872]],[[58.324999,23.4874458],[58.324999,23.4995835]],[[58.124999,23.5912501],[58.1213695,23.6042872],[58.104158,23.6113299],[58.1017558,23.6006124],[58.124999,23.5912501]],[[58.324999,23.4995835],[58.3365595,23.4922979]],[[58.3841354,23.6033112],[58.3439363,23.6032262],[58.2967914,23.6077249],[58.2436743,23.6366228],[58.2077205,23.6668206],[58.1838812,23.6809814],[58.1508993,23.6941531],[58.1365062,23.6859116],[58.1212239,23.6874682]],[[58.1067236,23.6227759],[58.1158031,23.61247],[58.1623363,23.645958],[58.1871084,23.6388738],[58.1603018,23.6016058],[58.124999,23.5912501]],[[58.124999,23.5912501],[58.1305655,23.5718084],[58.1785147,23.5580958],[58.1872549,23.5275498],[58.2300283,23.5535304],[58.2144359,23.5800644],[58.2393871,23.5795029],[58.2537914,23.5615179],[58.2780264,23.564533],[58.2870433,23.5532903],[58.3472809,23.5457545],[58.3359854,23.536705],[58.3380524,23.5201075],[58.324999,23.4995835]],[[58.199999,23.5912501],[58.1715974,23.5985377],[58.1861481,23.6113103],[58.199999,23.5912501]],[[58.5485676,23.6278584],[58.5269696,23.6276483],[58.5027079,23.6439242],[58.4887501,23.6425786],[58.4759153,23.6240074],[58.4479079,23.6112185],[58.417474,23.6061576]],[[58.4578755,23.5772987],[58.498404,23.5948715],[58.5192048,23.5698268],[58.5331267,23.5712448]]],"bbox":[55.7861319,23.471491,58.5954418,24.2934515]}