{"type":"Topology","objects":{"foo":{"type":"GeometryCollection","geometries":[{"type":"Polygon","arcs":[[0]],"properties":{"name":"Chitre","gaul_code":23728,"targetarea":13.0935422,"totpop":59645.2536211,"country_id":"PAN","targetpop":37617.9978027,"totalarea":101.85081,"new_mean":0.025663}},{"type":"Polygon","arcs":[[1]],"properties":{"name":"Las Tablas","gaul_code":23736,"targetarea":2.6419939,"totpop":27158.3180344,"country_id":"PAN","targetpop":6741.085083,"totalarea":699.1689831,"new_mean":0.0255194}},{"type":"Polygon","arcs":[[2]],"properties":{"name":"Sona","gaul_code":23763,"targetarea":1.9616958,"totpop":29811.8851692,"country_id":"PAN","targetpop":5547.6973877,"totalarea":1603.5515975,"new_mean":0.0256467}},{"type":"MultiPolygon","arcs":[[[3]],[[4]]],"properties":{"name":"Colon","gaul_code":23719,"targetarea":45.0392691,"totpop":245573.251009,"country_id":"PAN","targetpop":133806.783051,"totalarea":1844.5272535,"new_mean":0.0245883}},{"type":"MultiPolygon","arcs":[[[3]],[[4]]],"properties":{"name":"Colon","gaul_code":23719,"targetarea":45.0392691,"totpop":245573.251009,"country_id":"PAN","targetpop":133806.783051,"totalarea":1844.5272535,"new_mean":0.0251505}},{"type":"MultiPolygon","arcs":[[[5,6]],[[7]],[[8]],[[9],[10]],[[11]],[[12]],[[13]]],"properties":{"name":"Panama","gaul_code":23749,"targetarea":229.5580161,"totpop":1217897.81187,"country_id":"PAN","targetpop":964617.50824,"totalarea":2450.7439288,"new_mean":0.0252335}},{"type":"MultiPolygon","arcs":[[[14]],[[15]]],"properties":{"name":"Changuinola","gaul_code":23697,"targetarea":14.2035013,"totpop":138179.889975,"country_id":"PAN","targetpop":43320.4122925,"totalarea":4049.344166,"new_mean":0.0246132}},{"type":"Polygon","arcs":[[16]],"properties":{"name":"Anton","gaul_code":23713,"targetarea":3.5194175,"totpop":61018.9172437,"country_id":"PAN","targetpop":9680.1671143,"totalarea":672.1595783,"new_mean":0.0251782}},{"type":"Polygon","arcs":[[17]],"properties":{"name":"Capira","gaul_code":23744,"targetarea":1.7322309,"totpop":48021.3209004,"country_id":"PAN","targetpop":4035.9584961,"totalarea":1016.3148045,"new_mean":0.0252431}},{"type":"MultiPolygon","arcs":[[[18,19,20]],[[21,-7,22]]],"properties":{"name":"Arraijan","gaul_code":23742,"targetarea":35.6262417,"totpop":156204.683936,"country_id":"PAN","targetpop":114421.959717,"totalarea":137.6694986,"new_mean":0.0252649}},{"type":"Polygon","arcs":[[-11]],"properties":{"name":"San Miguelito","gaul_code":23751,"targetarea":47.972332,"totpop":361940.050659,"country_id":"PAN","targetpop":361940.050659,"totalarea":47.9723321,"new_mean":0.02551}},{"type":"Polygon","arcs":[[23]],"properties":{"name":"Chame","gaul_code":23745,"targetarea":1.1544818,"totpop":31027.1617589,"country_id":"PAN","targetpop":3785.1444092,"totalarea":374.3255468,"new_mean":0.0253898}},{"type":"Polygon","arcs":[[-20,24]],"properties":{"name":"La Chorrera","gaul_code":23748,"targetarea":42.7419064,"totpop":192052.825729,"country_id":"PAN","targetpop":138380.555664,"totalarea":602.2813443,"new_mean":0.0254339}},{"type":"Polygon","arcs":[[25]],"properties":{"name":"Chepo","gaul_code":23746,"targetarea":1.8617292,"totpop":61233.5837899,"country_id":"PAN","targetpop":4457.1743164,"totalarea":5435.6292746,"new_mean":0.0254782}},{"type":"MultiPolygon","arcs":[[[26]],[[27]]],"properties":{"name":"Bugaba","gaul_code":23703,"targetarea":9.3413138,"totpop":93967.7093215,"country_id":"PAN","targetpop":23802.1654053,"totalarea":876.6877962,"new_mean":0.0241479}},{"type":"Polygon","arcs":[[28]],"properties":{"name":"Penonome","gaul_code":23717,"targetarea":4.9665257,"totpop":97962.0832162,"country_id":"PAN","targetpop":14205.4353027,"totalarea":1744.5922199,"new_mean":0.0251706}},{"type":"MultiPolygon","arcs":[[[29]],[[30]]],"properties":{"name":"Santiago","gaul_code":23762,"targetarea":14.6359423,"totpop":98272.9473212,"country_id":"PAN","targetpop":35921.6802979,"totalarea":1016.085442,"new_mean":0.0255973}},{"type":"Polygon","arcs":[[31]],"properties":{"name":"Aguadulce","gaul_code":23712,"targetarea":5.7567927,"totpop":48301.4606359,"country_id":"PAN","targetpop":13399.0085449,"totalarea":444.1463448,"new_mean":0.025356}},{"type":"MultiPolygon","arcs":[[[32]],[[33]]],"properties":{"name":"David","gaul_code":23704,"targetarea":34.7725864,"totpop":162405.932186,"country_id":"PAN","targetpop":95313.9476318,"totalarea":870.6120485,"new_mean":0.0257466}},{"type":"Polygon","arcs":[[34]],"properties":{"name":"Baru","gaul_code":23700,"targetarea":4.1850885,"totpop":51187.6159226,"country_id":"PAN","targetpop":8839.7619629,"totalarea":557.5626867,"new_mean":0.0249748}}]}},"arcs":[[[-80.4061527,7.9707261],[-80.4274011,7.9857163],[-80.4512048,7.9740912],[-80.4346195,7.9532049],[-80.4166671,7.9495835],[-80.4061527,7.9707261]],[[-80.2734833,7.7789817],[-80.2861332,7.7677639],[-80.2666671,7.7579169],[-80.269428,7.7798001],[-80.2734833,7.7789817]],[[-81.3123376,8.0181789],[-81.3279545,8.0103379],[-81.3083337,7.9995835],[-81.3123376,8.0181789]],[[-79.6182196,9.2274153],[-79.6270919,9.243598],[-79.6362878,9.2288031],[-79.6181305,9.2248982],[-79.6182196,9.2274153]],[[-79.8916671,9.3245835],[-79.8621912,9.3367743],[-79.846143,9.3457261],[-79.8260177,9.3534409],[-79.8044763,9.3284409],[-79.7948572,9.3207261],[-79.7965011,9.3412502],[-79.7947432,9.363174],[-79.8126957,9.3617336],[-79.8373051,9.3707668],[-79.8480066,9.3699082],[-79.8688236,9.3457383],[-79.8790694,9.3797634],[-79.8980066,9.3782416],[-79.9158289,9.3575547],[-79.8916671,9.3245835]],[[-79.6554077,8.9409894],[-79.6363936,8.9450018],[-79.6506596,8.9686631],[-79.6687748,8.9826442],[-79.67863,8.9698797],[-79.6913855,8.9646598]],[[-79.6913855,8.9646598],[-79.6554077,8.9409894]],[[-79.5745772,8.983869],[-79.5876062,9.002383],[-79.5944665,8.9718817],[-79.5833337,8.9662502],[-79.5745772,8.983869]],[[-79.6366703,9.0351874],[-79.6441654,9.0208848],[-79.6333337,9.0162502],[-79.6366703,9.0351874]],[[-79.5295414,9.1323309],[-79.5666671,9.1277126],[-79.5792973,9.1292832],[-79.6120365,9.1220729],[-79.5787032,9.1125433],[-79.5675867,9.0986598],[-79.5526615,9.0867051],[-79.5553064,9.0654201],[-79.5285974,9.0541652],[-79.5277592,9.0299058],[-79.5380538,9.0123846],[-79.5356287,8.9928452],[-79.5460699,8.9468531],[-79.5285873,8.9474812],[-79.5307846,8.9561834],[-79.5254517,8.9709587],[-79.5104294,8.9697752],[-79.4974289,8.9812031],[-79.4957275,8.9920244],[-79.4836655,9.004818],[-79.4600643,9.0077599],[-79.4537032,9.0116237],[-79.4393884,9.0295029],[-79.4250004,9.0277126],[-79.4055587,9.0301296],[-79.3962651,9.0626532],[-79.3871993,9.0615261],[-79.3711348,9.0709743],[-79.3621993,9.0698594],[-79.3257003,9.0913153],[-79.2858565,9.0863592],[-79.2882003,9.1052191],[-79.3045414,9.1031846],[-79.3189457,9.1211696],[-79.3291671,9.1199001],[-79.3653162,9.1243963],[-79.3871993,9.1115261],[-79.4023686,9.1134141],[-79.4289311,9.1032009],[-79.4530359,9.1061997],[-79.467668,9.0879258],[-79.4955326,9.1043076],[-79.5060551,9.1029974],[-79.5295414,9.1323309]],[[-79.5107727,9.0027905],[-79.5199661,9.0106039],[-79.5252609,9.0217743],[-79.5206909,9.039978],[-79.5292969,9.072423],[-79.5170593,9.0806208],[-79.5082245,9.0748339],[-79.4981155,9.0764294],[-79.476181,9.0695543],[-79.4653854,9.0687952],[-79.4443665,9.0608625],[-79.430397,9.0603685],[-79.4238434,9.0510664],[-79.4313812,9.0402422],[-79.4848709,9.0329256],[-79.4997101,9.0237122],[-79.5066528,9.0052614],[-79.5107727,9.0027905]],[[-79.245053,9.1282865],[-79.2453056,9.1343541],[-79.2701501,9.1215643],[-79.2500004,9.1162502],[-79.245053,9.1282865]],[[-79.5366703,9.1601874],[-79.5441654,9.1458848],[-79.5333337,9.1412502],[-79.5366703,9.1601874]],[[-79.620907,9.1641424],[-79.62863,9.1385687],[-79.6083337,9.1329168],[-79.620907,9.1641424]],[[-82.3986495,9.3027655],[-82.4119633,9.2877793],[-82.3833337,9.2829168],[-82.3986495,9.3027655]],[[-82.5082605,9.4751898],[-82.5190027,9.4866237],[-82.5299076,9.411701],[-82.5166671,9.4079168],[-82.5082605,9.4751898]],[[-80.2623376,8.4098456],[-80.2779545,8.4020046],[-80.2583337,8.3912502],[-80.2623376,8.4098456]],[[-79.8700037,8.7935207],[-79.8774988,8.7792181],[-79.8666671,8.7745835],[-79.8700037,8.7935207]],[[-79.7416671,8.9245835],[-79.7582065,8.9043657]],[[-79.7582065,8.9043657],[-79.7438165,8.9027361]],[[-79.7438165,8.9027361],[-79.7416671,8.9245835]],[[-79.7416671,8.9245835],[-79.7202966,8.9126206],[-79.7030616,8.895307],[-79.6701176,8.9197292],[-79.6727218,8.9373358],[-79.6554077,8.9409894]],[[-79.6913855,8.9646598],[-79.6976811,8.9620835],[-79.695142,8.9449082],[-79.7380375,8.9376206],[-79.7416671,8.9245835]],[[-79.8866703,8.6101874],[-79.8941654,8.5958848],[-79.8833337,8.5912502],[-79.8866703,8.6101874]],[[-79.7582065,8.9043657],[-79.8085209,8.8865871],[-79.8333337,8.8495835],[-79.8180424,8.8439683],[-79.7872318,8.8450588],[-79.7794763,8.8540594],[-79.7454757,8.8617865],[-79.7465417,8.8750352],[-79.7438165,8.9027361]],[[-79.0950037,9.176854],[-79.1024988,9.1625515],[-79.0916671,9.1579168],[-79.0950037,9.176854]],[[-82.612937,8.5266949],[-82.6157142,8.5342455],[-82.6369633,8.5156113],[-82.6083337,8.4995835],[-82.612937,8.5266949]],[[-82.6437585,8.793598],[-82.6529545,8.7788031],[-82.6333337,8.7745835],[-82.6437585,8.793598]],[[-80.3423669,8.5149359],[-80.3613285,8.527383],[-80.3694665,8.5094305],[-80.3500004,8.4995835],[-80.3423669,8.5149359]],[[-80.9500004,8.1162502],[-80.9699792,8.1261786],[-80.985767,8.0949693],[-80.9487309,8.0884507],[-80.9562097,8.1037624],[-80.9500004,8.1162502]],[[-80.9500004,8.1162502],[-80.923324,8.1050441],[-80.9382654,8.1279852],[-80.9462406,8.1493068],[-80.9500004,8.1162502]],[[-80.5383981,8.2600984],[-80.5617354,8.2441961],[-80.5333337,8.2245835],[-80.5372582,8.2591185],[-80.5383981,8.2600984]],[[-82.3767175,8.4295681],[-82.3966557,8.4396551],[-82.4027999,8.4260972],[-82.3833337,8.4162502],[-82.3767175,8.4295681]],[[-82.4102055,8.4319362],[-82.4144942,8.4617743],[-82.4288578,8.4451076],[-82.442546,8.4333115],[-82.4621911,8.4100856],[-82.4380294,8.3892686],[-82.4294763,8.3701076],[-82.4166671,8.3662502],[-82.4102055,8.4319362]],[[-82.864006,8.2614784],[-82.8581848,8.2772083],[-82.8497644,8.284459],[-82.8607182,8.2946519],[-82.8736251,8.2601426],[-82.864006,8.2614784]]],"bbox":[-82.8736251,7.7579169,-79.0916671,9.4866237]}