{"type":"Topology","objects":{"foo":{"type":"GeometryCollection","geometries":[{"type":"MultiPolygon","arcs":[[[0]],[[1]],[[2]],[[3]],[[4]],[[5,6]],[[7]]],"properties":{"name":"LIMA","gaul_code":1011849,"targetarea":970.6751091,"totpop":10513184.4183,"country_id":"PER","targetpop":10079948.0361,"new_mean":0.0444769,"totalarea":2771.1377292}},{"type":"Polygon","arcs":[[8]],"properties":{"name":"OXAPAMPA","gaul_code":1011850,"targetarea":3.126258,"totpop":111751.900213,"country_id":"PER","targetpop":11559.4185791,"new_mean":0.0825537,"totalarea":17696.376553}},{"type":"Polygon","arcs":[[-6,9]],"properties":{"name":"CALLAO","gaul_code":1011851,"targetarea":139.5422066,"totpop":955588.158257,"country_id":"PER","targetpop":939350.949646,"new_mean":0.0366826,"totalarea":163.9113916}},{"type":"Polygon","arcs":[[10]],"properties":{"name":"ANDAHUAYLAS","gaul_code":1011864,"targetarea":12.2161434,"totpop":166571.283501,"country_id":"PER","targetpop":41389.224762,"new_mean":0.0429361,"totalarea":4018.9486009}},{"type":"MultiPolygon","arcs":[[[11]],[[12]],[[13]]],"properties":{"name":"VIRU","gaul_code":1011867,"targetarea":7.2946978,"totpop":159937.500364,"country_id":"PER","targetpop":17681.0944824,"new_mean":0.0369618,"totalarea":3239.2746222}},{"type":"Polygon","arcs":[[14]],"properties":{"name":"LA CONVENCION","gaul_code":1011872,"targetarea":6.741136,"totpop":184951.194476,"country_id":"PER","targetpop":19760.4920654,"new_mean":0.0612241,"totalarea":31967.1806656}},{"type":"MultiPolygon","arcs":[[[15,16,17,18]],[[19]]],"properties":{"name":"HUANCAYO","gaul_code":1011874,"targetarea":62.4216583,"totpop":565691.740987,"country_id":"PER","targetpop":409740.593933,"new_mean":0.0328811,"totalarea":3734.5369326}},{"type":"Polygon","arcs":[[20]],"properties":{"name":"CHINCHA","gaul_code":1011881,"targetarea":35.7105387,"totpop":246964.352173,"country_id":"PER","targetpop":164683.80011,"new_mean":0.0429743,"totalarea":2914.7108342}},{"type":"MultiPolygon","arcs":[[[21]],[[22]],[[23]]],"properties":{"name":"PISCO","gaul_code":1011887,"targetarea":19.9796131,"totpop":154019.486702,"country_id":"PER","targetpop":77806.2616882,"new_mean":0.0000054734957,"totalarea":4005.7514863}},{"type":"Polygon","arcs":[[24]],"properties":{"name":"SAN ANTONIO DE PUTIN","gaul_code":1011888,"targetarea":2.8244626,"totpop":90480.3259555,"country_id":"PER","targetpop":9878.5192871,"new_mean":0.0182825,"totalarea":3123.0251534}},{"type":"Polygon","arcs":[[25]],"properties":{"name":"ESPINAR","gaul_code":1011892,"targetarea":1.1294757,"totpop":69316.2720715,"country_id":"PER","targetpop":3008.4116211,"new_mean":0.0258485,"totalarea":5236.1872166}},{"type":"Polygon","arcs":[[26]],"properties":{"name":"HUAURA","gaul_code":1011893,"targetarea":32.6389191,"totpop":238297.234443,"country_id":"PER","targetpop":114742.480381,"new_mean":0.0621997,"totalarea":5020.9409524}},{"type":"MultiPolygon","arcs":[[[27]],[[28]]],"properties":{"name":"MAYNAS","gaul_code":1011897,"targetarea":29.9513077,"totpop":725049.524557,"country_id":"PER","targetpop":153318.02388,"new_mean":8.9719684e-7,"totalarea":121745.450347}},{"type":"Polygon","arcs":[[29]],"properties":{"name":"HUANTA","gaul_code":1011898,"targetarea":8.1012937,"totpop":138751.311268,"country_id":"PER","targetpop":42195.3062744,"new_mean":0.0000594,"totalarea":3813.1675546}},{"type":"Polygon","arcs":[[30]],"properties":{"name":"AZANGARO","gaul_code":1011901,"targetarea":2.6448267,"totpop":135446.764944,"country_id":"PER","targetpop":10402.8806152,"new_mean":0.0268697,"totalarea":5100.7813405}},{"type":"Polygon","arcs":[[31]],"properties":{"name":"SAN MARCOS","gaul_code":1011920,"targetarea":2.0094957,"totpop":55065.0345736,"country_id":"PER","targetpop":5726.4057617,"new_mean":0.0660414,"totalarea":1348.1551074}},{"type":"Polygon","arcs":[[32]],"properties":{"name":"CELENDIN","gaul_code":1011925,"targetarea":2.2799451,"totpop":95500.2873683,"country_id":"PER","targetpop":7704.987915,"new_mean":0.0621291,"totalarea":2580.3784803}},{"type":"Polygon","arcs":[[33]],"properties":{"name":"TARMA","gaul_code":1011926,"targetarea":6.3876286,"totpop":110232.359261,"country_id":"PER","targetpop":17974.6436768,"new_mean":0.0593353,"totalarea":2664.0814699}},{"type":"Polygon","arcs":[[34]],"properties":{"name":"CHACHAPOYAS","gaul_code":1011933,"targetarea":4.742996,"totpop":57065.5487021,"country_id":"PER","targetpop":15660.625,"new_mean":0.074907,"totalarea":2997.9256258}},{"type":"MultiPolygon","arcs":[[[35]],[[36]]],"properties":{"name":"MOYOBAMBA","gaul_code":1011936,"targetarea":10.887533,"totpop":187838.354842,"country_id":"PER","targetpop":57418.4619141,"new_mean":0.0618915,"totalarea":3792.1217189}},{"type":"Polygon","arcs":[[37]],"properties":{"name":"CAJABAMBA","gaul_code":1011938,"targetarea":2.2762124,"totpop":79646.8811071,"country_id":"PER","targetpop":5681.4998779,"new_mean":0.0808635,"totalarea":1788.7327006}},{"type":"MultiPolygon","arcs":[[[38]],[[39]],[[40]],[[41]]],"properties":{"name":"PACASMAYO","gaul_code":1011945,"targetarea":10.0775814,"totpop":104535.033553,"country_id":"PER","targetpop":44813.4578857,"new_mean":0.0819014,"totalarea":1080.1947778}},{"type":"Polygon","arcs":[[42]],"properties":{"name":"TACNA","gaul_code":1011961,"targetarea":47.6116896,"totpop":362431.155947,"country_id":"PER","targetpop":247686.127686,"new_mean":0.0297181,"totalarea":8210.9519474}},{"type":"Polygon","arcs":[[43]],"properties":{"name":"EL COLLAO","gaul_code":1011966,"targetarea":5.9577169,"totpop":87629.4251459,"country_id":"PER","targetpop":26090.4547119,"new_mean":0.0217228,"totalarea":5655.059543}},{"type":"MultiPolygon","arcs":[[[44]],[[45]],[[46]]],"properties":{"name":"BARRANCA","gaul_code":1011969,"targetarea":17.1006042,"totpop":158289.519296,"country_id":"PER","targetpop":54625.3258781,"new_mean":0.0000203,"totalarea":1430.8525917}},{"type":"Polygon","arcs":[[47]],"properties":{"name":"FERREÂ¥AFE","gaul_code":1011970,"targetarea":6.3026742,"totpop":112011.209778,"country_id":"PER","targetpop":35922.1711426,"new_mean":0.0664685,"totalarea":1577.7828486}},{"type":"Polygon","arcs":[[48]],"properties":{"name":"CAMANA","gaul_code":1011978,"targetarea":2.7633626,"totpop":83405.0077023,"country_id":"PER","targetpop":7692.0405273,"new_mean":0.0386243,"totalarea":4005.3081965}},{"type":"Polygon","arcs":[[49]],"properties":{"name":"MORROPON","gaul_code":1011980,"targetarea":6.9019495,"totpop":157453.805121,"country_id":"PER","targetpop":28832.9251709,"new_mean":0.1107415,"totalarea":3811.8712826}},{"type":"MultiPolygon","arcs":[[[50]],[[51]],[[52]],[[53]]],"properties":{"name":"SATIPO","gaul_code":1011981,"targetarea":15.219207,"totpop":412884.203498,"country_id":"PER","targetpop":61365.2415771,"new_mean":0.0485218,"totalarea":19219.3136968}},{"type":"Polygon","arcs":[[54]],"properties":{"name":"SULLANA","gaul_code":1011985,"targetarea":28.1060877,"totpop":349367.560201,"country_id":"PER","targetpop":192908.782104,"new_mean":0.0835635,"totalarea":5280.97079}},{"type":"MultiPolygon","arcs":[[[55]],[[56]],[[57]]],"properties":{"name":"TRUJILLO","gaul_code":1011988,"targetarea":127.324074,"totpop":1115075.07615,"country_id":"PER","targetpop":996259.274174,"new_mean":0.0674918,"totalarea":1808.5999978}},{"type":"Polygon","arcs":[[58]],"properties":{"name":"CUTERVO","gaul_code":1011991,"targetarea":3.2338018,"totpop":134518.470465,"country_id":"PER","targetpop":13607.5062256,"new_mean":0.0680242,"totalarea":3030.2149411}},{"type":"Polygon","arcs":[[59]],"properties":{"name":"CORONEL PORTILLO","gaul_code":1012012,"targetarea":63.9615981,"totpop":481151.47487,"country_id":"PER","targetpop":329253.241943,"new_mean":0.0699337,"totalarea":39269.0770387}},{"type":"Polygon","arcs":[[60]],"properties":{"name":"CHUCUITO","gaul_code":1012014,"targetarea":4.7181248,"totpop":193791.007641,"country_id":"PER","targetpop":22338.0817871,"new_mean":0.0135905,"totalarea":3972.6468374}},{"type":"Polygon","arcs":[[61]],"properties":{"name":"MARISCAL NIETO","gaul_code":1012015,"targetarea":10.9076382,"totpop":92122.8784389,"country_id":"PER","targetpop":29880.5462646,"new_mean":0.0381433,"totalarea":8658.4109524}},{"type":"Polygon","arcs":[[62]],"properties":{"name":"HUARMEY","gaul_code":1012018,"targetarea":1.1496728,"totpop":32426.9931327,"country_id":"PER","targetpop":2881.3553467,"new_mean":0.0623688,"totalarea":4024.5982937}},{"type":"Polygon","arcs":[[63]],"properties":{"name":"SAN ROMAN","gaul_code":1012019,"targetarea":40.0415099,"totpop":339746.481075,"country_id":"PER","targetpop":272290.889648,"new_mean":0.0296802,"totalarea":2280.3077609}},{"type":"Polygon","arcs":[[64]],"properties":{"name":"PAITA","gaul_code":1012025,"targetarea":14.4368651,"totpop":147719.380158,"country_id":"PER","targetpop":68165.3597412,"new_mean":0.064428,"totalarea":1744.7497766}},{"type":"Polygon","arcs":[[65]],"properties":{"name":"UTCUBAMBA","gaul_code":1012041,"targetarea":5.1035841,"totpop":116872.326853,"country_id":"PER","targetpop":14000.1424561,"new_mean":0.0727907,"totalarea":3870.5892497}},{"type":"Polygon","arcs":[[66]],"properties":{"name":"HUAROCHIRI","gaul_code":1012045,"targetarea":2.6081835,"totpop":103941.654429,"country_id":"PER","targetpop":5898.8654785,"new_mean":0.0444879,"totalarea":5738.4347214}},{"type":"Polygon","arcs":[[67]],"properties":{"name":"MARISCAL CACERES","gaul_code":1012047,"targetarea":4.7156766,"totpop":52743.3997882,"country_id":"PER","targetpop":14943.6330566,"new_mean":0.11268,"totalarea":14435.3754368}},{"type":"Polygon","arcs":[[68]],"properties":{"name":"MELGAR","gaul_code":1012049,"targetarea":1.9158585,"totpop":78696.5385895,"country_id":"PER","targetpop":5849.5936279,"new_mean":0.0302869,"totalarea":6541.956321}},{"type":"MultiPolygon","arcs":[[[69]],[[70]],[[71]]],"properties":{"name":"SANTA","gaul_code":1012051,"targetarea":70.3196497,"totpop":457309.199513,"country_id":"PER","targetpop":333656.375412,"new_mean":0.0782934,"totalarea":4033.2616485}},{"type":"Polygon","arcs":[[72]],"properties":{"name":"PASCO","gaul_code":1012055,"targetarea":8.7938741,"totpop":188895.260619,"country_id":"PER","targetpop":42421.2081299,"new_mean":0.0000525,"totalarea":4752.155184}},{"type":"Polygon","arcs":[[73]],"properties":{"name":"BAGUA","gaul_code":1012057,"targetarea":2.8010244,"totpop":73195.3219025,"country_id":"PER","targetpop":10456.9069824,"new_mean":0.084774,"totalarea":5885.4109207}},{"type":"Polygon","arcs":[[74]],"properties":{"name":"HUAMANGA","gaul_code":1011826,"targetarea":33.1115518,"totpop":316781.884378,"country_id":"PER","targetpop":205287.701782,"new_mean":0.0363819,"totalarea":2958.334386}},{"type":"Polygon","arcs":[[75]],"properties":{"name":"ILO","gaul_code":1011827,"targetarea":12.8755737,"totpop":73349.6519027,"country_id":"PER","targetpop":48777.7803955,"new_mean":0.0572827,"totalarea":1368.0725548}},{"type":"Polygon","arcs":[[76]],"properties":{"name":"HUANCAVELICA","gaul_code":1011877,"targetarea":6.0323932,"totpop":176421.025579,"country_id":"PER","targetpop":26221.2768555,"new_mean":0.0420401,"totalarea":4188.5430282}},{"type":"Polygon","arcs":[[77]],"properties":{"name":"SANTA CRUZ","gaul_code":1011894,"targetarea":1.1595851,"totpop":44857.6070407,"country_id":"PER","targetpop":3556.8709717,"new_mean":0.072231,"totalarea":1383.3572915}},{"type":"MultiPolygon","arcs":[[[78]],[[79]],[[80]]],"properties":{"name":"CHANCHAMAYO","gaul_code":1011905,"targetarea":14.0292757,"totpop":265014.935892,"country_id":"PER","targetpop":80000.7479248,"new_mean":0.0517241,"totalarea":4674.9206494}},{"type":"MultiPolygon","arcs":[[[81]],[[82]]],"properties":{"name":"SAN MARTIN","gaul_code":1011982,"targetarea":26.0956506,"totpop":234834.156933,"country_id":"PER","targetpop":152687.974121,"new_mean":0.073542,"totalarea":5394.6305364}},{"type":"MultiPolygon","arcs":[[[83]],[[84]]],"properties":{"name":"RIOJA","gaul_code":1011984,"targetarea":8.8569423,"totpop":161392.633555,"country_id":"PER","targetpop":30827.7893066,"new_mean":0.0646349,"totalarea":2598.679715}},{"type":"Polygon","arcs":[[85]],"properties":{"name":"URUBAMBA","gaul_code":1012000,"targetarea":2.0766036,"totpop":69419.3233781,"country_id":"PER","targetpop":8819.2344971,"new_mean":0.0319396,"totalarea":1459.7961065}},{"type":"MultiPolygon","arcs":[[[86]],[[87]],[[88]],[[89]]],"properties":{"name":"CAJAMARCA","gaul_code":1011836,"targetarea":50.2719952,"totpop":438202.294375,"country_id":"PER","targetpop":248298.318848,"new_mean":0.071918,"totalarea":2978.0691856}},{"type":"Polygon","arcs":[[90]],"properties":{"name":"CHEPEN","gaul_code":1011879,"targetarea":8.0041994,"totpop":98108.8848498,"country_id":"PER","targetpop":31086.2769775,"new_mean":0.0363014,"totalarea":1136.5963629}},{"type":"Polygon","arcs":[[91]],"properties":{"name":"TUMBES","gaul_code":1011904,"targetarea":18.5919558,"totpop":166688.991701,"country_id":"PER","targetpop":89736.9985962,"new_mean":0.1011993,"totalarea":1779.2900382}},{"type":"Polygon","arcs":[[92]],"properties":{"name":"JAUJA","gaul_code":1011913,"targetarea":5.0153192,"totpop":83571.0678649,"country_id":"PER","targetpop":19378.1552734,"new_mean":0.0609193,"totalarea":4383.744024}},{"type":"Polygon","arcs":[[93]],"properties":{"name":"YUNGUYO","gaul_code":1011923,"targetarea":2.768243,"totpop":47533.8248539,"country_id":"PER","targetpop":8110.8077393,"new_mean":0.0275864,"totalarea":406.4465477}},{"type":"Polygon","arcs":[[94]],"properties":{"name":"CHOTA","gaul_code":1011853,"targetarea":3.1908417,"totpop":158599.777355,"country_id":"PER","targetpop":11562.0632324,"new_mean":0.0804215,"totalarea":3836.6824471}},{"type":"Polygon","arcs":[[95]],"properties":{"name":"TAMBOPATA","gaul_code":1011974,"targetarea":10.7435913,"totpop":127389.097101,"country_id":"PER","targetpop":48144.3762207,"new_mean":0.0870878,"totalarea":35409.2960909}},{"type":"Polygon","arcs":[[96]],"properties":{"name":"PUNO","gaul_code":1012036,"targetarea":22.652889,"totpop":261237.874108,"country_id":"PER","targetpop":116586.53064,"new_mean":0.031322,"totalarea":6802.4837391}},{"type":"Polygon","arcs":[[97]],"properties":{"name":"CAYLLOMA","gaul_code":1012037,"targetarea":19.4245555,"totpop":169570.26866,"country_id":"PER","targetpop":74473.184021,"new_mean":0.0204426,"totalarea":14062.7939146}},{"type":"Polygon","arcs":[[98]],"properties":{"name":"SANCHEZ CARRION","gaul_code":1011801,"targetarea":5.2766675,"totpop":169284.879398,"country_id":"PER","targetpop":22158.3811035,"new_mean":0.074297,"totalarea":2494.9560119}},{"type":"MultiPolygon","arcs":[[[99]],[[100]],[[101]],[[102]],[[103]]],"properties":{"name":"PIURA","gaul_code":1011804,"targetarea":89.5523208,"totpop":869802.849939,"country_id":"PER","targetpop":483466.163574,"new_mean":0.0804999,"totalarea":6149.8874422}},{"type":"Polygon","arcs":[[104]],"properties":{"name":"HUARAZ","gaul_code":1011809,"targetarea":15.609674,"totpop":179874.610744,"country_id":"PER","targetpop":84901.3979492,"new_mean":0.0661359,"totalarea":2501.1791954}},{"type":"Polygon","arcs":[[105]],"properties":{"name":"ABANCAY","gaul_code":1011856,"targetarea":8.2309635,"totpop":98165.3518753,"country_id":"PER","targetpop":33431.8408813,"new_mean":0.0525029,"totalarea":3461.3806769}},{"type":"MultiPolygon","arcs":[[[106,107]],[[108]],[[109]]],"properties":{"name":"LAMBAYEQUE","gaul_code":1011996,"targetarea":16.107794,"totpop":313829.396781,"country_id":"PER","targetpop":61116.4881592,"new_mean":0.0779265,"totalarea":9291.8036366}},{"type":"Polygon","arcs":[[110]],"properties":{"name":"YUNGAY","gaul_code":1011802,"targetarea":1.1527362,"totpop":60711.1155615,"country_id":"PER","targetpop":4746.4899902,"new_mean":0.0590494,"totalarea":1362.6825851}},{"type":"Polygon","arcs":[[111]],"properties":{"name":"CALCA","gaul_code":1011806,"targetarea":2.4977287,"totpop":76742.0535525,"country_id":"PER","targetpop":9505.6932373,"new_mean":0.0517748,"totalarea":3567.7570146}},{"type":"MultiPolygon","arcs":[[[112]],[[113]]],"properties":{"name":"CUSCO","gaul_code":1011811,"targetarea":61.9888851,"totpop":534127.248628,"country_id":"PER","targetpop":452249.504333,"new_mean":0.0308943,"totalarea":530.2267154}},{"type":"MultiPolygon","arcs":[[[114]],[[115]],[[116]]],"properties":{"name":"CAÂ¥ETE","gaul_code":1011812,"targetarea":18.7408653,"totpop":262905.980165,"country_id":"PER","targetpop":66300.3168945,"new_mean":0.0432276,"totalarea":4695.0967961}},{"type":"Polygon","arcs":[[117]],"properties":{"name":"ICA","gaul_code":1011819,"targetarea":57.7192962,"totpop":425193.346503,"country_id":"PER","targetpop":260710.969116,"new_mean":0.0368004,"totalarea":7911.2058743}},{"type":"Polygon","arcs":[[118]],"properties":{"name":"HUALLAGA","gaul_code":1011825,"targetarea":1.1588631,"totpop":28229.6453022,"country_id":"PER","targetpop":3012.8321533,"new_mean":0.0823147,"totalarea":2359.7226588}},{"type":"Polygon","arcs":[[119]],"properties":{"name":"CONCEPCION","gaul_code":1011828,"targetarea":2.2477794,"totpop":57726.532774,"country_id":"PER","targetpop":6642.0626221,"new_mean":0.065948,"totalarea":2248.9915437}},{"type":"Polygon","arcs":[[120]],"properties":{"name":"JAEN","gaul_code":1011831,"targetarea":8.7622741,"totpop":203417.917462,"country_id":"PER","targetpop":49662.4157715,"new_mean":0.0687984,"totalarea":5025.4992374}},{"type":"Polygon","arcs":[[121]],"properties":{"name":"PARINACOCHAS","gaul_code":1011838,"targetarea":1.1283253,"totpop":42575.8770172,"country_id":"PER","targetpop":3257.1901856,"new_mean":0.0425688,"totalarea":5950.7997866}},{"type":"Polygon","arcs":[[122]],"properties":{"name":"LEONCIO PRADO","gaul_code":1011839,"targetarea":7.8088886,"totpop":139182.176501,"country_id":"PER","targetpop":34632.3535156,"new_mean":0.1077578,"totalarea":4924.7465795}},{"type":"MultiPolygon","arcs":[[[123]],[[124,125]],[[126]],[[127]]],"properties":{"name":"AREQUIPA","gaul_code":1011845,"targetarea":181.9437928,"totpop":1131776.57607,"country_id":"PER","targetpop":913022.836426,"new_mean":0.0460357,"totalarea":9661.6310242}},{"type":"MultiPolygon","arcs":[[[128]],[[129]]],"properties":{"name":"HUARAL","gaul_code":1011906,"targetarea":20.3308938,"totpop":216516.95104,"country_id":"PER","targetpop":83191.6719971,"new_mean":0.0389375,"totalarea":3678.6531546}},{"type":"MultiPolygon","arcs":[[[130]],[[131]]],"properties":{"name":"TALARA","gaul_code":1011917,"targetarea":18.9796072,"totpop":130889.68496,"country_id":"PER","targetpop":65497.5941162,"new_mean":0.1050165,"totalarea":2921.6974867}},{"type":"Polygon","arcs":[[132]],"properties":{"name":"ZARUMILLA","gaul_code":1011918,"targetarea":10.6869567,"totpop":68042.9304421,"country_id":"PER","targetpop":32092.6646118,"new_mean":0.0894352,"totalarea":705.3856917}},{"type":"Polygon","arcs":[[133]],"properties":{"name":"HUANCANE","gaul_code":1011946,"targetarea":1.6918113,"totpop":61714.8243812,"country_id":"PER","targetpop":5624.0361328,"new_mean":0.0346194,"totalarea":2785.7025263}},{"type":"MultiPolygon","arcs":[[[-19,134]],[[-17,135]]],"properties":{"name":"CHUPACA","gaul_code":1011950,"targetarea":3.8476692,"totpop":55708.5981658,"country_id":"PER","targetpop":13293.7530518,"new_mean":0.0489085,"totalarea":1163.9868382}},{"type":"Polygon","arcs":[[136]],"properties":{"name":"CANCHIS","gaul_code":1011953,"targetarea":6.1629418,"totpop":99363.2387217,"country_id":"PER","targetpop":17524.7961426,"new_mean":0.0320008,"totalarea":3950.4673244}},{"type":"Polygon","arcs":[[137]],"properties":{"name":"ALTO AMAZONAS","gaul_code":1011992,"targetarea":5.7159491,"totpop":224589.559239,"country_id":"PER","targetpop":21018.3101807,"new_mean":0.0617668,"totalarea":66361.7726121}},{"type":"Polygon","arcs":[[138]],"properties":{"name":"NAZCA","gaul_code":1012003,"targetarea":5.8198504,"totpop":59497.019213,"country_id":"PER","targetpop":14100.4539185,"new_mean":0.0585678,"totalarea":5265.2497445}},{"type":"Polygon","arcs":[[139]],"properties":{"name":"CASMA","gaul_code":1012005,"targetarea":6.709433,"totpop":50247.8630037,"country_id":"PER","targetpop":15067.7622681,"new_mean":0.0706393,"totalarea":2334.5955563}},{"type":"MultiPolygon","arcs":[[[140]],[[141]],[[142]]],"properties":{"name":"ASCOPE","gaul_code":1012008,"targetarea":6.3975413,"totpop":120992.10095,"country_id":"PER","targetpop":20587.9890137,"new_mean":0.0697838,"totalarea":2619.8244751}},{"type":"MultiPolygon","arcs":[[[143]],[[144]],[[145]],[[146]],[[147]],[[148,-107]],[[149]]],"properties":{"name":"CHICLAYO","gaul_code":1012027,"targetarea":92.6280047,"totpop":900891.044803,"country_id":"PER","targetpop":662350.246948,"new_mean":0.0001219,"totalarea":3290.0950763}},{"type":"Polygon","arcs":[[150]],"properties":{"name":"HUANUCO","gaul_code":1012030,"targetarea":24.0581962,"totpop":325202.174047,"country_id":"PER","targetpop":139130.723389,"new_mean":0.0574405,"totalarea":4077.4867584}},{"type":"Polygon","arcs":[[151]],"properties":{"name":"LUCANAS","gaul_code":1012032,"targetarea":1.9418787,"totpop":81567.9682263,"country_id":"PER","targetpop":4890.5130615,"new_mean":0.0448695,"totalarea":14478.1521432}},{"type":"Polygon","arcs":[[152]],"properties":{"name":"HUALGAYOC","gaul_code":1012033,"targetarea":4.1751001,"totpop":106116.375291,"country_id":"PER","targetpop":12855.869751,"new_mean":0.0582699,"totalarea":783.6942356}},{"type":"Polygon","arcs":[[153]],"properties":{"name":"BELLAVISTA","gaul_code":1012034,"targetarea":1.158561,"totpop":81729.3676206,"country_id":"PER","targetpop":3523.8953857,"new_mean":0.0666283,"totalarea":7647.5741584}}]}},"arcs":[[[-76.7770919,-12.3730645],[-76.7862878,-12.3878594],[-76.7666671,-12.3920831],[-76.7770919,-12.3730645]],[[-76.8188888,-12.2632501],[-76.8273849,-12.255348],[-76.8367354,-12.280348],[-76.8502283,-12.2871514],[-76.8636153,-12.2677667],[-76.8867354,-12.2756443],[-76.8700688,-12.2871514],[-76.8580652,-12.3045424],[-76.8416671,-12.3087497],[-76.8284021,-12.2886814],[-76.8188888,-12.2632501]],[[-76.8546309,-12.2374525],[-76.8383468,-12.2244154],[-76.8608077,-12.1861911],[-76.8866703,-12.201393],[-76.8666834,-12.2353936],[-76.8546309,-12.2374525]],[[-76.7910323,-12.0992364],[-76.8284021,-12.1115574],[-76.8083337,-12.1254164],[-76.7910323,-12.0992364]],[[-76.7250004,-11.9504164],[-76.689421,-11.9467624],[-76.6802332,-11.922796],[-76.7158858,-11.9350355],[-76.7250004,-11.9504164]],[[-77.1733024,-11.8256244],[-77.1641159,-11.8269567],[-77.1487274,-11.8208027],[-77.1261139,-11.8202495],[-77.1162338,-11.8325329],[-77.1132736,-11.849863],[-77.0937347,-11.8755855],[-77.0900345,-11.9011812],[-77.0969238,-11.9238243],[-77.1029358,-11.9293556],[-77.0954819,-11.9498005],[-77.1084824,-11.9492321],[-77.1179276,-11.9559317],[-77.1131821,-11.9821405],[-77.1157761,-11.9959946],[-77.0962906,-12.0050154],[-77.0884399,-12.0161095],[-77.0955429,-12.0323419],[-77.0830612,-12.0396566],[-77.0881577,-12.0617895],[-77.1082687,-12.0635719],[-77.1068802,-12.0731792],[-77.112622,-12.083126]],[[-77.112622,-12.083126],[-77.0353113,-12.1315443],[-77.0366833,-12.1486145],[-77.0335159,-12.1661873],[-77.0376044,-12.1741184],[-77.0384444,-12.2121433],[-77.0006189,-12.2260349],[-76.9621912,-12.2376072],[-76.925863,-12.2578708],[-76.9040613,-12.2457045],[-76.8894942,-12.2626072],[-76.8787195,-12.2547865],[-76.8878097,-12.221559],[-76.896851,-12.1817641],[-76.9288578,-12.1243991],[-76.9149906,-12.0882256],[-76.8802169,-12.1123142],[-76.8775558,-12.1454441],[-76.8955245,-12.1609226],[-76.8875492,-12.163307],[-76.8666671,-12.1587497],[-76.8599044,-12.1046238],[-76.863713,-12.0740329],[-76.9147953,-12.0629815],[-76.8870365,-12.0550469],[-76.8507084,-12.0259861],[-76.8280115,-12.0393243],[-76.8092778,-12.0369968],[-76.7929366,-12.0165948],[-76.8068852,-11.9928643],[-76.7485518,-11.9761895],[-76.7379643,-11.9612807],[-76.8345626,-11.9748793],[-76.8453699,-11.9883803],[-76.881698,-11.9957859],[-76.8786056,-11.9709242],[-76.8896916,-11.9559458],[-76.8918537,-11.9569154],[-76.9060551,-11.9746433],[-76.9377364,-11.9707045],[-76.9500004,-11.9754164],[-76.9416671,-12.0004164],[-76.9702234,-11.9948419],[-76.9500004,-11.9754164],[-76.9459965,-11.9544203],[-76.9250167,-11.9119643],[-76.9494226,-11.8631524],[-76.9916671,-11.9087497],[-77.0055099,-11.8968275],[-76.994849,-11.8876478],[-76.9965011,-11.8670831],[-76.9941817,-11.8382012],[-77.0128097,-11.8298923],[-77.038949,-11.811362],[-77.0875004,-11.8152602],[-77.1405359,-11.8109958],[-77.1733024,-11.8256244]],[[-77.1588383,-11.7681898],[-77.1712676,-11.7612511],[-77.1743691,-11.7711738],[-77.1696619,-11.7879164],[-77.1722498,-11.7971124],[-77.1416671,-11.8004164],[-77.1588383,-11.7681898]],[[-75.4020919,-10.5647312],[-75.4112879,-10.5795261],[-75.3916671,-10.5837497],[-75.4020919,-10.5647312]],[[-77.1733024,-11.8256244],[-77.1784509,-11.8279229],[-77.1467208,-11.8726657],[-77.144491,-11.9004164],[-77.1461755,-11.9213718],[-77.1361251,-11.9768324],[-77.1401443,-12.0203304],[-77.1461258,-12.0430832],[-77.1455002,-12.0550566],[-77.1598997,-12.0722251],[-77.112622,-12.083126]],[[-73.4166671,-13.6587497],[-73.4091069,-13.668198],[-73.3528243,-13.6611911],[-73.3553146,-13.6412204],[-73.4166671,-13.6587497]],[[-78.6673263,-8.5309014],[-78.6869633,-8.5411798],[-78.6750004,-8.5504164],[-78.6673263,-8.5309014]],[[-78.7673263,-8.4142348],[-78.7869633,-8.4245131],[-78.7750004,-8.4337497],[-78.7673263,-8.4142348]],[[-78.7423263,-8.4059014],[-78.7619633,-8.4161798],[-78.7500004,-8.4254164],[-78.7423263,-8.4059014]],[[-72.6831466,-12.8666029],[-72.6943689,-12.8476169],[-72.7083745,-12.8753025],[-72.6916671,-12.8837497],[-72.6831466,-12.8666029]],[[-75.2315692,-12.0850169],[-75.2284835,-12.0872328],[-75.2203129,-12.1181898],[-75.1798507,-12.1025893],[-75.1869552,-12.018849],[-75.2001306,-12.0372328],[-75.213184,-12.0302667],[-75.2251306,-12.0136],[-75.238184,-12.0205661],[-75.2468347,-12.0429864],[-75.2758562,-12.0506414]],[[-75.2758562,-12.0506414],[-75.2694168,-12.0605001],[-75.2552808,-12.0590176]],[[-75.2552808,-12.0590176],[-75.2406254,-12.0561212],[-75.2387094,-12.0633809],[-75.2378996,-12.0664493],[-75.2368978,-12.0702452]],[[-75.2368978,-12.0702452],[-75.2315692,-12.0850169]],[[-75.2790043,-11.9401544],[-75.2946212,-11.9479994],[-75.2750004,-11.9587497],[-75.2790043,-11.9401544]],[[-76.1102869,-13.4199395],[-76.1134281,-13.4040622],[-76.0965173,-13.3919529],[-76.1137374,-13.3802667],[-76.1701502,-13.3922458],[-76.1631433,-13.4305352],[-76.1456303,-13.4270684],[-76.138184,-13.4552667],[-76.1102869,-13.4199395]],[[-76.1340336,-13.7100599],[-76.1529952,-13.6976169],[-76.1611332,-13.7155694],[-76.1416671,-13.7254164],[-76.1340336,-13.7100599]],[[-76.1876632,-13.721087],[-76.1714278,-13.7060479],[-76.2163578,-13.6964125],[-76.2208025,-13.7198535],[-76.1916671,-13.7254164],[-76.1876632,-13.721087]],[[-76.1437911,-13.6795912],[-76.1506515,-13.6655531],[-76.1694666,-13.6822361],[-76.1500004,-13.6920831],[-76.1437911,-13.6795912]],[[-69.4452316,-14.6146254],[-69.4528732,-14.636183],[-69.4416671,-14.6420831],[-69.4452316,-14.6146254]],[[-71.4116704,-14.7814792],[-71.4191655,-14.7957777],[-71.4083338,-14.8004164],[-71.4116704,-14.7814792]],[[-77.5713464,-11.0857436],[-77.5878097,-11.071559],[-77.602157,-11.0549086],[-77.6122074,-11.0882745],[-77.6302576,-11.0868259],[-77.6268803,-11.1288425],[-77.6000004,-11.1337497],[-77.5704757,-11.096502],[-77.5713464,-11.0857436]],[[-77.1951904,-12.1164484],[-77.2023544,-12.1030531],[-77.2121353,-12.097929],[-77.2274551,-12.0814915],[-77.2507677,-12.073589],[-77.242017,-12.0944187],[-77.2146326,-12.1133314],[-77.1951904,-12.1164484]],[[-73.2715987,-3.7788181],[-73.2461674,-3.7612644],[-73.2382654,-3.7186212],[-73.2613855,-3.7238051],[-73.2734705,-3.756113],[-73.2891118,-3.7801283],[-73.2750004,-3.7837498],[-73.2715987,-3.7788181]],[[-74.2366297,-12.9234633],[-74.2693933,-12.9290704],[-74.2597986,-12.9471775],[-74.2333338,-12.9504164],[-74.2366297,-12.9234633]],[[-70.1947433,-14.9010349],[-70.2111333,-14.9155694],[-70.1916671,-14.9254164],[-70.1947433,-14.9010349]],[[-78.1687585,-7.3230645],[-78.1779545,-7.3378595],[-78.1583337,-7.3420831],[-78.1687585,-7.3230645]],[[-78.1390385,-6.8554701],[-78.1537032,-6.8695896],[-78.1333337,-6.8754164],[-78.1390385,-6.8554701]],[[-75.6720382,-11.409059],[-75.6848881,-11.3973158],[-75.7004643,-11.4235935],[-75.6833338,-11.4337497],[-75.6720382,-11.409059]],[[-77.8631596,-6.2136651],[-77.8869633,-6.2341078],[-77.8583337,-6.2420831],[-77.8631596,-6.2136651]],[[-77.0955815,-6.1227797],[-77.1114343,-6.1458998],[-77.0916671,-6.1504164],[-77.0955815,-6.1227797]],[[-76.9595544,-6.0297947],[-76.9770431,-6.0220147],[-76.9867354,-6.0448907],[-76.9666671,-6.0587498],[-76.9595544,-6.0297947]],[[-78.0390385,-7.6138035],[-78.0537032,-7.6279229],[-78.0333337,-7.6337498],[-78.0390385,-7.6138035]],[[-79.503337,-7.4148126],[-79.5108321,-7.4291111],[-79.5000004,-7.4337498],[-79.503337,-7.4148126]],[[-79.5628703,-7.3933537],[-79.5700684,-7.407711],[-79.5416671,-7.4170831],[-79.5628703,-7.3933537]],[[-79.4723149,-7.298032],[-79.4945398,-7.3051283],[-79.4666671,-7.3087498],[-79.4723149,-7.298032]],[[-79.4628096,-7.2308526],[-79.4864343,-7.2464369],[-79.4583337,-7.2504164],[-79.4628096,-7.2308526]],[[-70.2353846,-18.0590752],[-70.2386153,-18.0330987],[-70.2046391,-17.9865817],[-70.2400069,-17.9633802],[-70.2836186,-18.035182],[-70.2703699,-18.0457858],[-70.2629643,-18.0717136],[-70.2416671,-18.0754164],[-70.2353846,-18.0590752]],[[-69.6304611,-16.0641208],[-69.6624191,-16.0847751],[-69.6250004,-16.0920831],[-69.6304611,-16.0641208]],[[-77.7116703,-10.7898126],[-77.7191654,-10.8041111],[-77.7083337,-10.8087497],[-77.7116703,-10.7898126]],[[-77.7384688,-10.7396254],[-77.7712976,-10.727337],[-77.7784021,-10.7626072],[-77.7500004,-10.7670831],[-77.7384688,-10.7396254]],[[-77.8140385,-10.6638035],[-77.8287032,-10.6779229],[-77.8083337,-10.6837497],[-77.8140385,-10.6638035]],[[-79.7730473,-6.6297214],[-79.7954838,-6.6226169],[-79.8027999,-6.6464858],[-79.7833337,-6.6504164],[-79.7730473,-6.6297214]],[[-72.7057052,-16.6138034],[-72.7203699,-16.6279229],[-72.7000004,-16.6337497],[-72.7057052,-16.6138034]],[[-80.1480473,-5.0880548],[-80.1704838,-5.0809503],[-80.1777999,-5.1048191],[-80.1583337,-5.1087498],[-80.1480473,-5.0880548]],[[-74.4770268,-11.4293959],[-74.4869796,-11.4142836],[-74.4944666,-11.4364516],[-74.4833338,-11.4420831],[-74.4770268,-11.4293959]],[[-74.517367,-11.3267266],[-74.5363285,-11.3142836],[-74.5444666,-11.3322361],[-74.5250004,-11.3420831],[-74.517367,-11.3267266]],[[-74.6265304,-11.2393894],[-74.6341069,-11.230348],[-74.6534021,-11.2619317],[-74.6333338,-11.2670831],[-74.6265304,-11.2393894]],[[-74.653337,-11.1981459],[-74.6608321,-11.2124444],[-74.6500004,-11.2170831],[-74.653337,-11.1981459]],[[-80.6698246,-4.8760837],[-80.7367354,-4.9119317],[-80.7030766,-4.9205662],[-80.7052576,-4.9302667],[-80.6916671,-4.9337498],[-80.6808435,-4.9180759],[-80.6593266,-4.9228936],[-80.6698246,-4.8760837]],[[-79.0750004,-8.0837497],[-79.1083337,-8.0837497],[-79.1083337,-8.0920831],[-79.0750004,-8.0920831],[-79.0750004,-8.0837497]],[[-78.9557052,-8.0804701],[-78.9703699,-8.0945896],[-78.9500004,-8.1004164],[-78.9557052,-8.0804701]],[[-79.0750004,-8.0837497],[-79.0599207,-8.0867934],[-79.0665694,-8.1004164],[-79.0563969,-8.1212497],[-79.0688891,-8.1468331],[-79.0465824,-8.1610528],[-79.0204594,-8.1482924],[-79.0138676,-8.1809503],[-78.9916671,-8.1837497],[-78.9946212,-8.1617039],[-79.0062992,-8.1552911],[-78.9946212,-8.1307956],[-78.988713,-8.0950372],[-78.9724532,-8.060947],[-79.0103113,-8.0401951],[-79.0398035,-8.0523533],[-79.0570235,-8.0209405],[-79.0779545,-8.0164809],[-79.0690759,-8.0380059],[-79.0829512,-8.0670831],[-79.0750004,-8.0837497]],[[-78.8122481,-6.3644464],[-78.828101,-6.3875665],[-78.8083337,-6.3920831],[-78.8122481,-6.3644464]],[[-74.5170903,-8.3754652],[-74.6026127,-8.3394464],[-74.6048344,-8.3670831],[-74.6035974,-8.3824721],[-74.6288578,-8.396559],[-74.6534672,-8.4075372],[-74.6049809,-8.4036472],[-74.5777592,-8.4188328],[-74.5416671,-8.4254164],[-74.5378097,-8.4126072],[-74.5170903,-8.3754652]],[[-69.0390625,-16.5728817],[-69.0367505,-16.5643563],[-69.0446925,-16.5517723],[-69.0539311,-16.5690524],[-69.0390625,-16.5728817]],[[-70.9583338,-17.2087497],[-70.9291915,-17.2039646],[-70.9204106,-17.2052585],[-70.9000004,-17.1837497],[-70.947201,-17.1865492],[-70.9583338,-17.2087497]],[[-78.153337,-10.0564792],[-78.1608321,-10.0707777],[-78.1500004,-10.0754164],[-78.153337,-10.0564792]],[[-70.1035161,-15.5048272],[-70.1047856,-15.4962497],[-70.0999272,-15.4634128],[-70.1423263,-15.4516045],[-70.1674728,-15.4667738],[-70.1613693,-15.5080743],[-70.1083338,-15.5170831],[-70.1035161,-15.5048272]],[[-81.0629968,-5.069614],[-81.0738502,-5.0704876],[-81.0902863,-5.083271],[-81.1086426,-5.0861931],[-81.1237942,-5.0815908],[-81.1288578,-5.1019627],[-81.0916671,-5.1087498],[-81.0629968,-5.069614]],[[-78.4250004,-5.7670831],[-78.4250004,-5.7504164],[-78.4500004,-5.7504164],[-78.4500004,-5.7670831],[-78.4250004,-5.7670831]],[[-76.6682281,-11.9225778],[-76.6583337,-11.9254164],[-76.6640385,-11.9054701],[-76.6769174,-11.9178701],[-76.6682281,-11.9225778]],[[-76.7186202,-7.1792413],[-76.7310144,-7.1642836],[-76.7444666,-7.1881524],[-76.7250004,-7.1920831],[-76.7186202,-7.1792413]],[[-70.5873377,-14.8734877],[-70.6029545,-14.8813327],[-70.5833338,-14.8920831],[-70.5873377,-14.8734877]],[[-78.4970544,-9.1073663],[-78.5462976,-9.0967136],[-78.5611007,-9.078224],[-78.5703699,-9.0457859],[-78.6015059,-9.0383803],[-78.6182525,-9.0781141],[-78.6040268,-9.0790787],[-78.5830815,-9.0885837],[-78.5618901,-9.1234714],[-78.5287032,-9.1374525],[-78.5129643,-9.1467136],[-78.4916671,-9.1504164],[-78.4970544,-9.1073663]],[[-78.6083337,-9.0337497],[-78.6083337,-9.0087497],[-78.6250004,-9.0087497],[-78.6250004,-9.0337497],[-78.6083337,-9.0337497]],[[-78.6021244,-8.9879246],[-78.6089848,-8.9738865],[-78.6277999,-8.9905694],[-78.6083337,-9.0004164],[-78.6021244,-8.9879246]],[[-76.2468266,-10.6952569],[-76.2359949,-10.6885837],[-76.2441248,-10.6624932],[-76.2529952,-10.6555759],[-76.2651046,-10.6911146],[-76.2500004,-10.7004164],[-76.2468266,-10.6952569]],[[-78.5255538,-5.6245131],[-78.5444666,-5.6385756],[-78.5166671,-5.6420831],[-78.5255538,-5.6245131]],[[-74.2051599,-13.1952569],[-74.1948409,-13.1805759],[-74.1884933,-13.1487156],[-74.2296716,-13.1262953],[-74.2448409,-13.1445896],[-74.2276534,-13.1968438],[-74.2083338,-13.2087497],[-74.2051599,-13.1952569]],[[-71.3215174,-17.6622328],[-71.3059331,-17.6510511],[-71.3355636,-17.6219333],[-71.343151,-17.6325222],[-71.3430176,-17.6441479],[-71.3553989,-17.6590636],[-71.3250004,-17.667083],[-71.3215174,-17.6622328]],[[-74.9604496,-12.7775323],[-75.0021163,-12.7772393],[-74.9898523,-12.7899428],[-74.9583338,-12.7920831],[-74.9604496,-12.7775323]],[[-78.9450037,-6.6148126],[-78.9524988,-6.6291111],[-78.9416671,-6.6337498],[-78.9450037,-6.6148126]],[[-75.3506596,-11.1142348],[-75.3702966,-11.1245131],[-75.3583338,-11.1337497],[-75.3506596,-11.1142348]],[[-75.3222416,-11.0478204],[-75.3452234,-11.0665704],[-75.3333338,-11.0754164],[-75.3222416,-11.0478204]],[[-74.8619145,-10.9187758],[-74.8946375,-10.9054213],[-74.8864913,-10.9377618],[-74.8583338,-10.9420831],[-74.8619145,-10.9187758]],[[-76.2027999,-6.6865492],[-76.2277999,-6.686476],[-76.2000004,-6.7004164],[-76.2027999,-6.6865492]],[[-76.3546309,-6.5124526],[-76.330225,-6.4929132],[-76.3566166,-6.4717787],[-76.4026534,-6.4633803],[-76.3736658,-6.5126967],[-76.3583337,-6.5170831],[-76.3546309,-6.5124526]],[[-77.1569096,-6.0557957],[-77.1703129,-6.0476169],[-77.1777999,-6.0697849],[-77.1666671,-6.0754164],[-77.1569096,-6.0557957]],[[-77.3087895,-5.9219659],[-77.3205977,-5.9440525],[-77.3000004,-5.9504164],[-77.3087895,-5.9219659]],[[-72.1111332,-13.3032159],[-72.1361332,-13.3031426],[-72.1083338,-13.3170831],[-72.1111332,-13.3032159]],[[-78.4802738,-7.170615],[-78.4593184,-7.1627781],[-78.4882654,-7.1553481],[-78.4950688,-7.1454848],[-78.5189783,-7.1303481],[-78.5367354,-7.1548923],[-78.5111007,-7.1879815],[-78.4750004,-7.1920831],[-78.4802738,-7.170615]],[[-78.5942957,-7.0407403],[-78.6101567,-7.0560561],[-78.5916671,-7.0587498],[-78.5942957,-7.0407403]],[[-78.532463,-6.988307],[-78.570671,-6.9752862],[-78.5781742,-6.9968113],[-78.5250004,-7.0004164],[-78.532463,-6.988307]],[[-78.4944666,-6.9782159],[-78.5117598,-6.9564467],[-78.5418217,-6.9711358],[-78.5057947,-6.9892348],[-78.4916671,-6.9920831],[-78.4944666,-6.9782159]],[[-79.4098474,-7.2271824],[-79.4442875,-7.2139825],[-79.4361739,-7.2376235],[-79.4166671,-7.2420831],[-79.4098474,-7.2271824]],[[-80.4048507,-3.5572442],[-80.451921,-3.5469334],[-80.4701501,-3.5716729],[-80.4416671,-3.5920831],[-80.4381433,-3.5702976],[-80.4218022,-3.5735284],[-80.4048507,-3.5572442]],[[-75.4877201,-11.7728855],[-75.5109542,-11.7639825],[-75.5028406,-11.7876234],[-75.4833338,-11.7920831],[-75.4877201,-11.7728855]],[[-69.0890385,-16.2388034],[-69.1037032,-16.2529229],[-69.0833338,-16.2587497],[-69.0890385,-16.2388034]],[[-78.6478276,-6.5471449],[-78.6705977,-6.5581475],[-78.6416671,-6.5670831],[-78.6478276,-6.5471449]],[[-69.1751958,-12.5893731],[-69.2002609,-12.5720635],[-69.2192306,-12.5995375],[-69.1833338,-12.6087497],[-69.1751958,-12.5893731]],[[-70.0104334,-15.8161797],[-70.0450688,-15.8084161],[-70.0379724,-15.839959],[-70.0080734,-15.8832614],[-69.9872644,-15.8785984],[-69.9784021,-15.8704847],[-70.0028491,-15.8540262],[-70.0148773,-15.8512993],[-70.0187607,-15.8296499],[-70.0104334,-15.8161797]],[[-72.1884933,-16.3702569],[-72.1675216,-16.344378],[-72.176685,-16.3149753],[-72.2031743,-16.3268405],[-72.1945235,-16.3546075],[-72.2057622,-16.3887627],[-72.1916671,-16.392083],[-72.1884933,-16.3702569]],[[-78.0411951,-7.7971775],[-78.0619633,-7.8205499],[-78.0333337,-7.8254164],[-78.0411951,-7.7971775]],[[-80.7523444,-5.404406],[-80.7333337,-5.4087498],[-80.7372481,-5.381113],[-80.7522566,-5.4030017],[-80.7523444,-5.404406]],[[-80.6599695,-5.261948],[-80.6773767,-5.2559503],[-80.6861332,-5.2714858],[-80.6666671,-5.2754164],[-80.6599695,-5.261948]],[[-80.6598311,-5.1523777],[-80.6872644,-5.1639011],[-80.7034021,-5.1602878],[-80.6860844,-5.1927586],[-80.6630375,-5.2086765],[-80.6543949,-5.2317804],[-80.6458337,-5.219378],[-80.6382654,-5.2303481],[-80.6083337,-5.2337498],[-80.614779,-5.2075046],[-80.5715987,-5.1913507],[-80.5867354,-5.1788181],[-80.604932,-5.1720147],[-80.6180424,-5.1530206],[-80.6375004,-5.1573826],[-80.6598311,-5.1523777]],[[-80.3381352,-4.9053969],[-80.3538578,-4.9359063],[-80.3333337,-4.9420831],[-80.3381352,-4.9053969]],[[-80.2339929,-4.6475681],[-80.25363,-4.6578464],[-80.2416671,-4.6670831],[-80.2339929,-4.6475681]],[[-77.5057052,-9.518906],[-77.5359542,-9.4886],[-77.545671,-9.5312595],[-77.5250004,-9.5504164],[-77.5057052,-9.518906]],[[-72.8797042,-13.6457126],[-72.8653976,-13.6346693],[-72.8728439,-13.6134535],[-72.90363,-13.6447605],[-72.8833338,-13.6504164],[-72.8797042,-13.6457126]],[[-79.8915831,-6.7285284],[-79.8816698,-6.7257602]],[[-79.8816698,-6.7257602],[-79.9005619,-6.6857273],[-79.9290043,-6.7010837],[-79.8915831,-6.7285284]],[[-80.0116703,-6.5314792],[-80.0191654,-6.5457778],[-80.0083337,-6.5504164],[-80.0116703,-6.5314792]],[[-79.852629,-6.4990736],[-79.86849,-6.5143894],[-79.8500004,-6.5170831],[-79.852629,-6.4990736]],[[-77.7450037,-9.1314792],[-77.7524988,-9.1457777],[-77.7416671,-9.1504164],[-77.7450037,-9.1314792]],[[-71.9540043,-13.3151544],[-71.9696212,-13.3229994],[-71.9500004,-13.3337497],[-71.9540043,-13.3151544]],[[-71.8621912,-13.5459405],[-71.8927657,-13.5267836],[-71.9639734,-13.505348],[-72.0174565,-13.496559],[-71.9888513,-13.5478448],[-71.8583338,-13.5587497],[-71.8621912,-13.5459405]],[[-72.0514345,-13.4972267],[-72.0333338,-13.5004164],[-72.0378585,-13.489837],[-72.0514477,-13.4965221],[-72.0514345,-13.4972267]],[[-76.2922205,-13.2328464],[-76.3111332,-13.2469089],[-76.2833337,-13.2504164],[-76.2922205,-13.2328464]],[[-76.3718266,-13.0785902],[-76.3338871,-13.065667],[-76.3494552,-13.0434828],[-76.3656824,-13.0485365],[-76.3609379,-13.0637709],[-76.3884933,-13.0702569],[-76.3948409,-13.0790785],[-76.3750004,-13.0837497],[-76.3718266,-13.0785902]],[[-76.6228276,-12.6471449],[-76.6455977,-12.6581475],[-76.6166671,-12.6670831],[-76.6228276,-12.6471449]],[[-75.6833338,-14.0670831],[-75.6874923,-14.0305189],[-75.710824,-14.0252862],[-75.7208337,-14.0397881],[-75.7321619,-14.0233819],[-75.7645838,-14.0161146],[-75.7614425,-14.0301446],[-75.7722823,-14.0376234],[-75.7525069,-14.0680027],[-75.7562992,-14.0849135],[-75.721143,-14.1121514],[-75.7006921,-14.0973565],[-75.7200199,-14.0840101],[-75.7027104,-14.058945],[-75.6833338,-14.0670831]],[[-76.7700037,-6.9231459],[-76.7774988,-6.9374444],[-76.7666671,-6.9420831],[-76.7700037,-6.9231459]],[[-75.3140385,-11.9054701],[-75.3287032,-11.9195896],[-75.3083338,-11.9254164],[-75.3140385,-11.9054701]],[[-78.7916671,-5.7337498],[-78.7955652,-5.6985772],[-78.8196374,-5.6887546],[-78.8116459,-5.7204604],[-78.7916671,-5.7337498]],[[-73.778337,-15.0064792],[-73.7858321,-15.0207777],[-73.7750004,-15.0254164],[-73.778337,-15.0064792]],[[-75.9868005,-9.2874525],[-76.0025151,-9.2801202],[-76.0119633,-9.3114272],[-75.9916671,-9.3170831],[-75.9868005,-9.2874525]],[[-71.5166671,-16.4837497],[-71.5083907,-16.4948744],[-71.4881108,-16.4722751],[-71.5166671,-16.4837497]],[[-71.5166671,-16.4837497],[-71.511768,-16.4549248],[-71.4702967,-16.4301202],[-71.4592208,-16.4157728],[-71.4880375,-16.3801202],[-71.4952967,-16.3623793],[-71.5337,-16.3356703],[-71.5201664,-16.3132419],[-71.5218673,-16.3017592],[-71.5679285,-16.315195],[-71.5877446,-16.3122653],[-71.6000004,-16.3170831]],[[-71.6000004,-16.3170831],[-71.60363,-16.3301202],[-71.619906,-16.3426771],[-71.5813155,-16.3657566],[-71.5967127,-16.4049167],[-71.5701502,-16.4208021],[-71.5751225,-16.4544447],[-71.5461593,-16.471917],[-71.5371668,-16.4705824],[-71.5166671,-16.4837497]],[[-71.6000004,-16.3170831],[-71.6068038,-16.3072198],[-71.6282231,-16.292433],[-71.6367355,-16.3076592],[-71.6000004,-16.3170831]],[[-71.678337,-16.2481459],[-71.6858321,-16.2624444],[-71.6750004,-16.2670831],[-71.678337,-16.2481459]],[[-77.2635095,-11.5531508],[-77.2806319,-11.5552829],[-77.2748184,-11.5779963],[-77.2753296,-11.5855885],[-77.2500004,-11.6004164],[-77.2635095,-11.5531508]],[[-77.1944666,-11.4865492],[-77.2232182,-11.4809503],[-77.2361332,-11.5055434],[-77.1916671,-11.5087497],[-77.1944666,-11.4865492]],[[-81.2458337,-4.5837335],[-81.2633386,-4.572088],[-81.2699955,-4.5537449],[-81.2797775,-4.5518827],[-81.2771072,-4.573287],[-81.283989,-4.5767112],[-81.2916008,-4.5968579],[-81.2416671,-4.6004164],[-81.2458337,-4.5837335]],[[-81.1239396,-4.1704822],[-81.1345825,-4.1790609],[-81.1166671,-4.1837498],[-81.1239396,-4.1704822]],[[-80.2323207,-3.4886686],[-80.2388023,-3.4678091],[-80.2628096,-3.4792739],[-80.2871912,-3.502573],[-80.2666671,-3.5087498],[-80.2482589,-3.4873875],[-80.2323207,-3.4886686]],[[-69.7616704,-15.1898125],[-69.7691655,-15.204111],[-69.7583338,-15.2087497],[-69.7616704,-15.1898125]],[[-75.2368978,-12.0702452],[-75.2333338,-12.0837497],[-75.2315692,-12.0850169]],[[-75.2758562,-12.0506414],[-75.2951502,-12.0557305],[-75.2867436,-12.0652357],[-75.2552808,-12.0590176]],[[-71.221615,-14.2465508],[-71.2419845,-14.2677585],[-71.2166671,-14.2920831],[-71.221615,-14.2465508]],[[-76.1031254,-5.8831964],[-76.1277267,-5.8874037],[-76.1183191,-5.905169],[-76.1000004,-5.9087498],[-76.1031254,-5.8831964]],[[-74.925269,-14.8175713],[-74.9482996,-14.822739],[-74.9448979,-14.8379164],[-74.9469242,-14.8469333],[-74.9333338,-14.8504164],[-74.925269,-14.8175713]],[[-78.2868412,-9.4714776],[-78.2907638,-9.4467869],[-78.30363,-9.4634535],[-78.3197839,-9.475921],[-78.2916671,-9.4837497],[-78.2868412,-9.4714776]],[[-79.2200037,-7.8814792],[-79.2274988,-7.8957777],[-79.2166671,-7.9004164],[-79.2200037,-7.8814792]],[[-79.1854252,-7.7313979],[-79.1946212,-7.7461928],[-79.1750004,-7.7504164],[-79.1854252,-7.7313979]],[[-79.3004561,-7.7136326],[-79.3122644,-7.7357192],[-79.2916671,-7.7420831],[-79.3004561,-7.7136326]],[[-79.5506596,-6.8809014],[-79.5702966,-6.8911798],[-79.5583337,-6.9004164],[-79.5506596,-6.8809014]],[[-79.9087162,-6.8743341],[-79.9215069,-6.8768772],[-79.914037,-6.8862118],[-79.9087162,-6.8743341]],[[-79.8687585,-6.8647312],[-79.8779545,-6.8795261],[-79.8583337,-6.8837498],[-79.8687585,-6.8647312]],[[-79.828337,-6.8314792],[-79.8358321,-6.8457777],[-79.8250004,-6.8504164],[-79.828337,-6.8314792]],[[-79.6916671,-6.7587498],[-79.6916671,-6.7337498],[-79.7083337,-6.7337498],[-79.7083337,-6.7587498],[-79.6916671,-6.7587498]],[[-79.8915831,-6.7285284],[-79.8790043,-6.7377537],[-79.8709965,-6.7479262],[-79.8953536,-6.7939711],[-79.8623376,-6.8044203],[-79.8543298,-6.8130792],[-79.8250004,-6.8254164],[-79.8206628,-6.8046889],[-79.8213464,-6.7874526],[-79.770671,-6.7714125],[-79.7626632,-6.7646661],[-79.804338,-6.7547377],[-79.8037927,-6.7409845],[-79.8816698,-6.7257602]],[[-79.6354252,-6.7230645],[-79.6446212,-6.7378595],[-79.6250004,-6.7420831],[-79.6354252,-6.7230645]],[[-76.2377364,-9.9626804],[-76.2127446,-9.8930271],[-76.2513106,-9.9068699],[-76.2622644,-9.9570082],[-76.2416671,-9.9754164],[-76.2377364,-9.9626804]],[[-74.1192957,-14.6824069],[-74.1351567,-14.6977227],[-74.1166671,-14.7004164],[-74.1192957,-14.6824069]],[[-78.5104578,-6.6795912],[-78.5173181,-6.6655531],[-78.5361332,-6.6822361],[-78.5166671,-6.6920831],[-78.5104578,-6.6795912]],[[-76.5866703,-7.0481459],[-76.5941655,-7.0624444],[-76.5833337,-7.0670831],[-76.5866703,-7.0481459]]],"bbox":[-81.2916008,-18.0754164,-69.0367505,-3.4678091]}