{"type":"Topology","objects":{"foo":{"type":"GeometryCollection","geometries":[{"type":"MultiPolygon","arcs":[[[0,1]],[[2,3,4]],[[5]]],"properties":{"name":"Cambyreta","gaul_code":23913,"targetarea":10.9362873,"totpop":65603.0581647,"country_id":"PRY","targetpop":26738.694519,"totalarea":197.3110969,"new_mean":0.0167705}},{"type":"Polygon","arcs":[[6]],"properties":{"name":"Carapegua","gaul_code":23972,"targetarea":2.072932,"totpop":36502.3216014,"country_id":"PRY","targetpop":4854.8062744,"totalarea":490.2028921,"new_mean":0.0162233}},{"type":"Polygon","arcs":[[7,8,9]],"properties":{"name":"Ypane","gaul_code":23867,"targetarea":12.4988758,"totpop":59464.0247345,"country_id":"PRY","targetpop":27198.0297852,"totalarea":46.7623609,"new_mean":0.015787}},{"type":"Polygon","arcs":[[10]],"properties":{"name":"Pedro Juan Caballero","gaul_code":23808,"targetarea":16.3511437,"totpop":127298.387838,"country_id":"PRY","targetpop":34929.8587646,"totalarea":5128.7960966,"new_mean":0.0126529}},{"type":"MultiPolygon","arcs":[[[11]],[[12,13,14]],[[15]]],"properties":{"name":"Hernandarias","gaul_code":23790,"targetarea":16.0349114,"totpop":95432.7695297,"country_id":"PRY","targetpop":28393.0348511,"totalarea":1462.1911886,"new_mean":0.0138544}},{"type":"MultiPolygon","arcs":[[[16]],[[17]]],"properties":{"name":"Chore","gaul_code":23992,"targetarea":1.0689575,"totpop":51351.6263275,"country_id":"PRY","targetpop":2685.6756592,"totalarea":1003.2174905,"new_mean":0.0146848}},{"type":"Polygon","arcs":[[18]],"properties":{"name":"Ypacarai","gaul_code":23866,"targetarea":0.5293925,"totpop":31669.5702028,"country_id":"PRY","targetpop":1301.7625732,"totalarea":111.6868346,"new_mean":0.0160011}},{"type":"Polygon","arcs":[[18]],"properties":{"name":"Ypacarai","gaul_code":23866,"targetarea":0.5293925,"totpop":31669.5702028,"country_id":"PRY","targetpop":1301.7625732,"totalarea":111.6868346,"new_mean":0.0150796}},{"type":"MultiPolygon","arcs":[[[19,20,21]],[[22,23,24]]],"properties":{"name":"Aregua","gaul_code":23848,"targetarea":18.5709868,"totpop":84769.485322,"country_id":"PRY","targetpop":40805.8756714,"totalarea":105.3204386,"new_mean":0.015275}},{"type":"Polygon","arcs":[[25,26,27,28,29,30,31]],"properties":{"name":"San Lorenzo","gaul_code":23863,"targetarea":56.1429956,"totpop":288865.839111,"country_id":"PRY","targetpop":287670.284912,"totalarea":56.6748222,"new_mean":0.0162726}},{"type":"Polygon","arcs":[[32]],"properties":{"name":"Ybycui","gaul_code":23984,"targetarea":0.5267152,"totpop":24948.1460752,"country_id":"PRY","targetpop":1346.6800537,"totalarea":815.549863,"new_mean":0.0147762}},{"type":"Polygon","arcs":[[33]],"properties":{"name":"Tomas Romero P.","gaul_code":23939,"targetarea":0.5244627,"totpop":31263.2609582,"country_id":"PRY","targetpop":1365.1181641,"totalarea":630.2806348,"new_mean":0.016347}},{"type":"Polygon","arcs":[[34]],"properties":{"name":"Caacupe","gaul_code":23879,"targetarea":8.6278868,"totpop":56732.6951103,"country_id":"PRY","targetpop":18941.9686279,"totalarea":116.7278667,"new_mean":0.0151681}},{"type":"Polygon","arcs":[[35]],"properties":{"name":"S.pedro De Ycuamandyyu","gaul_code":23998,"targetarea":0.5349046,"totpop":36211.6544124,"country_id":"PRY","targetpop":1280.3363037,"totalarea":3237.7635055,"new_mean":0.0155113}},{"type":"Polygon","arcs":[[36]],"properties":{"name":"J.e. Oleary","gaul_code":23792,"targetarea":1.0446776,"totpop":28543.9372431,"country_id":"PRY","targetpop":3464.006958,"totalarea":233.3188092,"new_mean":0.0151513}},{"type":"Polygon","arcs":[[37,38,39,-27]],"properties":{"name":"Fdo. De La Mora","gaul_code":23851,"targetarea":20.7195356,"totpop":175821.647461,"country_id":"PRY","targetpop":175821.647461,"totalarea":20.7195356,"new_mean":0.0178687}},{"type":"Polygon","arcs":[[40]],"properties":{"name":"Villarica","gaul_code":23909,"targetarea":13.8917949,"totpop":73590.1185036,"country_id":"PRY","targetpop":40193.2966919,"totalarea":315.957781,"new_mean":0.0164928}},{"type":"Polygon","arcs":[[41]],"properties":{"name":"Santa Rosa","gaul_code":23949,"targetarea":0.5228502,"totpop":18094.7951899,"country_id":"PRY","targetpop":1294.9368897,"totalarea":831.6012291,"new_mean":0.0137979}},{"type":"MultiPolygon","arcs":[[[42,43]],[[44,45]]],"properties":{"name":"Pte. Franco","gaul_code":23800,"targetarea":20.0858014,"totpop":96464.3668118,"country_id":"PRY","targetpop":60326.1466064,"totalarea":120.7275262,"new_mean":0.0157361}},{"type":"Polygon","arcs":[[-25,46,-32,47,-30,48,49,50,51,52,53,-21,54]],"properties":{"name":"Capiata","gaul_code":23850,"targetarea":74.4693355,"totpop":258522.624634,"country_id":"PRY","targetpop":252476.220581,"totalarea":77.5986378,"new_mean":0.0156589}},{"type":"Polygon","arcs":[[55]],"properties":{"name":"Quiindy","gaul_code":23978,"targetarea":1.785132,"totpop":21428.0818174,"country_id":"PRY","targetpop":3896.619751,"totalarea":624.579496,"new_mean":0.015556}},{"type":"Polygon","arcs":[[56]],"properties":{"name":"Pilar","gaul_code":23963,"targetarea":4.9540216,"totpop":33436.1770006,"country_id":"PRY","targetpop":11158.7504883,"totalarea":332.0924701,"new_mean":0.0150658}},{"type":"Polygon","arcs":[[57,-1,58,-4]],"properties":{"name":"Encarnacion","gaul_code":23920,"targetarea":29.9081356,"totpop":135512.565215,"country_id":"PRY","targetpop":77886.5717773,"totalarea":322.0003722,"new_mean":0.0175356}},{"type":"MultiPolygon","arcs":[[[59]],[[60,-52,61]],[[-22,-54,62]]],"properties":{"name":"Itaugua","gaul_code":23854,"targetarea":25.0789685,"totpop":116138.701232,"country_id":"PRY","targetpop":58996.2498779,"totalarea":113.4819721,"new_mean":0.015354}},{"type":"Polygon","arcs":[[63]],"properties":{"name":"Bella Vista","gaul_code":23806,"targetarea":1.1034318,"totpop":18672.370047,"country_id":"PRY","targetpop":1340.8891602,"totalarea":3781.3446099,"new_mean":0.0159575}},{"type":"Polygon","arcs":[[64]],"properties":{"name":"Caaguazu","gaul_code":23813,"targetarea":16.2459413,"totpop":126683.592001,"country_id":"PRY","targetpop":39764.5767822,"totalarea":959.2009858,"new_mean":0.0139731}},{"type":"Polygon","arcs":[[65]],"properties":{"name":"Mallorquin","gaul_code":23794,"targetarea":1.815866,"totpop":24188.5476427,"country_id":"PRY","targetpop":4206.2962647,"totalarea":251.6001409,"new_mean":0.0147575}},{"type":"Polygon","arcs":[[66]],"properties":{"name":"Salto Del Guaira","gaul_code":23845,"targetarea":3.1913723,"totpop":39681.5200455,"country_id":"PRY","targetpop":4816.2497559,"totalarea":1664.7178746,"new_mean":0}},{"type":"Polygon","arcs":[[66]],"properties":{"name":"Salto Del Guaira","gaul_code":23845,"targetarea":3.1913723,"totpop":39681.5200455,"country_id":"PRY","targetpop":4816.2497559,"totalarea":1664.7178746,"new_mean":0.013698}},{"type":"Polygon","arcs":[[67]],"properties":{"name":"Capitan Bado","gaul_code":23807,"targetarea":0.3356056,"totpop":26745.5107876,"country_id":"PRY","targetpop":0,"totalarea":3756.5964787,"new_mean":0.0117756}},{"type":"Polygon","arcs":[[67]],"properties":{"name":"Capitan Bado","gaul_code":23807,"targetarea":0.3356056,"totpop":26745.5107876,"country_id":"PRY","targetpop":0,"totalarea":3756.5964787,"new_mean":0.0083898}},{"type":"Polygon","arcs":[[-40,68,69,70,71,72,-28]],"properties":{"name":"Villa Elisa","gaul_code":23864,"targetarea":19.2889685,"totpop":82143.215332,"country_id":"PRY","targetpop":0,"totalarea":20.4673906,"new_mean":0.017115}},{"type":"Polygon","arcs":[[73]],"properties":{"name":"Coronel Oviedo","gaul_code":23816,"targetarea":18.1307558,"totpop":124213.634219,"country_id":"PRY","targetpop":47685.6998291,"totalarea":859.6545971,"new_mean":0.0159113}},{"type":"Polygon","arcs":[[73]],"properties":{"name":"Coronel Oviedo","gaul_code":23816,"targetarea":18.1307558,"totpop":124213.634219,"country_id":"PRY","targetpop":47685.6998291,"totalarea":859.6545971,"new_mean":0.0154171}},{"type":"Polygon","arcs":[[74]],"properties":{"name":"San Ignacio","gaul_code":23944,"targetarea":1.0319071,"totpop":33870.0274232,"country_id":"PRY","targetpop":3548.7532959,"totalarea":1515.1623502,"new_mean":0.0139358}},{"type":"Polygon","arcs":[[75]],"properties":{"name":"Villeta","gaul_code":23865,"targetarea":1.0374306,"totpop":41054.0657089,"country_id":"PRY","targetpop":2533.1044922,"totalarea":824.5509951,"new_mean":0.0135103}},{"type":"MultiPolygon","arcs":[[[76,77,78,79,80]],[[81]],[[82,83]]],"properties":{"name":"Limpio","gaul_code":23857,"targetarea":47.3192998,"totpop":157772.769913,"country_id":"PRY","targetpop":113628.806946,"totalarea":122.8596171,"new_mean":0.0162434}},{"type":"Polygon","arcs":[[84]],"properties":{"name":"San Jose De Los Arroyos","gaul_code":23827,"targetarea":0.5288547,"totpop":20095.5617704,"country_id":"PRY","targetpop":1271.4381103,"totalarea":496.840339,"new_mean":0.017022}},{"type":"Polygon","arcs":[[85]],"properties":{"name":"Elizardo Aquino","gaul_code":23993,"targetarea":0.5334321,"totpop":24772.1472332,"country_id":"PRY","targetpop":1319.151001,"totalarea":813.1341965,"new_mean":0.0153247}},{"type":"Polygon","arcs":[[86]],"properties":{"name":"Coronel Bogado","gaul_code":23918,"targetarea":0.5215988,"totpop":21675.060527,"country_id":"PRY","targetpop":1425.5281982,"totalarea":552.9279469,"new_mean":0.0154131}},{"type":"Polygon","arcs":[[87]],"properties":{"name":"Tobati","gaul_code":23893,"targetarea":2.3781372,"totpop":33837.0334406,"country_id":"PRY","targetpop":7045.4127197,"totalarea":269.2459046,"new_mean":0.0174324}},{"type":"Polygon","arcs":[[88]],"properties":{"name":"Caazapa","gaul_code":23833,"targetarea":1.0380137,"totpop":26609.4178813,"country_id":"PRY","targetpop":2878.7675781,"totalarea":866.3966501,"new_mean":0.015938}},{"type":"Polygon","arcs":[[89,90,91,-69,-39,92],[93]],"properties":{"name":"Asuncion","gaul_code":23849,"targetarea":102.9785694,"totpop":548227.808914,"country_id":"PRY","targetpop":523210.17041,"totalarea":129.681547,"new_mean":0.0183334}},{"type":"Polygon","arcs":[[-79,94,-93,-38,-26,-47,-24,95,-81,96]],"properties":{"name":"Luque","gaul_code":23858,"targetarea":87.1082997,"totpop":304402.210457,"country_id":"PRY","targetpop":272081.870972,"totalarea":148.0929373,"new_mean":0.0162755}},{"type":"Polygon","arcs":[[97]],"properties":{"name":"Piribebuy","gaul_code":23889,"targetarea":1.7926107,"totpop":29461.1173859,"country_id":"PRY","targetpop":4493.4085693,"totalarea":189.2416892,"new_mean":0.0149333}},{"type":"Polygon","arcs":[[97]],"properties":{"name":"Piribebuy","gaul_code":23889,"targetarea":1.7926107,"totpop":29461.1173859,"country_id":"PRY","targetpop":4493.4085693,"totalarea":189.2416892,"new_mean":0.0146377}},{"type":"Polygon","arcs":[[-29,-73,98,-9,99,-49]],"properties":{"name":"Nemby","gaul_code":23860,"targetarea":25.5018083,"totpop":137342.608032,"country_id":"PRY","targetpop":137342.608032,"totalarea":26.0202713,"new_mean":0.0160986}},{"type":"MultiPolygon","arcs":[[[100]],[[101]]],"properties":{"name":"San Estanislao","gaul_code":23999,"targetarea":5.7342422,"totpop":157448.764191,"country_id":"PRY","targetpop":13020.2150879,"totalarea":3885.538149,"new_mean":0.0147086}},{"type":"Polygon","arcs":[[102]],"properties":{"name":"J.e. Estigarribia","gaul_code":23817,"targetarea":1.0450306,"totpop":40022.1033777,"country_id":"PRY","targetpop":2677.2330322,"totalarea":627.1549249,"new_mean":0.0139297}},{"type":"MultiPolygon","arcs":[[[103]],[[104]],[[105]],[[106,107,108]]],"properties":{"name":"Ita","gaul_code":23853,"targetarea":5.3974962,"totpop":85512.0917873,"country_id":"PRY","targetpop":11164.105835,"totalarea":180.4406587,"new_mean":0.015175}},{"type":"MultiPolygon","arcs":[[[103]],[[104]],[[105]],[[106,107,108]]],"properties":{"name":"Ita","gaul_code":23853,"targetarea":5.3974962,"totpop":85512.0917873,"country_id":"PRY","targetpop":11164.105835,"totalarea":180.4406587,"new_mean":0.0150842}},{"type":"Polygon","arcs":[[109]],"properties":{"name":"San Juan Nepomuceno","gaul_code":23838,"targetarea":2.4147868,"totpop":38521.7450452,"country_id":"PRY","targetpop":6615.7524414,"totalarea":1015.3449698,"new_mean":0.015254}},{"type":"Polygon","arcs":[[110]],"properties":{"name":"Curuguaty","gaul_code":23842,"targetarea":2.7615285,"totpop":103695.352626,"country_id":"PRY","targetpop":5354.7462158,"totalarea":4121.7910398,"new_mean":0.0149573}},{"type":"Polygon","arcs":[[111,112,-45,113,-43,114,-14,115]],"properties":{"name":"Ciudad  Del Este","gaul_code":23788,"targetarea":71.488594,"totpop":330095.680847,"country_id":"PRY","targetpop":320456.602112,"totalarea":83.2320577,"new_mean":0.015211}},{"type":"Polygon","arcs":[[-62,-51,116,117,-107,118],[119]],"properties":{"name":"J. A. Saldivar","gaul_code":23855,"targetarea":19.4567763,"totpop":56114.350769,"country_id":"PRY","targetpop":39518.6796875,"totalarea":34.7317649,"new_mean":0.0135427}},{"type":"Polygon","arcs":[[120]],"properties":{"name":"Yuty","gaul_code":23840,"targetarea":0.5240895,"totpop":42478.0101632,"country_id":"PRY","targetpop":1549.1013184,"totalarea":1774.3958562,"new_mean":0.0159629}},{"type":"Polygon","arcs":[[121]],"properties":{"name":"Concepcion","gaul_code":23869,"targetarea":13.4892238,"totpop":104746.626925,"country_id":"PRY","targetpop":36969.3763428,"totalarea":10167.8456941,"new_mean":0.0173908}},{"type":"Polygon","arcs":[[-99,-72,122,-10]],"properties":{"name":"San Antonio","gaul_code":23862,"targetarea":21.9709528,"totpop":67793.5032711,"country_id":"PRY","targetpop":61006.1304932,"totalarea":27.834274,"new_mean":0.0177392}},{"type":"Polygon","arcs":[[123,-90,-95,-78]],"properties":{"name":"M. Roque Alonso","gaul_code":23859,"targetarea":28.4962244,"totpop":118370.858276,"country_id":"PRY","targetpop":105720.892212,"totalarea":43.0287698,"new_mean":0.0150532}},{"type":"Polygon","arcs":[[124]],"properties":{"name":"Yaguaron","gaul_code":23983,"targetarea":0.5287109,"totpop":31898.568862,"country_id":"PRY","targetpop":1771.6522217,"totalarea":254.7912354,"new_mean":0.0154631}},{"type":"Polygon","arcs":[[125]],"properties":{"name":"San Pedro Del Parana","gaul_code":23937,"targetarea":1.7946891,"totpop":34537.2510419,"country_id":"PRY","targetpop":5031.2460938,"totalarea":1389.9648534,"new_mean":0.0157883}},{"type":"Polygon","arcs":[[126,-83]],"properties":{"name":"Benjamin Aceval","gaul_code":23986,"targetarea":0.2658247,"totpop":25963.7108726,"country_id":"PRY","targetpop":1873.6326904,"totalarea":2196.9211157,"new_mean":0.0156067}},{"type":"Polygon","arcs":[[127]],"properties":{"name":"Acahay","gaul_code":23969,"targetarea":0.5271899,"totpop":16376.4037843,"country_id":"PRY","targetpop":1273.5635986,"totalarea":329.1849158,"new_mean":0.0153516}},{"type":"Polygon","arcs":[[128]],"properties":{"name":"Alberdi","gaul_code":23953,"targetarea":1.1326265,"totpop":10094.8975196,"country_id":"PRY","targetpop":4001.7664795,"totalarea":109.8524762,"new_mean":0.0125805}},{"type":"Polygon","arcs":[[129]],"properties":{"name":"Arroyos Y Esteros","gaul_code":23877,"targetarea":0.5308849,"totpop":25612.5443041,"country_id":"PRY","targetpop":1329.1682129,"totalarea":554.9006322,"new_mean":0.0164057}},{"type":"Polygon","arcs":[[130]],"properties":{"name":"Yby Yau","gaul_code":23874,"targetarea":1.8505529,"totpop":33630.1217242,"country_id":"PRY","targetpop":3847.3662109,"totalarea":2136.6913167,"new_mean":0.0150146}},{"type":"MultiPolygon","arcs":[[[131]],[[-108,-118,132]]],"properties":{"name":"Guarambare","gaul_code":23852,"targetarea":7.8411142,"totpop":41947.5716095,"country_id":"PRY","targetpop":20870.5334473,"totalarea":29.0062705,"new_mean":0.0144094}},{"type":"MultiPolygon","arcs":[[[133]],[[134]],[[-112,135]]],"properties":{"name":"Minga Guazu","gaul_code":23796,"targetarea":1.9068136,"totpop":98514.4176059,"country_id":"PRY","targetpop":2656.7423096,"totalarea":539.0611876,"new_mean":0.0150978}},{"type":"Polygon","arcs":[[-92,136,-70]],"properties":{"name":"Lambare","gaul_code":23856,"targetarea":25.8093941,"totpop":182673.033508,"country_id":"PRY","targetpop":180854.126465,"totalarea":27.8921665,"new_mean":0.0187921}},{"type":"Polygon","arcs":[[137]],"properties":{"name":"Eusebio Ayala","gaul_code":23882,"targetarea":0.5294997,"totpop":24825.277339,"country_id":"PRY","targetpop":1332.8707275,"totalarea":268.6504284,"new_mean":0.0170527}},{"type":"Polygon","arcs":[[138]],"properties":{"name":"Horqueta","gaul_code":23870,"targetarea":4.3890629,"totpop":72042.4353285,"country_id":"PRY","targetpop":10527.3475342,"totalarea":2621.4563514,"new_mean":0.0136867}},{"type":"Polygon","arcs":[[138]],"properties":{"name":"Horqueta","gaul_code":23870,"targetarea":4.3890629,"totpop":72042.4353285,"country_id":"PRY","targetpop":10527.3475342,"totalarea":2621.4563514,"new_mean":0.0153432}}]}},"arcs":[[[-55.8334068,-27.333689],[-55.8575935,-27.3305817],[-55.8625069,-27.3403931],[-55.8620186,-27.3444252],[-55.8495865,-27.3635159],[-55.8312305,-27.3666851]],[[-55.8312305,-27.3666851],[-55.8380864,-27.3543958],[-55.8191655,-27.3459567],[-55.8334068,-27.333689]],[[-55.8250005,-27.292083],[-55.832738,-27.2955188]],[[-55.832738,-27.2955188],[-55.8282489,-27.3028662]],[[-55.8282489,-27.3028662],[-55.8250005,-27.292083]],[[-55.8250005,-27.292083],[-55.8148442,-27.2892266],[-55.8221441,-27.2819268],[-55.8250005,-27.292083]],[[-57.2390386,-25.7554701],[-57.2537033,-25.7695895],[-57.2333338,-25.7754163],[-57.2390386,-25.7554701]],[[-57.5415474,-25.4463421],[-57.5205978,-25.4626803],[-57.5127365,-25.4714857],[-57.5000005,-25.4754163],[-57.5039312,-25.4460137],[-57.512826,-25.4212253],[-57.5120033,-25.4193996]],[[-57.5120033,-25.4193996],[-57.5351334,-25.4401608]],[[-57.5351334,-25.4401608],[-57.5415474,-25.4463421]],[[-55.6934984,-22.5708717],[-55.7018127,-22.5627975],[-55.7243729,-22.5479813],[-55.735569,-22.532196],[-55.7418404,-22.5143223],[-55.7565272,-22.5492933],[-55.742839,-22.5691175],[-55.7250005,-22.5731214],[-55.7037521,-22.5683526],[-55.6934984,-22.5708717]],[[-54.6250005,-25.4837497],[-54.6148443,-25.4808932],[-54.6221441,-25.4735934],[-54.6250005,-25.4837497]],[[-54.6250005,-25.4837497],[-54.6315353,-25.4790622],[-54.6301997,-25.4723019]],[[-54.6301997,-25.4723019],[-54.6398811,-25.472662],[-54.6385994,-25.4793644],[-54.634079,-25.4880314],[-54.6241302,-25.4968224],[-54.6142197,-25.502533],[-54.6027324,-25.5111685]],[[-54.6027324,-25.5111685],[-54.6052425,-25.5021158],[-54.6191004,-25.4945163],[-54.6250005,-25.4837497]],[[-54.629631,-25.4207858],[-54.614592,-25.4087497],[-54.629631,-25.3967135],[-54.6419846,-25.3812839],[-54.6570073,-25.3717135],[-54.6379725,-25.4383639],[-54.6333338,-25.442083],[-54.629631,-25.4207858]],[[-56.4361903,-24.1902601],[-56.4434901,-24.1975599],[-56.4333338,-24.2004164],[-56.4361903,-24.1902601]],[[-56.5778569,-24.1819268],[-56.5851567,-24.1892266],[-56.5750005,-24.192083],[-56.5778569,-24.1819268]],[[-57.2861903,-25.3985934],[-57.2934901,-25.4058932],[-57.2833338,-25.4087497],[-57.2861903,-25.3985934]],[[-57.4042788,-25.3522783],[-57.4034185,-25.3379163],[-57.4274205,-25.3269005]],[[-57.4274205,-25.3269005],[-57.4260902,-25.3342648],[-57.41222,-25.3443604],[-57.4046669,-25.3522148]],[[-57.4046669,-25.3522148],[-57.4042788,-25.3522783]],[[-57.4371173,-25.3124467],[-57.4359624,-25.2964857],[-57.4201991,-25.3141208],[-57.3956222,-25.3126559],[-57.387533,-25.3217135],[-57.3710698,-25.3073744],[-57.4383631,-25.2815036],[-57.4379301,-25.2742842]],[[-57.4379301,-25.2742842],[-57.4465637,-25.2762165],[-57.4477921,-25.2828598],[-57.4452171,-25.2974167]],[[-57.4452171,-25.2974167],[-57.4445229,-25.301239],[-57.4371173,-25.3124467]],[[-57.458519,-25.3111744],[-57.4723701,-25.3193359],[-57.4787178,-25.3199692],[-57.4823303,-25.3161469],[-57.4963951,-25.3062248],[-57.5029335,-25.3053131],[-57.5078583,-25.3020363],[-57.5116539,-25.2932091],[-57.5348053,-25.2924671]],[[-57.5348053,-25.2924671],[-57.5332108,-25.2971973],[-57.5175629,-25.3134937],[-57.5254478,-25.3219471],[-57.5264816,-25.3288593],[-57.5405807,-25.3291245],[-57.5465508,-25.3367615],[-57.551445,-25.3517704],[-57.5672531,-25.3508434],[-57.5722694,-25.3457451]],[[-57.5722694,-25.3457451],[-57.5677757,-25.3549366]],[[-57.5677757,-25.3549366],[-57.5623627,-25.3618565],[-57.5420074,-25.3606014],[-57.5259209,-25.3687115],[-57.5335236,-25.3817139],[-57.5266914,-25.3867207],[-57.515522,-25.3903675],[-57.5065727,-25.3961048],[-57.4996185,-25.3951988]],[[-57.4996185,-25.3951988],[-57.4827003,-25.3983002],[-57.4838715,-25.3865643],[-57.4833069,-25.3690052],[-57.487278,-25.3511696],[-57.4810982,-25.340168],[-57.4797707,-25.3346195],[-57.4693344,-25.3234778]],[[-57.4693344,-25.3234778],[-57.4774989,-25.3220391],[-57.4621749,-25.3164354]],[[-57.4621749,-25.3164354],[-57.458519,-25.3111744]],[[-57.0111903,-26.0152601],[-57.0184901,-26.0225599],[-57.0083338,-26.0254163],[-57.0111903,-26.0152601]],[[-55.2611903,-26.5235934],[-55.2684901,-26.5308932],[-55.2583338,-26.5337497],[-55.2611903,-26.5235934]],[[-57.1380376,-25.3957126],[-57.1240565,-25.3849216],[-57.1407638,-25.3634535],[-57.15363,-25.3801201],[-57.169784,-25.3925876],[-57.1416672,-25.4004163],[-57.1380376,-25.3957126]],[[-57.0778569,-24.0819268],[-57.0851567,-24.0892266],[-57.0750005,-24.092083],[-57.0778569,-24.0819268]],[[-55.3711919,-25.4148369],[-55.3858322,-25.4220391],[-55.3666672,-25.4254163],[-55.3711919,-25.4148369]],[[-57.5348053,-25.2924671],[-57.5421333,-25.288187]],[[-57.5421333,-25.288187],[-57.546196,-25.2961864],[-57.5560226,-25.3117371],[-57.5594597,-25.3153725],[-57.5780449,-25.3293629],[-57.5840836,-25.3356686]],[[-57.5840836,-25.3356686],[-57.5722694,-25.3457451]],[[-56.4298182,-25.7881605],[-56.4285487,-25.779583],[-56.4314214,-25.7601738],[-56.4610031,-25.764544],[-56.4702967,-25.7927178],[-56.4250005,-25.8004163],[-56.4298182,-25.7881605]],[[-56.8445236,-26.8819268],[-56.8518234,-26.8892266],[-56.8416672,-26.892083],[-56.8445236,-26.8819268]],[[-54.5984127,-25.555219],[-54.6041374,-25.5516624],[-54.6092453,-25.5453529],[-54.6177521,-25.5405312],[-54.622448,-25.5351276],[-54.6378365,-25.5416412],[-54.6475182,-25.5391922],[-54.6674538,-25.5363026],[-54.6733589,-25.546526],[-54.6765977,-25.5449026]],[[-54.6765977,-25.5449026],[-54.6619797,-25.5652845],[-54.6327642,-25.5595065],[-54.6065191,-25.5761732],[-54.5983231,-25.5647379],[-54.5984127,-25.555219]],[[-54.6773516,-25.5440163],[-54.6829338,-25.5366306],[-54.6801605,-25.5333385],[-54.6942756,-25.5318818]],[[-54.6942756,-25.5318818],[-54.6773516,-25.5440163]],[[-57.4452171,-25.2974167],[-57.4507828,-25.3061504],[-57.458519,-25.3111744]],[[-57.4621749,-25.3164354],[-57.4583338,-25.3254163],[-57.4693344,-25.3234778]],[[-57.4996185,-25.3951988],[-57.5003662,-25.4076595],[-57.4986087,-25.4169481]],[[-57.4986087,-25.4169481],[-57.4630328,-25.429712]],[[-57.4630328,-25.429712],[-57.4521942,-25.4079514],[-57.4510612,-25.3996735],[-57.4477119,-25.391758],[-57.4277763,-25.3965816],[-57.4210205,-25.3948536],[-57.4175758,-25.3883934],[-57.404789,-25.3858089]],[[-57.404789,-25.3858089],[-57.4023848,-25.361203]],[[-57.4023848,-25.361203],[-57.4043163,-25.3529045]],[[-57.4043163,-25.3529045],[-57.4046669,-25.3522148]],[[-57.4274205,-25.3269005],[-57.4378179,-25.3221286],[-57.4371173,-25.3124467]],[[-57.2290044,-25.9651543],[-57.2446213,-25.9729994],[-57.2250005,-25.9837497],[-57.2290044,-25.9651543]],[[-58.2885747,-26.8582451],[-58.3034022,-26.8472425],[-58.3115076,-26.8766615],[-58.3000005,-26.8837497],[-58.2885747,-26.8582451]],[[-55.832738,-27.2955188],[-55.8543055,-27.3050957],[-55.8687505,-27.2883314],[-55.9038579,-27.3023451],[-55.8599533,-27.3642673],[-55.8211431,-27.3847669],[-55.8312305,-27.3666851]],[[-55.8334068,-27.333689],[-55.8471766,-27.3218275],[-55.8293299,-27.3064548],[-55.8282489,-27.3028662]],[[-57.3611903,-25.4235934],[-57.3684901,-25.4308932],[-57.3583338,-25.4337497],[-57.3611903,-25.4235934]],[[-57.404527,-25.387822],[-57.3853927,-25.3887871],[-57.3693608,-25.4067315],[-57.320134,-25.4037936],[-57.3211838,-25.3862725],[-57.4023848,-25.361203]],[[-57.404789,-25.3858089],[-57.404527,-25.387822]],[[-57.4043163,-25.3529045],[-57.4042788,-25.3522783]],[[-56.528364,-22.1237158],[-56.5250005,-22.1254164],[-56.51648,-22.1082696],[-56.5192328,-22.1036123],[-56.5269547,-22.1180801],[-56.528364,-22.1237158]],[[-56.0021571,-25.4544203],[-56.0324305,-25.4467868],[-56.0504399,-25.4701185],[-56.0076584,-25.4876315],[-55.9916672,-25.492083],[-56.0021571,-25.4544203]],[[-55.2526291,-25.4240736],[-55.2684901,-25.4393893],[-55.2500005,-25.442083],[-55.2526291,-25.4240736]],[[-54.3048637,-24.0499372],[-54.310846,-24.0437898],[-54.3206711,-24.0562595],[-54.3000005,-24.0754164],[-54.3048637,-24.0499372]],[[-55.5313254,-23.2666697],[-55.5401291,-23.2636813],[-55.5383666,-23.2715447],[-55.5313254,-23.2666697]],[[-57.5840836,-25.3356686],[-57.5854912,-25.3374748]],[[-57.5854912,-25.3374748],[-57.6025772,-25.366909],[-57.6130301,-25.3858699]],[[-57.6130301,-25.3858699],[-57.5917902,-25.3982967]],[[-57.5917902,-25.3982967],[-57.5718575,-25.3934155],[-57.5704918,-25.3799553],[-57.5675354,-25.3713417]],[[-57.5675354,-25.3713417],[-57.5689049,-25.360487],[-57.5677757,-25.3549366]],[[-56.4215988,-25.4636813],[-56.4297368,-25.4220147],[-56.4567062,-25.4329033],[-56.4649663,-25.4697604],[-56.4500005,-25.4731214],[-56.4374679,-25.4703057],[-56.4166672,-25.4754163],[-56.4215988,-25.4636813]],[[-57.0211919,-26.8815036],[-57.0358322,-26.8887057],[-57.0166672,-26.892083],[-57.0211919,-26.8815036]],[[-57.5616704,-25.4981458],[-57.5685216,-25.5127201],[-57.5583338,-25.517083],[-57.5616704,-25.4981458]],[[-57.4542509,-25.2101238],[-57.4538172,-25.2029391],[-57.4371831,-25.1880791],[-57.4480311,-25.137306],[-57.4627121,-25.1381768],[-57.4734787,-25.1261325],[-57.5016932,-25.1414645],[-57.4870041,-25.154583],[-57.4960698,-25.1626803],[-57.5040939,-25.1801608],[-57.5066452,-25.1773056]],[[-57.5066452,-25.1773056],[-57.4997215,-25.1888657],[-57.5018158,-25.2014294]],[[-57.5018158,-25.2014294],[-57.4968665,-25.2037672]],[[-57.4968665,-25.2037672],[-57.4950688,-25.1972425],[-57.4802414,-25.2082451],[-57.4809549,-25.2098379]],[[-57.4809549,-25.2098379],[-57.4773788,-25.2174416],[-57.464901,-25.2162609],[-57.4542509,-25.2101238]],[[-57.4866704,-25.0981458],[-57.4941655,-25.1124443],[-57.4833338,-25.117083],[-57.4866704,-25.0981458]],[[-57.5124474,-25.0907983],[-57.5222709,-25.0979603]],[[-57.5222709,-25.0979603],[-57.5083338,-25.1004163],[-57.5124474,-25.0907983]],[[-56.7278569,-25.5235934],[-56.7351567,-25.5308932],[-56.7250005,-25.5337497],[-56.7278569,-25.5235934]],[[-56.8945236,-24.4402601],[-56.9018234,-24.4475599],[-56.8916672,-24.4504164],[-56.8945236,-24.4402601]],[[-56.2361903,-27.1569268],[-56.2434901,-27.1642266],[-56.2333338,-27.167083],[-56.2361903,-27.1569268]],[[-57.0722417,-25.2478203],[-57.0952235,-25.2665703],[-57.0833338,-25.2754163],[-57.0722417,-25.2478203]],[[-56.3628586,-26.1898369],[-56.3774989,-26.1970391],[-56.3583338,-26.2004163],[-56.3628586,-26.1898369]],[[-57.5267715,-25.2410431],[-57.5295601,-25.2347927],[-57.5370941,-25.2303257],[-57.5412254,-25.232235],[-57.5697145,-25.2214929]],[[-57.5697145,-25.2214929],[-57.5858566,-25.2395602],[-57.6225998,-25.272389],[-57.6458338,-25.2709974],[-57.6596766,-25.2718275],[-57.6705978,-25.2986748],[-57.64655,-25.3429294],[-57.6411285,-25.3492126],[-57.6381226,-25.3601799]],[[-57.6381226,-25.3601799],[-57.6363754,-25.356739],[-57.6352005,-25.3410301],[-57.6333618,-25.3353939],[-57.6202126,-25.3224907],[-57.6199837,-25.3163052],[-57.6142082,-25.3079433],[-57.6096077,-25.3158646],[-57.5908432,-25.3314419],[-57.5854912,-25.3374748]],[[-57.5421333,-25.288187],[-57.5396919,-25.2794552],[-57.5424728,-25.2698975],[-57.5421486,-25.2637138],[-57.5267715,-25.2410431]],[[-57.5768234,-25.2475599],[-57.5695236,-25.2402601],[-57.5666672,-25.2504163],[-57.5768234,-25.2475599]],[[-57.5018158,-25.2014294],[-57.5041046,-25.2063293],[-57.5142975,-25.2146034],[-57.5215034,-25.232523],[-57.5267715,-25.2410431]],[[-57.4379301,-25.2742842],[-57.4372482,-25.2629163],[-57.4385666,-25.2409111],[-57.4630783,-25.2296563],[-57.4539067,-25.2214613],[-57.4542509,-25.2101238]],[[-57.4809549,-25.2098379],[-57.4916672,-25.2337497],[-57.5031743,-25.2266615],[-57.4968665,-25.2037672]],[[-57.0373377,-25.456821],[-57.0529546,-25.464666],[-57.0333338,-25.4754163],[-57.0373377,-25.456821]],[[-57.5675354,-25.3713417],[-57.5563889,-25.3800583],[-57.5481415,-25.3842487],[-57.545639,-25.3885288],[-57.5506859,-25.3908901],[-57.5487137,-25.40135],[-57.542778,-25.4044514],[-57.5376854,-25.4164639],[-57.5353127,-25.4291115],[-57.5351334,-25.4401608]],[[-57.5120033,-25.4193996],[-57.5091883,-25.4131523],[-57.4986087,-25.4169481]],[[-56.0200038,-24.7231458],[-56.0274989,-24.7374443],[-56.0166672,-24.742083],[-56.0200038,-24.7231458]],[[-56.4333338,-24.6754164],[-56.4333338,-24.6587497],[-56.4583338,-24.6587497],[-56.4583338,-24.6754164],[-56.4333338,-24.6754164]],[[-55.6961919,-25.3731703],[-55.7108322,-25.3803724],[-55.6916672,-25.3837497],[-55.6961919,-25.3731703]],[[-57.3551112,-25.4903171],[-57.3790044,-25.511541],[-57.3500005,-25.517083],[-57.3551112,-25.4903171]],[[-57.4166672,-25.467083],[-57.4138107,-25.4772393],[-57.4065109,-25.4699395],[-57.4166672,-25.467083]],[[-57.4166672,-25.467083],[-57.4195236,-25.4569268],[-57.4238872,-25.4612903],[-57.4227616,-25.4653689],[-57.4166672,-25.467083]],[[-57.4297857,-25.4418078],[-57.4332466,-25.4422531],[-57.4343262,-25.4487972]],[[-57.4343262,-25.4487972],[-57.4319668,-25.4511821]],[[-57.4319668,-25.4511821],[-57.4297857,-25.4418078]],[[-55.9312013,-26.1048233],[-55.9368223,-26.1016954],[-55.9528,-26.1135755],[-55.9250005,-26.117083],[-55.9312013,-26.1048233]],[[-55.6880702,-24.4558607],[-55.7036301,-24.468084],[-55.6833338,-24.4837497],[-55.6880702,-24.4558607]],[[-54.7001374,-25.4719209],[-54.7003441,-25.4914207],[-54.70253,-25.5087198]],[[-54.70253,-25.5087198],[-54.6985601,-25.5288099],[-54.6942756,-25.5318818]],[[-54.6773516,-25.5440163],[-54.6765977,-25.5449026]],[[-54.5984127,-25.555219],[-54.6027324,-25.5111685]],[[-54.6301997,-25.4723019],[-54.628324,-25.4628079],[-54.6285209,-25.4622078],[-54.639041,-25.4574587],[-54.6399409,-25.4570525],[-54.643897,-25.4552666],[-54.6779465,-25.4768893],[-54.6868169,-25.4538994],[-54.6951258,-25.4469333],[-54.7001374,-25.4719209]],[[-57.4630328,-25.429712],[-57.4555669,-25.4323906],[-57.4487734,-25.4543953]],[[-57.4487734,-25.4543953],[-57.4379196,-25.4538021],[-57.4343262,-25.4487972]],[[-57.4297857,-25.4418078],[-57.4210698,-25.404347],[-57.4122645,-25.3964857],[-57.404527,-25.387822]],[[-57.4434901,-25.4058932],[-57.4361903,-25.3985934],[-57.4333338,-25.4087497],[-57.4434901,-25.4058932]],[[-56.2445236,-26.6069268],[-56.2518234,-26.6142266],[-56.2416672,-26.617083],[-56.2445236,-26.6069268]],[[-57.408757,-23.3996351],[-57.4413009,-23.3799655],[-57.4537847,-23.4202894],[-57.4250005,-23.4254164],[-57.408757,-23.3996351]],[[-57.5917902,-25.3982967],[-57.5656662,-25.4275322],[-57.5415474,-25.4463421]],[[-57.5066452,-25.1773056],[-57.5184412,-25.1641045],[-57.5697145,-25.2214929]],[[-57.2861903,-25.5569268],[-57.2934901,-25.5642266],[-57.2833338,-25.567083],[-57.2861903,-25.5569268]],[[-56.2026291,-26.8240736],[-56.2184901,-26.8393893],[-56.2000005,-26.842083],[-56.2026291,-26.8240736]],[[-57.5124474,-25.0907983],[-57.5271966,-25.0968904],[-57.5269474,-25.0971362],[-57.5222709,-25.0979603]],[[-57.1111903,-25.9069268],[-57.1184901,-25.9142266],[-57.1083338,-25.917083],[-57.1111903,-25.9069268]],[[-58.1500005,-26.192083],[-58.1310633,-26.1887464],[-58.1453618,-26.1812513],[-58.1500005,-26.192083]],[[-57.0945236,-25.0485934],[-57.1018234,-25.0558932],[-57.0916672,-25.0587497],[-57.0945236,-25.0485934]],[[-56.5359624,-22.9574069],[-56.5518234,-22.9727227],[-56.5333338,-22.9754164],[-56.5359624,-22.9574069]],[[-57.4574833,-25.4987487],[-57.4416672,-25.5004163],[-57.4449305,-25.4780042],[-57.4713709,-25.4862399],[-57.4781743,-25.4965671],[-57.4590537,-25.4985831],[-57.4574833,-25.4987487]],[[-57.4487734,-25.4543953],[-57.4460698,-25.4631523],[-57.4365809,-25.4710137],[-57.4319668,-25.4511821]],[[-54.7361903,-25.4902601],[-54.7434901,-25.4975599],[-54.7333338,-25.5004163],[-54.7361903,-25.4902601]],[[-54.7611903,-25.4819268],[-54.7684901,-25.4892266],[-54.7583338,-25.492083],[-54.7611903,-25.4819268]],[[-54.7001374,-25.4719209],[-54.7050054,-25.4961927],[-54.70253,-25.5087198]],[[-57.6381226,-25.3601799],[-57.6396799,-25.3651889],[-57.6377365,-25.3714857],[-57.6130301,-25.3858699]],[[-56.9611903,-25.3735934],[-56.9684901,-25.3808932],[-56.9583338,-25.3837497],[-56.9611903,-25.3735934]],[[-57.046493,-23.3303317],[-57.0702967,-23.3507744],[-57.0416672,-23.3587497],[-57.046493,-23.3303317]]],"bbox":[-58.3115076,-27.3847669,-54.3000005,-22.1036123]}