{"type":"Topology","objects":{"foo":{"type":"GeometryCollection","geometries":[{"type":"Polygon","arcs":[[0,1]],"properties":{"name":"Rwerere","gaul_code":25189,"targetarea":1.8582573,"totpop":86184.2158203,"country_id":"RWA","targetpop":4389.1502685,"new_mean":0.0734274,"totalarea":72.7158933}},{"type":"MultiPolygon","arcs":[[[2,3,4]],[[5]]],"properties":{"name":"Ntongwe","gaul_code":25200,"targetarea":6.3096901,"totpop":139580.084656,"country_id":"RWA","targetpop":19375.6989746,"new_mean":0.0383128,"totalarea":218.2206822}},{"type":"Polygon","arcs":[[6,7]],"properties":{"name":"Kigarama","gaul_code":25211,"targetarea":2.6104501,"totpop":178169.122602,"country_id":"RWA","targetpop":3982.3948364,"new_mean":0.034757,"totalarea":416.3029678}},{"type":"Polygon","arcs":[[8,-8]],"properties":{"name":"Birenga","gaul_code":25208,"targetarea":4.4130529,"totpop":159674.738449,"country_id":"RWA","targetpop":8307.5515137,"new_mean":0.0367916,"totalarea":298.9188023}},{"type":"Polygon","arcs":[[9]],"properties":{"name":"Kanzenze","gaul_code":25234,"targetarea":4.151895,"totpop":167385.99472,"country_id":"RWA","targetpop":11133.5393066,"new_mean":0.0561807,"totalarea":359.4187181}},{"type":"MultiPolygon","arcs":[[[10,11,12,13,14]],[[15]]],"properties":{"name":"Kamembe","gaul_code":25162,"targetarea":13.2349803,"totpop":77356.0305557,"country_id":"RWA","targetpop":35200.0244904,"new_mean":0.0638962,"totalarea":92.5772907}},{"type":"Polygon","arcs":[[16,17]],"properties":{"name":"Nyabisindu","gaul_code":25132,"targetarea":6.411748,"totpop":59407.7185364,"country_id":"RWA","targetpop":16257.5889893,"new_mean":0.0425317,"totalarea":80.0769578}},{"type":"Polygon","arcs":[[18,19,20]],"properties":{"name":"Shyorongi","gaul_code":25242,"targetarea":6.0440513,"totpop":93497.792099,"country_id":"RWA","targetpop":21637.7479248,"new_mean":0.0620109,"totalarea":123.7273054}},{"type":"Polygon","arcs":[[21]],"properties":{"name":"Muvumba","gaul_code":25269,"targetarea":2.2966253,"totpop":181360.806305,"country_id":"RWA","targetpop":6532.0408935,"new_mean":0.0403603,"totalarea":291.0951668}},{"type":"Polygon","arcs":[[22]],"properties":{"name":"Murama","gaul_code":25197,"targetarea":1.9781899,"totpop":68230.4762573,"country_id":"RWA","targetpop":5655.8240967,"new_mean":0.0280907,"totalarea":100.0085366}},{"type":"Polygon","arcs":[[23,24,25]],"properties":{"name":"Tumba","gaul_code":25153,"targetarea":1.1204206,"totpop":39454.7606506,"country_id":"RWA","targetpop":1391.7193603,"new_mean":0.0456425,"totalarea":69.715072}},{"type":"Polygon","arcs":[[26,27,28,29,30]],"properties":{"name":"Nyarugenge","gaul_code":25246,"targetarea":46.1892706,"totpop":408987.280884,"country_id":"RWA","targetpop":408987.280884,"new_mean":0.0419625,"totalarea":46.1892707}},{"type":"MultiPolygon","arcs":[[[31,32,33]],[[34,35]],[[36,37,38]],[[39,40,41]]],"properties":{"name":"Nkuli","gaul_code":25256,"targetarea":7.0344761,"totpop":86981.5547562,"country_id":"RWA","targetpop":19008.0644531,"new_mean":0.0722706,"totalarea":116.0927323}},{"type":"Polygon","arcs":[[42]],"properties":{"name":"Ngarama","gaul_code":25151,"targetarea":2.2457831,"totpop":94979.9876099,"country_id":"RWA","targetpop":7326.7233887,"new_mean":0.041237,"totalarea":150.3975529}},{"type":"Polygon","arcs":[[43,44,-27,45,46]],"properties":{"name":"Kacyiru","gaul_code":25244,"targetarea":51.8133825,"totpop":363488.429688,"country_id":"RWA","targetpop":363488.429688,"new_mean":0.0056635,"totalarea":51.8133821}},{"type":"Polygon","arcs":[[47]],"properties":{"name":"Kidaho","gaul_code":25251,"targetarea":6.7938215,"totpop":70946.238328,"country_id":"RWA","targetpop":17434.288208,"new_mean":0.0574485,"totalarea":78.2374255}},{"type":"MultiPolygon","arcs":[[[48,-14]],[[49,-11,50]]],"properties":{"name":"Cyimbogo","gaul_code":25156,"targetarea":9.7016358,"totpop":65834.5454102,"country_id":"RWA","targetpop":17665.8887939,"new_mean":0.0717321,"totalarea":83.0785794}},{"type":"Polygon","arcs":[[-29,-21,51,52]],"properties":{"name":"Butamwa","gaul_code":25229,"targetarea":16.0844203,"totpop":102778.89859,"country_id":"RWA","targetpop":47399.8706055,"new_mean":0.0367173,"totalarea":92.2175945}},{"type":"MultiPolygon","arcs":[[[53,-30,-53,54]],[[55,56,57,58]]],"properties":{"name":"Kanombe","gaul_code":25233,"targetarea":39.5978589,"totpop":160444.297485,"country_id":"RWA","targetpop":103613.041626,"new_mean":0.0587789,"totalarea":106.0183689}},{"type":"Polygon","arcs":[[59]],"properties":{"name":"Rutonde","gaul_code":25217,"targetarea":13.0811922,"totpop":82412.024353,"country_id":"RWA","targetpop":29777.527832,"new_mean":0.0474298,"totalarea":99.7642386}},{"type":"MultiPolygon","arcs":[[[60]],[[61,62,63]]],"properties":{"name":"Bugarama","gaul_code":25154,"targetarea":21.7480428,"totpop":109169.809082,"country_id":"RWA","targetpop":55442.8056641,"new_mean":0.0495909,"totalarea":88.3164178}},{"type":"Polygon","arcs":[[64]],"properties":{"name":"Nyarubuye","gaul_code":25214,"targetarea":1.978201,"totpop":117169.532251,"country_id":"RWA","targetpop":4440.3463135,"new_mean":0.0440348,"totalarea":433.3411158}},{"type":"MultiPolygon","arcs":[[[-41,65,66]],[[67,68,69,70,71]]],"properties":{"name":"Mukingo","gaul_code":25254,"targetarea":9.5078972,"totpop":78648.7381058,"country_id":"RWA","targetpop":20616.1086426,"new_mean":0.0464548,"totalarea":108.7569157}},{"type":"MultiPolygon","arcs":[[[72]],[[73]],[[74,75,76]]],"properties":{"name":"Nyamyumba","gaul_code":25186,"targetarea":26.3561752,"totpop":124504.5728,"country_id":"RWA","targetpop":78154.5212402,"new_mean":0.0404052,"totalarea":195.3584058}},{"type":"Polygon","arcs":[[77]],"properties":{"name":"Gituza","gaul_code":25144,"targetarea":1.7939577,"totpop":104828.97287,"country_id":"RWA","targetpop":1790.5704346,"new_mean":0.0501982,"totalarea":170.3674569}},{"type":"MultiPolygon","arcs":[[[78,79,80]],[[81,82,83]]],"properties":{"name":"Huye","gaul_code":25120,"targetarea":3.1411287,"totpop":34033.2525635,"country_id":"RWA","targetpop":5139.7655029,"new_mean":0.0429784,"totalarea":38.199026}},{"type":"Polygon","arcs":[[84]],"properties":{"name":"Mukingi","gaul_code":25196,"targetarea":0.584361,"totpop":57223.7542419,"country_id":"RWA","targetpop":1690.4224853,"new_mean":0.0514382,"totalarea":95.6591446}},{"type":"Polygon","arcs":[[85,86,87]],"properties":{"name":"Gatonde","gaul_code":25250,"targetarea":0.4529916,"totpop":44702.8628845,"country_id":"RWA","targetpop":1360.5467529,"new_mean":0.0632773,"totalarea":72.4774558}},{"type":"Polygon","arcs":[[88]],"properties":{"name":"Kagitumba","gaul_code":25265,"targetarea":2.7647984,"totpop":91436.9662323,"country_id":"RWA","targetpop":6729.6016846,"new_mean":0.0275534,"totalarea":182.0248691}},{"type":"Polygon","arcs":[[89,-19,-28,-45,90]],"properties":{"name":"Rutongo","gaul_code":25241,"targetarea":18.0298564,"totpop":160804.313751,"country_id":"RWA","targetpop":92434.2741699,"new_mean":0.0490083,"totalarea":108.2971359}},{"type":"Polygon","arcs":[[91,92]],"properties":{"name":"Mushubati","gaul_code":25199,"targetarea":3.2859658,"totpop":92147.306427,"country_id":"RWA","targetpop":5139.0725098,"new_mean":0.0338459,"totalarea":173.7249674}},{"type":"Polygon","arcs":[[-26,93,94]],"properties":{"name":"Tare","gaul_code":25243,"targetarea":0.6901122,"totpop":41490.9558258,"country_id":"RWA","targetpop":2939.3337402,"new_mean":0.0411011,"totalarea":77.2212117}},{"type":"MultiPolygon","arcs":[[[95]],[[96,97,-59]]],"properties":{"name":"Bicumbi","gaul_code":25228,"targetarea":5.946339,"totpop":190425.441269,"country_id":"RWA","targetpop":11741.8337402,"new_mean":0.0422331,"totalarea":349.2897265}},{"type":"Polygon","arcs":[[98,-83,99]],"properties":{"name":"Mbazi","gaul_code":25124,"targetarea":1.5085461,"totpop":35362.8020325,"country_id":"RWA","targetpop":5012.3634033,"new_mean":0.0179225,"totalarea":42.2676424}},{"type":"Polygon","arcs":[[100]],"properties":{"name":"Murambi","gaul_code":25268,"targetarea":4.482587,"totpop":177163.296265,"country_id":"RWA","targetpop":11279.9240112,"new_mean":0.0311495,"totalarea":254.9804395}},{"type":"Polygon","arcs":[[101]],"properties":{"name":"Kinyamakara","gaul_code":25168,"targetarea":1.1690865,"totpop":44564.1196594,"country_id":"RWA","targetpop":3612.6497803,"new_mean":0.0280713,"totalarea":71.8762785}},{"type":"Polygon","arcs":[[102,-91,-44,103]],"properties":{"name":"Gikomero","gaul_code":25231,"targetarea":8.1079042,"totpop":104046.713623,"country_id":"RWA","targetpop":14816.3935547,"new_mean":0.0669887,"totalarea":157.427252}},{"type":"Polygon","arcs":[[104]],"properties":{"name":"Musasa","gaul_code":25237,"targetarea":1.1527126,"totpop":43167.8243408,"country_id":"RWA","targetpop":2988.9134522,"new_mean":0.039281,"totalarea":118.4487162}},{"type":"Polygon","arcs":[[105]],"properties":{"name":"Gaseke","gaul_code":25179,"targetarea":1.0713907,"totpop":77258.6573224,"country_id":"RWA","targetpop":4385.9915772,"new_mean":0.0308904,"totalarea":177.8910929}},{"type":"Polygon","arcs":[[106]],"properties":{"name":"Ngenda","gaul_code":25238,"targetarea":0.584303,"totpop":158845.611826,"country_id":"RWA","targetpop":1665.3734131,"new_mean":0.042191,"totalarea":380.8132242}},{"type":"Polygon","arcs":[[107]],"properties":{"name":"Masango","gaul_code":25194,"targetarea":2.8121944,"totpop":68111.5556946,"country_id":"RWA","targetpop":7681.0889893,"new_mean":0.0273055,"totalarea":139.6364986}},{"type":"Polygon","arcs":[[108,-75,109]],"properties":{"name":"Rubavu","gaul_code":25188,"targetarea":34.694028,"totpop":178240.100037,"country_id":"RWA","targetpop":165490.740234,"new_mean":0.0584834,"totalarea":51.4640276}},{"type":"Polygon","arcs":[[-88,110,111]],"properties":{"name":"Ndusu","gaul_code":25255,"targetarea":0.6329549,"totpop":52109.6904602,"country_id":"RWA","targetpop":1795.0605469,"new_mean":0.0616554,"totalarea":100.8122922}},{"type":"Polygon","arcs":[[112,-93]],"properties":{"name":"Nyamabuye","gaul_code":25203,"targetarea":19.6273936,"totpop":159258.170959,"country_id":"RWA","targetpop":64906.3712158,"new_mean":0.0355277,"totalarea":154.0873163}},{"type":"Polygon","arcs":[[-25,113,114]],"properties":{"name":"Nyamugali","gaul_code":25259,"targetarea":0.0346814,"totpop":55494.5927887,"country_id":"RWA","targetpop":0,"new_mean":0.0748965,"totalarea":111.7842606}},{"type":"Polygon","arcs":[[115,-62,116]],"properties":{"name":"Busozo","gaul_code":25155,"targetarea":0.2185047,"totpop":61132.047945,"country_id":"RWA","targetpop":0,"new_mean":0.0468619,"totalarea":143.3833882}},{"type":"Polygon","arcs":[[-81,117,118]],"properties":{"name":"Gishanvu","gaul_code":25119,"targetarea":0.328601,"totpop":42092.3564148,"country_id":"RWA","targetpop":0,"new_mean":0.0782758,"totalarea":83.3407795}},{"type":"Polygon","arcs":[[119,-63,-116]],"properties":{"name":"Nyakabuye","gaul_code":25165,"targetarea":4.5382845,"totpop":72313.6838989,"country_id":"RWA","targetpop":13740.3673096,"new_mean":0.0504305,"totalarea":88.7259549}},{"type":"Polygon","arcs":[[120,-12,-50]],"properties":{"name":"Gisuma","gaul_code":25160,"targetarea":3.3204706,"totpop":48665.0380249,"country_id":"RWA","targetpop":6427.2279053,"new_mean":0.0865012,"totalarea":80.0983509}},{"type":"Polygon","arcs":[[121,122]],"properties":{"name":"Gabiro","gaul_code":25264,"targetarea":6.9201363,"totpop":131901.031242,"country_id":"RWA","targetpop":22916.5021973,"new_mean":0.0289458,"totalarea":815.3544449}},{"type":"Polygon","arcs":[[123]],"properties":{"name":"Sake","gaul_code":25218,"targetarea":0.5843325,"totpop":111464.787258,"country_id":"RWA","targetpop":1703.1098633,"new_mean":0.0448142,"totalarea":252.9913442}},{"type":"MultiPolygon","arcs":[[[124,125,126]],[[127]],[[128]],[[129]],[[130]],[[131,-1]]],"properties":{"name":"Mutura","gaul_code":25185,"targetarea":8.8532664,"totpop":139378.296627,"country_id":"RWA","targetpop":19921.1725464,"new_mean":0.0470571,"totalarea":165.4976151}},{"type":"MultiPolygon","arcs":[[[132]],[[133,134]]],"properties":{"name":"Nyamagabe","gaul_code":25176,"targetarea":10.665561,"totpop":89890.1865997,"country_id":"RWA","targetpop":33898.614502,"new_mean":0.0440669,"totalarea":101.9808339}},{"type":"Polygon","arcs":[[135,-68,136]],"properties":{"name":"Kigombe","gaul_code":25252,"targetarea":29.8699189,"totpop":138381.584076,"country_id":"RWA","targetpop":96488.9577637,"new_mean":0.0669255,"totalarea":71.383575}},{"type":"Polygon","arcs":[[137]],"properties":{"name":"Kabarondo","gaul_code":25209,"targetarea":2.7329576,"totpop":96376.3195648,"country_id":"RWA","targetpop":7783.4077148,"new_mean":0.0286184,"totalarea":175.0473523}},{"type":"MultiPolygon","arcs":[[[-33,138]],[[-36,139]],[[-38,140]]],"properties":{"name":"Karago","gaul_code":25182,"targetarea":3.5965961,"totpop":69379.4403152,"country_id":"RWA","targetpop":6143.7340088,"new_mean":0.0326108,"totalarea":111.1441875}},{"type":"Polygon","arcs":[[141]],"properties":{"name":"Mugina","gaul_code":25195,"targetarea":1.1525218,"totpop":89400.2111206,"country_id":"RWA","targetpop":3239.0733643,"new_mean":0.0399619,"totalarea":140.2013514}},{"type":"MultiPolygon","arcs":[[[142]],[[143,144]],[[145]]],"properties":{"name":"Gitesi","gaul_code":25222,"targetarea":6.900953,"totpop":95444.8969221,"country_id":"RWA","targetpop":19942.5606689,"new_mean":0.0529262,"totalarea":238.2205946}},{"type":"Polygon","arcs":[[146]],"properties":{"name":"Kiramno","gaul_code":25164,"targetarea":1.7642235,"totpop":70413.0543652,"country_id":"RWA","targetpop":4535.2269287,"new_mean":0.0677264,"totalarea":246.2813251}},{"type":"Polygon","arcs":[[-104,-47,-56,-98,147]],"properties":{"name":"Rubungo","gaul_code":25239,"targetarea":36.1843174,"totpop":179226.263702,"country_id":"RWA","targetpop":125599.599487,"new_mean":0.0372138,"totalarea":102.1472649}},{"type":"MultiPolygon","arcs":[[[148]],[[149]],[[150]]],"properties":{"name":"Cyeru","gaul_code":25249,"targetarea":1.7536749,"totpop":94519.0973892,"country_id":"RWA","targetpop":4202.4394531,"new_mean":0.0488524,"totalarea":188.1046568}},{"type":"MultiPolygon","arcs":[[[-123,151]],[[152]]],"properties":{"name":"Kahi","gaul_code":25266,"targetarea":2.2399983,"totpop":193466.235458,"country_id":"RWA","targetpop":6860.6566162,"new_mean":0.0277067,"totalarea":351.7242703}},{"type":"Polygon","arcs":[[153]],"properties":{"name":"Gikoro","gaul_code":25232,"targetarea":2.2915089,"totpop":100882.215164,"country_id":"RWA","targetpop":5294.9050293,"new_mean":0.0479672,"totalarea":154.5569035}},{"type":"MultiPolygon","arcs":[[[-94,-115,154]],[[155]]],"properties":{"name":"Nyarutovu","gaul_code":25261,"targetarea":2.1577337,"totpop":75052.5309753,"country_id":"RWA","targetpop":5388.081543,"new_mean":0.0569477,"totalarea":127.9108132}},{"type":"Polygon","arcs":[[156,157]],"properties":{"name":"Kayonza","gaul_code":25210,"targetarea":10.0783735,"totpop":136284.52742,"country_id":"RWA","targetpop":24736.7706299,"new_mean":0.0263611,"totalarea":186.6039846}},{"type":"Polygon","arcs":[[158,159]],"properties":{"name":"Bugaragara","gaul_code":25263,"targetarea":2.8056758,"totpop":137194.718842,"country_id":"RWA","targetpop":5293.4960938,"new_mean":0.0127192,"totalarea":273.5635438}},{"type":"MultiPolygon","arcs":[[[160]],[[-160,161]]],"properties":{"name":"Nyagatare","gaul_code":25270,"targetarea":12.0126019,"totpop":126836.828712,"country_id":"RWA","targetpop":36174.147583,"new_mean":0.0343319,"totalarea":258.1007294}},{"type":"Polygon","arcs":[[-100,-82,162,-79,-119,163]],"properties":{"name":"Ngoma","gaul_code":25130,"targetarea":21.7746703,"totpop":69835.4357605,"country_id":"RWA","targetpop":55947.8676758,"new_mean":0.0286698,"totalarea":35.3493866}},{"type":"Polygon","arcs":[[164,-134]],"properties":{"name":"Karama","gaul_code":25166,"targetarea":0.9600047,"totpop":42457.1409302,"country_id":"RWA","targetpop":1658.7395019,"new_mean":0.0227525,"totalarea":74.4581687}},{"type":"Polygon","arcs":[[165,-144]],"properties":{"name":"Mabanza","gaul_code":25224,"targetarea":4.125263,"totpop":103339.276922,"country_id":"RWA","targetpop":8656.7420654,"new_mean":0.0558339,"totalarea":253.6002675}},{"type":"MultiPolygon","arcs":[[[166]],[[167,168]],[[169]]],"properties":{"name":"Nkumba","gaul_code":25257,"targetarea":7.8926397,"totpop":69639.0858698,"country_id":"RWA","targetpop":18129.7456055,"new_mean":0.0511453,"totalarea":90.3696494}},{"type":"MultiPolygon","arcs":[[[170,-110,-77]],[[-126,171]]],"properties":{"name":"Kanama","gaul_code":25181,"targetarea":17.1240012,"totpop":151955.247904,"country_id":"RWA","targetpop":49042.479126,"new_mean":0.0454001,"totalarea":209.4947485}},{"type":"Polygon","arcs":[[172,173,-3]],"properties":{"name":"Tambwe","gaul_code":25207,"targetarea":5.5487708,"totpop":74052.1599121,"country_id":"RWA","targetpop":17455.5913086,"new_mean":0.0233247,"totalarea":102.2758185}},{"type":"MultiPolygon","arcs":[[[-17,174]],[[-4,-174,175]]],"properties":{"name":"Kigoma","gaul_code":25193,"targetarea":7.0039787,"totpop":125026.700684,"country_id":"RWA","targetpop":21731.0705566,"new_mean":0.0251178,"totalarea":132.5103491}},{"type":"Polygon","arcs":[[-46,-31,-54,176,-57]],"properties":{"name":"Kicukiro","gaul_code":25245,"targetarea":33.8819953,"totpop":167294.198303,"country_id":"RWA","targetpop":162081.027954,"new_mean":0.0547579,"totalarea":38.4647088}},{"type":"Polygon","arcs":[[177]],"properties":{"name":"Kagano","gaul_code":25161,"targetarea":3.883518,"totpop":68542.5306551,"country_id":"RWA","targetpop":9487.6994629,"new_mean":0.0594518,"totalarea":193.5405598}},{"type":"MultiPolygon","arcs":[[[-87,178,-111]],[[179]]],"properties":{"name":"Giciye","gaul_code":25180,"targetarea":1.2050024,"totpop":78205.8045921,"country_id":"RWA","targetpop":3035.4609375,"new_mean":0.0589457,"totalarea":156.2106091}},{"type":"Polygon","arcs":[[180]],"properties":{"name":"Rusumo","gaul_code":25216,"targetarea":0.582662,"totpop":240914.698013,"country_id":"RWA","targetpop":1422.7395019,"new_mean":0.0410702,"totalarea":497.0804846}},{"type":"Polygon","arcs":[[181]],"properties":{"name":"Kinigi","gaul_code":25253,"targetarea":2.2965533,"totpop":93244.4284177,"country_id":"RWA","targetpop":5410.9298096,"new_mean":0.0400995,"totalarea":149.9923143}},{"type":"Polygon","arcs":[[182,183]],"properties":{"name":"Kibali","gaul_code":25145,"targetarea":19.1954312,"totpop":132394.459961,"country_id":"RWA","targetpop":55542.1921387,"new_mean":0.0315535,"totalarea":114.5500685}},{"type":"Polygon","arcs":[[-157,184]],"properties":{"name":"Muhazi","gaul_code":25213,"targetarea":3.7399644,"totpop":86126.1571083,"country_id":"RWA","targetpop":11689.4016113,"new_mean":0.0407187,"totalarea":123.2208245}},{"type":"MultiPolygon","arcs":[[[-66,-40,185]],[[186]],[[-70,187]],[[-137,-72,188]]],"properties":{"name":"Nyakinama","gaul_code":25258,"targetarea":2.8419238,"totpop":55086.5659485,"country_id":"RWA","targetpop":7637.392456,"new_mean":0.0649922,"totalarea":65.914331}},{"type":"Polygon","arcs":[[189,-184]],"properties":{"name":"Kinyami","gaul_code":25146,"targetarea":2.2887293,"totpop":66955.729126,"country_id":"RWA","targetpop":4610.7174072,"new_mean":0.0445034,"totalarea":117.7607002}},{"type":"MultiPolygon","arcs":[[[190]],[[191]]],"properties":{"name":"Runda","gaul_code":25204,"targetarea":3.643083,"totpop":90787.0307312,"country_id":"RWA","targetpop":7572.4685059,"new_mean":0.0631282,"totalarea":121.1952965}}]}},"arcs":[[[29.3480522,-1.5507521],[29.3457335,-1.5445785]],[[29.3457335,-1.5445785],[29.3333325,-1.5587498],[29.3480522,-1.5507521]],[[29.7985039,-2.2304938],[29.7953053,-2.2346179],[29.8035698,-2.2428205]],[[29.8035698,-2.2428205],[29.805372,-2.2445614]],[[29.805372,-2.2445614],[29.7985039,-2.2304938]],[[29.9135408,-2.1831964],[29.8889477,-2.1874037],[29.8983553,-2.205169],[29.9166658,-2.2087498],[29.9135408,-2.1831964]],[[30.5635022,-2.1381914],[30.5601066,-2.1230808],[30.5413403,-2.1136814],[30.5460684,-2.1348229]],[[30.5460684,-2.1348229],[30.5514793,-2.1308727],[30.5537491,-2.1238527],[30.5635022,-2.1381914]],[[30.5460684,-2.1348229],[30.5431632,-2.1540216],[30.5499992,-2.1587498],[30.5635022,-2.1381914]],[[30.0957999,-2.1320815],[30.0715975,-2.1391371],[30.0999992,-2.1587498],[30.0957999,-2.1320815]],[[28.9065533,-2.4946759],[28.9137669,-2.4850793]],[[28.9137669,-2.4850793],[28.9198895,-2.4771113],[28.9237591,-2.4555767]],[[28.9237591,-2.4555767],[28.9034009,-2.4621515],[28.8947257,-2.4853611],[28.891061,-2.4884774]],[[28.891061,-2.4884774],[28.8959961,-2.4890215],[28.9036963,-2.495409]],[[28.9036963,-2.495409],[28.9065533,-2.4946759]],[[28.9214835,-2.3882989],[28.9204419,-2.3801202],[28.8880363,-2.4078465],[28.8999992,-2.4170831],[28.9214835,-2.3882989]],[[29.775902,-2.3436011],[29.7623501,-2.3474879],[29.7532482,-2.3484242],[29.7502913,-2.3434017]],[[29.7502913,-2.3434017],[29.7448397,-2.3452569],[29.738492,-2.3624119],[29.7583325,-2.3670831],[29.7615063,-2.3619236],[29.7718253,-2.3555759],[29.775902,-2.3436011]],[[30.0310364,-1.9425358],[30.0250168,-1.9326674],[30.0236144,-1.9243786]],[[30.0236144,-1.9243786],[30.0002921,-1.9331069],[30.0037165,-1.948402]],[[30.0037165,-1.948402],[30.0172787,-1.9477972],[30.0310364,-1.9425358]],[[30.2526359,-1.3638035],[30.2379549,-1.377923],[30.2583325,-1.3837498],[30.2526359,-1.3638035]],[[29.6959953,-2.2401544],[29.6803865,-2.2479994],[29.6999992,-2.2587498],[29.6959953,-2.2401544]],[[29.8911304,-1.6645965],[29.8876619,-1.6484877],[29.8828364,-1.6509131]],[[29.8828364,-1.6509131],[29.8782978,-1.6536396]],[[29.8782978,-1.6536396],[29.8911304,-1.6645965]],[[30.0858994,-1.9660624],[30.0811691,-1.9583825],[30.0889797,-1.9466312],[30.0905609,-1.9381039],[30.0858479,-1.9304603],[30.0738716,-1.9247922],[30.0640831,-1.9238355],[30.0455647,-1.9332547]],[[30.0455647,-1.9332547],[30.0427151,-1.9379212],[30.0310364,-1.9425358]],[[30.0310364,-1.9425358],[30.0336437,-1.9491093],[30.0334473,-1.9621744],[30.030117,-1.9806011],[30.0329514,-1.9918736],[30.0452442,-1.9872425],[30.0464039,-1.9931086],[30.0545464,-1.9996471],[30.0666847,-2.0012956],[30.0805225,-1.9967753],[30.085453,-2.0001004]],[[30.085453,-2.0001004],[30.0855427,-1.9999723]],[[30.0855427,-1.9999723],[30.0895596,-1.9942794],[30.0934181,-1.9816629],[30.0926018,-1.9753362],[30.0858994,-1.9660624]],[[29.4583325,-1.6170831],[29.4583325,-1.6267184]],[[29.4583325,-1.6267184],[29.4648991,-1.6299949],[29.4739418,-1.6293968],[29.4833325,-1.6235862]],[[29.4833325,-1.6235862],[29.4833325,-1.6170831],[29.4583325,-1.6170831]],[[29.5098273,-1.6220829],[29.5162915,-1.6076674],[29.488492,-1.6131931],[29.4968326,-1.6183316]],[[29.4968326,-1.6183316],[29.5052814,-1.6136206],[29.5098273,-1.6220829]],[[29.4583325,-1.6170831],[29.4557121,-1.5990737],[29.4521726,-1.6024897]],[[29.4521726,-1.6024897],[29.4520097,-1.616162]],[[29.4520097,-1.616162],[29.4583325,-1.6170831]],[[29.5597035,-1.5698391],[29.5546398,-1.5661552]],[[29.5546398,-1.5661552],[29.5479884,-1.5682729]],[[29.5479884,-1.5682729],[29.5583325,-1.5754164],[29.5597035,-1.5698391]],[[30.2459953,-1.5318211],[30.2303865,-1.5396661],[30.2499992,-1.5504164],[30.2459953,-1.5318211]],[[30.0967236,-1.886431],[30.0880814,-1.8861966],[30.0790825,-1.8806332]],[[30.0790825,-1.8806332],[30.0594902,-1.8957623],[30.0477943,-1.9102898],[30.0455647,-1.9332547]],[[30.0858994,-1.9660624],[30.0972118,-1.965775],[30.1087494,-1.9566596],[30.1241512,-1.9588097],[30.1356354,-1.9515281],[30.1524773,-1.9575933],[30.1654625,-1.9659941]],[[30.1654625,-1.9659941],[30.1661663,-1.964842],[30.1641788,-1.934365],[30.1609573,-1.9255053],[30.144043,-1.9246999],[30.1311569,-1.9327542],[30.1214924,-1.9327542],[30.118269,-1.9295324],[30.104578,-1.9295324],[30.0989399,-1.9263108],[30.0967236,-1.886431]],[[29.7602856,-1.3713881],[29.737841,-1.3642836],[29.730533,-1.3881524],[29.7499992,-1.3920831],[29.7602856,-1.3713881]],[[28.891061,-2.4884774],[28.8900261,-2.497566],[28.8816261,-2.5098],[28.861557,-2.521863],[28.857687,-2.525563],[28.8581848,-2.5333819],[28.8664742,-2.5430009],[28.8793596,-2.5529434],[28.8656404,-2.531878],[28.8799308,-2.5220147],[28.8867342,-2.5121515],[28.8965975,-2.5053481],[28.9036963,-2.495409]],[[28.934649,-2.4874668],[28.9176102,-2.4808586],[28.9137669,-2.4850793]],[[28.9065533,-2.4946759],[28.934649,-2.4874668]],[[30.0037165,-1.948402],[30.0078279,-1.9667657],[30.0323397,-1.9612726],[30.0272941,-1.9837498],[30.0318676,-2.0041111],[30.0783326,-2.0158639]],[[30.0783326,-2.0158639],[30.085453,-2.0001004]],[[30.1241548,-2.0012397],[30.1199169,-1.9986703],[30.1122513,-2.0002036],[30.109951,-2.0071037],[30.1030502,-2.0105536],[30.0938511,-2.0025036],[30.0855427,-1.9999723]],[[30.0783326,-2.0158639],[30.096923,-2.0205662],[30.0915356,-2.0445733],[30.0999992,-2.0504164],[30.1132641,-2.0303481],[30.1241548,-2.0012397]],[[30.2300949,-1.9847091],[30.2241707,-1.9730955],[30.2165623,-1.97461],[30.2107372,-1.9796247],[30.2055798,-1.9768145],[30.1999226,-1.9798232],[30.1855621,-1.9819225],[30.1829033,-1.9720858],[30.1654625,-1.9659941]],[[30.1654625,-1.9659941],[30.1640015,-1.968387],[30.1383171,-1.968387],[30.1383171,-1.9756703],[30.1448345,-1.9768203],[30.154417,-1.9933037],[30.1548004,-2.0055308]],[[30.1548004,-2.0055308],[30.1617342,-1.9954848],[30.175227,-1.9886814],[30.1880525,-2.0072605],[30.2124992,-2.0017836],[30.2262196,-2.0048596]],[[30.2262196,-2.0048596],[30.2316685,-1.9954028],[30.2300949,-1.9847091]],[[30.4181967,-1.9422768],[30.4132641,-1.9558038],[30.4416658,-1.9754164],[30.4594067,-1.9485772],[30.4413566,-1.9361179],[30.4291658,-1.9388523],[30.4245817,-1.9378226],[30.4181967,-1.9422768]],[[28.9981537,-2.709234],[29.0163422,-2.723861],[29.0197746,-2.7118504],[29.0354158,-2.7025812],[29.0051098,-2.6807631],[28.999192,-2.6986933],[28.9981537,-2.709234]],[[29.0252866,-2.6050612],[29.0206509,-2.6010172]],[[29.0206509,-2.6010172],[29.0109298,-2.6064417]],[[29.0109298,-2.6064417],[29.0131177,-2.6212498],[29.0058911,-2.6700942],[29.0249156,-2.6749077],[29.0229346,-2.6628544],[29.0201815,-2.6461033],[29.028318,-2.6182036],[29.0280782,-2.6096866],[29.0252866,-2.6050612]],[[30.8126619,-2.2318211],[30.7970532,-2.2396661],[30.8166658,-2.2504164],[30.8126619,-2.2318211]],[[29.5546398,-1.5661552],[29.5624293,-1.5587508]],[[29.5624293,-1.5587508],[29.5667147,-1.5413181],[29.5576326,-1.5303481],[29.5382641,-1.5615574],[29.5479884,-1.5682729]],[[29.627306,-1.5204185],[29.6264935,-1.5154676],[29.6154289,-1.5084144],[29.6095142,-1.5008364],[29.6036142,-1.4995555]],[[29.6036142,-1.4995555],[29.6043062,-1.5111952]],[[29.6043062,-1.5111952],[29.6136074,-1.5139481],[29.6226315,-1.5208254]],[[29.6226315,-1.5208254],[29.6232782,-1.5208929]],[[29.6232782,-1.5208929],[29.627306,-1.5204185]],[[29.3076652,-1.7809015],[29.2880363,-1.7911798],[29.2999992,-1.8004164],[29.3076652,-1.7809015]],[[29.3216626,-1.7648126],[29.3141756,-1.7791111],[29.3249992,-1.7837498],[29.3216626,-1.7648126]],[[29.3065376,-1.705371],[29.3030701,-1.6908188],[29.2955627,-1.6867504],[29.2837677,-1.686195],[29.2791824,-1.6839019],[29.2722645,-1.6884029],[29.2715397,-1.697096],[29.2616741,-1.7103813]],[[29.2616741,-1.7103813],[29.277408,-1.7446466],[29.3083325,-1.7504164],[29.3043937,-1.7376804],[29.2956046,-1.7298191],[29.287727,-1.7116876],[29.3089324,-1.7129555]],[[29.3089324,-1.7129555],[29.3065376,-1.705371]],[[30.2487446,-1.5982695],[30.2583325,-1.6087498],[30.2659985,-1.5892348],[30.2529488,-1.596068],[30.2487446,-1.5982695]],[[29.7361851,-2.6392379],[29.731226,-2.6342657],[29.727808,-2.6145105],[29.7243905,-2.6055156]],[[29.7243905,-2.6055156],[29.7196769,-2.6127537],[29.7307764,-2.6391618]],[[29.7307764,-2.6391618],[29.7361851,-2.6392379]],[[29.728895,-2.5825503],[29.7378407,-2.5790009]],[[29.7378407,-2.5790009],[29.7355219,-2.5707594]],[[29.7355219,-2.5707594],[29.7266919,-2.572739],[29.728895,-2.5825503]],[[29.7471509,-2.1485935],[29.7398429,-2.1558933],[29.7499992,-2.1587498],[29.7471509,-2.1485935]],[[29.6403883,-1.6931659],[29.6352038,-1.6874481]],[[29.6352038,-1.6874481],[29.6350117,-1.6920232]],[[29.6350117,-1.6920232],[29.6403883,-1.6931659]],[[30.4276359,-1.1054702],[30.4129549,-1.1195896],[30.4333325,-1.1254164],[30.4276359,-1.1054702]],[[30.0915689,-1.859616],[30.0831046,-1.8553481],[30.0715975,-1.8720147],[30.0378084,-1.8912937],[30.0299308,-1.9220147],[30.0236144,-1.9243786]],[[30.0790825,-1.8806332],[30.0810661,-1.8729199],[30.0915689,-1.859616]],[[29.7547126,-2.0655783],[29.7365226,-2.0632257],[29.7388864,-2.0926397]],[[29.7388864,-2.0926397],[29.7436829,-2.0866501],[29.7487507,-2.0741496],[29.7547126,-2.0655783]],[[29.8782978,-1.6536396],[29.8743579,-1.657596]],[[29.8743579,-1.657596],[29.8911304,-1.6645965]],[[30.3564677,-1.9564993],[30.3491806,-1.9592519],[30.3475089,-1.9624444],[30.3583325,-1.9670831],[30.3564677,-1.9564993]],[[30.2262196,-2.0048596],[30.239143,-2.0077569],[30.2356274,-1.9920831],[30.2437817,-1.9556899],[30.229734,-1.9615918]],[[30.229734,-1.9615918],[30.2313881,-1.9757826],[30.2300949,-1.9847091]],[[29.7548672,-2.5806138],[29.7413566,-2.5694513],[29.7355219,-2.5707594]],[[29.7378407,-2.5790009],[29.7548672,-2.5806138]],[[30.4179516,-1.781284],[30.3965975,-1.8014581],[30.4249992,-1.8087498],[30.4179516,-1.781284]],[[29.6133292,-2.4981459],[29.6058423,-2.5124444],[29.6166658,-2.5170831],[29.6133292,-2.4981459]],[[30.140519,-1.9015156],[30.1382641,-1.8954848],[30.1059725,-1.8872003],[30.0965975,-1.8621515],[30.0915689,-1.859616]],[[30.0967236,-1.886431],[30.1138458,-1.889773],[30.1191368,-1.900291],[30.1270351,-1.900503],[30.1290512,-1.9053318],[30.140519,-1.9015156]],[[29.8538078,-1.8231703],[29.8391756,-1.8303725],[29.8583325,-1.8337498],[29.8538078,-1.8231703]],[[29.5468586,-1.7430734],[29.5422196,-1.7414391],[29.5308423,-1.7470392],[29.5499992,-1.7504164],[29.5468586,-1.7430734]],[[30.0554842,-2.2985935],[30.0481762,-2.3058933],[30.0583325,-2.3087498],[30.0554842,-2.2985935]],[[29.6661124,-2.2161798],[29.6471997,-2.2302423],[29.6749992,-2.2337498],[29.6661124,-2.2161798]],[[29.3312554,-1.6844939],[29.3207186,-1.6882745],[29.312727,-1.6793471],[29.2955721,-1.6714695],[29.2963533,-1.6583022],[29.2635047,-1.6432313],[29.2587891,-1.6552911],[29.2464447,-1.673694],[29.2405033,-1.690828],[29.2408965,-1.6981513],[29.2601066,-1.7069675],[29.2616741,-1.7103813]],[[29.3065376,-1.705371],[29.3114491,-1.6993762],[29.3182011,-1.6978091],[29.3274841,-1.7021067],[29.3384037,-1.6951751],[29.3312554,-1.6844939]],[[29.6350117,-1.6920232],[29.6321477,-1.6932847]],[[29.6321477,-1.6932847],[29.6309505,-1.695571],[29.6312705,-1.6959613],[29.6416658,-1.7004164],[29.6403883,-1.6931659]],[[29.7388864,-2.0926397],[29.7395499,-2.1008966],[29.7583325,-2.1170831],[29.7966137,-2.0709975],[29.7547126,-2.0655783]],[[29.8828364,-1.6509131],[29.8783215,-1.6531823]],[[29.8783215,-1.6531823],[29.8782978,-1.6536396]],[[29.0219664,-2.5995598],[29.0206509,-2.6010172]],[[29.0252866,-2.6050612],[29.0219664,-2.5995598]],[[29.7307764,-2.6391618],[29.7383646,-2.6452911]],[[29.7383646,-2.6452911],[29.7361851,-2.6392379]],[[29.0219664,-2.5995598],[29.0201652,-2.5965753],[29.0226717,-2.5796563],[29.0058097,-2.5717869],[29.0109298,-2.6064417]],[[28.934649,-2.4874668],[28.9367342,-2.4869317],[28.9237591,-2.4555767]],[[30.3850079,-1.6297964],[30.3999992,-1.6337498],[30.3954907,-1.6058282],[30.3832348,-1.5886],[30.378117,-1.6050374]],[[30.378117,-1.6050374],[30.3791485,-1.612079],[30.3850079,-1.6297964]],[[30.3971509,-2.2235935],[30.3898429,-2.2308933],[30.3999992,-2.2337498],[30.3971509,-2.2235935]],[[29.3749992,-1.6504164],[29.3703059,-1.6524237]],[[29.3703059,-1.6524237],[29.3741705,-1.6551075]],[[29.3741705,-1.6551075],[29.3749992,-1.6504164]],[[29.3749992,-1.6504164],[29.3939445,-1.6470799],[29.3796378,-1.6395847],[29.3749992,-1.6504164]],[[29.4221509,-1.6152602],[29.4148429,-1.62256],[29.4249992,-1.6254164],[29.4221509,-1.6152602]],[[29.4133292,-1.5898126],[29.4058423,-1.6041111],[29.4166658,-1.6087498],[29.4133292,-1.5898126]],[[29.3802563,-1.5593683],[29.3638663,-1.5739028],[29.3833325,-1.5837498],[29.3802563,-1.5593683]],[[29.3480522,-1.5507521],[29.3549308,-1.5470147],[29.3617342,-1.5204848],[29.3564968,-1.5197729],[29.347744,-1.54238],[29.3457335,-1.5445785]],[[29.5276359,-2.4721368],[29.5129549,-2.4862563],[29.5333325,-2.4920831],[29.5276359,-2.4721368]],[[29.5989073,-2.4661218],[29.5878919,-2.4587215]],[[29.5878919,-2.4587215],[29.5602856,-2.4641778],[29.5632316,-2.4791518],[29.5916658,-2.4837498],[29.5923417,-2.4821044],[29.5930837,-2.4802982],[29.5989073,-2.4661218]],[[29.6399896,-1.5226352],[29.6666658,-1.5254164],[29.6706046,-1.5043471],[29.6872225,-1.4895034],[29.6245597,-1.47492],[29.6035473,-1.4984308],[29.6036142,-1.4995555]],[[29.627306,-1.5204185],[29.6341534,-1.5105029],[29.6399896,-1.5226352]],[[30.5635897,-2.0010349],[30.5471997,-2.0155694],[30.5666658,-2.0254164],[30.5635897,-2.0010349]],[[29.4583325,-1.6267184],[29.4583325,-1.6337498],[29.4833325,-1.6337498],[29.4833325,-1.6235862]],[[29.4968326,-1.6183316],[29.5083325,-1.6254164],[29.5098273,-1.6220829]],[[29.4521726,-1.6024897],[29.4414025,-1.6128842],[29.4410978,-1.6145723],[29.4520097,-1.616162]],[[29.9621411,-2.1065037],[29.9475089,-2.1137058],[29.9666658,-2.1170831],[29.9621411,-2.1065037]],[[29.3557121,-2.1240737],[29.3398429,-2.1393894],[29.3583325,-2.1420831],[29.3557121,-2.1240737]],[[29.4188816,-2.0615692],[29.4096346,-2.0618522]],[[29.4096346,-2.0618522],[29.4166658,-2.0670831],[29.4188816,-2.0615692]],[[29.351285,-2.056284],[29.3299308,-2.0764581],[29.3583325,-2.0837498],[29.351285,-2.056284]],[[29.1381014,-2.3146254],[29.1304516,-2.336183],[29.1416658,-2.3420831],[29.1381014,-2.3146254]],[[30.229734,-1.9615918],[30.1964022,-1.9755955],[30.1827303,-1.9390395],[30.1450675,-1.9136814],[30.140519,-1.9015156]],[[29.7971509,-1.5402602],[29.7898429,-1.54756],[29.7999992,-1.5504164],[29.7971509,-1.5402602]],[[29.7833325,-1.5337498],[29.7731762,-1.5366062],[29.7804842,-1.543906],[29.7833325,-1.5337498]],[[29.7833325,-1.5337498],[29.7934887,-1.5308933],[29.7861808,-1.5235935],[29.7833325,-1.5337498]],[[30.378117,-1.6050374],[30.3715161,-1.6262384],[30.3850079,-1.6297964]],[[30.258127,-1.4503587],[30.2554842,-1.4402602],[30.2505581,-1.4451808],[30.258127,-1.4503587]],[[30.2909985,-1.8809015],[30.2713696,-1.8911798],[30.2833325,-1.9004164],[30.2909985,-1.8809015]],[[29.8783215,-1.6531823],[29.8743579,-1.657596]],[[29.7895825,-1.6313979],[29.7803865,-1.6461928],[29.7999992,-1.6504164],[29.7895825,-1.6313979]],[[30.5041872,-1.8769623],[30.5046234,-1.8901836],[30.5027599,-1.9001963],[30.4974518,-1.9057386],[30.4898942,-1.9081144]],[[30.4898942,-1.9081144],[30.4915519,-1.9134291],[30.5166658,-1.9170831],[30.5276196,-1.8926284],[30.5080151,-1.873156],[30.5067039,-1.8728782],[30.5041872,-1.8769623]],[[30.4114383,-1.2394388],[30.4166658,-1.2420831],[30.4264152,-1.2224623],[30.4122221,-1.2166461]],[[30.4122221,-1.2166461],[30.4143677,-1.2217574],[30.4104462,-1.2327174],[30.4114383,-1.2394388]],[[30.328173,-1.3119236],[30.338492,-1.3055759],[30.3448397,-1.2823338],[30.3276847,-1.2722426],[30.3107088,-1.3220554],[30.3249992,-1.3254164],[30.328173,-1.3119236]],[[30.4122221,-1.2166461],[30.405533,-1.2364516],[30.4114383,-1.2394388]],[[29.728895,-2.5825503],[29.7315747,-2.5944838],[29.7243905,-2.6055156]],[[29.7383646,-2.6452911],[29.7583325,-2.6504164],[29.7627721,-2.6323381],[29.7632071,-2.6305668],[29.7653312,-2.6219171],[29.7482576,-2.6101251],[29.7548672,-2.5806138]],[[29.5989073,-2.4661218],[29.6031893,-2.455698],[29.5878919,-2.4587215]],[[29.4188816,-2.0615692],[29.4279614,-2.0389744],[29.396451,-2.052044],[29.4096346,-2.0618522]],[[29.6749992,-1.4420831],[29.6941561,-1.4698256],[29.7034009,-1.446559],[29.6749992,-1.4420831]],[[29.6749992,-1.4420831],[29.6749992,-1.4337498]],[[29.6749992,-1.4337498],[29.6643221,-1.4379164],[29.6749992,-1.4420831]],[[29.6749992,-1.4337498],[29.70288,-1.4290134],[29.690673,-1.4134536],[29.6749992,-1.4337498]],[[29.3089324,-1.7129555],[29.3291658,-1.7121677],[29.3638175,-1.7142348],[29.3614087,-1.6736749],[29.3312554,-1.6844939]],[[29.3703059,-1.6524237],[29.3644197,-1.6549412],[29.3716137,-1.6695815],[29.3741705,-1.6551075]],[[29.7985039,-2.2304938],[29.7974275,-2.2282892],[29.7796867,-2.222617],[29.7721997,-2.2448093]],[[29.7721997,-2.2448093],[29.7854271,-2.2460327],[29.8035698,-2.2428205]],[[29.775902,-2.3436011],[29.7807934,-2.3292332],[29.7737622,-2.3222426],[29.763492,-2.3389093],[29.7502913,-2.3434017]],[[29.7721997,-2.2448093],[29.7999992,-2.2587498],[29.805372,-2.2445614]],[[30.1241548,-2.0012397],[30.1270174,-1.9935886],[30.1518709,-2.0097752],[30.1548004,-2.0055308]],[[29.1014152,-2.339129],[29.08802,-2.3309503],[29.080533,-2.3531183],[29.0916658,-2.3587498],[29.1014152,-2.339129]],[[29.6352038,-1.6874481],[29.6321477,-1.6932847]],[[29.5227239,-1.6791694],[29.5190602,-1.6781158],[29.5141756,-1.6874444],[29.5249992,-1.6920831],[29.5227239,-1.6791694]],[[30.7831788,-2.3832017],[30.7804842,-2.3735935],[30.7731762,-2.3808933],[30.7831788,-2.3832017]],[[29.5943025,-1.4388035],[29.5796216,-1.452923],[29.5999992,-1.4587498],[29.5943025,-1.4388035]],[[30.0799911,-1.5707751],[30.045214,-1.5634536],[30.0297029,-1.5927667],[30.091518,-1.6078788]],[[30.091518,-1.6078788],[30.0831261,-1.5947402],[30.0792542,-1.5791476],[30.0799911,-1.5707751]],[[30.5041872,-1.8769623],[30.4968253,-1.8889093],[30.4859855,-1.8955825],[30.4898942,-1.9081144]],[[29.5597035,-1.5698391],[29.5624293,-1.5587508]],[[29.6388175,-1.5402602],[29.6315096,-1.54756],[29.6416658,-1.5504164],[29.6388175,-1.5402602]],[[29.6043062,-1.5111952],[29.604768,-1.518963],[29.6226315,-1.5208254]],[[29.6232782,-1.5208929],[29.6399896,-1.5226352]],[[30.091518,-1.6078788],[30.0854158,-1.5719171],[30.0799911,-1.5707751]],[[29.996987,-1.9744864],[29.9976016,-1.9676466],[29.9966868,-1.964682],[29.9964524,-1.9639224],[29.9938468,-1.9554783],[29.9710604,-1.9664809],[29.996987,-1.9744864]],[[29.9638175,-1.9402602],[29.9565096,-1.94756],[29.9666658,-1.9504164],[29.9638175,-1.9402602]]],"bbox":[28.857687,-2.723861,30.8166658,-1.1054702]}