{"type":"Topology","objects":{"foo":{"type":"GeometryCollection","geometries":[{"type":"Polygon","arcs":[[0]],"properties":{"name":"Administrative unit not available","gaul_code":25304,"targetarea":17.2259887,"totpop":204635.65549,"country_id":"STP","targetpop":78522.7130127,"totalarea":858.5764756,"new_mean":0.0207744}}]}},"arcs":[[[6.7196169,0.3673311],[6.7236408,0.3749435],[6.7153992,0.3879005],[6.7116673,0.3885919],[6.7155917,0.3226711],[6.7499993,0.3162502],[6.7460605,0.3456529],[6.7371249,0.3451841],[6.731143,0.3518001],[6.7336508,0.3592063],[6.729637,0.3655166],[6.7196169,0.3673311]]],"bbox":[6.7116673,0.3162502,6.7499993,0.3885919]}