{"type":"Topology","objects":{"foo":{"type":"GeometryCollection","geometries":[{"type":"Polygon","arcs":[[0,1,2]],"properties":{"name":"Afrouk","gaul_code":65354,"targetarea":0.0100736,"totpop":28395.10709,"country_id":"TCD","targetpop":0,"totalarea":626.8768654,"new_mean":0.01309}},{"type":"Polygon","arcs":[[-2,3,4,5,6]],"properties":{"name":"Ndjamena","gaul_code":65629,"targetarea":311.9206042,"totpop":1401734.32407,"country_id":"TCD","targetpop":1356675.8042,"totalarea":393.5684046,"new_mean":0.011291}},{"type":"Polygon","arcs":[[7,-3,-7]],"properties":{"name":"Kadada","gaul_code":65502,"targetarea":6.4808962,"totpop":67061.9181709,"country_id":"TCD","targetpop":12790.8941803,"totalarea":889.6016422,"new_mean":0.0102532}},{"type":"Polygon","arcs":[[8,-5]],"properties":{"name":"El-fass","gaul_code":65463,"targetarea":2.1926939,"totpop":58411.6164656,"country_id":"TCD","targetpop":2239.7822876,"totalarea":879.4565396,"new_mean":0.0120788}}]}},"arcs":[[[15.0495922,12.2250886],[15.0475153,12.2251028]],[[15.0475153,12.2251028],[15.0489998,12.2250004]],[[15.0489998,12.2250004],[15.0495922,12.2250886]],[[15.0475153,12.2251028],[15.0048495,12.2083278],[14.9880363,12.1865464],[14.9702954,12.1728501],[14.9398755,12.160403],[14.9249992,12.1662502],[14.945149,12.1830511],[14.9279289,12.1947292],[14.8926424,12.1631903],[14.9096997,12.1509588],[14.9270988,12.1266872],[14.9465161,12.1127712],[14.9576121,12.0972877],[14.9820859,12.0923673],[14.994606,12.1073637],[15.009346,12.112401],[15.0380859,12.0962439],[15.0347719,12.0690985],[15.049963,12.0646992],[15.0610367,12.0414354],[15.0455965,12.0178509],[15.0577949,12.0040883],[15.1365064,11.9876206],[15.1372992,11.9913791]],[[15.1372992,11.9913791],[15.1379995,12.0109997],[15.1470003,12.0439997],[15.156099,12.0614982]],[[15.156099,12.0614982],[15.1541214,12.0748785]],[[15.1541214,12.0748785],[15.1309996,12.0979996],[15.0900002,12.1520004],[15.0559998,12.1920004],[15.0489998,12.2250004]],[[15.1541214,12.0748785],[15.152994,12.0825059],[15.1369621,12.0948797],[15.104703,12.1376206],[15.0673658,12.1816636],[15.0495922,12.2250886]],[[15.1372992,11.9913791],[15.1452954,12.0292873],[15.156099,12.0614982]]],"bbox":[14.8926424,11.9876206,15.156099,12.2251028]}