{"type":"Topology","objects":{"foo":{"type":"GeometryCollection","geometries":[{"type":"Polygon","arcs":[[0,1,2]],"properties":{"name":"Ave","gaul_code":65273,"targetarea":15.4868563,"totpop":195996.699202,"country_id":"TGO","targetpop":72516.5212402,"totalarea":945.2401206,"new_mean":0.0176618}},{"type":"Polygon","arcs":[[3]],"properties":{"name":"Ogou","gaul_code":65283,"targetarea":6.3561934,"totpop":475998.915772,"country_id":"TGO","targetpop":11815.0837402,"totalarea":4387.5322296,"new_mean":0.0210799}},{"type":"MultiPolygon","arcs":[[[4]],[[5,6]],[[7]],[[8]],[[9]]],"properties":{"name":"Lacs","gaul_code":27395,"targetarea":13.3833639,"totpop":293768.130341,"country_id":"TGO","targetpop":17592.73349,"totalarea":717.8755739,"new_mean":0.0188837}},{"type":"MultiPolygon","arcs":[[[10,11,-2]],[[12,13]]],"properties":{"name":"Zio","gaul_code":65288,"targetarea":40.9539286,"totpop":596456.102235,"country_id":"TGO","targetpop":208635.193665,"totalarea":2264.1274675,"new_mean":0.0181163}},{"type":"Polygon","arcs":[[-13,14,-11,-1,15,-7,16]],"properties":{"name":"Golfe","gaul_code":27394,"targetarea":304.9570829,"totpop":2439320.95705,"country_id":"TGO","targetpop":2426990.07713,"totalarea":319.4196292,"new_mean":0.0179749}},{"type":"Polygon","arcs":[[17]],"properties":{"name":"Kloto","gaul_code":65280,"targetarea":5.9513104,"totpop":281002.369253,"country_id":"TGO","targetpop":11745.7161865,"totalarea":1593.3632762,"new_mean":0.018169}},{"type":"MultiPolygon","arcs":[[[18]],[[19]]],"properties":{"name":"Tone","gaul_code":65287,"targetarea":18.5731917,"totpop":531891.673668,"country_id":"TGO","targetpop":37211.2982178,"totalarea":1488.5771315,"new_mean":0.0160005}},{"type":"Polygon","arcs":[[20]],"properties":{"name":"Kozah","gaul_code":27393,"targetarea":9.3746838,"totpop":250866.431158,"country_id":"TGO","targetpop":18547.145752,"totalarea":1073.4947175,"new_mean":0.0225453}},{"type":"Polygon","arcs":[[21]],"properties":{"name":"Tchaoudjo","gaul_code":27387,"targetarea":3.0027258,"totpop":230658.057913,"country_id":"TGO","targetpop":5640.4438477,"totalarea":2388.5097171,"new_mean":0.0211723}},{"type":"Polygon","arcs":[[22]],"properties":{"name":"Blitta","gaul_code":65275,"targetarea":47.1953862,"totpop":294796.951853,"country_id":"TGO","targetpop":152021.478149,"totalarea":3202.6412262,"new_mean":0.021702}},{"type":"Polygon","arcs":[[22]],"properties":{"name":"Blitta","gaul_code":65275,"targetarea":47.1953862,"totpop":294796.951853,"country_id":"TGO","targetpop":152021.478149,"totalarea":3202.6412262,"new_mean":0.0239413}}]}},"arcs":[[[1.1034616,6.1610576],[1.107222,6.1727781],[1.109722,6.2116671],[1.1150113,6.2594795]],[[1.1150113,6.2594795],[1.1146455,6.2594562]],[[1.1146455,6.2594562],[1.1043938,6.2544826],[1.0952629,6.2356594],[1.095914,6.2037502],[1.0950676,6.1620835],[1.1034616,6.1610576]],[[1.2026848,7.7535996],[1.2107089,7.7769558],[1.1840976,7.7678168],[1.1919426,7.7449977],[1.2083326,7.7412502],[1.2026848,7.7535996]],[[1.4817864,6.2048977],[1.4487297,6.2107163],[1.4563958,6.1950059],[1.4749993,6.1912502],[1.4817864,6.2048977]],[[1.3971627,6.1838815],[1.4040846,6.2126776],[1.3976685,6.2125469]],[[1.3976685,6.2125469],[1.395555,6.1969452],[1.3971627,6.1838815]],[[1.5517596,6.2098845],[1.5692213,6.2259833],[1.5377271,6.2188747],[1.5517596,6.2098845]],[[1.5914756,6.2173306],[1.5883294,6.2351874],[1.5808424,6.2208848],[1.5914756,6.2173306]],[[1.6083326,6.2329169],[1.6208163,6.2267076],[1.6283018,6.2303637],[1.6293773,6.2405834],[1.6139641,6.2440497],[1.6083326,6.2329169]],[[1.1150113,6.2594795],[1.1150727,6.2596634]],[[1.1150727,6.2596634],[1.1146455,6.2594562]],[[1.1594453,6.2840781],[1.184445,6.2777781],[1.213889,6.2641668],[1.225,6.2544451],[1.239444,6.2358332],[1.246944,6.2172222],[1.258611,6.2005548],[1.266389,6.1950002],[1.283056,6.1902781],[1.2958243,6.190834]],[[1.2958243,6.190834],[1.270914,6.2288316],[1.2425286,6.2662502],[1.1782708,6.3036688],[1.1594453,6.2840781]],[[1.1594453,6.2840781],[1.1542473,6.2786688],[1.1150727,6.2596634]],[[1.1034616,6.1610576],[1.1485098,6.1555514],[1.191649,6.1550188],[1.191781,6.1044168],[1.238395,6.122643],[1.27816,6.1339521],[1.3016019,6.143405],[1.3124179,6.1454982],[1.3953443,6.1763169],[1.3971627,6.1838815]],[[1.3976685,6.2125469],[1.3715291,6.2120144],[1.3673513,6.2112277],[1.2980136,6.1874945],[1.2958243,6.190834]],[[0.6352857,6.9360988],[0.6213697,6.904446],[0.6499993,6.8995835],[0.6352857,6.9360988]],[[0.2111321,10.846784],[0.2249179,10.8745265],[0.1872877,10.8935654],[0.1805331,10.8635484],[0.198274,10.8545762],[0.1895501,10.8367092],[0.2083326,10.8329168],[0.2111321,10.846784]],[[0.3121412,10.9184963],[0.297509,10.9112941],[0.3166659,10.9079168],[0.3121412,10.9184963]],[[1.2049309,9.5628485],[1.1914381,9.5696519],[1.1724277,9.5421291],[1.2083326,9.5329168],[1.2049309,9.5628485]],[[1.1430169,8.9944321],[1.1297031,8.979446],[1.1583326,8.9745835],[1.1430169,8.9944321]],[[1.0046054,8.3177476],[1.0367343,8.3312811],[1.0138502,8.3782904],[0.9626946,8.3409165],[0.9546217,8.2991481],[0.9999993,8.2912502],[1.0046054,8.3177476]]],"bbox":[0.1805331,6.1044168,1.6293773,10.9184963]}