{"type":"Topology","objects":{"foo":{"type":"GeometryCollection","geometries":[{"type":"Polygon","arcs":[[0]],"properties":{"name":"Gissarskiy","gaul_code":37620,"targetarea":20.8861236,"totpop":209112.330439,"country_id":"TJK","targetpop":57141.8104858,"new_mean":0,"totalarea":666.7075085}},{"type":"Polygon","arcs":[[1]],"properties":{"name":"Ura-Tubinskiy","gaul_code":37615,"targetarea":4.3546461,"totpop":212180.854313,"country_id":"TJK","targetpop":11547.0617676,"new_mean":4.8867413e-7,"totalarea":665.0832379}},{"type":"Polygon","arcs":[[2]],"properties":{"name":"Shugnanskiy","gaul_code":37580,"targetarea":6.9731025,"totpop":66385.1553453,"country_id":"TJK","targetpop":19465.4886475,"new_mean":0,"totalarea":4675.9512986}},{"type":"Polygon","arcs":[[3]],"properties":{"name":"Isfarinskiy","gaul_code":37607,"targetarea":18.7575113,"totpop":260560.805599,"country_id":"TJK","targetpop":57801.2827454,"new_mean":0.0000249,"totalarea":955.5436796}},{"type":"MultiPolygon","arcs":[[[4]],[[5]]],"properties":{"name":"Kofarnohon","gaul_code":37622,"targetarea":39.1723276,"totpop":421276.721092,"country_id":"TJK","targetpop":92147.8496704,"new_mean":0,"totalarea":3877.1685575}},{"type":"MultiPolygon","arcs":[[[6]],[[7]],[[8,9]]],"properties":{"name":"Vahshskiy","gaul_code":37600,"targetarea":21.6382913,"totpop":378029.772475,"country_id":"TJK","targetpop":55686.3272705,"new_mean":0,"totalarea":1163.4621754}},{"type":"Polygon","arcs":[[10]],"properties":{"name":"Parharskiy","gaul_code":37595,"targetarea":1.4932248,"totpop":132396.160275,"country_id":"TJK","targetpop":2284.5496826,"new_mean":0,"totalarea":1349.6550859}},{"type":"Polygon","arcs":[[11]],"properties":{"name":"Dangara","gaul_code":37584,"targetarea":2.9756591,"totpop":204224.911352,"country_id":"TJK","targetpop":6104.6301269,"new_mean":0,"totalarea":2231.0274857}},{"type":"Polygon","arcs":[[12]],"properties":{"name":"Nauskiy","gaul_code":37611,"targetarea":2.6079426,"totpop":129046.890972,"country_id":"TJK","targetpop":5094.8572388,"new_mean":0,"totalarea":478.5152458}},{"type":"MultiPolygon","arcs":[[[13]],[[14]]],"properties":{"name":"Kabodien","gaul_code":37588,"targetarea":10.550066,"totpop":229309.916847,"country_id":"TJK","targetpop":21418.7585754,"new_mean":0,"totalarea":1784.7397808}},{"type":"MultiPolygon","arcs":[[[15]],[[16]]],"properties":{"name":"Yvanskiy","gaul_code":37602,"targetarea":10.5557219,"totpop":264734.748907,"country_id":"TJK","targetpop":25270.1828613,"new_mean":0,"totalarea":956.6382988}},{"type":"Polygon","arcs":[[17]],"properties":{"name":"Kurgan-Tjube","gaul_code":37592,"targetarea":9.3172341,"totpop":141416.711218,"country_id":"TJK","targetpop":19099.6810303,"new_mean":0,"totalarea":355.3933422}},{"type":"MultiPolygon","arcs":[[[18]],[[19]],[[20]]],"properties":{"name":"Kanibadamskiy","gaul_code":37608,"targetarea":15.7034214,"totpop":212644.707468,"country_id":"TJK","targetpop":31576.8869629,"new_mean":0.0000037806848,"totalarea":797.7941476}},{"type":"MultiPolygon","arcs":[[[21,-10]],[[22]],[[23]],[[24]],[[25]],[[26]],[[27]]],"properties":{"name":"Bokhtar","gaul_code":37583,"targetarea":51.4933599,"totpop":441965.152748,"country_id":"TJK","targetpop":121936.554565,"new_mean":0,"totalarea":898.9537875}},{"type":"Polygon","arcs":[[28]],"properties":{"name":"Voseysky","gaul_code":37601,"targetarea":5.5301723,"totpop":204730.812773,"country_id":"TJK","targetpop":12700.8466187,"new_mean":0,"totalarea":759.4618462}},{"type":"Polygon","arcs":[[29]],"properties":{"name":"Penjikenskiy","gaul_code":37612,"targetarea":7.0602648,"totpop":289758.416256,"country_id":"TJK","targetpop":16367.6289062,"new_mean":5.6890781e-7,"totalarea":3498.1069938}},{"type":"Polygon","arcs":[[30]],"properties":{"name":"Muminobod","gaul_code":37594,"targetarea":2.1588722,"totpop":130696.114372,"country_id":"TJK","targetpop":6356.9060059,"new_mean":0.0001423,"totalarea":1309.3343187}},{"type":"MultiPolygon","arcs":[[[31]],[[32]],[[33]],[[34]],[[35]]],"properties":{"name":"Leninskiy","gaul_code":37623,"targetarea":164.0702625,"totpop":1586121.2624,"country_id":"TJK","targetpop":1211897.87183,"new_mean":0,"totalarea":2060.3888223}},{"type":"MultiPolygon","arcs":[[[36]],[[37]],[[38]],[[39]]],"properties":{"name":"Hojenskiy","gaul_code":37606,"targetarea":107.3738492,"totpop":676244.472205,"country_id":"TJK","targetpop":288650.143188,"new_mean":0.0000013823254,"totalarea":2651.6834974}},{"type":"Polygon","arcs":[[40]],"properties":{"name":"Kulyab","gaul_code":37590,"targetarea":35.4386093,"totpop":227904.968197,"country_id":"TJK","targetpop":83078.1766968,"new_mean":0,"totalarea":337.4174388}},{"type":"MultiPolygon","arcs":[[[41]],[[42]]],"properties":{"name":"Rasulov","gaul_code":37613,"targetarea":12.9818375,"totpop":146930.213797,"country_id":"TJK","targetpop":25038.4332886,"new_mean":0.0000849,"totalarea":379.3862906}},{"type":"MultiPolygon","arcs":[[[43]],[[44]],[[45]],[[46]]],"properties":{"name":"Tursunzade","gaul_code":37629,"targetarea":20.2194043,"totpop":299125.129298,"country_id":"TJK","targetpop":43769.3805542,"new_mean":0,"totalarea":1046.0475139}},{"type":"Polygon","arcs":[[47]],"properties":{"name":"Kumsangirskiy","gaul_code":37591,"targetarea":4.0702499,"totpop":109671.451405,"country_id":"TJK","targetpop":8600.9299316,"new_mean":0,"totalarea":791.6940374}}]}},"arcs":[[[68.5416657,38.5579167],[68.5378896,38.5366989],[68.521581,38.5231552],[68.5508291,38.51047],[68.5792885,38.5133696],[68.5841994,38.5238659],[68.5712881,38.5541264],[68.5416657,38.5579167]],[[68.9374665,39.9580713],[68.9136872,39.9779118],[68.9216787,39.9462387],[68.9416657,39.9412501],[68.9374665,39.9580713]],[[71.5845368,37.4932378],[71.5416494,37.5029871],[71.5299306,37.4867416],[71.5916657,37.4829167],[71.5845368,37.4932378]],[[70.6546051,40.1287989],[70.6297516,40.1510014],[70.5877269,40.1136642],[70.6333323,40.0995834],[70.6546051,40.1287989]],[[68.9216243,38.5274934],[68.949999,38.5245834],[68.9435049,38.5355331],[68.9207985,38.5300648],[68.9216243,38.5274934]],[[69.0583323,38.5829167],[69.0481924,38.5692916],[69.0332184,38.5718714],[69.0211579,38.5880844],[68.9964508,38.5777654],[69.0052236,38.5267807],[69.0213043,38.5295496],[69.0291657,38.5189824],[69.0439931,38.5389185],[69.0703603,38.562883],[69.0847809,38.5604009],[69.1118805,38.5691004],[69.0785472,38.5781377],[69.074999,38.5829167],[69.0583323,38.5829167]],[[68.649999,37.6079167],[68.6364573,37.5954167],[68.6659821,37.5629521],[68.6787099,37.5997095],[68.649999,37.6079167]],[[68.6526357,37.7111984],[68.6379547,37.6970749],[68.6583323,37.6912501],[68.6526357,37.7111984]],[[68.8166647,37.7245789],[68.8021474,37.7119796],[68.8416657,37.6912501],[68.8567861,37.7141403],[68.8500024,37.718825]],[[68.8500024,37.718825],[68.8166647,37.7245789]],[[69.4159984,37.5024337],[69.3963694,37.4921514],[69.4083323,37.4829167],[69.4159984,37.5024337]],[[69.3566885,38.1047165],[69.3392894,38.1107162],[69.3305329,38.0951807],[69.349999,38.0912501],[69.3566885,38.1047165]],[[69.374999,40.1495834],[69.3771746,40.1418228],[69.3816238,40.1431995],[69.374999,40.1495834]],[[68.151415,37.2692082],[68.1380198,37.2773829],[68.1305329,37.2552149],[68.1416657,37.2495834],[68.151415,37.2692082]],[[68.1987295,37.4116684],[68.1943512,37.4312179],[68.1766917,37.4272628],[68.1800934,37.4120834],[68.1759918,37.3937403],[68.1916657,37.3829167],[68.1987295,37.4116684]],[[69.0493317,38.2774337],[69.0297028,38.2671514],[69.0416657,38.2579167],[69.0493317,38.2774337]],[[69.059374,38.3211166],[69.013264,38.3217737],[69.038264,38.304513],[69.049999,38.2829167],[69.059374,38.3211166]],[[68.6637685,37.7954106],[68.6502269,37.8162033],[68.6269684,37.8010584],[68.6318512,37.7792383],[68.649999,37.7745834],[68.6637685,37.7954106]],[[70.357958,40.2506678],[70.3301585,40.2451441],[70.349999,40.2329167],[70.357958,40.2506678]],[[70.3833323,40.2495834],[70.4117177,40.256869],[70.3971832,40.2696538],[70.3833323,40.2495834]],[[70.4451976,40.2952987],[70.4469228,40.306991],[70.4153473,40.3023239],[70.4047028,40.2822779],[70.449999,40.2745834],[70.4451976,40.2952987]],[[68.8500024,37.718825],[68.8247386,37.7362716],[68.8166647,37.7245789]],[[68.8229319,37.7621933],[68.8110342,37.7857162],[68.7888662,37.7706446],[68.7948232,37.7512212],[68.8166657,37.7495834],[68.8229319,37.7621933]],[[68.8390452,37.8592615],[68.8231761,37.8439438],[68.8416657,37.8412501],[68.8390452,37.8592615]],[[68.8024079,37.860942],[68.7666657,37.8474675],[68.7335928,37.8599329],[68.7355947,37.8361882],[68.755305,37.8298914],[68.7613597,37.8192754],[68.7916657,37.8162501],[68.7977204,37.8268641],[68.8193675,37.8392115],[68.8024079,37.860942]],[[68.7707998,37.884585],[68.7465973,37.8775273],[68.774999,37.8579167],[68.7707998,37.884585]],[[68.9437002,37.8787765],[68.9186676,37.8857162],[68.9055329,37.8614222],[68.9333323,37.8579167],[68.9437002,37.8787765]],[[68.8361481,37.9613205],[68.7965973,37.953097],[68.8061839,37.9411992],[68.8291982,37.9463587],[68.8361481,37.9613205]],[[69.556249,37.7935979],[69.547053,37.778803],[69.5666657,37.7745834],[69.556249,37.7935979]],[[67.5916657,39.4912501],[67.6074046,39.4841985],[67.6438467,39.495549],[67.598762,39.5027613],[67.5916657,39.4912501]],[[70.0409983,38.1191004],[70.0213694,38.108818],[70.0333323,38.0995834],[70.0409983,38.1191004]],[[68.7736318,38.4342921],[68.7881826,38.4447291],[68.7951487,38.4611597],[68.7381826,38.4291875],[68.7666657,38.4245834],[68.7736318,38.4342921]],[[68.6618317,38.5113388],[68.6380361,38.49089],[68.6666657,38.4829167],[68.6618317,38.5113388]],[[68.8666657,38.5162501],[68.8281728,38.5130722],[68.8218252,38.4975692],[68.8630687,38.5104171],[68.8666657,38.5162501]],[[68.6416657,38.5245834],[68.6475088,38.5161219],[68.6748362,38.5222478],[68.686734,38.5356531],[68.6416657,38.5245834]],[[68.8416657,38.5412501],[68.8795075,38.5350347],[68.8952952,38.5532536],[68.8369619,38.5615463],[68.8036286,38.5948796],[68.78107,38.6379806],[68.7609528,38.6350082],[68.7652171,38.6061426],[68.7049795,38.5893661],[68.699999,38.5829167],[68.7192047,38.5710881],[68.708723,38.53747],[68.7278636,38.5037501],[68.7353994,38.4795496],[68.7051585,38.4692408],[68.7301585,38.4547388],[68.7377757,38.4423589],[68.7492178,38.4759119],[68.7686513,38.4819646],[68.7881012,38.4683049],[68.7948395,38.4880722],[68.8067536,38.4954167],[68.7820465,38.510645],[68.8134918,38.5277613],[68.824999,38.5412501],[68.8416657,38.5412501]],[[69.8383779,40.1957483],[69.8119131,40.2115463],[69.7880361,40.1906112],[69.8333323,40.1829167],[69.8383779,40.1957483]],[[69.7666657,40.2579167],[69.8089345,40.2614954],[69.8180654,40.2778366],[69.7709463,40.2645919],[69.7666657,40.2579167]],[[69.7666657,40.2579167],[69.7456696,40.2539087],[69.7359365,40.2332626],[69.684667,40.2603825],[69.7134105,40.2870061],[69.6653473,40.3022221],[69.7029938,40.3141423],[69.6685374,40.3285914],[69.5926911,40.3020024],[69.5561513,40.2648442],[69.5958812,40.2451441],[69.6040029,40.2539087],[69.6306631,40.2664901],[69.6456696,40.2573735],[69.6203278,40.2454127],[69.6385569,40.2372421],[69.6543122,40.2542404],[69.6799632,40.2532231],[69.6786286,40.2192387],[69.7407217,40.2217005],[69.7666657,40.2579167]],[[69.6563304,40.5863632],[69.621223,40.5630457],[69.649999,40.5579167],[69.6563304,40.5863632]],[[69.8105796,37.9845251],[69.7945954,37.9617579],[69.7962881,37.9450587],[69.746223,37.9263066],[69.7628896,37.9124679],[69.7704417,37.8866989],[69.7916657,37.8829167],[69.8120595,37.9205958],[69.8262739,37.9756433],[69.8105796,37.9845251]],[[69.4747386,40.1517074],[69.5213694,40.1615463],[69.5286286,40.1746485],[69.4533356,40.1635218],[69.4553375,40.1499944],[69.4747386,40.1517074]],[[69.5223786,40.2259282],[69.5065094,40.2106104],[69.524999,40.2079167],[69.5223786,40.2259282]],[[68.1585928,38.5274948],[68.1292471,38.5115137],[68.1416657,38.4995834],[68.1585928,38.5274948]],[[68.2286286,38.5042872],[68.2523428,38.5139897],[68.240152,38.528213],[68.2047028,38.5152491],[68.2286286,38.5042872]],[[68.3070819,38.5621835],[68.3137073,38.579852],[68.2792796,38.5770858],[68.2544749,38.5557622],[68.274999,38.5495834],[68.2898916,38.5635645],[68.3070819,38.5621835]],[[68.2416657,38.5662501],[68.232779,38.5838201],[68.2138662,38.5697555],[68.2416657,38.5662501]],[[68.689973,37.3545985],[68.677001,37.3607162],[68.6555329,37.3447555],[68.6833323,37.3412501],[68.689973,37.3545985]]],"bbox":[67.5916657,37.2495834,71.5916657,40.5863632]}