{"type":"Topology","objects":{"foo":{"type":"GeometryCollection","geometries":[{"type":"Polygon","arcs":[[0]],"properties":{"name":"Administrative unit not available","gaul_code":27417,"targetarea":19.0956931,"totpop":54552.9888916,"country_id":"TTO","targetpop":39039.9074707,"new_mean":0.0986623,"totalarea":30.7414997}},{"type":"MultiPolygon","arcs":[[[1]],[[2,3,4]]],"properties":{"name":"Administrative unit not available","gaul_code":27409,"targetarea":33.1211387,"totpop":102668.561951,"country_id":"TTO","targetpop":73680.9779053,"new_mean":0.0690321,"totalarea":64.5476161}},{"type":"Polygon","arcs":[[5,6]],"properties":{"name":"Administrative unit not available","gaul_code":27408,"targetarea":10.7639929,"totpop":39592.6887207,"country_id":"TTO","targetpop":30761.0328369,"new_mean":0.0531713,"totalarea":17.7075803}},{"type":"Polygon","arcs":[[7,8,9,10,11]],"properties":{"name":"Administrative unit not available","gaul_code":27414,"targetarea":15.1058376,"totpop":30479.6219482,"country_id":"TTO","targetpop":30479.6219482,"new_mean":0.2101369,"totalarea":15.1558989}},{"type":"MultiPolygon","arcs":[[[12,-4,13]],[[14,15,-10,16,17]],[[18]]],"properties":{"name":"Administrative unit not available","gaul_code":27418,"targetarea":41.9148633,"totpop":145553.630388,"country_id":"TTO","targetpop":87522.5681152,"new_mean":0.0821999,"totalarea":202.7086627}},{"type":"MultiPolygon","arcs":[[[-16,19,-11]],[[20,-8]]],"properties":{"name":"Administrative unit not available","gaul_code":27411,"targetarea":24.1338989,"totpop":91036.2341413,"country_id":"TTO","targetpop":42022.8278198,"new_mean":0.0725409,"totalarea":128.8231549}},{"type":"MultiPolygon","arcs":[[[-14,-3,21]],[[22,-6]],[[-18,23]]],"properties":{"name":"Administrative unit not available","gaul_code":27422,"targetarea":25.8884034,"totpop":228958.464143,"country_id":"TTO","targetpop":49081.0545654,"new_mean":0.0708616,"totalarea":540.4180834}}]}},"arcs":[[[-61.430656,10.3131058],[-61.4372359,10.3136371],[-61.4557737,10.3053308],[-61.4558411,10.2966995],[-61.465271,10.2749271],[-61.4760475,10.2593737],[-61.4705859,10.2499964],[-61.4661283,10.2504587],[-61.4634933,10.2547389],[-61.4372807,10.2636704],[-61.430656,10.3131058]],[[-61.4368983,10.5603745],[-61.4445399,10.538821],[-61.4333338,10.5329168],[-61.4368983,10.5603745]],[[-61.4118148,10.5652537],[-61.4211273,10.5656948]],[[-61.4211273,10.5656948],[-61.4263663,10.5659433]],[[-61.4263663,10.5659433],[-61.4189621,10.5329168],[-61.4217697,10.5204168],[-61.4181401,10.5042385],[-61.4000005,10.4995835],[-61.3965988,10.5045151],[-61.3784022,10.5113185],[-61.3767898,10.5176027],[-61.3742566,10.5274758],[-61.366895,10.5561672],[-61.3799461,10.5637418],[-61.3889015,10.5641667],[-61.3865076,10.5534694],[-61.3940516,10.5378485],[-61.4034022,10.5628485],[-61.4118148,10.5652537]],[[-61.2647638,10.6125491],[-61.2757454,10.6301317],[-61.2748222,10.6464472],[-61.2886645,10.6520452]],[[-61.2886645,10.6520452],[-61.2968104,10.6114284],[-61.2666671,10.6079168],[-61.2647638,10.6125491]],[[-61.5396273,10.6814168],[-61.5434608,10.6839151],[-61.5619777,10.674609]],[[-61.5619777,10.674609],[-61.5415497,10.6678581],[-61.5231743,10.6502914],[-61.4986,10.6425143]],[[-61.4986,10.6425143],[-61.494236,10.6501064],[-61.4980583,10.6626673],[-61.5127563,10.6775808],[-61.5241318,10.6784916]],[[-61.5241318,10.6784916],[-61.5395431,10.6813619]],[[-61.5395431,10.6813619],[-61.5396273,10.6814168]],[[-61.4216484,10.5680653],[-61.4263663,10.5659433]],[[-61.4211273,10.5656948],[-61.4216484,10.5680653]],[[-61.4302754,10.6595054],[-61.4378097,10.6617743],[-61.4485763,10.6859076],[-61.4638432,10.6681911],[-61.5130132,10.6868475],[-61.5072276,10.7026007]],[[-61.5072276,10.7026007],[-61.5231056,10.6881619],[-61.5241318,10.6784916]],[[-61.4986,10.6425143],[-61.4705246,10.6373928],[-61.4412358,10.6210516],[-61.4321563,10.6203226]],[[-61.4321563,10.6203226],[-61.4330864,10.6480932],[-61.4302754,10.6595054]],[[-61.4723231,10.7352565],[-61.4862879,10.7116563],[-61.4583338,10.7079168],[-61.4723231,10.7352565]],[[-61.5072276,10.7026007],[-61.5128097,10.7123928],[-61.5395431,10.6813619]],[[-61.5396273,10.6814168],[-61.5371424,10.7123521],[-61.5461431,10.7201076],[-61.5573003,10.7451076],[-61.564657,10.7348049],[-61.5621424,10.703502],[-61.5802052,10.6780278],[-61.5619777,10.674609]],[[-61.4118148,10.5652537],[-61.4216484,10.5680653]],[[-61.2647638,10.6125491],[-61.2616297,10.6201768],[-61.2661951,10.6432725],[-61.2873784,10.658458],[-61.2886645,10.6520452]],[[-61.4321563,10.6203226],[-61.4289718,10.6200669],[-61.3811691,10.6376206],[-61.3333338,10.6329168],[-61.344076,10.6449367],[-61.4083338,10.6495835],[-61.4121912,10.6540594],[-61.4302754,10.6595054]]],"bbox":[-61.5802052,10.2499964,-61.2616297,10.7451076]}