{"type":"Topology","objects":{"foo":{"type":"GeometryCollection","geometries":[{"type":"Polygon","arcs":[[0]],"properties":{"name":"Angor district","gaul_code":39852,"targetarea":3.5778797,"totpop":95314.3167496,"country_id":"UZB","targetpop":7881.2290649,"new_mean":0.0010935,"totalarea":388.6015485}},{"type":"Polygon","arcs":[[1]],"properties":{"name":"Kattakurgan district","gaul_code":39829,"targetarea":23.5865291,"totpop":440181.098181,"country_id":"UZB","targetpop":43094.3998413,"new_mean":0.0002397,"totalarea":1535.6902652}},{"type":"Polygon","arcs":[[2,3,4,5,6,7,8]],"properties":{"name":"Bektemir district","gaul_code":39867,"targetarea":18.9969885,"totpop":267784.192322,"country_id":"UZB","targetpop":263722.116028,"new_mean":0,"totalarea":23.2230209}},{"type":"Polygon","arcs":[[9,10,-4]],"properties":{"name":"Khamza district","gaul_code":39869,"targetarea":8.5946152,"totpop":182427.442627,"country_id":"UZB","targetpop":156544.914429,"new_mean":0,"totalarea":35.9971989}},{"type":"Polygon","arcs":[[11,12,13,14,15,16,17,18,19]],"properties":{"name":"Namangan district","gaul_code":39807,"targetarea":50.1068516,"totpop":299234.660065,"country_id":"UZB","targetpop":81650.5016479,"new_mean":0,"totalarea":298.6034756}},{"type":"MultiPolygon","arcs":[[[20,21]],[[22]]],"properties":{"name":"Chirakchi district","gaul_code":39777,"targetarea":10.5336424,"totpop":295862.040465,"country_id":"UZB","targetpop":19408.4273682,"new_mean":0.0003421,"totalarea":2848.3557612}},{"type":"MultiPolygon","arcs":[[[23,24,25]],[[26,27,28]],[[29,30,31,32]]],"properties":{"name":"Andijan district","gaul_code":39701,"targetarea":51.8575785,"totpop":374075.468056,"country_id":"UZB","targetpop":94291.0223389,"new_mean":0,"totalarea":378.3921583}},{"type":"MultiPolygon","arcs":[[[-22,33,34,35]],[[36]]],"properties":{"name":"Kasan district","gaul_code":39783,"targetarea":12.0033645,"totpop":316323.025876,"country_id":"UZB","targetpop":20583.8204956,"new_mean":5.3907209e-7,"totalarea":1774.6013171}},{"type":"MultiPolygon","arcs":[[[37]],[[38]],[[39,-25]],[[-28,40]]],"properties":{"name":"Khadjaabad district","gaul_code":39709,"targetarea":6.2395406,"totpop":226733.226173,"country_id":"UZB","targetpop":13035.2633057,"new_mean":0,"totalarea":275.6554499}},{"type":"MultiPolygon","arcs":[[[41]],[[42]]],"properties":{"name":"Shavat district","gaul_code":39797,"targetarea":8.8075578,"totpop":165097.959778,"country_id":"UZB","targetpop":16475.5529785,"new_mean":0,"totalarea":414.8370968}},{"type":"Polygon","arcs":[[43]],"properties":{"name":"Turtkul district","gaul_code":39775,"targetarea":2.1874279,"totpop":324923.729243,"country_id":"UZB","targetpop":5116.2850342,"new_mean":0,"totalarea":6417.1128262}},{"type":"MultiPolygon","arcs":[[[-32,44,45,46]],[[47]]],"properties":{"name":"Altinkul district","gaul_code":39699,"targetarea":7.5769515,"totpop":190424.899872,"country_id":"UZB","targetpop":11961.1818848,"new_mean":0,"totalarea":210.4550127}},{"type":"Polygon","arcs":[[-9,48,49]],"properties":{"name":"Yukarichirchik district","gaul_code":39896,"targetarea":16.6796064,"totpop":379577.445484,"country_id":"UZB","targetpop":202327.268951,"new_mean":0.00000879815,"totalarea":434.1365679}},{"type":"MultiPolygon","arcs":[[[50]],[[51]]],"properties":{"name":"Kitab district","gaul_code":39785,"targetarea":8.3845179,"totpop":280645.438195,"country_id":"UZB","targetpop":16455.7838745,"new_mean":0.0000519,"totalarea":1793.0305247}},{"type":"Polygon","arcs":[[52]],"properties":{"name":"Gijduvan district","gaul_code":39719,"targetarea":3.699615,"totpop":341983.139218,"country_id":"UZB","targetpop":7096.2262573,"new_mean":2.4984557e-8,"totalarea":3885.7229817}},{"type":"Polygon","arcs":[[53,54]],"properties":{"name":"Margilan city","gaul_code":39741,"targetarea":5.8894566,"totpop":23724.7286987,"country_id":"UZB","targetpop":9456.4906616,"new_mean":0,"totalarea":16.8255295}},{"type":"Polygon","arcs":[[55]],"properties":{"name":"Jarkurgan district","gaul_code":39856,"targetarea":17.730406,"totpop":219263.255459,"country_id":"UZB","targetpop":34693.1806641,"new_mean":0,"totalarea":1119.3671205}},{"type":"Polygon","arcs":[[56]],"properties":{"name":"Turakurgan district","gaul_code":39810,"targetarea":3.2911364,"totpop":170232.658401,"country_id":"UZB","targetpop":6350.1900635,"new_mean":0,"totalarea":253.7009866}},{"type":"Polygon","arcs":[[57]],"properties":{"name":"Shurchi district","gaul_code":39862,"targetarea":5.3917165,"totpop":107954.307416,"country_id":"UZB","targetpop":10357.5184326,"new_mean":0,"totalarea":856.0270348}},{"type":"Polygon","arcs":[[58,59,60]],"properties":{"name":"Dangara district","gaul_code":39734,"targetarea":1.9855072,"totpop":271659.719582,"country_id":"UZB","targetpop":4092.5650635,"new_mean":0.0002158,"totalarea":451.3894932}},{"type":"MultiPolygon","arcs":[[[61,-19,62]],[[63]]],"properties":{"name":"Chartak  district","gaul_code":39802,"targetarea":10.7659442,"totpop":257060.411419,"country_id":"UZB","targetpop":19395.4705811,"new_mean":0,"totalarea":493.4274819}},{"type":"Polygon","arcs":[[64]],"properties":{"name":"Uchkurgan district","gaul_code":39811,"targetarea":4.7957385,"totpop":232134.818481,"country_id":"UZB","targetpop":9535.3499146,"new_mean":0,"totalarea":351.2526151}},{"type":"Polygon","arcs":[[65]],"properties":{"name":"Izboskan district","gaul_code":39708,"targetarea":1.952754,"totpop":202456.250465,"country_id":"UZB","targetpop":4092.9515991,"new_mean":0,"totalarea":273.878649}},{"type":"Polygon","arcs":[[66]],"properties":{"name":"Guzar district","gaul_code":39779,"targetarea":6.4245688,"totpop":335124.26357,"country_id":"UZB","targetpop":11873.2357178,"new_mean":0.0003147,"totalarea":2630.7669316}},{"type":"Polygon","arcs":[[67,-60,68,69]],"properties":{"name":"Kokand city","gaul_code":39738,"targetarea":36.3576244,"totpop":81250.168396,"country_id":"UZB","targetpop":66164.4789429,"new_mean":0.0064679,"totalarea":46.6311773}},{"type":"Polygon","arcs":[[70,71,72]],"properties":{"name":"Yangiyul district","gaul_code":39895,"targetarea":9.40209,"totpop":215750.838114,"country_id":"UZB","targetpop":94360.0193481,"new_mean":0.0000798,"totalarea":418.9233229}},{"type":"Polygon","arcs":[[73,74]],"properties":{"name":"Urgench city","gaul_code":39798,"targetarea":4.3044203,"totpop":20168.3407288,"country_id":"UZB","targetpop":6546.6588135,"new_mean":0,"totalarea":19.5489462}},{"type":"Polygon","arcs":[[75]],"properties":{"name":"Shakhrixan district","gaul_code":39714,"targetarea":11.0865106,"totpop":190971.704361,"country_id":"UZB","targetpop":16822.1967773,"new_mean":0,"totalarea":259.498825}},{"type":"MultiPolygon","arcs":[[[76,77]],[[78]],[[79,80,81]]],"properties":{"name":"Taylak district","gaul_code":39838,"targetarea":4.2657457,"totpop":184212.436783,"country_id":"UZB","targetpop":9994.6737671,"new_mean":0.0029164,"totalarea":257.5435051}},{"type":"Polygon","arcs":[[82,-73,83,84]],"properties":{"name":"Kuyichirchik district","gaul_code":39889,"targetarea":8.7088043,"totpop":171853.980174,"country_id":"UZB","targetpop":75837.9172363,"new_mean":0.000107,"totalarea":556.204142}},{"type":"Polygon","arcs":[[85,86]],"properties":{"name":"Koshkupir district","gaul_code":39796,"targetarea":3.9573876,"totpop":123004.831532,"country_id":"UZB","targetpop":7692.2053223,"new_mean":0,"totalarea":423.2494066}},{"type":"Polygon","arcs":[[-55,87,88,89,90]],"properties":{"name":"Akhunbabayev district","gaul_code":39729,"targetarea":22.3218024,"totpop":228162.481354,"country_id":"UZB","targetpop":36682.9696655,"new_mean":0.0001586,"totalarea":375.624082}},{"type":"Polygon","arcs":[[91]],"properties":{"name":"Bukhara district","gaul_code":39718,"targetarea":1.3243109,"totpop":237363.541837,"country_id":"UZB","targetpop":3021.7435303,"new_mean":2.7592493e-7,"totalarea":1372.878466}},{"type":"Polygon","arcs":[[92,93]],"properties":{"name":"Karshi city","gaul_code":39781,"targetarea":1.6528333,"totpop":20065.0783997,"country_id":"UZB","targetpop":1054.9458008,"new_mean":0,"totalarea":21.1146371}},{"type":"Polygon","arcs":[[94,-90,95]],"properties":{"name":"Tashlak district","gaul_code":39744,"targetarea":0.0780542,"totpop":163536.275742,"country_id":"UZB","targetpop":0,"new_mean":0,"totalarea":231.1107021}},{"type":"MultiPolygon","arcs":[[[96,97,-71,-83,-7]],[[98,99,100]]],"properties":{"name":"Sergeli district","gaul_code":39873,"targetarea":35.9795417,"totpop":569303.42749,"country_id":"UZB","targetpop":553127.624146,"new_mean":0,"totalarea":50.1332491}},{"type":"Polygon","arcs":[[101]],"properties":{"name":"Altiarik district","gaul_code":39730,"targetarea":0.893435,"totpop":323681.520908,"country_id":"UZB","targetpop":2127.404541,"new_mean":0,"totalarea":645.6108438}},{"type":"Polygon","arcs":[[102]],"properties":{"name":"Pap district","gaul_code":39809,"targetarea":1.7473104,"totpop":377818.548388,"country_id":"UZB","targetpop":2993.3392944,"new_mean":0.0000197,"totalarea":2898.6279395}},{"type":"MultiPolygon","arcs":[[[103,-14]],[[104]]],"properties":{"name":"Kasansay district","gaul_code":39804,"targetarea":13.7966904,"totpop":253310.629295,"country_id":"UZB","targetpop":25004.0296021,"new_mean":0,"totalarea":446.7588768}},{"type":"MultiPolygon","arcs":[[[105]],[[106]],[[107]],[[108]]],"properties":{"name":"Paxtaabad district","gaul_code":39713,"targetarea":7.3287079,"totpop":200235.154617,"country_id":"UZB","targetpop":14738.9823608,"new_mean":0,"totalarea":246.0903158}},{"type":"MultiPolygon","arcs":[[[-63,-18,109,110]],[[111,112,-16]],[[113]]],"properties":{"name":"Uychi district","gaul_code":39812,"targetarea":19.3321305,"totpop":193643.804203,"country_id":"UZB","targetpop":27773.1715698,"new_mean":0,"totalarea":266.6633587}},{"type":"Polygon","arcs":[[-17,-113,114,-110]],"properties":{"name":"Namangan city","gaul_code":39806,"targetarea":30.3527406,"totpop":57182.9959717,"country_id":"UZB","targetpop":57182.9959717,"new_mean":0,"totalarea":30.5255642}},{"type":"Polygon","arcs":[[-81,115,116,117,118,119,120,121,122,123,124,-78,125]],"properties":{"name":"Samarkand district","gaul_code":39837,"targetarea":123.2737536,"totpop":453079.296392,"country_id":"UZB","targetpop":236377.468567,"new_mean":0.000112,"totalarea":554.8352233}},{"type":"Polygon","arcs":[[126]],"properties":{"name":"Kumkurgan district","gaul_code":39858,"targetarea":12.9241728,"totpop":247613.005157,"country_id":"UZB","targetpop":26941.2991943,"new_mean":3.2425274e-8,"totalarea":2185.3039126}},{"type":"Polygon","arcs":[[127,-70,128]],"properties":{"name":"Uzbekistan district","gaul_code":39746,"targetarea":7.8156367,"totpop":312502.009895,"country_id":"UZB","targetpop":15066.6012573,"new_mean":0.0005473,"totalarea":678.0330768}},{"type":"Polygon","arcs":[[129,-12]],"properties":{"name":"Yangikurgan district","gaul_code":39813,"targetarea":3.1288508,"totpop":278711.924438,"country_id":"UZB","targetpop":5609.5759888,"new_mean":0,"totalarea":499.0799013}},{"type":"MultiPolygon","arcs":[[[130]],[[131,132]],[[133]]],"properties":{"name":"Termez district","gaul_code":39864,"targetarea":56.3222626,"totpop":356126.817838,"country_id":"UZB","targetpop":129132.006165,"new_mean":0.0017285,"totalarea":836.2154643}},{"type":"MultiPolygon","arcs":[[[134]],[[135,136]],[[137,138]],[[-96,-89,139,140,141]]],"properties":{"name":"Fergana district","gaul_code":39736,"targetarea":47.5603753,"totpop":677120.421932,"country_id":"UZB","targetpop":84292.833252,"new_mean":0.0000017690764,"totalarea":1132.9550391}},{"type":"Polygon","arcs":[[142]],"properties":{"name":"Shakhrisabz district","gaul_code":39789,"targetarea":15.2952478,"totpop":241563.52116,"country_id":"UZB","targetpop":25875.880188,"new_mean":0.0000238,"totalarea":1651.3624254}},{"type":"Polygon","arcs":[[143]],"properties":{"name":"Khiva district","gaul_code":39795,"targetarea":15.3057156,"totpop":148495.837553,"country_id":"UZB","targetpop":27922.0046387,"new_mean":0,"totalarea":300.8565013}},{"type":"Polygon","arcs":[[144]],"properties":{"name":"Gurlen district","gaul_code":39792,"targetarea":2.7524328,"totpop":110761.760315,"country_id":"UZB","targetpop":4098.9925537,"new_mean":0,"totalarea":351.9662606}},{"type":"MultiPolygon","arcs":[[[145,-86]],[[-74,146]]],"properties":{"name":"Urgench district","gaul_code":39799,"targetarea":71.0059,"totpop":389066.845081,"country_id":"UZB","targetpop":139255.998047,"new_mean":0,"totalarea":491.6290269}},{"type":"MultiPolygon","arcs":[[[147]],[[148,-61,-68,-128]]],"properties":{"name":"Uchkuprik district","gaul_code":39745,"targetarea":9.6647564,"totpop":233101.355347,"country_id":"UZB","targetpop":16373.0547485,"new_mean":0.0003185,"totalarea":279.5361354}},{"type":"Polygon","arcs":[[149,150,151]],"properties":{"name":"Bulakbashi district","gaul_code":39706,"targetarea":0.6566795,"totpop":178100.416855,"country_id":"UZB","targetpop":0,"new_mean":0,"totalarea":203.4886785}},{"type":"MultiPolygon","arcs":[[[152]],[[153]],[[154]],[[155]],[[156]]],"properties":{"name":"Kurgantepa district","gaul_code":39711,"targetarea":17.1305759,"totpop":397588.877621,"country_id":"UZB","targetpop":31690.7879639,"new_mean":0.0000014926726,"totalarea":523.8200265}},{"type":"Polygon","arcs":[[157]],"properties":{"name":"Narin district","gaul_code":39808,"targetarea":1.4225352,"totpop":174264.4655,"country_id":"UZB","targetpop":2046.4013061,"new_mean":0,"totalarea":242.9199553}},{"type":"Polygon","arcs":[[158]],"properties":{"name":"Narpay district","gaul_code":39831,"targetarea":1.3214664,"totpop":85230.8143482,"country_id":"UZB","targetpop":3326.2214356,"new_mean":0,"totalarea":389.0711807}},{"type":"Polygon","arcs":[[159]],"properties":{"name":"Kuva district","gaul_code":39739,"targetarea":1.5477489,"totpop":253849.835999,"country_id":"UZB","targetpop":3014.7225342,"new_mean":6.7862735e-7,"totalarea":435.8675388}},{"type":"MultiPolygon","arcs":[[[-8,-85,160,-49]],[[161,-101,162,-97,-6]]],"properties":{"name":"Urtachirchik district","gaul_code":39893,"targetarea":81.5420794,"totpop":1187353.83849,"country_id":"UZB","targetpop":1031168.23543,"new_mean":0,"totalarea":509.6165338}},{"type":"MultiPolygon","arcs":[[[163]],[[164,165]],[[166,167]]],"properties":{"name":"Denau district","gaul_code":39855,"targetarea":33.2196674,"totpop":348617.373957,"country_id":"UZB","targetpop":69701.4983521,"new_mean":1.4137599e-8,"totalarea":853.9850743}},{"type":"Polygon","arcs":[[-35,168,-93,169]],"properties":{"name":"Karshi district","gaul_code":39782,"targetarea":16.6999126,"totpop":371857.966543,"country_id":"UZB","targetpop":30154.5534668,"new_mean":0.0000404,"totalarea":844.1472594}},{"type":"Polygon","arcs":[[170,-99,-162,-5,-11]],"properties":{"name":"Mirabad district","gaul_code":39870,"targetarea":5.7915284,"totpop":123104.975769,"country_id":"UZB","targetpop":111871.58252,"new_mean":0,"totalarea":17.623495}},{"type":"MultiPolygon","arcs":[[[171,-124,172,-120]],[[173]]],"properties":{"name":"Pastdargom district","gaul_code":39834,"targetarea":60.7528069,"totpop":494787.719341,"country_id":"UZB","targetpop":105913.045715,"new_mean":0.0000207,"totalarea":845.0809561}},{"type":"Polygon","arcs":[[-141,174,-138,175,-136,176]],"properties":{"name":"Fergana city","gaul_code":39735,"targetarea":21.4954813,"totpop":51050.4072266,"country_id":"UZB","targetpop":35929.7871704,"new_mean":0,"totalarea":33.0935808}},{"type":"MultiPolygon","arcs":[[[177,-118,178,179]],[[180]]],"properties":{"name":"Akdarya district","gaul_code":39824,"targetarea":29.5826486,"totpop":234729.036171,"country_id":"UZB","targetpop":63801.0349121,"new_mean":0.0009412,"totalarea":344.8996928}},{"type":"Polygon","arcs":[[-179,-117,181]],"properties":{"name":"Jambay district","gaul_code":39827,"targetarea":25.4881983,"totpop":320179.947447,"country_id":"UZB","targetpop":47051.2198486,"new_mean":0.0018654,"totalarea":581.3211101}},{"type":"MultiPolygon","arcs":[[[-167,182,-165,183]],[[184]]],"properties":{"name":"Sariasiya district","gaul_code":39860,"targetarea":46.3663731,"totpop":364040.493705,"country_id":"UZB","targetpop":88636.958374,"new_mean":0.0000312,"totalarea":3490.822864}},{"type":"MultiPolygon","arcs":[[[185]],[[-152,186,187]]],"properties":{"name":"Markhamat district","gaul_code":39712,"targetarea":4.2159006,"totpop":224833.587402,"country_id":"UZB","targetpop":8475.4187622,"new_mean":0,"totalarea":368.9318347}},{"type":"Polygon","arcs":[[-31,188,-45]],"properties":{"name":"Andijan city","gaul_code":39700,"targetarea":35.2729861,"totpop":68462.8114014,"country_id":"UZB","targetpop":63895.0522461,"new_mean":0,"totalarea":37.6796264}},{"type":"MultiPolygon","arcs":[[[189]],[[190]]],"properties":{"name":"Balikchi district","gaul_code":39704,"targetarea":4.0344372,"totpop":190497.024208,"country_id":"UZB","targetpop":10444.7360229,"new_mean":0,"totalarea":288.027559}},{"type":"Polygon","arcs":[[191]],"properties":{"name":"Sherabad district","gaul_code":39861,"targetarea":16.561874,"totpop":241499.079184,"country_id":"UZB","targetpop":34173.513916,"new_mean":0,"totalarea":2912.0221643}},{"type":"Polygon","arcs":[[-121,-173,-123,192]],"properties":{"name":"Samarkand city","gaul_code":39836,"targetarea":33.0263036,"totpop":66060.817688,"country_id":"UZB","targetpop":65192.6206665,"new_mean":0,"totalarea":34.2366226}},{"type":"MultiPolygon","arcs":[[[193]],[[194]]],"properties":{"name":"Khanka district","gaul_code":39793,"targetarea":5.5696229,"totpop":223622.513233,"country_id":"UZB","targetpop":11294.322998,"new_mean":0,"totalarea":468.0292495}},{"type":"MultiPolygon","arcs":[[[-151,195,-187]],[[196]],[[-47,197,-33]]],"properties":{"name":"Asaka district","gaul_code":39703,"targetarea":21.9159351,"totpop":276600.266876,"country_id":"UZB","targetpop":39350.7348633,"new_mean":0,"totalarea":279.0232411}},{"type":"Polygon","arcs":[[-133,198]],"properties":{"name":"Termez city","gaul_code":39863,"targetarea":12.6272701,"totpop":32788.3679504,"country_id":"UZB","targetpop":0,"new_mean":0,"totalarea":15.401568}},{"type":"Polygon","arcs":[[199]],"properties":{"name":"Khanabad city","gaul_code":39710,"targetarea":0.2434788,"totpop":1052.5772705,"country_id":"UZB","targetpop":0,"new_mean":0,"totalarea":0.8467936}}]}},"arcs":[[[67.1512848,37.4770513],[67.1299307,37.456873],[67.1583323,37.4495834],[67.1512848,37.4770513]],[[66.2822581,39.8839889],[66.2968089,39.8952214],[66.2868317,39.9117579],[66.2881826,39.9209213],[66.2395986,39.9311732],[66.2297028,39.8928268],[66.274999,39.8745834],[66.2822581,39.8839889]],[[69.3543054,41.2061536],[69.352652,41.2266728],[69.338426,41.228138]],[[69.338426,41.228138],[69.3275681,41.2128944],[69.3042679,41.2012253]],[[69.3042679,41.2012253],[69.2955322,41.2001572]],[[69.2955322,41.2001572],[69.2695847,41.1894302],[69.2560501,41.1770897]],[[69.2560501,41.1770897],[69.2552643,41.1705704],[69.2312469,41.1587791],[69.2135468,41.1400986],[69.2144165,41.1342316]],[[69.2144165,41.1342316],[69.2291183,41.1356468],[69.2345352,41.1428299],[69.2341766,41.1555595],[69.2435455,41.1638222],[69.258049,41.166687],[69.3243179,41.194046]],[[69.3243179,41.194046],[69.3342972,41.2037544],[69.3543054,41.2061536]],[[69.338426,41.228138],[69.2851692,41.233623]],[[69.2851692,41.233623],[69.3042679,41.2012253]],[[71.6847898,41.047554],[71.6684494,41.0324211],[71.65903,41.0389253]],[[71.65903,41.0389253],[71.6546865,41.0328638],[71.6291657,41.0379074],[71.6022276,41.0366426]],[[71.6022276,41.0366426],[71.5816653,41.0345052]],[[71.5816653,41.0345052],[71.5646312,41.0236862],[71.5798493,41.0127711],[71.587678,40.9830998],[71.624999,40.9579167],[71.6349111,40.9717514],[71.651708,40.9684331],[71.6870433,40.9829574],[71.7221995,40.9760096],[71.7168371,41.003116]],[[71.7168371,41.003116],[71.7129517,41.0171165]],[[71.7129517,41.0171165],[71.6894684,41.0135193],[71.6793823,41.0063477],[71.6945496,40.9905853],[71.6715775,40.9856644],[71.6422195,40.9835358],[71.6359253,40.9794006],[71.609848,40.985096],[71.6057587,40.9936409],[71.6236267,41.0067139],[71.6138382,41.0146255],[71.6268005,41.0231361],[71.6381531,41.0143318],[71.6475601,41.0164413],[71.6919556,41.0374146],[71.7122574,41.0374069]],[[71.7122574,41.0374069],[71.6934814,41.0436287]],[[71.6934814,41.0436287],[71.6932452,41.0440814]],[[71.6932452,41.0440814],[71.6847898,41.047554]],[[65.8209822,38.8584713],[65.8275869,38.8819503],[65.8050471,38.8991312]],[[65.8050471,38.8991312],[65.8059006,38.8897743],[65.8229523,38.8693619],[65.8209822,38.8584713]],[[66.5915517,39.0358098],[66.5772777,39.0446538],[66.5549307,39.0235397],[66.5833323,39.0162501],[66.5915517,39.0358098]],[[72.424999,40.7412501],[72.4294863,40.7255365]],[[72.4294863,40.7255365],[72.4337616,40.7374496],[72.4269963,40.7406791]],[[72.4269963,40.7406791],[72.424999,40.7412501]],[[72.424999,40.7412501],[72.4247935,40.7417307]],[[72.4247935,40.7417307],[72.4182771,40.7507498]],[[72.4182771,40.7507498],[72.424999,40.7412501]],[[72.305173,40.7456704],[72.3205556,40.7444341],[72.3425771,40.7699935],[72.3871897,40.7451075],[72.399999,40.7412501],[72.4043284,40.7556177],[72.4288564,40.7767522],[72.4038727,40.778392],[72.3909007,40.8074569],[72.3782216,40.8221827],[72.3455231,40.8367741],[72.324234,40.8614751],[72.2961416,40.8637334],[72.3098839,40.8343021]],[[72.3098839,40.8343021],[72.3212585,40.8486938],[72.3288498,40.8477249],[72.3416367,40.8256569],[72.3604431,40.813694],[72.357666,40.7845383],[72.3494644,40.7779503],[72.3289261,40.7709885],[72.2961502,40.767437]],[[72.2961502,40.767437],[72.2939377,40.7576599]],[[72.2939377,40.7576599],[72.305173,40.7456704]],[[65.8050471,38.8991312],[65.7967438,38.8861699],[65.7865876,38.8796636],[65.7819603,38.8665192]],[[65.7819603,38.8665192],[65.7951813,38.85355],[65.8104324,38.8501282],[65.8200788,38.8552597]],[[65.8200788,38.8552597],[65.8209822,38.8584713]],[[65.7583324,38.9245834],[65.7623363,38.905988],[65.777945,38.913831],[65.7583324,38.9245834]],[[72.5480865,40.6611476],[72.5833323,40.6579167],[72.57718,40.6700892],[72.5557607,40.6773829],[72.5472643,40.6613512],[72.5480865,40.6611476]],[[72.5466624,40.7018539],[72.5391754,40.6875513],[72.549999,40.6829167],[72.5466624,40.7018539]],[[72.4294863,40.7255365],[72.4453766,40.7354253],[72.4269963,40.7406791]],[[72.4247935,40.7417307],[72.4206636,40.7513886],[72.4196638,40.7514325],[72.4182771,40.7507498]],[[60.3046214,41.6625452],[60.2870433,41.6699549],[60.2763011,41.6833684],[60.2629548,41.6552576],[60.3083324,41.6495834],[60.3046214,41.6625452]],[[60.2971996,41.6967839],[60.2784333,41.706281],[60.2721996,41.6947555],[60.2971996,41.6967839]],[[61.3101716,41.2271998],[61.2802236,41.2199874],[61.3166657,41.2162501],[61.3101716,41.2271998]],[[72.2961502,40.767437],[72.2860564,40.7936012]],[[72.2860564,40.7936012],[72.2766103,40.7854639],[72.2900804,40.7552966]],[[72.2900804,40.7552966],[72.2939377,40.7576599]],[[72.1693675,40.8104436],[72.1378896,40.8021408],[72.174999,40.7912501],[72.1693675,40.8104436]],[[69.3243179,41.194046],[69.3300781,41.184761],[69.3204803,41.1661682],[69.3115845,41.1575012],[69.3298874,41.1485481],[69.3082581,41.1268616],[69.3200489,41.1263464]],[[69.3200489,41.1263464],[69.3367503,41.1407374],[69.3560862,41.184052],[69.3543054,41.2061536]],[[66.8460675,39.0834413],[66.8504222,39.0922042],[66.8373851,39.1107162],[66.8317649,39.0856989],[66.8460675,39.0834413]],[[66.8858226,39.1137517],[66.9013988,39.1204167],[66.8830557,39.1354151],[66.8558421,39.1109685],[66.8833323,39.1079167],[66.8858226,39.1137517]],[[64.7055329,40.0967839],[64.6822744,40.1085474],[64.6638662,40.0944524],[64.7083324,40.0912501],[64.7055329,40.0967839]],[[71.7505557,40.4772132],[71.7283844,40.4728317],[71.7022939,40.4894007],[71.6976509,40.4829281]],[[71.6976509,40.4829281],[71.7058945,40.467083],[71.7251205,40.4585915],[71.734024,40.4617615],[71.7417145,40.4746399],[71.7505557,40.4772132]],[[67.4198395,37.4880722],[67.4442047,37.5030787],[67.432665,37.5400863],[67.4042959,37.5273768],[67.3968252,37.48759],[67.4166657,37.4829167],[67.4198395,37.4880722]],[[71.5185815,41.0068267],[71.5103343,41.0107162],[71.4888662,40.9947555],[71.5166657,40.9912501],[71.5199725,40.9978973],[71.5185815,41.0068267]],[[67.7833323,38.0162552],[67.7833323,37.9912501],[67.799999,37.9912501],[67.799999,38.0245834],[67.783471,38.0245834],[67.7833323,38.0162552]],[[70.9558606,40.5712834],[70.9304515,40.5675277],[70.9205882,40.5803085],[70.9156748,40.5626641]],[[70.9156748,40.5626641],[70.9238281,40.5661926],[70.9527435,40.5674019]],[[70.9527435,40.5674019],[70.9558606,40.5712834]],[[71.7146999,41.0440583],[71.6932452,41.0440814]],[[71.6934814,41.0436287],[71.7146999,41.0440583]],[[71.8333287,41.0496153],[71.8299306,41.079513],[71.805956,41.0946538],[71.7929677,41.0599431],[71.8332932,41.0495934],[71.8333287,41.0496153]],[[72.074999,41.1079167],[72.1005524,41.1110417],[72.0963369,41.1356409],[72.0785797,41.1262313],[72.074999,41.1079167]],[[72.2543284,40.9015121],[72.2387197,40.8936691],[72.2583323,40.8829167],[72.2543284,40.9015121]],[[66.2629547,38.6265467],[66.2396475,38.6360946],[66.2525869,38.5945663],[66.2666657,38.5912501],[66.2629547,38.6265467]],[[70.972374,40.5215492],[70.9780197,40.5416298],[70.9637222,40.5502396],[70.9527435,40.5674019]],[[70.9156748,40.5626641],[70.9123688,40.5507919],[70.8953774,40.5376804],[70.8858742,40.5271523],[70.9274275,40.4950782]],[[70.9274275,40.4950782],[70.9384155,40.5079613],[70.9538727,40.5119324],[70.972374,40.5215492]],[[69.1986465,41.1392479],[69.2054977,41.1534271],[69.1685025,41.1517878]],[[69.1685025,41.1517878],[69.1637711,41.1393165],[69.1593879,41.1277634],[69.175946,41.1167114]],[[69.175946,41.1167114],[69.1896515,41.1273003],[69.1986465,41.1392479]],[[60.6044085,41.5109797],[60.5939903,41.527523],[60.590065,41.5413132],[60.5755148,41.5356216]],[[60.5755148,41.5356216],[60.582014,41.5171371],[60.6044085,41.5109797]],[[72.073469,40.7011093],[72.0897288,40.7123316],[72.0452138,40.7279871],[72.0299306,40.700678],[72.0666657,40.6912501],[72.073469,40.7011093]],[[67.0421969,39.5703852],[67.0537588,39.5696965],[67.0706045,39.5823165],[67.0595377,39.5857329]],[[67.0595377,39.5857329],[67.0608597,39.5800095],[67.0368042,39.5800667],[67.0421969,39.5703852]],[[67.0833323,39.6079167],[67.093749,39.5889022],[67.102945,39.6036972],[67.0833323,39.6079167]],[[67.0833323,39.6079167],[67.0811424,39.6151841]],[[67.0811424,39.6151841],[67.0720135,39.6153972]],[[67.0720135,39.6153972],[67.0833323,39.6079167]],[[69.2144165,41.1342316],[69.1986465,41.1392479]],[[69.175946,41.1167114],[69.1966299,41.1037582],[69.2175875,41.1028375]],[[69.2175875,41.1028375],[69.2144165,41.1342316]],[[60.3649891,41.5237689],[60.3428879,41.534008],[60.3303078,41.5272669]],[[60.3303078,41.5272669],[60.3583324,41.5079167],[60.3649891,41.5237689]],[[71.6976509,40.4829281],[71.6881826,40.4697291],[71.6778799,40.4623418],[71.691275,40.4412501],[71.6889404,40.4375735]],[[71.6889404,40.4375735],[71.7111053,40.4429893],[71.7335052,40.43433],[71.7633438,40.4522362],[71.7677765,40.4790535]],[[71.7677765,40.4790535],[71.7634442,40.4797603]],[[71.7634442,40.4797603],[71.7505557,40.4772132]],[[64.4360179,39.7769699],[64.4137848,39.7698715],[64.4416657,39.7662501],[64.4360179,39.7769699]],[[65.8304932,38.8373927],[65.8164597,38.835495],[65.8052174,38.824952]],[[65.8052174,38.824952],[65.8304932,38.8373927]],[[71.7720541,40.4807558],[71.7634442,40.4797603]],[[71.7677765,40.4790535],[71.7720541,40.4807558]],[[69.2560501,41.1770897],[69.243927,41.1763191],[69.2346649,41.1856194],[69.217041,41.178318],[69.2139053,41.1967354],[69.20298,41.1992073],[69.1884581,41.1955156]],[[69.1884581,41.1955156],[69.1840485,41.1927637],[69.1735861,41.165187],[69.1714969,41.1596802],[69.1685025,41.1517878]],[[69.2742996,41.2075729],[69.2748337,41.2207413],[69.2571945,41.2353973],[69.2519292,41.2351245]],[[69.2519292,41.2351245],[69.2078913,41.2076428]],[[69.2078913,41.2076428],[69.2742996,41.2075729]],[[71.4799957,40.3935206],[71.4725088,40.379218],[71.4833323,40.3745834],[71.4799957,40.3935206]],[[71.110969,40.8861984],[71.0962881,40.8720748],[71.1166657,40.8662501],[71.110969,40.8861984]],[[71.6022276,41.0366426],[71.5891103,41.0392339],[71.5816653,41.0345052]],[[71.562027,41.2713831],[71.5380198,41.2694544],[71.5211416,41.2411117],[71.549999,41.2162501],[71.562027,41.2713831]],[[72.3666657,40.9162501],[72.3689449,40.9081197],[72.3715038,40.9080796],[72.3666657,40.9162501]],[[72.3666657,40.9162501],[72.3632736,40.9206314],[72.3525564,40.9188964],[72.3666657,40.9162501]],[[72.503782,40.9174435],[72.5166657,40.9162501],[72.5145498,40.9307968],[72.4812164,40.9310938],[72.4902933,40.9216915],[72.503782,40.9174435]],[[72.3443512,41.0519699],[72.3221181,41.0448715],[72.349999,41.0412501],[72.3443512,41.0519699]],[[71.7122574,41.0374069],[71.712588,41.0333531]],[[71.712588,41.0333531],[71.7146999,41.0440583]],[[71.7168371,41.003116],[71.7381826,41.0113957],[71.7451487,41.0335067],[71.7275093,41.0443177],[71.7269217,41.0443058],[71.7301097,41.0281519],[71.7131729,41.0221653]],[[71.7131729,41.0221653],[71.7129517,41.0171165]],[[71.8038564,41.0040593],[71.8461416,41.0201075],[71.8656728,41.0310043],[71.8593414,41.0451075],[71.8294749,41.0284408],[71.7796377,41.0171188],[71.799999,40.9995834],[71.8038564,41.0040593]],[[71.7131729,41.0221653],[71.712588,41.0333531]],[[67.0811424,39.6151841],[67.0790029,39.6222844],[67.0512197,39.6462265],[67.0532345,39.671361]],[[67.0532345,39.671361],[67.04496,39.6736832]],[[67.04496,39.6736832],[67.024086,39.6684799],[66.9913101,39.6814575],[66.9731598,39.6839104],[66.964241,39.6902275],[66.9292679,39.6961098],[66.9194833,39.703475]],[[66.9194833,39.703475],[66.874999,39.7027572],[66.8311777,39.7038784]],[[66.8311777,39.7038784],[66.834465,39.6858139],[66.8558044,39.6822433],[66.868988,39.67202],[66.871788,39.6595306],[66.891655,39.6603394],[66.8969193,39.6763763],[66.9183273,39.6752777],[66.9201431,39.6572227],[66.9175034,39.6427879]],[[66.9175034,39.6427879],[66.9355011,39.6460495],[66.9438858,39.6568489],[66.9566498,39.6460419],[66.9764938,39.6436424],[66.9861221,39.6480751],[66.9913406,39.6592293],[67.003479,39.6493301],[67.0048828,39.6423416],[66.988327,39.6333961],[66.9969025,39.6254425],[67.005455,39.6355972],[67.0157211,39.6347588]],[[67.0157211,39.6347588],[67.0333323,39.6079167],[67.0144364,39.6136052]],[[67.0144364,39.6136052],[67.0117493,39.6018753],[66.9891968,39.5969162],[66.9823227,39.5907898],[66.9657593,39.5954247],[66.9621124,39.602211],[66.9440613,39.614151],[66.9443359,39.6280975],[66.9373245,39.6374817],[66.919487,39.6335831],[66.9101105,39.6356392]],[[66.9101105,39.6356392],[66.9000549,39.6235008],[66.8860669,39.6200832]],[[66.8860669,39.6200832],[66.9110342,39.6215723],[66.9298655,39.6113408],[66.9286448,39.5908065],[66.9776357,39.5663538],[66.9905589,39.5944829],[67.0122874,39.5701563],[67.0421969,39.5703852]],[[67.0595377,39.5857329],[67.0416657,39.5912501],[67.0467764,39.6120488],[67.0431956,39.6279871],[67.0720135,39.6153972]],[[67.6144196,37.8326909],[67.6102204,37.8514429],[67.5749176,37.8435307],[67.5813467,37.8148422],[67.6083323,37.8079167],[67.6144196,37.8326909]],[[70.9810151,40.5147625],[70.972374,40.5215492]],[[70.9274275,40.4950782],[70.9583323,40.4912501],[70.9620107,40.5044398],[70.975943,40.5023788],[70.9810151,40.5147625]],[[71.6847898,41.047554],[71.674999,41.0612106],[71.65903,41.0389253]],[[67.4191213,37.2269657],[67.4439118,37.2372502],[67.4248851,37.2436711],[67.4059072,37.2278305],[67.4191213,37.2269657]],[[67.3448017,37.2388723],[67.3549307,37.2446518],[67.3700185,37.2665125],[67.3534007,37.2779871],[67.3463857,37.2881434],[67.3264639,37.2836756],[67.2931142,37.2619613],[67.2308258,37.2537338],[67.2465973,37.229515],[67.2563792,37.2033798],[67.3083323,37.1995834],[67.3190019,37.2192218]],[[67.3190019,37.2192218],[67.3044739,37.2265701],[67.297142,37.2451782],[67.3174591,37.2608261],[67.3315659,37.2650566],[67.3445435,37.2481384],[67.3448017,37.2388723]],[[67.2026357,37.3195317],[67.1879547,37.3054082],[67.2083323,37.2995834],[67.2026357,37.3195317]],[[71.7278147,40.1863103],[71.713264,40.1735397],[71.7416657,40.1662501],[71.7278147,40.1863103]],[[71.8400663,40.3763323],[71.8319855,40.3748169],[71.817749,40.3827515],[71.7919159,40.3809319],[71.7873948,40.3612398]],[[71.7873948,40.3612398],[71.8150869,40.363418],[71.824999,40.3495834],[71.8534821,40.3541875],[71.8400663,40.3763323]],[[71.7715025,40.361127],[71.7712097,40.384613],[71.7556992,40.3949661],[71.7574005,40.4112053],[71.7521791,40.4146284]],[[71.7521791,40.4146284],[71.7443675,40.4125676],[71.757193,40.3639531],[71.7715025,40.361127]],[[71.6889404,40.4375735],[71.6760732,40.41731],[71.7385895,40.4297917],[71.7607284,40.4239502]],[[71.7607284,40.4239502],[71.7713318,40.4289818],[71.7869401,40.4179862]],[[71.7869401,40.4179862],[71.7951487,40.4294377],[71.8201487,40.4473556],[71.7969716,40.4580897],[71.7663727,40.4520472],[71.7720541,40.4807558]],[[66.8535146,39.056928],[66.815624,39.0701075],[66.7981761,39.0309962],[66.8333323,39.0245834],[66.8535146,39.056928]],[[60.3943513,41.3924789],[60.3337393,41.4080347],[60.3422842,41.369902],[60.3833324,41.3662501],[60.3943513,41.3924789]],[[60.3994261,41.8458199],[60.3894684,41.8602462],[60.3799307,41.8402063],[60.4071428,41.833222],[60.3994261,41.8458199]],[[60.3649891,41.5237689],[60.3666332,41.527684],[60.3392243,41.5529871],[60.3303078,41.5272669]],[[60.6044085,41.5109797],[60.6333324,41.5191085],[60.6731761,41.5079126],[60.6694489,41.5211654],[60.6894196,41.5281906],[60.6722809,41.553217],[60.6916657,41.5579167],[60.68107,41.5744654],[60.6620596,41.5691228],[60.6302562,41.5945032],[60.567154,41.5876978],[60.5731761,41.5662501],[60.5694326,41.55292],[60.5755148,41.5356216]],[[71.032665,40.4857671],[71.0130361,40.4754847],[71.024999,40.4662501],[71.032665,40.4857671]],[[70.9810151,40.5147625],[70.9930003,40.5440251],[70.9558606,40.5712834]],[[72.3733978,40.6457825],[72.3619487,40.6480596]],[[72.3619487,40.6480596],[72.3626709,40.6476631]],[[72.3626709,40.6476631],[72.3733978,40.6457825]],[[72.874999,40.7162501],[72.9005524,40.7193751],[72.8963369,40.7439743],[72.8785797,40.7345647],[72.874999,40.7162501]],[[72.7671377,40.744489],[72.7463694,40.7211146],[72.774999,40.7162501],[72.7671377,40.744489]],[[72.9874176,40.7621668],[72.999706,40.7739771],[72.9625804,40.7695195],[72.9833323,40.7495834],[72.9874176,40.7621668]],[[73.0043772,40.7984563],[72.9745107,40.8108668],[72.9811025,40.7948939],[73.0083323,40.7912501],[73.0043772,40.7984563]],[[72.7531053,40.8261713],[72.750207,40.8261789],[72.730509,40.8198899],[72.7583323,40.8162501],[72.7531053,40.8261713]],[[71.807665,40.9607671],[71.7880361,40.9504847],[71.799999,40.9412501],[71.807665,40.9607671]],[[65.9360179,39.9269699],[65.9137848,39.9198715],[65.9416657,39.9162501],[65.9360179,39.9269699]],[[72.0729157,40.5352645],[72.0637197,40.5204696],[72.0833323,40.5162501],[72.0729157,40.5352645]],[[69.2175875,41.1028375],[69.2916657,41.0995834],[69.3200489,41.1263464]],[[69.2955322,41.2001572],[69.2853851,41.2072372],[69.2742996,41.2075729]],[[69.2078913,41.2076428],[69.1884581,41.1955156]],[[67.8948395,38.2464055],[67.9171214,38.2540003],[67.9281728,38.2706894],[67.9115062,38.294428],[67.9051585,38.3214055],[67.8970042,38.3277613],[67.8884918,38.3027613],[67.8637685,38.2722458],[67.8719879,38.2458847],[67.8916657,38.2412501],[67.8948395,38.2464055]],[[68.0183464,38.3521254],[68.002861,38.3640938],[67.9938562,38.3554371]],[[67.9938562,38.3554371],[68.0183464,38.3521254]],[[67.9883736,38.3570155],[67.9751587,38.3785095],[67.9610672,38.3933983],[67.9564882,38.3818437]],[[67.9564882,38.3818437],[67.9602041,38.3764612],[67.9883736,38.3570155]],[[65.7819603,38.8665192],[65.7793923,38.8607315],[65.7711576,38.8554596],[65.7674958,38.8531153],[65.7768545,38.819843],[65.7916657,38.8162501],[65.8052174,38.824952]],[[65.8304932,38.8373927],[65.8200788,38.8552597]],[[69.2851692,41.233623],[69.2545726,41.2367741],[69.2519292,41.2351245]],[[66.8311777,39.7038784],[66.7892731,39.7021164],[66.7617015,39.721375],[66.7627594,39.7035629],[66.7534333,39.6864039],[66.7750153,39.6671208],[66.8039704,39.6873438],[66.8215322,39.686296],[66.8195791,39.6536727],[66.8710602,39.6456507],[66.8860669,39.6200832]],[[66.9101105,39.6356392],[66.9175034,39.6427879]],[[66.649999,39.7245834],[66.6384756,39.6965316],[66.6844066,39.7056076],[66.6677236,39.731869],[66.649999,39.7245834]],[[71.7607284,40.4239502],[71.7521791,40.4146284]],[[71.7715025,40.361127],[71.7873948,40.3612398]],[[71.8400663,40.3763323],[71.8326325,40.3886032],[71.7803375,40.4087753],[71.7869401,40.4179862]],[[66.9666657,39.7329167],[66.9372386,39.72898],[66.9382477,39.7120834],[66.9194833,39.703475]],[[67.04496,39.6736832],[67.0142829,39.7040815]],[[67.0142829,39.7040815],[67.0006826,39.7063156],[66.9560374,39.6997177],[66.9720693,39.7120834],[66.9616364,39.7201299],[66.9666657,39.7329167]],[[66.9666657,39.7329167],[66.9674551,39.7330558],[66.966869,39.7333915],[66.9666657,39.7329167]],[[67.0532345,39.671361],[67.0545726,39.6880539],[67.087499,39.685409],[67.1141429,39.6875493],[67.112027,39.7137191],[67.0680003,39.7101811],[67.0133454,39.7251429],[67.0416657,39.6995834],[67.0142829,39.7040815]],[[67.9883736,38.3570155],[67.9938562,38.3554371]],[[68.0183464,38.3521254],[68.0285576,38.3675697],[68.0282991,38.3784563],[68.0266103,38.3859685],[67.9977366,38.3967758],[67.9869131,38.3943507],[67.9715973,38.4211797],[67.9450674,38.4279871],[67.913264,38.454513],[67.8813141,38.4613205],[67.8965973,38.4378463],[67.9047323,38.4161104],[67.9051325,38.415041],[67.9070465,38.4099268],[67.9330719,38.4157618],[67.9564882,38.3818437]],[[67.9805329,38.4634506],[67.9617666,38.4729477],[67.9555329,38.4614222],[67.9805329,38.4634506]],[[72.3383291,40.5101872],[72.3308421,40.4958847],[72.3416657,40.4912501],[72.3383291,40.5101872]],[[72.3626709,40.6476631],[72.3619967,40.6474643]],[[72.3619967,40.6474643],[72.3634267,40.6297348],[72.3916657,40.6245834],[72.3733978,40.6457825]],[[72.3098839,40.8343021],[72.3180654,40.8196355],[72.3002715,40.821065],[72.2955627,40.8112566],[72.2962718,40.8024012],[72.2860564,40.7936012]],[[71.988356,40.8763632],[71.9726227,40.8857162],[71.9638662,40.8701807],[71.9764671,40.8676363],[71.988356,40.8763632]],[[71.8547028,40.9042872],[71.8213694,40.9061386],[71.8583323,40.8912501],[71.8547028,40.9042872]],[[67.0322581,37.686237],[67.0126129,37.6998031],[66.9799307,37.6775273],[67.0141103,37.653925],[67.0416657,37.6495834],[67.0322581,37.686237]],[[67.0144364,39.6136052],[67.0044749,39.6166041],[67.0157211,39.6347588]],[[60.8249077,41.3499826],[60.8205231,41.3691431],[60.7968903,41.3535629],[60.8159581,41.3508634],[60.8249077,41.3499826]],[[60.7790843,41.4912317],[60.7547028,41.4742233],[60.7833324,41.4662501],[60.7790843,41.4912317]],[[72.3619487,40.6480596],[72.3619967,40.6474643]],[[72.2330427,40.6703274],[72.1963694,40.6569157],[72.2325999,40.6289555],[72.2583323,40.6245834],[72.2754384,40.6396896],[72.2546051,40.6782129],[72.2354103,40.6711933],[72.2330427,40.6703274]],[[72.2900804,40.7552966],[72.2939769,40.7465703],[72.305173,40.7456704]],[[67.3190019,37.2192218],[67.3228831,37.2263656],[67.3448017,37.2388723]],[[72.9900761,40.8219201],[72.9818057,40.8193987],[72.9826376,40.8187856],[72.9834991,40.8185436],[72.9900761,40.8219201]]],"bbox":[60.2629548,37.1995834,73.0083323,41.8602462]}