{"type":"Topology","objects":{"foo":{"type":"GeometryCollection","geometries":[{"type":"MultiPolygon","arcs":[[[0,1]],[[2]],[[3,4,5,6]]],"properties":{"name":"Cardenas","gaul_code":32115,"targetarea":29.3021301,"totpop":149442.275038,"country_id":"VEN","targetpop":80274.9678955,"new_mean":0.2240309,"totalarea":311.9928652}},{"type":"Polygon","arcs":[[-5,7]],"properties":{"name":"Guasimos","gaul_code":32119,"targetarea":0.7814057,"totpop":56935.532135,"country_id":"VEN","targetpop":1908.0338135,"new_mean":0.3173245,"totalarea":62.1228621}},{"type":"Polygon","arcs":[[8]],"properties":{"name":"Independencia","gaul_code":32120,"targetarea":3.73057,"totpop":43061.8426819,"country_id":"VEN","targetpop":8232.8840332,"new_mean":0.0780441,"totalarea":53.4814144}},{"type":"Polygon","arcs":[[9,10]],"properties":{"name":"Autonomo Biruaca","gaul_code":31880,"targetarea":2.5761987,"totpop":70794.2060838,"country_id":"VEN","targetpop":6489.7808838,"new_mean":0.02178,"totalarea":792.3499747}},{"type":"MultiPolygon","arcs":[[[11]],[[12]]],"properties":{"name":"Junin","gaul_code":32122,"targetarea":2.3140489,"totpop":98783.1881447,"country_id":"VEN","targetpop":6527.4520264,"new_mean":0.173154,"totalarea":450.2065068}},{"type":"Polygon","arcs":[[13]],"properties":{"name":"Bolivar","gaul_code":32114,"targetarea":6.6805095,"totpop":77093.608036,"country_id":"VEN","targetpop":16201.6177979,"new_mean":0.1802501,"totalarea":188.7623856}},{"type":"Polygon","arcs":[[14]],"properties":{"name":"D. Atures","gaul_code":31857,"targetarea":13.7507529,"totpop":156763.322858,"country_id":"VEN","targetpop":32697.7139893,"new_mean":0.107585,"totalarea":45408.3052308}},{"type":"MultiPolygon","arcs":[[[15,-10]],[[16]]],"properties":{"name":"Autonomo San Fernando","gaul_code":31885,"targetarea":6.6392449,"totpop":203883.755836,"country_id":"VEN","targetpop":17070.3259277,"new_mean":0.0402348,"totalarea":6980.6597016}},{"type":"MultiPolygon","arcs":[[[17]],[[18]],[[19]],[[-2,20]],[[21,-7,22]]],"properties":{"name":"San Cristobal","gaul_code":32130,"targetarea":57.9113825,"totpop":334763.183018,"country_id":"VEN","targetpop":199674.921509,"new_mean":0.16816,"totalarea":452.6056632}},{"type":"Polygon","arcs":[[23]],"properties":{"name":"Pedro Maria Urena","gaul_code":32128,"targetarea":10.2981274,"totpop":73350.8763046,"country_id":"VEN","targetpop":22248.2518311,"new_mean":0.1265908,"totalarea":153.1271573}},{"type":"Polygon","arcs":[[24,25]],"properties":{"name":"Jose Felix Ribas","gaul_code":31890,"targetarea":20.0195882,"totpop":208595.091352,"country_id":"VEN","targetpop":53173.6755371,"new_mean":0.1968764,"totalarea":551.9587055}},{"type":"MultiPolygon","arcs":[[[26]],[[27,28]]],"properties":{"name":"Palavecino","gaul_code":32004,"targetarea":37.338139,"totpop":225141.267929,"country_id":"VEN","targetpop":90919.1598511,"new_mean":0.3486801,"totalarea":305.1479513}},{"type":"Polygon","arcs":[[29,30,31]],"properties":{"name":"Sotillo","gaul_code":32063,"targetarea":9.0462678,"totpop":84762.0396275,"country_id":"VEN","targetpop":33651.4248047,"new_mean":0.6159002,"totalarea":3465.3412573}},{"type":"MultiPolygon","arcs":[[[32,33]],[[34]]],"properties":{"name":"San Rafael De Carvajal","gaul_code":32143,"targetarea":7.0296998,"totpop":63659.6236725,"country_id":"VEN","targetpop":13300.5010986,"new_mean":0.1271195,"totalarea":87.8210671}},{"type":"Polygon","arcs":[[35,36]],"properties":{"name":"Zamora","gaul_code":32052,"targetarea":36.8617567,"totpop":228213.760691,"country_id":"VEN","targetpop":124558.111694,"new_mean":0.1023396,"totalarea":397.7823814}},{"type":"Polygon","arcs":[[37,38,39,40]],"properties":{"name":"Guacara","gaul_code":31925,"targetarea":51.2645669,"totpop":209419.599697,"country_id":"VEN","targetpop":143312.968628,"new_mean":0.1013413,"totalarea":183.8952528}},{"type":"Polygon","arcs":[[41,42]],"properties":{"name":"Montalban","gaul_code":31930,"targetarea":40.5286518,"totpop":214475.259579,"country_id":"VEN","targetpop":126622.562866,"new_mean":0.1476143,"totalarea":283.077555}},{"type":"Polygon","arcs":[[43,44]],"properties":{"name":"Araure","gaul_code":32084,"targetarea":15.5231957,"totpop":196942.377986,"country_id":"VEN","targetpop":42352.9029541,"new_mean":0.0007409,"totalarea":759.8419131}},{"type":"MultiPolygon","arcs":[[[45]],[[46,47,48],[49]]],"properties":{"name":"Libertador","gaul_code":31891,"targetarea":28.4954398,"totpop":86484.2758179,"country_id":"VEN","targetpop":56122.6611328,"new_mean":0.2316866,"totalarea":51.2582157}},{"type":"MultiPolygon","arcs":[[[50]],[[51]],[[52]]],"properties":{"name":"Autonomo San Felipe","gaul_code":32153,"targetarea":20.7991527,"totpop":266846.547437,"country_id":"VEN","targetpop":51404.552124,"new_mean":0.1267488,"totalarea":1444.4817488}},{"type":"Polygon","arcs":[[53,54,55]],"properties":{"name":"Mario Briceno Iragorry","gaul_code":31892,"targetarea":21.0289645,"totpop":121758.618667,"country_id":"VEN","targetpop":77688.619751,"new_mean":0.0586229,"totalarea":442.9565589}},{"type":"Polygon","arcs":[[56]],"properties":{"name":"Guanipa","gaul_code":31867,"targetarea":4.0501296,"totpop":88560.3937845,"country_id":"VEN","targetpop":11938.5227051,"new_mean":0.0395795,"totalarea":1160.8718672}},{"type":"Polygon","arcs":[[57]],"properties":{"name":"Cabimas","gaul_code":32158,"targetarea":48.1510821,"totpop":317975.969031,"country_id":"VEN","targetpop":185172.46228,"new_mean":0.1614468,"totalarea":888.6941469}},{"type":"MultiPolygon","arcs":[[[58]],[[59,60,61]],[[62,63]],[[64,65,66]]],"properties":{"name":"Guaicaipuro","gaul_code":32040,"targetarea":23.8863319,"totpop":292660.358662,"country_id":"VEN","targetpop":55924.9705811,"new_mean":0.2248522,"totalarea":694.6009292}},{"type":"Polygon","arcs":[[67]],"properties":{"name":"Santa Rita","gaul_code":32171,"targetarea":10.0317529,"totpop":71487.173213,"country_id":"VEN","targetpop":18808.5421753,"new_mean":0.1414033,"totalarea":489.9100629}},{"type":"MultiPolygon","arcs":[[[68,69,70]],[[-26,71]]],"properties":{"name":"Bolivar","gaul_code":31886,"targetarea":4.270421,"totpop":41036.2180634,"country_id":"VEN","targetpop":11638.7164307,"new_mean":0.1533979,"totalarea":52.7495004}},{"type":"Polygon","arcs":[[72,73,74,75,-47,76,77,-70]],"properties":{"name":"Santiago Marino","gaul_code":31895,"targetarea":75.0160671,"totpop":396889.362335,"country_id":"VEN","targetpop":299430.87561,"new_mean":0.0669905,"totalarea":483.7018669}},{"type":"Polygon","arcs":[[78]],"properties":{"name":"Zaraza","gaul_code":31998,"targetarea":3.1697415,"totpop":69885.0695652,"country_id":"VEN","targetpop":5366.7807617,"new_mean":0.1797834,"totalarea":3406.8416464}},{"type":"MultiPolygon","arcs":[[[79,-44,80]],[[81]]],"properties":{"name":"Paez","gaul_code":32090,"targetarea":37.5698661,"totpop":198770.766347,"country_id":"VEN","targetpop":103734.428345,"new_mean":0.1212808,"totalarea":501.6909595}},{"type":"MultiPolygon","arcs":[[[82,83]],[[84,85,-55]]],"properties":{"name":"Diego Ibarra","gaul_code":31924,"targetarea":19.9068107,"totpop":112571.119568,"country_id":"VEN","targetpop":46984.1728516,"new_mean":0.2180875,"totalarea":113.7179116}},{"type":"MultiPolygon","arcs":[[[86]],[[87,-43,88,-39],[89]]],"properties":{"name":"Valencia","gaul_code":31933,"targetarea":341.0379708,"totpop":1562361.54261,"country_id":"VEN","targetpop":1208575.11621,"new_mean":0.2027056,"totalarea":1216.0408536}},{"type":"Polygon","arcs":[[90]],"properties":{"name":"Miranda","gaul_code":32168,"targetarea":3.2047296,"totpop":111065.69022,"country_id":"VEN","targetpop":5728.7282715,"new_mean":0.1452038,"totalarea":1989.3638755}},{"type":"Polygon","arcs":[[91,92]],"properties":{"name":"Simon Bolivar","gaul_code":32049,"targetarea":1.6255488,"totpop":60376.6059361,"country_id":"VEN","targetpop":5581.5362549,"new_mean":0.2403638,"totalarea":153.0173438}},{"type":"Polygon","arcs":[[93]],"properties":{"name":"San Carlos","gaul_code":31939,"targetarea":16.1765702,"totpop":157642.061459,"country_id":"VEN","targetpop":36620.9888306,"new_mean":0.131556,"totalarea":2276.1613514}},{"type":"Polygon","arcs":[[94,95]],"properties":{"name":"Freites","gaul_code":31866,"targetarea":3.2833041,"totpop":103607.594291,"country_id":"VEN","targetpop":11445.0032959,"new_mean":0.5294035,"totalarea":7576.9475274}},{"type":"Polygon","arcs":[[96,97]],"properties":{"name":"Libertador","gaul_code":32019,"targetarea":34.6957415,"totpop":229567.656906,"country_id":"VEN","targetpop":84287.5401611,"new_mean":0.1852018,"totalarea":1166.2501187}},{"type":"Polygon","arcs":[[98,99]],"properties":{"name":"Crespo","gaul_code":32000,"targetarea":1.6539807,"totpop":56992.9210882,"country_id":"VEN","targetpop":3577.2496338,"new_mean":0.0337452,"totalarea":818.5575176}},{"type":"MultiPolygon","arcs":[[[100]],[[101]]],"properties":{"name":"Bermudez","gaul_code":32100,"targetarea":25.8217299,"totpop":149522.140007,"country_id":"VEN","targetpop":66838.6424561,"new_mean":0.1576776,"totalarea":198.2028757}},{"type":"Polygon","arcs":[[102,103]],"properties":{"name":"La Canada De Urdaneta","gaul_code":32163,"targetarea":3.6394289,"totpop":113505.331131,"country_id":"VEN","targetpop":10962.5184326,"new_mean":0.3016507,"totalarea":1813.1761844}},{"type":"Polygon","arcs":[[104]],"properties":{"name":"Rosario De Perija","gaul_code":32170,"targetarea":1.8436284,"totpop":104179.175448,"country_id":"VEN","targetpop":3015.7973633,"new_mean":0.1384544,"totalarea":3649.6269159}},{"type":"MultiPolygon","arcs":[[[105]],[[106,107,108]]],"properties":{"name":"Bolivar","gaul_code":31862,"targetarea":77.4819429,"totpop":496374.725472,"country_id":"VEN","targetpop":230624.987671,"new_mean":0.2507987,"totalarea":1832.9801266}},{"type":"MultiPolygon","arcs":[[[109]],[[110,111]]],"properties":{"name":"Urdaneta","gaul_code":32051,"targetarea":18.7233012,"totpop":171788.24408,"country_id":"VEN","targetpop":48455.8995361,"new_mean":0.2299645,"totalarea":303.1904747}},{"type":"Polygon","arcs":[[112,113,114,115,116,117,118]],"properties":{"name":"Marino","gaul_code":32081,"targetarea":27.9343469,"totpop":102942.196285,"country_id":"VEN","targetpop":101719.754368,"new_mean":0.1859564,"totalarea":34.6230639}},{"type":"MultiPolygon","arcs":[[[119,120,121,-92,122]],[[123]]],"properties":{"name":"Independencia","gaul_code":32041,"targetarea":29.5327902,"totpop":146483.402011,"country_id":"VEN","targetpop":80711.3134766,"new_mean":0.2348377,"totalarea":302.7566917}},{"type":"MultiPolygon","arcs":[[[124,-63,125,-61,126]],[[127,-67,128,129]]],"properties":{"name":"Carrizal","gaul_code":32036,"targetarea":16.8802982,"totpop":62576.0978394,"country_id":"VEN","targetpop":36098.8460693,"new_mean":0.2886812,"totalarea":40.3334103}},{"type":"Polygon","arcs":[[-96,130]],"properties":{"name":"Simon Rodriguez","gaul_code":31877,"targetarea":13.7464173,"totpop":205659.349609,"country_id":"VEN","targetpop":42828.1379395,"new_mean":0.0225494,"totalarea":573.3879119}},{"type":"MultiPolygon","arcs":[[[131]],[[132]]],"properties":{"name":"Miranda","gaul_code":31975,"targetarea":36.9802033,"totpop":250836.45445,"country_id":"VEN","targetpop":118704.266479,"new_mean":0.1424903,"totalarea":2162.7647465}},{"type":"MultiPolygon","arcs":[[[133,134]],[[135,136,137]]],"properties":{"name":"El Hatillo","gaul_code":32039,"targetarea":13.6078666,"totpop":75986.3682289,"country_id":"VEN","targetpop":33276.211792,"new_mean":0.189098,"totalarea":87.766727}},{"type":"MultiPolygon","arcs":[[[138]],[[139,-121]],[[140]]],"properties":{"name":"Paz Castillo","gaul_code":32046,"targetarea":10.62254,"totpop":144199.726707,"country_id":"VEN","targetpop":27068.0126953,"new_mean":0.0724671,"totalarea":427.20361}},{"type":"Polygon","arcs":[[141]],"properties":{"name":"Moran","gaul_code":32003,"targetarea":3.7426221,"totpop":135120.226381,"country_id":"VEN","targetpop":6996.5067139,"new_mean":0.1654075,"totalarea":2157.0656269}},{"type":"Polygon","arcs":[[142]],"properties":{"name":"Roscio","gaul_code":31995,"targetarea":13.7385565,"totpop":150632.191898,"country_id":"VEN","targetpop":28810.5180664,"new_mean":0.2336806,"totalarea":1680.8912216}},{"type":"Polygon","arcs":[[143,144,-113]],"properties":{"name":"Maneiro","gaul_code":32079,"targetarea":19.6167151,"totpop":64538.2154236,"country_id":"VEN","targetpop":59292.5463562,"new_mean":0.0943722,"totalarea":26.194691}},{"type":"Polygon","arcs":[[145,146]],"properties":{"name":"Carirubana","gaul_code":31965,"targetarea":66.787324,"totpop":257449.56657,"country_id":"VEN","targetpop":166062.813965,"new_mean":0.1143221,"totalarea":654.0843904}},{"type":"Polygon","arcs":[[-75,147,148]],"properties":{"name":"Lago De Valencia","gaul_code":31928,"targetarea":2.093971,"totpop":10917.3250284,"country_id":"VEN","targetpop":3423.3365478,"new_mean":7.3787556,"totalarea":387.6385706}},{"type":"Polygon","arcs":[[149]],"properties":{"name":"Puerto Cabello","gaul_code":31931,"targetarea":28.5889043,"totpop":183775.221647,"country_id":"VEN","targetpop":95370.5307007,"new_mean":0.1168932,"totalarea":361.8140859}},{"type":"Polygon","arcs":[[150]],"properties":{"name":"Falcon","gaul_code":31935,"targetarea":12.2873692,"totpop":125659.940557,"country_id":"VEN","targetpop":31336.7421875,"new_mean":0.1169091,"totalarea":573.3137651}},{"type":"Polygon","arcs":[[-71,-78,151,152]],"properties":{"name":"Sucre","gaul_code":31897,"targetarea":35.0047433,"totpop":118091.531296,"country_id":"VEN","targetpop":91865.5698242,"new_mean":0.0327245,"totalarea":80.8733074}},{"type":"MultiPolygon","arcs":[[[153]],[[154,-104]]],"properties":{"name":"Maracaibo","gaul_code":32167,"targetarea":338.2533082,"totpop":2234593.54308,"country_id":"VEN","targetpop":2100895.68883,"new_mean":0.1321153,"totalarea":469.6250429}},{"type":"MultiPolygon","arcs":[[[155,156]],[[157,158]],[[159]]],"properties":{"name":"Vargas","gaul_code":31960,"targetarea":45.6165081,"totpop":359997.056652,"country_id":"VEN","targetpop":123269.9729,"new_mean":0,"totalarea":970.3869654}},{"type":"Polygon","arcs":[[160,-158,161,-156,162,-65,-128,163,164,165]],"properties":{"name":"Libertador","gaul_code":31959,"targetarea":280.2715061,"totpop":2026708.27238,"country_id":"VEN","targetpop":1975612.65381,"new_mean":0.0092219,"totalarea":327.4659688}},{"type":"Polygon","arcs":[[166]],"properties":{"name":"Carlos Arevalo","gaul_code":31923,"targetarea":2.2620873,"totpop":179844.715296,"country_id":"VEN","targetpop":4814.3249512,"new_mean":0.1735806,"totalarea":950.0301881}},{"type":"MultiPolygon","arcs":[[[-37,167]],[[168,169]]],"properties":{"name":"Plaza","gaul_code":32048,"targetarea":47.3010664,"totpop":231070.310341,"country_id":"VEN","targetpop":150738.638916,"new_mean":0.3195332,"totalarea":205.6724459}},{"type":"MultiPolygon","arcs":[[[170]],[[171]],[[172]]],"properties":{"name":"Maturin","gaul_code":32060,"targetarea":30.1863861,"totpop":729269.42749,"country_id":"VEN","targetpop":58383.0549316,"new_mean":0.1334176,"totalarea":16174.886522}},{"type":"Polygon","arcs":[[-111,173]],"properties":{"name":"Cristobal Rojas","gaul_code":32038,"targetarea":33.9189839,"totpop":170148.998978,"country_id":"VEN","targetpop":92593.3238525,"new_mean":0.1257907,"totalarea":134.2317403}},{"type":"MultiPolygon","arcs":[[[174,-127,-60]],[[175,-164,-130,176]]],"properties":{"name":"Los Salias","gaul_code":32044,"targetarea":24.9569939,"totpop":82158.1953125,"country_id":"VEN","targetpop":58155.5137939,"new_mean":0.0269131,"totalarea":44.65124}},{"type":"Polygon","arcs":[[177]],"properties":{"name":"Lander","gaul_code":32043,"targetarea":24.2527137,"totpop":183645.945137,"country_id":"VEN","targetpop":54004.1431885,"new_mean":0.1666703,"totalarea":536.1585088}},{"type":"Polygon","arcs":[[178]],"properties":{"name":"Machiques De Perija","gaul_code":32165,"targetarea":7.0386936,"totpop":157177.102309,"country_id":"VEN","targetpop":15622.7858887,"new_mean":0.1238681,"totalarea":8452.1884193}},{"type":"MultiPolygon","arcs":[[[-41,179]],[[-83,180]]],"properties":{"name":"San Joaquin","gaul_code":31932,"targetarea":11.684562,"totpop":82978.5493088,"country_id":"VEN","targetpop":27155.461792,"new_mean":0.1515449,"totalarea":133.9184353}},{"type":"Polygon","arcs":[[181]],"properties":{"name":"Lagunillas","gaul_code":32164,"targetarea":40.8735833,"totpop":221285.353079,"country_id":"VEN","targetpop":129858.578979,"new_mean":0.1531692,"totalarea":1017.7992053}},{"type":"MultiPolygon","arcs":[[[182,183]],[[184]],[[185]]],"properties":{"name":"Diaz","gaul_code":32072,"targetarea":8.6356637,"totpop":102549.180199,"country_id":"VEN","targetpop":18168.5545654,"new_mean":0.1991828,"totalarea":150.3565038}},{"type":"Polygon","arcs":[[186]],"properties":{"name":"Isla De Cubagua","gaul_code":32077,"targetarea":8.4434234,"totpop":28681.835865,"country_id":"VEN","targetpop":14625.3734741,"new_mean":0.0002437,"totalarea":25.7199326}},{"type":"Polygon","arcs":[[187,188,-165,-176,189,-134,190,-137]],"properties":{"name":"Baruta","gaul_code":32033,"targetarea":58.749397,"totpop":242748.609871,"country_id":"VEN","targetpop":216647.323853,"new_mean":0.5938299,"totalarea":106.9030196}},{"type":"Polygon","arcs":[[191]],"properties":{"name":"Valdez","gaul_code":32111,"targetarea":4.8722548,"totpop":42077.7399768,"country_id":"VEN","targetpop":9482.3277588,"new_mean":0.1526387,"totalarea":464.5252363}},{"type":"Polygon","arcs":[[192]],"properties":{"name":"Jesus Enrique Lozada","gaul_code":32162,"targetarea":4.7360709,"totpop":161402.942497,"country_id":"VEN","targetpop":12001.0415039,"new_mean":0.0000379,"totalarea":2975.620374}},{"type":"Polygon","arcs":[[193]],"properties":{"name":"Torres","gaul_code":32006,"targetarea":11.2582484,"totpop":206722.408133,"country_id":"VEN","targetpop":25069.1210938,"new_mean":0.1584624,"totalarea":6918.514017}},{"type":"Polygon","arcs":[[194]],"properties":{"name":"Marcano","gaul_code":32080,"targetarea":6.9536758,"totpop":39972.9369507,"country_id":"VEN","targetpop":0,"new_mean":0.3563587,"totalarea":37.2135034}},{"type":"Polygon","arcs":[[-77,-49,195,-152]],"properties":{"name":"Jose Angel Lamas","gaul_code":31889,"targetarea":14.5054806,"totpop":42435.1259766,"country_id":"VEN","targetpop":0,"new_mean":0.2350942,"totalarea":17.4781876}},{"type":"Polygon","arcs":[[196,-56,-86,197,-148,-74]],"properties":{"name":"Girardot","gaul_code":31888,"targetarea":77.8097753,"totpop":415298.81834,"country_id":"VEN","targetpop":337337.643677,"new_mean":0.1967584,"totalarea":342.8797832}},{"type":"MultiPolygon","arcs":[[[198]],[[199]]],"properties":{"name":"Paez","gaul_code":32169,"targetarea":7.0197079,"totpop":158360.10774,"country_id":"VEN","targetpop":17945.6723633,"new_mean":0.0568673,"totalarea":1861.4930902}},{"type":"Polygon","arcs":[[200,201,-188,-136,202,-170]],"properties":{"name":"Sucre","gaul_code":32050,"targetarea":91.3439459,"totpop":625695.682343,"country_id":"VEN","targetpop":579358.910034,"new_mean":0.0744503,"totalarea":165.5126415}},{"type":"Polygon","arcs":[[-97,203]],"properties":{"name":"Campo Elias","gaul_code":32013,"targetarea":2.8217412,"totpop":118934.14893,"country_id":"VEN","targetpop":6358.2044678,"new_mean":0.2135184,"totalarea":823.0580391}},{"type":"MultiPolygon","arcs":[[[204]],[[205]]],"properties":{"name":"Mara","gaul_code":32166,"targetarea":12.1294961,"totpop":267319.282023,"country_id":"VEN","targetpop":27769.227562,"new_mean":0.10996,"totalarea":3113.4138546}},{"type":"Polygon","arcs":[[206,-34]],"properties":{"name":"Valera","gaul_code":32147,"targetarea":19.4515201,"totpop":144374.37616,"country_id":"VEN","targetpop":50166.7630615,"new_mean":0.3527752,"totalarea":281.4727867}},{"type":"MultiPolygon","arcs":[[[207]],[[208]],[[-29,209,210,211]],[[212]],[[-100,213]]],"properties":{"name":"Iribarren","gaul_code":32001,"targetarea":211.3875847,"totpop":1089312.97409,"country_id":"VEN","targetpop":652301.636963,"new_mean":0.2189136,"totalarea":2826.2255031}},{"type":"Polygon","arcs":[[214]],"properties":{"name":"Sucre","gaul_code":32110,"targetarea":59.7784603,"totpop":367591.835835,"country_id":"VEN","targetpop":226189.726685,"new_mean":0.1788983,"totalarea":1581.7384218}},{"type":"Polygon","arcs":[[215,216]],"properties":{"name":"Guanta","gaul_code":31868,"targetarea":2.914472,"totpop":34879.4171524,"country_id":"VEN","targetpop":5956.550354,"new_mean":0.2584093,"totalarea":91.3594015}},{"type":"Polygon","arcs":[[-217,217,-108,218]],"properties":{"name":"Sotillo","gaul_code":31878,"targetarea":27.4343372,"totpop":219619.219681,"country_id":"VEN","targetpop":151984.553955,"new_mean":0.141764,"totalarea":211.910058}},{"type":"Polygon","arcs":[[219,-147]],"properties":{"name":"Los Tanques","gaul_code":31973,"targetarea":1.0431732,"totpop":52179.4824557,"country_id":"VEN","targetpop":1490.3065185,"new_mean":0.2381508,"totalarea":261.8285548}},{"type":"Polygon","arcs":[[220]],"properties":{"name":"Guanare","gaul_code":32086,"targetarea":22.2570733,"totpop":231026.500386,"country_id":"VEN","targetpop":53897.7805176,"new_mean":0.149956,"totalarea":2512.0784451}},{"type":"Polygon","arcs":[[221]],"properties":{"name":"Colina","gaul_code":31966,"targetarea":3.5583711,"totpop":50782.0773487,"country_id":"VEN","targetpop":7529.026001,"new_mean":0.0816635,"totalarea":580.6003756}},{"type":"MultiPolygon","arcs":[[[222,-183,223,-118]],[[-116,224]],[[-114,-145,225]]],"properties":{"name":"Garcia","gaul_code":32073,"targetarea":21.1023227,"totpop":102566.602987,"country_id":"VEN","targetpop":57002.9350586,"new_mean":0.2731552,"totalarea":77.2638737}},{"type":"Polygon","arcs":[[226]],"properties":{"name":"Alberto Adriani","gaul_code":32008,"targetarea":12.7300622,"totpop":161598.748699,"country_id":"VEN","targetpop":31427.4364014,"new_mean":0.1653913,"totalarea":745.4447049}},{"type":"Polygon","arcs":[[227,-166,-189,-202]],"properties":{"name":"Chacao","gaul_code":32037,"targetarea":13.6239325,"totpop":49887.0027008,"country_id":"VEN","targetpop":46856.979248,"new_mean":0,"totalarea":19.7222641}},{"type":"MultiPolygon","arcs":[[[228]],[[229]]],"properties":{"name":"Heres","gaul_code":31916,"targetarea":63.6555245,"totpop":397889.585199,"country_id":"VEN","targetpop":187450.547485,"new_mean":6.5493462e-7,"totalarea":5776.5908482}},{"type":"MultiPolygon","arcs":[[[230]],[[231,232]],[[233,-32,234]]],"properties":{"name":"Caroni","gaul_code":31912,"targetarea":39.0533229,"totpop":423921.674192,"country_id":"VEN","targetpop":129009.10144,"new_mean":0.0483309,"totalarea":1386.6181064}},{"type":"MultiPolygon","arcs":[[[-31,235,-235]],[[-233,236]]],"properties":{"name":"Independencia","gaul_code":31870,"targetarea":60.4983542,"totpop":326562.820517,"country_id":"VEN","targetpop":260050.855957,"new_mean":0.3607396,"totalarea":7074.8878893}},{"type":"Polygon","arcs":[[237]],"properties":{"name":"Antonio Jose De Sucre","gaul_code":31902,"targetarea":6.5122655,"totpop":104461.960211,"country_id":"VEN","targetpop":11452.123291,"new_mean":0.1461049,"totalarea":2821.0393895}},{"type":"Polygon","arcs":[[238]],"properties":{"name":"Infante","gaul_code":31988,"targetarea":9.1134905,"totpop":137522.196651,"country_id":"VEN","targetpop":17683.0976562,"new_mean":0.1955464,"totalarea":10516.7953686}},{"type":"MultiPolygon","arcs":[[[239]],[[240]]],"properties":{"name":"Barinas","gaul_code":31904,"targetarea":56.4146777,"totpop":461371.137988,"country_id":"VEN","targetpop":132021.878906,"new_mean":0.2260419,"totalarea":3611.3330562}},{"type":"Polygon","arcs":[[241]],"properties":{"name":"Tucupita","gaul_code":31943,"targetarea":3.1722892,"totpop":180271.932657,"country_id":"VEN","targetpop":4838.3846435,"new_mean":0.0544649,"totalarea":15697.494643}}]}},"arcs":[[[-72.2756061,7.7522305],[-72.2794763,7.7691433],[-72.2868914,7.7642531]],[[-72.2868914,7.7642531],[-72.2756061,7.7522305]],[[-72.2666671,7.7829169],[-72.2560877,7.7874457],[-72.2610267,7.7974827],[-72.2640149,7.7979672],[-72.2666671,7.7829169]],[[-72.18701,7.7712663],[-72.1899663,7.7912502],[-72.1864018,7.8153225],[-72.2163777,7.8108952]],[[-72.2163777,7.8108952],[-72.2359592,7.7989447]],[[-72.2359592,7.7989447],[-72.2655765,7.7558376]],[[-72.2655765,7.7558376],[-72.2486114,7.7699342],[-72.224617,7.7727122],[-72.18701,7.7712663]],[[-72.2163777,7.8108952],[-72.2289392,7.8090399],[-72.2359592,7.7989447]],[[-72.3016362,7.8297186],[-72.3190434,7.8357163],[-72.3277999,7.8201809],[-72.3083338,7.8162502],[-72.3016362,7.8297186]],[[-67.5183536,7.8250914],[-67.5179977,7.8472611]],[[-67.5179977,7.8472611],[-67.5371912,7.8307643],[-67.5183536,7.8250914]],[[-72.3700037,7.701854],[-72.3774988,7.6875515],[-72.3666671,7.6829169],[-72.3700037,7.701854]],[[-72.353337,7.7101874],[-72.3608321,7.6958848],[-72.3500004,7.6912502],[-72.353337,7.7101874]],[[-72.463384,7.8069533],[-72.4417078,7.8005926],[-72.4295496,7.8299831],[-72.4458338,7.828327],[-72.463384,7.8069533]],[[-67.5803064,5.6647691],[-67.5965662,5.6785142],[-67.5973719,5.6539862],[-67.6180099,5.6770778],[-67.6372644,5.6662136],[-67.6000004,5.6329169],[-67.5803064,5.6647691]],[[-67.5183536,7.8250914],[-67.4993169,7.8406887],[-67.5108077,7.8534409],[-67.5179977,7.8472611]],[[-67.4297368,7.8774725],[-67.4452967,7.8652492],[-67.4250005,7.8495835],[-67.4297368,7.8774725]],[[-72.253337,7.6685207],[-72.2608321,7.6542181],[-72.2500004,7.6495835],[-72.253337,7.6685207]],[[-72.2333338,7.6745835],[-72.2262862,7.6471136],[-72.2049321,7.6672959],[-72.2333338,7.6745835]],[[-72.1864425,7.6708644],[-72.1931645,7.6779852],[-72.2034021,7.657689],[-72.1916671,7.6495835],[-72.1864425,7.6708644]],[[-72.2868914,7.7642531],[-72.3024217,7.754011],[-72.3025774,7.7534889],[-72.2756061,7.7522305]],[[-72.2333338,7.6745835],[-72.2397954,7.7139349],[-72.1952967,7.7448797],[-72.1850672,7.7581325],[-72.18701,7.7712663]],[[-72.2655765,7.7558376],[-72.247673,7.6785752],[-72.2333338,7.6745835]],[[-72.4295496,7.9308335],[-72.4625004,7.9274766],[-72.4643097,7.914371],[-72.4374679,7.9108059],[-72.4295496,7.9308335]],[[-67.3519675,10.206503],[-67.3250005,10.1995835],[-67.3181971,10.2094427],[-67.2901453,10.2288112],[-67.2669682,10.2374823],[-67.3272086,10.2445425]],[[-67.3272086,10.2445425],[-67.3335724,10.220315],[-67.3407669,10.2109604],[-67.3519675,10.206503]],[[-69.1034021,10.0711818],[-69.1180099,10.0936061],[-69.1450688,10.0805324],[-69.1200688,10.0711818],[-69.1000004,10.0579168],[-69.1034021,10.0711818]],[[-69.2763142,10.0118905],[-69.2625004,10.0139308],[-69.2371749,10.0127468],[-69.2173182,10.0007676],[-69.2223963,10.0351467],[-69.2828618,10.0454168],[-69.261825,10.0616563],[-69.2642827,10.0949896],[-69.2548294,10.1022876]],[[-69.2548294,10.1022876],[-69.2702789,10.0920143],[-69.2803345,10.0797873],[-69.2848969,10.0676317],[-69.2822495,10.0354824],[-69.2763142,10.0118905]],[[-62.6031921,8.319483],[-62.6071701,8.330211],[-62.6502896,8.3239343]],[[-62.6502896,8.3239343],[-62.6363889,8.3030119]],[[-62.6363889,8.3030119],[-62.6218329,8.3080025],[-62.6031921,8.319483]],[[-70.5834984,9.3112762],[-70.5763758,9.3467922],[-70.5939415,9.3458671]],[[-70.5939415,9.3458671],[-70.594696,9.3196192],[-70.5834984,9.3112762]],[[-70.5866704,9.401854],[-70.5941655,9.3875514],[-70.5833338,9.3829168],[-70.5866704,9.401854]],[[-66.5721357,10.4471951],[-66.5375005,10.4444118],[-66.5001225,10.4474147],[-66.4833338,10.4412502],[-66.4786626,10.453974],[-66.496143,10.4617743],[-66.5166183,10.4855332],[-66.5598637,10.49737],[-66.5661368,10.4938708]],[[-66.5661368,10.4938708],[-66.5630569,10.4807644],[-66.5652695,10.459177],[-66.5721357,10.4471951]],[[-67.8251161,10.2560055],[-67.8456059,10.2450628],[-67.8728032,10.2449245],[-67.8621017,10.3039089],[-67.876034,10.3284409],[-67.8871912,10.3034409],[-67.900354,10.2908399]],[[-67.900354,10.2908399],[-67.9052658,10.265048],[-67.9017868,10.2551575],[-67.889389,10.2400932],[-67.8692627,10.2248478],[-67.8741455,10.2127419],[-67.8693553,10.1956039]],[[-67.8693553,10.1956039],[-67.825033,10.2315456],[-67.8157004,10.2423725]],[[-67.8157004,10.2423725],[-67.8251161,10.2560055]],[[-67.9517647,10.28399],[-67.9652592,10.2779689],[-67.9877853,10.2783921],[-67.9982752,10.3018906],[-68.0705245,10.3089341],[-68.0410486,10.2835353],[-68.0339476,10.259951]],[[-68.0339476,10.259951],[-67.9808173,10.2567802],[-67.976983,10.2566356],[-67.9530334,10.2557325],[-67.9517647,10.28399]],[[-69.225106,9.5583314],[-69.2175293,9.5729532],[-69.2075411,9.6017821]],[[-69.2075411,9.6017821],[-69.2357182,9.6113185],[-69.2479904,9.5785101],[-69.2284021,9.5711818],[-69.225106,9.5583314]],[[-67.5583338,10.1547166],[-67.5500004,10.1551992],[-67.5333338,10.1579168],[-67.5333338,10.1829168],[-67.5583338,10.1829168],[-67.5583338,10.1547166]],[[-67.4695892,10.1979866],[-67.4809647,10.2028589],[-67.4913864,10.2014875],[-67.5072479,10.1933432],[-67.5544812,10.1951184]],[[-67.5544812,10.1951184],[-67.5205245,10.1873928],[-67.5099532,10.1522813],[-67.4811202,10.1545965],[-67.4699903,10.1519496]],[[-67.4699903,10.1519496],[-67.4695129,10.1674299],[-67.4746857,10.1817303],[-67.4695892,10.1979866]],[[-67.4868087,10.2020493],[-67.4833338,10.1662502],[-67.4946212,10.1799668],[-67.5112879,10.1891017],[-67.4868087,10.2020493]],[[-68.7336857,10.3365766],[-68.7166671,10.3329168],[-68.719906,10.3479885],[-68.7446212,10.3585191],[-68.7386553,10.3440481],[-68.7336857,10.3365766]],[[-68.6805343,10.371784],[-68.6694666,10.377383],[-68.6638676,10.393952],[-68.6962,10.4103094],[-68.7027999,10.3760972],[-68.6833338,10.3662502],[-68.6805343,10.371784]],[[-68.6083745,10.4169623],[-68.6338221,10.4275335],[-68.6239425,10.4035711],[-68.6166671,10.3995835],[-68.6083745,10.4169623]],[[-67.5616502,10.3290169],[-67.5866948,10.30268],[-67.6044601,10.3041082],[-67.6094361,10.2875863]],[[-67.6094361,10.2875863],[-67.6080017,10.2791739]],[[-67.6080017,10.2791739],[-67.5984802,10.2681971],[-67.5805893,10.267704],[-67.5633774,10.2885466],[-67.5615234,10.2956314],[-67.5616502,10.3290169]],[[-64.153952,8.871048],[-64.1704802,8.8710536],[-64.1871912,8.8627834],[-64.1500005,8.8579168],[-64.153952,8.871048]],[[-71.460858,10.4371896],[-71.4734497,10.3998423],[-71.4725952,10.3949986],[-71.4553375,10.3859835],[-71.4306335,10.3637352],[-71.415846,10.3357401],[-71.4000004,10.3329168],[-71.4129562,10.3534735],[-71.4051599,10.4299221],[-71.4209803,10.4283107],[-71.460858,10.4371896]],[[-67.0916671,10.3579168],[-67.1115646,10.3660915],[-67.0969812,10.3377712],[-67.0916671,10.3579168]],[[-66.9400226,10.368636],[-66.9418106,10.3695364]],[[-66.9418106,10.3695364],[-66.9420299,10.3657277]],[[-66.9420299,10.3657277],[-66.9400226,10.368636]],[[-66.9838563,10.3455468],[-66.9870237,10.3729724]],[[-66.9870237,10.3729724],[-66.9986251,10.3561712],[-67.0333338,10.3639512],[-67.0656824,10.3567002],[-67.0470626,10.3281073],[-67.0333338,10.3245835],[-67.0299321,10.3378485],[-67.0163579,10.3472153],[-66.9943689,10.3422878],[-66.9838563,10.3455468]],[[-66.9876099,10.403985],[-67.0249024,10.4078803]],[[-67.0249024,10.4078803],[-67.0112065,10.4028509],[-66.9874401,10.4034214]],[[-66.9874401,10.4034214],[-66.9876099,10.403985]],[[-71.5118168,10.5461045],[-71.5246424,10.5553005],[-71.5200118,10.5787502],[-71.5299072,10.5893431],[-71.5318451,10.5693626],[-71.5381165,10.5542803],[-71.5221786,10.5340195],[-71.5086165,10.5263307],[-71.5118168,10.5461045]],[[-67.391162,10.2060455],[-67.398151,10.221904]],[[-67.398151,10.221904],[-67.3936081,10.2080421]],[[-67.3936081,10.2080421],[-67.391162,10.2060455]],[[-67.3272086,10.2445425],[-67.3519675,10.206503]],[[-67.398151,10.221904],[-67.4092452,10.235818],[-67.4482182,10.2365586],[-67.4441818,10.2867743],[-67.4751549,10.257735]],[[-67.4751549,10.257735],[-67.4800568,10.2313023],[-67.4932709,10.2190046],[-67.5010147,10.21731],[-67.5403137,10.216836],[-67.5587006,10.2118216]],[[-67.5587006,10.2118216],[-67.5555814,10.1975835]],[[-67.5555814,10.1975835],[-67.5544812,10.1951184]],[[-67.4695892,10.1979866],[-67.455864,10.1910248],[-67.4442902,10.1903763]],[[-67.4442902,10.1903763],[-67.424736,10.1897926],[-67.4053802,10.197567],[-67.3936081,10.2080421]],[[-65.3228276,9.3611883],[-65.3455978,9.3501857],[-65.3166671,9.3412502],[-65.3228276,9.3611883]],[[-69.1833338,9.5912502],[-69.2075411,9.6017821]],[[-69.225106,9.5583314],[-69.2201482,9.5390032],[-69.212691,9.5362256],[-69.1721928,9.5295152],[-69.1632654,9.5581447],[-69.1799321,9.5696519],[-69.1833338,9.5912502]],[[-69.1833338,9.5912502],[-69.1666671,9.5912502],[-69.1666671,9.6079168],[-69.1833338,9.6079168],[-69.1833338,9.5912502]],[[-67.7189157,10.2983872],[-67.7249132,10.2847101]],[[-67.7249132,10.2847101],[-67.7062398,10.283366],[-67.6983282,10.2862225],[-67.682406,10.2959336],[-67.7107345,10.302383],[-67.7189157,10.2983872]],[[-67.6094361,10.2875863],[-67.6125004,10.2774115],[-67.6253585,10.3201076],[-67.6455245,10.3076157],[-67.6283678,10.2585954]],[[-67.6283678,10.2585954],[-67.6080017,10.2791739]],[[-68.155959,9.9942643],[-68.1500004,9.9912502],[-68.147201,10.0134507],[-68.1352055,10.0285508],[-68.1443689,10.0440497],[-68.1527999,10.027383],[-68.1638676,10.021784],[-68.1691225,10.0023684],[-68.155959,9.9942643]],[[-67.900354,10.2908399],[-67.9211919,10.2790391],[-67.9188888,10.2503403],[-67.8979904,10.232339],[-67.9288579,10.2034409],[-67.9474858,10.1957261],[-67.9466964,10.2353623],[-67.9371912,10.2701076],[-67.9311609,10.3034409],[-67.9455245,10.2867743],[-67.9517647,10.28399]],[[-68.0339476,10.259951],[-68.0260014,10.2335597],[-68.0429448,10.2031846],[-68.0544601,10.2041083],[-68.0621912,10.1850856],[-68.039299,10.1653631],[-68.1136723,10.1224839],[-68.1102625,10.080097],[-68.121143,10.0707261],[-68.1288579,10.0507635],[-68.0835861,10.0544012],[-68.071143,10.0957261],[-68.0542159,10.1103135],[-68.0060063,10.0926092],[-67.996143,10.1040594],[-67.9751388,10.1134344],[-67.9458338,10.1124172],[-67.889714,10.1079087],[-67.8794764,10.1235663],[-67.8962814,10.1536851],[-67.8857833,10.1822821],[-67.8693553,10.1956039]],[[-67.9196212,10.1204697],[-67.9104253,10.1352647],[-67.9000004,10.1162502],[-67.9196212,10.1204697]],[[-71.5052332,10.7351385],[-71.5247746,10.7214479],[-71.5301431,10.711376],[-71.5166671,10.7079168],[-71.5052332,10.7351385]],[[-66.6529613,10.2218422],[-66.6653061,10.2293072],[-66.6727743,10.2264255]],[[-66.6727743,10.2264255],[-66.6529613,10.2218422]],[[-68.564478,9.6771958],[-68.5935795,9.6814968],[-68.5987553,9.6464667],[-68.5791427,9.6460353],[-68.5500004,9.6412502],[-68.564478,9.6771958]],[[-64.222923,8.8613687],[-64.2458338,8.8692368],[-64.2751591,8.8572133]],[[-64.2751591,8.8572133],[-64.2511063,8.8613195],[-64.222923,8.8613687]],[[-71.1964916,8.5759258],[-71.1967196,8.5578813]],[[-71.1967196,8.5578813],[-71.1805262,8.5545152],[-71.1408696,8.5803371],[-71.1299321,8.5961818],[-71.1166671,8.6079168],[-71.1302576,8.611404],[-71.1281092,8.6209743],[-71.1453373,8.6328721],[-71.155103,8.6067735],[-71.1882654,8.5878485],[-71.1964916,8.5759258]],[[-69.1510481,10.2786119],[-69.1460942,10.2923325],[-69.1538635,10.2942894]],[[-69.1538635,10.2942894],[-69.1510481,10.2786119]],[[-63.2750005,10.6662502],[-63.3024663,10.6592026],[-63.2822921,10.6378485],[-63.2750005,10.6662502]],[[-63.2750005,10.6662502],[-63.269841,10.6630723],[-63.2632156,10.6349303],[-63.2432174,10.6366004],[-63.230575,10.6405381],[-63.2181645,10.6606797],[-63.2315887,10.6798029],[-63.2384415,10.6758003],[-63.2714035,10.6720811],[-63.2750005,10.6662502]],[[-71.7250925,10.5306818],[-71.7009607,10.5261053],[-71.625294,10.532137]],[[-71.625294,10.532137],[-71.7250925,10.5306818]],[[-72.3006596,10.3357692],[-72.3202967,10.3254828],[-72.3083338,10.3162502],[-72.3006596,10.3357692]],[[-64.6250005,10.1495835],[-64.6115316,10.1456346],[-64.6161109,10.1530784],[-64.6250005,10.1495835]],[[-64.6250005,10.1495835],[-64.6390304,10.1718451],[-64.6241923,10.1703326]],[[-64.6241923,10.1703326],[-64.6277771,10.1781988],[-64.6440506,10.1916399],[-64.6592603,10.1978316]],[[-64.6592603,10.1978316],[-64.6532745,10.1866722],[-64.6743393,10.1785355],[-64.6838837,10.1853905],[-64.6797485,10.1929932],[-64.7083969,10.2153931],[-64.709038,10.2001701],[-64.6987839,10.1954384],[-64.6957169,10.1862574],[-64.7088089,10.1609135],[-64.7130972,10.1354644],[-64.6853439,10.112409],[-64.691244,10.0545558],[-64.6702723,10.0524196],[-64.6712814,10.0623032],[-64.662118,10.086697],[-64.6545496,10.1208034],[-64.6500005,10.1245835],[-64.6611333,10.1469793],[-64.654688,10.1755235],[-64.6434575,10.1533107],[-64.6250005,10.1495835]],[[-66.8777999,10.171784],[-66.8963221,10.1940497],[-66.9027999,10.1528957],[-66.8666671,10.1495835],[-66.8777999,10.171784]],[[-66.8287778,10.2033173],[-66.8408585,10.2129726],[-66.8627319,10.2192173],[-66.8709494,10.2280781]],[[-66.8709494,10.2280781],[-66.8793706,10.2034898],[-66.8287778,10.2033173]],[[-63.7984804,10.9791199],[-63.8367653,10.9968586]],[[-63.8367653,10.9968586],[-63.8443194,10.9903005]],[[-63.8443194,10.9903005],[-63.84603,10.9855554]],[[-63.84603,10.9855554],[-63.8441658,10.9658661],[-63.8637924,10.9656687],[-63.8772466,10.95916]],[[-63.8772466,10.95916],[-63.8828283,10.9538115]],[[-63.8828283,10.9538115],[-63.8884934,10.9346025]],[[-63.8884934,10.9346025],[-63.8780586,10.9332989],[-63.8675705,10.9421942],[-63.8522453,10.9448462],[-63.8376045,10.9515333],[-63.8204188,10.9448472],[-63.8146767,10.9584704],[-63.814621,10.974556],[-63.7984804,10.9791199]],[[-66.7083338,10.2829168],[-66.708835,10.2831228]],[[-66.708835,10.2831228],[-66.7237701,10.2748432],[-66.7412224,10.2770758]],[[-66.7412224,10.2770758],[-66.7451502,10.263231],[-66.7118169,10.2544378],[-66.705977,10.2507304],[-66.6893423,10.2401699],[-66.6798507,10.2280625],[-66.6727743,10.2264255]],[[-66.6529613,10.2218422],[-66.6497726,10.2211045],[-66.638184,10.2593776],[-66.6807215,10.2509751],[-66.6951502,10.2711045],[-66.7083338,10.2829168]],[[-66.7083338,10.2829168],[-66.6990062,10.2865988],[-66.7081727,10.28349],[-66.7083338,10.2829168]],[[-66.9533555,10.3863297],[-66.9792241,10.3842678],[-66.9870237,10.3729724]],[[-66.9838563,10.3455468],[-66.9483647,10.3565497],[-66.9420299,10.3657277]],[[-66.9418106,10.3695364],[-66.9533555,10.3863297]],[[-66.9671326,10.4080324],[-66.9876099,10.403985]],[[-66.9874401,10.4034214],[-66.9635947,10.4035051]],[[-66.9635947,10.4035051],[-66.9671326,10.4080324]],[[-64.2751591,8.8572133],[-64.260824,8.8372951],[-64.2416671,8.8329168],[-64.2344487,8.8450913],[-64.2114344,8.8526841],[-64.2085056,8.8589778],[-64.2136124,8.8631318],[-64.222923,8.8613687]],[[-69.6166671,11.4329168],[-69.646143,11.4290594],[-69.6848963,11.4184556],[-69.7185144,11.3794378],[-69.6686365,11.3707261],[-69.6166671,11.4329168]],[[-69.6166671,11.4329168],[-69.6020578,11.4347591],[-69.5971961,11.4467856],[-69.6137374,11.438707],[-69.6166671,11.4329168]],[[-66.8193692,10.4424235],[-66.8305283,10.4269829],[-66.8242177,10.406838]],[[-66.8242177,10.406838],[-66.8000005,10.4245835],[-66.8193692,10.4424235]],[[-66.7482372,10.4382582],[-66.7674332,10.4618721],[-66.7999649,10.4613504]],[[-66.7999649,10.4613504],[-66.8119965,10.4555845],[-66.8175689,10.4453789]],[[-66.8175689,10.4453789],[-66.8044113,10.4541042],[-66.7722824,10.4553086],[-66.7482372,10.4382582]],[[-66.6750005,10.2912502],[-66.684929,10.2884618],[-66.6757542,10.288569],[-66.6750005,10.2912502]],[[-66.708835,10.2831228],[-66.7363042,10.2944118],[-66.7412224,10.2770758]],[[-66.6750005,10.2912502],[-66.6392013,10.2973333],[-66.6589686,10.3198797],[-66.6750005,10.2912502]],[[-69.7833338,9.7995835],[-69.8032719,9.7934271],[-69.7922693,9.7706528],[-69.7833338,9.7995835]],[[-67.3408696,9.9306504],[-67.3952967,9.9171494],[-67.368368,9.8963649],[-67.3500005,9.8912502],[-67.3408696,9.9306504]],[[-63.7984804,10.9791199],[-63.7772511,10.9961203],[-63.7848082,11.0048736],[-63.8246505,11.0282904],[-63.8340435,11.0171807]],[[-63.8340435,11.0171807],[-63.8367653,10.9968586]],[[-70.2111781,11.7199959],[-70.2114716,11.7102451],[-70.2204859,11.7023596],[-70.2141266,11.6829205],[-70.2191655,11.6695176],[-70.2349165,11.642719],[-70.2307587,11.622057],[-70.2252655,11.6171131],[-70.2030373,11.6126206],[-70.1870366,11.644957],[-70.1754155,11.6725409],[-70.1525232,11.6696926],[-70.1536137,11.6957179],[-70.1639083,11.7132391],[-70.1619389,11.7291001],[-70.1660112,11.733647]],[[-70.1660112,11.733647],[-70.2111781,11.7199959]],[[-67.5587006,10.2118216],[-67.5893402,10.2309961],[-67.5989001,10.233556]],[[-67.5989001,10.233556],[-67.5621912,10.2123928],[-67.5555814,10.1975835]],[[-68.0732404,10.4704575],[-68.061589,10.462999],[-68.0550786,10.4528346],[-68.0000004,10.4495835],[-67.9841639,10.4627183],[-67.9886723,10.4787502],[-67.9967018,10.4909],[-68.009819,10.4851532],[-68.0122147,10.4759169],[-68.0217056,10.4739227],[-68.0489913,10.4854925],[-68.0709977,10.4766006],[-68.0732404,10.4704575]],[[-68.3021394,9.9148808],[-68.2750004,9.9079168],[-68.2788579,9.9418239],[-68.3225021,9.9320379],[-68.320233,9.9218955],[-68.3021394,9.9148808]],[[-67.4442902,10.1903763],[-67.444172,10.1458095]],[[-67.444172,10.1458095],[-67.4250005,10.1412502],[-67.4133061,10.1548203],[-67.3805262,10.1521836],[-67.3655522,10.1790192],[-67.3703298,10.1894588],[-67.3791264,10.1959214],[-67.4205245,10.1728257],[-67.4128097,10.1873928],[-67.391162,10.2060455]],[[-71.7200037,10.5685207],[-71.7274988,10.5542181],[-71.7166671,10.5495835],[-71.7200037,10.5685207]],[[-71.625294,10.532137],[-71.6075745,10.5820475],[-71.6116486,10.6041899],[-71.6038361,10.6139593],[-71.6052628,10.6270924],[-71.6143188,10.6421843],[-71.5960846,10.6499519],[-71.5859833,10.6727972],[-71.5897369,10.7004576],[-71.5782801,10.7065415],[-71.5899887,10.714263],[-71.6553553,10.769599],[-71.6520838,10.7374701],[-71.6954513,10.7494085],[-71.6878829,10.7624701],[-71.6565178,10.776075],[-71.6745808,10.8007722],[-71.6902771,10.8005307],[-71.717546,10.7948268],[-71.6962163,10.7575995],[-71.709408,10.7211574],[-71.7250004,10.7195664],[-71.7472498,10.7218369],[-71.7433842,10.6838649],[-71.7582023,10.6444302],[-71.758206,10.6382824],[-71.7202641,10.6218288],[-71.7212976,10.6117295],[-71.7037032,10.6041042],[-71.705339,10.5880723],[-71.6878829,10.5575995],[-71.7037846,10.5450303],[-71.7537846,10.5361232],[-71.7250925,10.5306818]],[[-67.1010482,10.4631311],[-67.076149,10.4697104],[-67.0455246,10.4736795],[-67.0367661,10.4769735],[-67.0287768,10.4915567]],[[-67.0287768,10.4915567],[-67.0455245,10.4784409],[-67.1010482,10.4631311]],[[-67.0114685,10.5397971],[-66.9968137,10.5553663]],[[-66.9968137,10.5553663],[-67.0023605,10.5561183],[-67.0114685,10.5397971]],[[-66.8177593,10.6104517],[-66.8319092,10.6118088],[-66.8394165,10.6176958],[-66.853363,10.6177559],[-66.8641968,10.611186],[-66.8848724,10.6109323],[-66.8973236,10.6041117],[-66.9210129,10.6031284],[-66.9337158,10.5972223],[-66.9456177,10.6012135],[-66.9723663,10.6036358],[-66.9894104,10.6100874],[-67.029129,10.6086617],[-67.0493622,10.5936871],[-67.0755157,10.5862207],[-67.0629643,10.57921],[-67.0322677,10.5879868],[-67.0083338,10.5850124],[-66.9875005,10.5876003],[-66.9539881,10.5865423],[-66.9212977,10.5958766],[-66.8631189,10.6043443],[-66.8500005,10.6027126],[-66.8177593,10.6104517]],[[-66.8512694,10.530336],[-66.8799809,10.5463568],[-66.9116053,10.5438137],[-66.9968137,10.5553663]],[[-67.0114685,10.5397971],[-67.0153081,10.5329168],[-67.0033452,10.5114732],[-67.0287768,10.4915567]],[[-67.1010482,10.4631311],[-67.0861007,10.4521877],[-67.0551681,10.4546738],[-67.0453536,10.4370835],[-67.055396,10.4190781],[-67.0249024,10.4078803]],[[-66.9671326,10.4080324],[-66.9138489,10.4273777],[-66.8897629,10.4322491]],[[-66.8897629,10.4322491],[-66.8862839,10.4331551],[-66.8578491,10.4688005],[-66.8522034,10.4866591]],[[-66.8522034,10.4866591],[-66.8512694,10.530336]],[[-67.7723719,10.0945339],[-67.7870366,10.0804063],[-67.7666671,10.0745835],[-67.7723719,10.0945339]],[[-66.5661368,10.4938708],[-66.5789393,10.4867295],[-66.6125005,10.4860785],[-66.6403895,10.4883205],[-66.6871912,10.4742295],[-66.6538579,10.4623928],[-66.6357833,10.4523097],[-66.5721357,10.4471951]],[[-66.7023064,10.456917],[-66.6831222,10.4940619],[-66.7013947,10.495528]],[[-66.7013947,10.495528],[-66.6991119,10.4797783],[-66.7023064,10.456917]],[[-63.2416671,9.6912502],[-63.2499516,9.7079168],[-63.2416671,9.7245835],[-63.2549321,9.7211818],[-63.2700688,9.6985378],[-63.2416671,9.6912502]],[[-63.1458338,9.7408351],[-63.1816655,9.7558823],[-63.2200688,9.7339626],[-63.1953211,9.724197],[-63.1664393,9.7306708],[-63.1416671,9.7245835],[-63.1458338,9.7408351]],[[-63.1863449,9.7872463],[-63.1998458,9.8079779],[-63.2200688,9.7941961],[-63.1916671,9.7745835],[-63.1863449,9.7872463]],[[-66.8287778,10.2033173],[-66.8404627,10.2677313],[-66.8250005,10.2829168],[-66.860645,10.2951157],[-66.8712163,10.2517482],[-66.8709494,10.2280781]],[[-66.9400226,10.368636],[-66.9272954,10.3787502],[-66.9419764,10.388882],[-66.9533555,10.3863297]],[[-66.8780443,10.3973946],[-66.8800888,10.416749],[-66.8897629,10.4322491]],[[-66.9635947,10.4035051],[-66.9404139,10.4016424],[-66.920785,10.4125962],[-66.8874435,10.3864854],[-66.8780443,10.3973946]],[[-66.8154266,10.1738437],[-66.7997563,10.1478705],[-66.8140548,10.1368312],[-66.78641,10.1291327],[-66.800741,10.1053737],[-66.7666671,10.0995835],[-66.7617111,10.1121974],[-66.7715011,10.1284247],[-66.7699061,10.1392157],[-66.7880376,10.1532131],[-66.7983647,10.1784572],[-66.8130754,10.1807771],[-66.8154266,10.1738437]],[[-72.522201,10.075853],[-72.5416671,10.0663478],[-72.554989,10.0728542],[-72.5652592,10.052558],[-72.5416671,10.0495835],[-72.5277999,10.0607163],[-72.522201,10.075853]],[[-67.8157004,10.2423725],[-67.8128097,10.2457261],[-67.7856287,10.2539089],[-67.7750004,10.2662502],[-67.8044031,10.2708115],[-67.8121912,10.2617743],[-67.8251161,10.2560055]],[[-67.7189157,10.2983872],[-67.7440922,10.2860907],[-67.7249132,10.2847101]],[[-71.3452967,10.2376206],[-71.3649312,10.2402883],[-71.356842,10.2210932],[-71.3477325,10.210824],[-71.2916671,10.1662502],[-71.27863,10.1865464],[-71.2682947,10.2117987],[-71.2880375,10.2198797],[-71.2971114,10.2316392],[-71.3210779,10.2280991],[-71.3452967,10.2376206]],[[-63.9368131,10.9378802],[-63.9306825,10.9570259]],[[-63.9306825,10.9570259],[-63.9370366,10.9532904],[-63.9703699,10.9437608],[-63.9368131,10.9378802]],[[-63.9797368,10.9858058],[-63.9952967,10.9735825],[-63.9750005,10.9579168],[-63.9797368,10.9858058]],[[-64.0187586,11.0102647],[-64.0236704,10.9945484],[-64.0083338,10.9912502],[-64.0187586,11.0102647]],[[-64.149826,10.8201132],[-64.1556702,10.8306742],[-64.1644592,10.8170872],[-64.1923904,10.8259821],[-64.1715174,10.8030625],[-64.1517111,10.8007541],[-64.141655,10.8104763],[-64.149826,10.8201132]],[[-66.7999649,10.4613504],[-66.7919235,10.4670248],[-66.792366,10.4800777],[-66.8006592,10.4878006],[-66.822937,10.4874897]],[[-66.822937,10.4874897],[-66.8522034,10.4866591]],[[-66.8780443,10.3973946],[-66.8730066,10.4032415],[-66.8289148,10.4033962],[-66.8242177,10.406838]],[[-66.8193692,10.4424235],[-66.8175689,10.4453789]],[[-62.2960578,10.5662502],[-62.2916671,10.5739553],[-62.2916671,10.5912502],[-62.3083338,10.5912502],[-62.3083338,10.5662502],[-62.2960578,10.5662502]],[[-71.8288334,10.6443182],[-71.8448409,10.6201442],[-71.8250004,10.6079168],[-71.8288334,10.6443182]],[[-70.0564376,10.1912461],[-70.0858484,10.1846502],[-70.0950688,10.1650213],[-70.0666671,10.1495835],[-70.0564376,10.1912461]],[[-63.95363,11.0792873],[-63.9637293,11.0948797],[-63.9752914,11.0838947],[-63.9774692,11.0689812],[-63.9500005,11.0579168],[-63.95363,11.0792873]],[[-67.4699903,10.1519496],[-67.444172,10.1458095]],[[-67.4751549,10.257735],[-67.4847091,10.2466457],[-67.5088139,10.2447088],[-67.5473068,10.2562974],[-67.5465011,10.2912502],[-67.5435877,10.3275661],[-67.5616502,10.3290169]],[[-67.6283678,10.2585954],[-67.6276084,10.2564257],[-67.6160418,10.2434383],[-67.5989001,10.233556]],[[-71.8520919,11.093598],[-71.8612879,11.0788031],[-71.8416671,11.0745835],[-71.8520919,11.093598]],[[-71.9583338,11.3412502],[-71.9583338,11.3579168],[-71.9833338,11.3579168],[-71.9833338,11.3412502],[-71.9583338,11.3412502]],[[-66.7013947,10.495528],[-66.7126958,10.4950669],[-66.7800216,10.5197902],[-66.8254569,10.5257352]],[[-66.8254569,10.5257352],[-66.822937,10.4874897]],[[-66.7482372,10.4382582],[-66.7125497,10.4129523],[-66.6961306,10.4063931],[-66.6820668,10.4148565],[-66.6827326,10.4179348],[-66.7130701,10.436933],[-66.7023064,10.456917]],[[-71.1964916,8.5759258],[-71.2149581,8.5616725],[-71.1967196,8.5578813]],[[-71.7500065,10.7996118],[-71.7540043,10.8181789],[-71.7696212,10.8103379],[-71.7500508,10.7996111],[-71.7500065,10.7996118]],[[-71.7159892,10.953027],[-71.7340176,10.9756934],[-71.7448409,10.9451442],[-71.7250004,10.9329168],[-71.7159892,10.953027]],[[-70.5939415,9.3458671],[-70.6041671,9.3478867],[-70.6118168,9.3280625],[-70.6215174,9.3211045],[-70.6284835,9.2913845],[-70.613184,9.2877712],[-70.5868168,9.2947292],[-70.5834984,9.3112762]],[[-69.4916671,10.0079168],[-69.5010147,10.0052916],[-69.5007654,10.0040053],[-69.4916671,10.0079168]],[[-69.4166671,10.0912502],[-69.4445317,10.1273464],[-69.45363,10.0957668],[-69.4166671,10.0912502]],[[-69.2548294,10.1022876],[-69.2446863,10.1101182],[-69.2490971,10.1282131],[-69.2629236,10.1103013],[-69.2791671,10.1126979],[-69.3103683,10.1080877],[-69.3166671,10.1162502],[-69.3384933,10.1130723],[-69.3451665,10.1022446],[-69.3583338,10.1063462],[-69.3870935,10.0973903],[-69.4039474,10.0855536],[-69.4166671,10.0912502]],[[-69.4166671,10.0912502],[-69.4083745,10.0574774],[-69.4291671,10.0528143],[-69.438062,10.0548081],[-69.4485844,10.0395656],[-69.4882654,10.0128485],[-69.4916671,10.0079168]],[[-69.4916671,10.0079168],[-69.4540125,10.003384],[-69.4121017,10.018777],[-69.3791671,10.0214219],[-69.3622482,10.0200628],[-69.3198735,10.0532497],[-69.3211918,10.0367865],[-69.3083338,10.0329168],[-69.3041101,10.0525335],[-69.2893152,10.0433416],[-69.3083338,10.0329168],[-69.3046798,10.0113918],[-69.2763142,10.0118905]],[[-69.3049321,10.1378485],[-69.284701,10.1454168],[-69.2893722,10.1662502],[-69.285588,10.1831203],[-69.2944747,10.2196519],[-69.3256189,10.199376],[-69.3367355,10.1696519],[-69.3529301,10.1584743],[-69.3200688,10.1461818],[-69.3132654,10.1363185],[-69.3049321,10.1378485]],[[-69.1538635,10.2942894],[-69.167839,10.2978094],[-69.1850672,10.272016],[-69.1510481,10.2786119]],[[-64.1399002,10.4732132],[-64.1628952,10.4747658],[-64.1809998,10.4731102],[-64.186554,10.4666586],[-64.1890411,10.445962],[-64.2023308,10.427713],[-64.1889165,10.4096869],[-64.1388839,10.418301],[-64.1131108,10.4376939],[-64.0868901,10.4448065],[-64.1004559,10.4647767],[-64.1236496,10.473712],[-64.1399002,10.4732132]],[[-64.5988951,10.1952241],[-64.5962163,10.1999009],[-64.6132167,10.2489929],[-64.6198392,10.2472029]],[[-64.6198392,10.2472029],[-64.6114578,10.2317343],[-64.5988951,10.1952241]],[[-64.6198392,10.2472029],[-64.633316,10.2320404],[-64.6355667,10.2177792],[-64.6454849,10.2062445],[-64.6592603,10.1978316]],[[-64.6241923,10.1703326],[-64.6137619,10.1692694],[-64.5988951,10.1952241]],[[-70.1660112,11.733647],[-70.1686772,11.7366237],[-70.2111781,11.7199959]],[[-69.7203536,9.0634222],[-69.7869633,9.0361599],[-69.769255,9.0271348],[-69.753809,9.0294175],[-69.7297042,9.0115464],[-69.7166671,9.0079168],[-69.7203536,9.0634222]],[[-69.5654452,11.4726033],[-69.5789311,11.4559434],[-69.5583338,11.4495835],[-69.5654452,11.4726033]],[[-63.8828283,10.9538115],[-63.9015548,10.9514837],[-63.9208338,10.9628159],[-63.9306825,10.9570259]],[[-63.9368131,10.9378802],[-63.916659,10.9381211],[-63.8884934,10.9346025]],[[-63.84603,10.9855554],[-63.868254,10.9883164],[-63.8797287,10.9791286],[-63.8772466,10.95916]],[[-63.8340435,11.0171807],[-63.8443194,10.9903005]],[[-71.6406254,8.6279852],[-71.678394,8.6196844],[-71.6836593,8.5962062],[-71.6455978,8.6047349],[-71.6333338,8.5995835],[-71.6406254,8.6279852]],[[-66.8254569,10.5257352],[-66.8512694,10.530336]],[[-63.5273117,8.105036],[-63.5828292,8.1132391],[-63.6100509,8.1020982],[-63.5869634,8.070954],[-63.5791671,8.0519029],[-63.5621424,8.0544175],[-63.5333338,8.0329169],[-63.5297042,8.045954],[-63.5061854,8.0776719],[-63.5273117,8.105036]],[[-63.458936,8.1024115],[-63.489185,8.1199571],[-63.5120366,8.108987],[-63.4500005,8.0912502],[-63.458936,8.1024115]],[[-62.8935796,8.2236558],[-62.9119634,8.205862],[-62.8750005,8.1995835],[-62.8935796,8.2236558]],[[-62.8483252,8.2177164],[-62.8538579,8.2100856],[-62.8416671,8.1995835],[-62.8339523,8.2085353],[-62.7955246,8.2201076],[-62.7628097,8.2457261],[-62.7205246,8.2534409],[-62.7128097,8.2707261],[-62.6955594,8.2878091]],[[-62.6955594,8.2878091],[-62.7139827,8.283715],[-62.7411276,8.2658565],[-62.7625578,8.2544271],[-62.7982747,8.2237105],[-62.8197049,8.2144241],[-62.8425638,8.2144241],[-62.8483252,8.2177164]],[[-62.6506293,8.2982921],[-62.6354171,8.2792954],[-62.6083338,8.2745835],[-62.6132329,8.2873277],[-62.5962977,8.3008897],[-62.6031921,8.319483]],[[-62.6363889,8.3030119],[-62.6506293,8.2982921]],[[-62.6502896,8.3239343],[-62.6787033,8.3197984],[-62.6712,8.3115179],[-62.6621261,8.3126491],[-62.6506293,8.2982921]],[[-62.6955594,8.2878091],[-62.6961837,8.2956488],[-62.6799728,8.3247056],[-62.7394536,8.3199245],[-62.8008957,8.2343491],[-62.846143,8.2207261],[-62.8483252,8.2177164]],[[-70.8213709,8.2126206],[-70.8052576,8.2250555],[-70.815837,8.2448797],[-70.8369633,8.2171494],[-70.8213709,8.2126206]],[[-65.9857833,9.2152004],[-66.0234624,9.2279852],[-66.0184982,9.2058335],[-65.9916671,9.1912502],[-65.9857833,9.2152004]],[[-70.2750004,8.6162502],[-70.2903162,8.6360988],[-70.30363,8.6211127],[-70.2750004,8.6162502]],[[-70.2750004,8.6162502],[-70.2713709,8.6115464],[-70.2218917,8.5838487],[-70.1916671,8.5883164],[-70.1631515,8.5841009],[-70.1810226,8.6137396],[-70.2437423,8.6621486],[-70.2692143,8.6698797],[-70.2446863,8.6367987],[-70.2630375,8.6292873],[-70.2750004,8.6162502]],[[-62.0394943,9.0695217],[-62.0622645,9.0585191],[-62.0333338,9.0495835],[-62.0394943,9.0695217]]],"bbox":[-72.5652592,5.6329169,-62.0333338,11.7366237]}