{"type":"Topology","objects":{"foo":{"type":"GeometryCollection","geometries":[{"type":"MultiPolygon","arcs":[[[0,1,2]],[[3,4]]],"properties":{"name":"Al Qurishy","gaul_code":32717,"targetarea":2.0244178,"totpop":51084.2116351,"country_id":"YEM","targetpop":3590.2730713,"totalarea":581.4607448,"new_mean":0.0056324}},{"type":"Polygon","arcs":[[5,6,7,8]],"properties":{"name":"Jiblah","gaul_code":32891,"targetarea":57.0049717,"totpop":400531.912964,"country_id":"YEM","targetpop":313561.816772,"totalarea":145.6939344,"new_mean":0.010552}},{"type":"Polygon","arcs":[[9]],"properties":{"name":"Harib","gaul_code":32911,"targetarea":3.1663829,"totpop":74561.0958391,"country_id":"YEM","targetpop":8190.1226807,"totalarea":1080.5417894,"new_mean":0.003162}},{"type":"Polygon","arcs":[[10]],"properties":{"name":"Amanat al 'Asima","gaul_code":32939,"targetarea":61.3236349,"totpop":1360219.14551,"country_id":"YEM","targetpop":1360219.14551,"totalarea":61.3236348,"new_mean":0.0057098}},{"type":"MultiPolygon","arcs":[[[11]],[[12,13,14,15,16,17,18,19,20,21],[-11]]],"properties":{"name":"San'aa","gaul_code":32955,"targetarea":118.9635691,"totpop":1099425.53378,"country_id":"YEM","targetpop":1031615.33154,"totalarea":180.5475669,"new_mean":0.0055596}},{"type":"Polygon","arcs":[[22,23,24,25,26]],"properties":{"name":"Al Mahabishah","gaul_code":32854,"targetarea":22.6120675,"totpop":93747.5629807,"country_id":"YEM","targetpop":51385.2480469,"totalarea":108.2635687,"new_mean":0.0088313}},{"type":"MultiPolygon","arcs":[[[27,28]],[[29,30]],[[31]]],"properties":{"name":"Shara'b ar Rawna","gaul_code":32991,"targetarea":34.2543091,"totpop":286135.02655,"country_id":"YEM","targetpop":62054.3220215,"totalarea":399.2711396,"new_mean":0.0200912}},{"type":"Polygon","arcs":[[32,33]],"properties":{"name":"Shbam","gaul_code":32843,"targetarea":6.7339923,"totpop":112821.804444,"country_id":"YEM","targetpop":13816.9367676,"totalarea":1281.2794925,"new_mean":0.0008831}},{"type":"Polygon","arcs":[[34]],"properties":{"name":"Zinjubar","gaul_code":32703,"targetarea":9.9963528,"totpop":165130.612642,"country_id":"YEM","targetpop":18502.5526123,"totalarea":1931.4144221,"new_mean":0.0050215}},{"type":"Polygon","arcs":[[35,36]],"properties":{"name":"Aden","gaul_code":32713,"targetarea":152.9953199,"totpop":898856.98532,"country_id":"YEM","targetpop":765198.903687,"totalarea":749.1828954,"new_mean":0.00608}},{"type":"Polygon","arcs":[[37,38]],"properties":{"name":"Al Hudaydah","gaul_code":32742,"targetarea":106.8002946,"totpop":571016.41135,"country_id":"YEM","targetpop":527838.092712,"totalarea":203.9803583,"new_mean":0.0084842}},{"type":"MultiPolygon","arcs":[[[39,40]],[[41]]],"properties":{"name":"Dhamar","gaul_code":32814,"targetarea":33.6498614,"totpop":257565.496765,"country_id":"YEM","targetpop":168610.425049,"totalarea":257.4036569,"new_mean":0.0035204}},{"type":"MultiPolygon","arcs":[[[42]],[[43,-7]],[[44,45]]],"properties":{"name":"Ibb","gaul_code":32890,"targetarea":59.8626881,"totpop":390891.914398,"country_id":"YEM","targetpop":241340.768494,"totalarea":225.1240843,"new_mean":0.0091355}},{"type":"Polygon","arcs":[[46,47,48]],"properties":{"name":"Khayran al","gaul_code":32865,"targetarea":1.8661846,"totpop":81588.1364746,"country_id":"YEM","targetpop":1760.2685547,"totalarea":107.4024,"new_mean":0.0079225}},{"type":"Polygon","arcs":[[49,50]],"properties":{"name":"An Nadirah","gaul_code":32880,"targetarea":12.0084135,"totpop":131469.564529,"country_id":"YEM","targetpop":34097.708252,"totalarea":334.2693184,"new_mean":0.0049986}},{"type":"Polygon","arcs":[[51,-39]],"properties":{"name":"Al Durrayhimi","gaul_code":32740,"targetarea":12.5133789,"totpop":113350.710793,"country_id":"YEM","targetpop":29264.7730103,"totalarea":631.2360259,"new_mean":0.0064953}},{"type":"Polygon","arcs":[[52]],"properties":{"name":"Yafi","gaul_code":32906,"targetarea":6.9432698,"totpop":107633.702312,"country_id":"YEM","targetpop":13216.6316528,"totalarea":250.8806118,"new_mean":0.0040696}},{"type":"MultiPolygon","arcs":[[[53,54,-25]],[[55,-49,56]]],"properties":{"name":"Aflah Al Yaman","gaul_code":32850,"targetarea":26.9026581,"totpop":89895.1113281,"country_id":"YEM","targetpop":57055.1342773,"totalarea":58.8584151,"new_mean":0.0094606}},{"type":"MultiPolygon","arcs":[[[57,58,59]],[[60]],[[61]]],"properties":{"name":"Yarim","gaul_code":32893,"targetarea":33.7507648,"totpop":255909.997658,"country_id":"YEM","targetpop":111895.215088,"totalarea":551.587244,"new_mean":0.0051684}},{"type":"MultiPolygon","arcs":[[[62,63,64]],[[65,66,67]],[[68,69,70]],[[71,72,73]]],"properties":{"name":"Sabir al Mawadim","gaul_code":32989,"targetarea":17.2238241,"totpop":169914.581779,"country_id":"YEM","targetpop":99917.088562,"totalarea":157.597591,"new_mean":0.0154435}},{"type":"MultiPolygon","arcs":[[[74,75,-19]],[[76,-17]],[[77,-15,78]]],"properties":{"name":"Bani al Haith","gaul_code":32945,"targetarea":29.984638,"totpop":190898.128418,"country_id":"YEM","targetpop":77297.4505615,"totalarea":245.9514638,"new_mean":0.0046862}},{"type":"MultiPolygon","arcs":[[[79]],[[-28,80]],[[81]],[[82,-30]],[[83]]],"properties":{"name":"Shara'b as Salaa","gaul_code":32992,"targetarea":20.6726377,"totpop":191614.129227,"country_id":"YEM","targetpop":37626.9887695,"totalarea":172.7911343,"new_mean":0.0178896}},{"type":"Polygon","arcs":[[-1,84,85,-4,86]],"properties":{"name":"Rada'","gaul_code":32730,"targetarea":16.4873899,"totpop":90447.82131,"country_id":"YEM","targetpop":56697.7906494,"totalarea":235.9011631,"new_mean":0.0060973}},{"type":"Polygon","arcs":[[87]],"properties":{"name":"Mabyan","gaul_code":32870,"targetarea":14.5900041,"totpop":113407.898277,"country_id":"YEM","targetpop":28325.0704346,"totalarea":190.2347812,"new_mean":0.0101412}},{"type":"Polygon","arcs":[[-20,-76,88,89]],"properties":{"name":"Hamdan","gaul_code":32948,"targetarea":10.7744409,"totpop":183624.133593,"country_id":"YEM","targetpop":61289.3303223,"totalarea":600.2092768,"new_mean":0.0039244}},{"type":"MultiPolygon","arcs":[[[90,91]],[[92]]],"properties":{"name":"Al Rujum","gaul_code":32784,"targetarea":3.5376967,"totpop":124728.880447,"country_id":"YEM","targetpop":6917.28479,"totalarea":365.8462072,"new_mean":0.0078763}},{"type":"Polygon","arcs":[[93,94,95,-69,96,-73]],"properties":{"name":"Mashra'ah wa Had","gaul_code":32986,"targetarea":26.9966707,"totpop":215768.583801,"country_id":"YEM","targetpop":193234.49939,"totalarea":53.0049323,"new_mean":0.0165139}},{"type":"Polygon","arcs":[[97,98]],"properties":{"name":"Kuhlan ash Shara","gaul_code":32869,"targetarea":7.0652931,"totpop":64166.2728882,"country_id":"YEM","targetpop":19423.958374,"totalarea":72.6320386,"new_mean":0.0063831}},{"type":"Polygon","arcs":[[99,100]],"properties":{"name":"As Sabrah","gaul_code":32881,"targetarea":3.0368008,"totpop":116566.540215,"country_id":"YEM","targetpop":5963.6781006,"totalarea":316.5450914,"new_mean":0.0080166}},{"type":"Polygon","arcs":[[101]],"properties":{"name":"Kusmah","gaul_code":32951,"targetarea":15.5666521,"totpop":125062.085529,"country_id":"YEM","targetpop":27567.8439941,"totalarea":312.3407559,"new_mean":0.0115659}},{"type":"Polygon","arcs":[[102]],"properties":{"name":"Jaharan","gaul_code":32817,"targetarea":3.6725548,"totpop":136438.165424,"country_id":"YEM","targetpop":5767.6229248,"totalarea":383.2793125,"new_mean":0.0038145}},{"type":"Polygon","arcs":[[103]],"properties":{"name":"Arhab","gaul_code":32940,"targetarea":5.369875,"totpop":139112.521103,"country_id":"YEM","targetpop":10830.6781006,"totalarea":1432.8478561,"new_mean":0.003048}},{"type":"Polygon","arcs":[[104,105]],"properties":{"name":"AS Safra'","gaul_code":32919,"targetarea":4.9758066,"totpop":75769.0975742,"country_id":"YEM","targetpop":12248.1547852,"totalarea":1648.8143446,"new_mean":0.0025399}},{"type":"Polygon","arcs":[[106,107]],"properties":{"name":"Wasab as Safil","gaul_code":32821,"targetarea":2.5876427,"totpop":207218.486343,"country_id":"YEM","targetpop":6794.783081,"totalarea":785.0357086,"new_mean":0.0071498}},{"type":"Polygon","arcs":[[106,107]],"properties":{"name":"Wasab as Safil","gaul_code":32821,"targetarea":2.5876427,"totpop":207218.486343,"country_id":"YEM","targetpop":6794.783081,"totalarea":785.0357086,"new_mean":0.0114362}},{"type":"Polygon","arcs":[[108,109]],"properties":{"name":"'Amran","gaul_code":32790,"targetarea":17.1712274,"totpop":121728.678871,"country_id":"YEM","targetpop":60336.6877441,"totalarea":128.6489633,"new_mean":0.0045139}},{"type":"Polygon","arcs":[[110]],"properties":{"name":"Ash Shar","gaul_code":32830,"targetarea":3.3581231,"totpop":76060.1998503,"country_id":"YEM","targetpop":6572.1132812,"totalarea":1419.5770839,"new_mean":0.0052786}},{"type":"Polygon","arcs":[[111,-41]],"properties":{"name":"'Ans","gaul_code":32810,"targetarea":3.4913304,"totpop":203190.210567,"country_id":"YEM","targetpop":10460.7684326,"totalarea":843.3807987,"new_mean":0.0035519}},{"type":"MultiPolygon","arcs":[[[112,-51]],[[113,-59]]],"properties":{"name":"As Saddah","gaul_code":32882,"targetarea":16.2062539,"totpop":121378.64444,"country_id":"YEM","targetpop":37397.2507324,"totalarea":266.7425841,"new_mean":0.0047027}},{"type":"Polygon","arcs":[[114,115,116,117,118],[119]],"properties":{"name":"As Silw","gaul_code":32979,"targetarea":67.8190202,"totpop":213199.017982,"country_id":"YEM","targetpop":201387.87561,"totalarea":79.303005,"new_mean":0.0061324}},{"type":"Polygon","arcs":[[120,-108]],"properties":{"name":"Al Ja'fariyah","gaul_code":32935,"targetarea":2.3991465,"totpop":107861.565365,"country_id":"YEM","targetpop":5730.0244141,"totalarea":287.8432488,"new_mean":0.0161418}},{"type":"Polygon","arcs":[[121]],"properties":{"name":"Al Hada","gaul_code":32812,"targetarea":4.2391195,"totpop":227291.271572,"country_id":"YEM","targetpop":8955.0922852,"totalarea":1821.2224586,"new_mean":0.0042524}},{"type":"Polygon","arcs":[[121]],"properties":{"name":"Al Hada","gaul_code":32812,"targetarea":4.2391195,"totpop":227291.271572,"country_id":"YEM","targetpop":8955.0922852,"totalarea":1821.2224586,"new_mean":0.0044066}},{"type":"MultiPolygon","arcs":[[[122,123,124]],[[125,126,127]],[[128]]],"properties":{"name":"Dhi as Sufal","gaul_code":32886,"targetarea":33.8181671,"totpop":246250.529877,"country_id":"YEM","targetpop":121719.879639,"totalarea":185.7353177,"new_mean":0.0156006}},{"type":"Polygon","arcs":[[129]],"properties":{"name":"Al Qanawis","gaul_code":32749,"targetarea":2.2165554,"totpop":117624.063473,"country_id":"YEM","targetpop":4057.1273193,"totalarea":387.6463561,"new_mean":0.0092677}},{"type":"Polygon","arcs":[[130,-106]],"properties":{"name":"Sahar","gaul_code":32930,"targetarea":19.5551087,"totpop":317194.880655,"country_id":"YEM","targetpop":73584.9992676,"totalarea":1092.792235,"new_mean":0.0033903}},{"type":"Polygon","arcs":[[131,-45]],"properties":{"name":"Al Makhadir","gaul_code":32877,"targetarea":27.4699355,"totpop":159879.648636,"country_id":"YEM","targetpop":64569.3256836,"totalarea":207.5612117,"new_mean":0.0076674}},{"type":"MultiPolygon","arcs":[[[132,133]],[[134,-119,135]],[[136]]],"properties":{"name":"Dimnat Khadir","gaul_code":32982,"targetarea":6.6725223,"totpop":83843.3958511,"country_id":"YEM","targetpop":15675.4942627,"totalarea":429.7330521,"new_mean":0.0062821}},{"type":"Polygon","arcs":[[137]],"properties":{"name":"'Utamah","gaul_code":32811,"targetarea":5.5654862,"totpop":225078.704193,"country_id":"YEM","targetpop":11841.7255859,"totalarea":453.1098214,"new_mean":0.0113201}},{"type":"MultiPolygon","arcs":[[[138,-127]],[[139,-9]]],"properties":{"name":"As Sayyani","gaul_code":32883,"targetarea":13.0159312,"totpop":157751.097397,"country_id":"YEM","targetpop":32046.0239258,"totalarea":232.6165613,"new_mean":0.0115661}},{"type":"Polygon","arcs":[[140]],"properties":{"name":"Bani al 'Awam","gaul_code":32861,"targetarea":24.0690122,"totpop":209827.55246,"country_id":"YEM","targetpop":65417.4868164,"totalarea":187.0020721,"new_mean":0.0082172}},{"type":"Polygon","arcs":[[141,142]],"properties":{"name":"Ash Shahil","gaul_code":32856,"targetarea":6.8411808,"totpop":56804.3565216,"country_id":"YEM","targetpop":14984.7348022,"totalarea":111.6575169,"new_mean":0.0076032}},{"type":"MultiPolygon","arcs":[[[143,-94,-72]],[[144,-124]]],"properties":{"name":"At Ta'ziyah","gaul_code":32980,"targetarea":67.6219299,"totpop":875991.458345,"country_id":"YEM","targetpop":726529.941528,"totalarea":652.0741899,"new_mean":0.014357}},{"type":"Polygon","arcs":[[145]],"properties":{"name":"Hubaysh","gaul_code":32889,"targetarea":4.6877082,"totpop":154923.417145,"country_id":"YEM","targetpop":12543.9307861,"totalarea":225.5047047,"new_mean":0.009815}},{"type":"Polygon","arcs":[[-21,-90,146]],"properties":{"name":"Bani Matar","gaul_code":32944,"targetarea":8.1457722,"totpop":139219.410156,"country_id":"YEM","targetpop":18927.3029785,"totalarea":1078.2520054,"new_mean":0.0043135}},{"type":"Polygon","arcs":[[147]],"properties":{"name":"Al 'Udayn","gaul_code":32876,"targetarea":11.1524217,"totpop":228134.96711,"country_id":"YEM","targetpop":28867.7716064,"totalarea":349.1139989,"new_mean":0.0156408}},{"type":"MultiPolygon","arcs":[[[148,-34]],[[149]]],"properties":{"name":"Sayun","gaul_code":32842,"targetarea":19.0112358,"totpop":146552.881164,"country_id":"YEM","targetpop":37475.4382935,"totalarea":816.8688188,"new_mean":0.0016114}},{"type":"Polygon","arcs":[[150]],"properties":{"name":"Mawza'","gaul_code":32988,"targetarea":5.0925726,"totpop":176389.39739,"country_id":"YEM","targetpop":11496.9077148,"totalarea":838.4085402,"new_mean":0.0133795}},{"type":"Polygon","arcs":[[-99,151,-23,152]],"properties":{"name":"Al Maftah","gaul_code":32853,"targetarea":10.9856314,"totpop":60215.1899414,"country_id":"YEM","targetpop":25219.5706787,"totalarea":79.7454263,"new_mean":0.006665}},{"type":"MultiPolygon","arcs":[[[153]],[[154,155,156]]],"properties":{"name":"Taizz","gaul_code":32993,"targetarea":6.4938312,"totpop":169218.160492,"country_id":"YEM","targetpop":14438.9381104,"totalarea":338.1632909,"new_mean":0.0168869}},{"type":"Polygon","arcs":[[157]],"properties":{"name":"Bayt al Faqih","gaul_code":32755,"targetarea":3.7995843,"totpop":378511.112543,"country_id":"YEM","targetpop":7907.5251465,"totalarea":1619.4982285,"new_mean":0.0088146}},{"type":"MultiPolygon","arcs":[[[158,159]],[[160]]],"properties":{"name":"Al Mukalla","gaul_code":32826,"targetarea":53.293451,"totpop":213885.496263,"country_id":"YEM","targetpop":96643.0697479,"totalarea":1492.2554896,"new_mean":0.0067973}},{"type":"Polygon","arcs":[[-70,-96,161,162,-155,163,-64,164,-67,165]],"properties":{"name":"Al Misrak","gaul_code":32976,"targetarea":45.4869099,"totpop":177257.421143,"country_id":"YEM","targetpop":136573.289307,"totalarea":77.2459471,"new_mean":0.0171937}},{"type":"Polygon","arcs":[[166]],"properties":{"name":"Al Bayda","gaul_code":32716,"targetarea":8.4201543,"totpop":82189.2390213,"country_id":"YEM","targetpop":33345.0958252,"totalarea":291.2309723,"new_mean":0.0033303}},{"type":"Polygon","arcs":[[-55,167,-143,168,-26]],"properties":{"name":"Qufl Sharra","gaul_code":32873,"targetarea":17.9912392,"totpop":95342.5806503,"country_id":"YEM","targetpop":32879.7008057,"totalarea":179.9623937,"new_mean":0.0093465}},{"type":"Polygon","arcs":[[169,-136,-118,170,-133]],"properties":{"name":"Hayfan","gaul_code":32983,"targetarea":71.7431685,"totpop":256815.52998,"country_id":"YEM","targetpop":170947.295898,"totalarea":180.4894527,"new_mean":0.0055214}},{"type":"Polygon","arcs":[[169,-136,-118,170,-133]],"properties":{"name":"Hayfan","gaul_code":32983,"targetarea":71.7431685,"totpop":256815.52998,"country_id":"YEM","targetpop":170947.295898,"totalarea":180.4894527,"new_mean":0.0056876}},{"type":"Polygon","arcs":[[171]],"properties":{"name":"Al Jarrahi","gaul_code":32743,"targetarea":4.9775138,"totpop":161468.490697,"country_id":"YEM","targetpop":9644.4522705,"totalarea":735.3932745,"new_mean":0.0089519}},{"type":"MultiPolygon","arcs":[[[172]],[[173,174]],[[-116,175]],[[176]]],"properties":{"name":"Sami'","gaul_code":32990,"targetarea":5.945645,"totpop":58135.0068893,"country_id":"YEM","targetpop":11173.2327881,"totalarea":63.0967882,"new_mean":0.0084557}},{"type":"Polygon","arcs":[[-100,177]],"properties":{"name":"Ba'dan","gaul_code":32885,"targetarea":5.3965816,"totpop":171521.074188,"country_id":"YEM","targetpop":10609.579834,"totalarea":272.7831877,"new_mean":0.0077594}},{"type":"MultiPolygon","arcs":[[[178,-79,-14]],[[179]]],"properties":{"name":"Bani Hushaysh","gaul_code":32943,"targetarea":5.5148237,"totpop":73590.8034935,"country_id":"YEM","targetpop":11644.6556396,"totalarea":334.6584546,"new_mean":0.0039633}},{"type":"MultiPolygon","arcs":[[[-37,180]],[[181]]],"properties":{"name":"Al Hutah","gaul_code":32895,"targetarea":12.9576024,"totpop":189382.82348,"country_id":"YEM","targetpop":41248.8200684,"totalarea":2539.566699,"new_mean":0.0043408}},{"type":"Polygon","arcs":[[182]],"properties":{"name":"Duran","gaul_code":32815,"targetarea":4.9527106,"totpop":182101.884075,"country_id":"YEM","targetpop":12826.2889404,"totalarea":989.3146537,"new_mean":0.0052757}},{"type":"Polygon","arcs":[[183]],"properties":{"name":"Al Radmah","gaul_code":32879,"targetarea":4.8160472,"totpop":104778.181015,"country_id":"YEM","targetpop":8663.7540283,"totalarea":250.6000055,"new_mean":0.0043503}},{"type":"Polygon","arcs":[[184,-92]],"properties":{"name":"Al Mahwit","gaul_code":32783,"targetarea":8.8127994,"totpop":122391.162716,"country_id":"YEM","targetpop":23902.6674805,"totalarea":312.5662784,"new_mean":0.0091022}},{"type":"Polygon","arcs":[[-163,185,-156]],"properties":{"name":"Jabal Habashy","gaul_code":32984,"targetarea":1.683245,"totpop":53492.5308905,"country_id":"YEM","targetpop":3239.8586426,"totalarea":327.843939,"new_mean":0.0178084}},{"type":"Polygon","arcs":[[186,-109]],"properties":{"name":"Ayal Surayah","gaul_code":32796,"targetarea":9.8071624,"totpop":107281.361973,"country_id":"YEM","targetpop":40072.2456055,"totalarea":199.8756363,"new_mean":0.0052893}},{"type":"Polygon","arcs":[[-160,187]],"properties":{"name":"Brwm waMayfa'","gaul_code":32831,"targetarea":31.1331588,"totpop":122377.263091,"country_id":"YEM","targetpop":62768.4952698,"totalarea":2114.4644955,"new_mean":0.0059214}},{"type":"Polygon","arcs":[[-85,-3,188]],"properties":{"name":"Al a'rsh","gaul_code":32719,"targetarea":1.8943479,"totpop":53981.2731285,"country_id":"YEM","targetpop":6118.9666748,"totalarea":160.3122737,"new_mean":0.0057318}},{"type":"Polygon","arcs":[[189,-47,-56]],"properties":{"name":"Aflah Al sham","gaul_code":32851,"targetarea":28.169676,"totpop":92810.3586349,"country_id":"YEM","targetpop":57658.0437012,"totalarea":68.6033944,"new_mean":0.0080155}}]}},"arcs":[[[44.8200951,14.4152174],[44.8230816,14.4289554]],[[44.8230816,14.4289554],[44.8110547,14.4143628]],[[44.8110547,14.4143628],[44.8200951,14.4152174]],[[44.845993,14.4351278],[44.8570595,14.4149122],[44.8621765,14.4142513]],[[44.8621765,14.4142513],[44.845993,14.4351278]],[[44.179732,13.9040786],[44.1784822,13.9125311],[44.2120922,13.932632],[44.2129236,13.9360737]],[[44.2129236,13.9360737],[44.1701279,13.9701014],[44.1514206,13.972415],[44.135025,13.9856577],[44.1204343,13.9759176]],[[44.1204343,13.9759176],[44.1159333,13.9649196],[44.1309561,13.9533229],[44.1279288,13.9329168],[44.1308748,13.9130723],[44.160091,13.8931053]],[[44.160091,13.8931053],[44.179732,13.9040786]],[[45.5121899,14.9441432],[45.488557,14.928563],[45.5166658,14.9245835],[45.5121899,14.9441432]],[[44.2327423,15.3960209],[44.2262115,15.4003029],[44.2169838,15.4196758],[44.1946564,15.422801],[44.1837349,15.4022455],[44.1701088,15.3908443],[44.1815186,15.3736382],[44.1771545,15.3687592],[44.1705742,15.3347273],[44.1982918,15.3181524],[44.2325668,15.3156404],[44.229351,15.3366642],[44.2353935,15.3609715],[44.2327423,15.3960209]],[[44.1666658,15.3079168],[44.1595548,15.3048728],[44.1635694,15.2903883],[44.1666658,15.3079168]],[[44.1666658,15.3079168],[44.1786287,15.2948797],[44.2141267,15.2873887],[44.1990616,15.2757619],[44.1992994,15.2740823],[44.2297029,15.278213],[44.2452953,15.3042873],[44.2650056,15.3308701],[44.2513826,15.3775579],[44.2637361,15.3870835],[44.2399568,15.4054266],[44.2586528,15.4306441]],[[44.2586528,15.4306441],[44.2553253,15.4421349]],[[44.2553253,15.4421349],[44.2415581,15.4526958],[44.2388763,15.4801846],[44.2285156,15.4801359],[44.2224998,15.464468],[44.2089734,15.4469327]],[[44.2089734,15.4469327],[44.2087957,15.446717]],[[44.2087957,15.446717],[44.1946793,15.4406023],[44.1903076,15.4314108],[44.1713078,15.4196997]],[[44.1713078,15.4196997],[44.1687962,15.417639]],[[44.1687962,15.417639],[44.1655273,15.414957]],[[44.1655273,15.414957],[44.1537933,15.4053288],[44.1526833,15.3858967],[44.1444969,15.3664246],[44.1470299,15.3461695]],[[44.1470299,15.3461695],[44.1573054,15.3337096]],[[44.1573054,15.3337096],[44.1722647,15.3221624],[44.1666658,15.3079168]],[[43.4644076,15.9567673],[43.4580307,15.9814396],[43.4457181,15.9970666]],[[43.4457181,15.9970666],[43.4460929,15.9787217],[43.430092,15.9735315]],[[43.430092,15.9735315],[43.4225273,15.9516134],[43.4227448,15.9247522],[43.4152641,15.9258642]],[[43.4152641,15.9258642],[43.4157154,15.916756]],[[43.4157154,15.916756],[43.4512198,15.9307602],[43.4644076,15.9567673]],[[43.9048498,13.7331178],[43.9034544,13.7403911]],[[43.9034544,13.7403911],[43.9021084,13.731249],[43.9042612,13.7317434],[43.9048498,13.7331178]],[[43.8523019,13.7681623],[43.8407367,13.7851251]],[[43.8407367,13.7851251],[43.8305167,13.7895575],[43.8205069,13.7775091],[43.8038403,13.77921],[43.7878897,13.7566432],[43.8297354,13.7384954],[43.82871,13.728388],[43.8416658,13.7245835],[43.8468578,13.7478908],[43.8453767,13.762409],[43.8523019,13.7681623]],[[43.8083324,13.8329168],[43.7994457,13.8504868],[43.780533,13.8364243],[43.8083324,13.8329168]],[[48.789984,15.967751],[48.7725902,15.9694281],[48.7634919,15.9483424],[48.7832266,15.936183]],[[48.7832266,15.936183],[48.789984,15.967751]],[[45.3916658,13.1162502],[45.3916658,13.1412502],[45.3583324,13.1412502],[45.3583324,13.1162502],[45.3916658,13.1162502]],[[44.9502424,12.9260836],[44.9548168,12.8951727],[44.943391,12.8661078],[44.946516,12.8449408],[44.9130362,12.8312363],[44.922753,12.8271877],[44.9571768,12.8298122],[44.9871604,12.8227036],[44.9961417,12.8446519],[45.0082348,12.8352891],[45.0160911,12.8160374],[45.0294726,12.8003868],[45.0188708,12.7898767],[45.0051913,12.7951776],[44.9769482,12.789212],[44.9778323,12.7781944],[44.9982009,12.7651828],[45.0028012,12.7562934],[45.0377105,12.751871],[45.0439216,12.7624587],[45.0543144,12.758927],[45.0547709,12.7787854],[45.0430572,12.7865796],[45.0478899,12.819986],[45.0581534,12.851618],[45.0429353,12.8633652],[45.0489086,12.9037502],[45.011962,12.9115464],[45.0029262,12.9336115]],[[45.0029262,12.9336115],[44.9953423,12.9294786],[44.9613914,12.92906],[44.9502424,12.9260836]],[[43.0439164,14.7984557],[43.0348949,14.7931504],[43.0078116,14.7965155],[42.9785636,14.8446925],[42.9797192,14.8540594],[42.9696606,14.869957],[42.9425912,14.8595496],[42.9350544,14.8296325],[42.9348055,14.8131044],[42.9270932,14.8024238],[42.9393926,14.7882403],[42.9543285,14.7344712],[42.9666658,14.7245835],[42.9704093,14.7376532],[42.9946931,14.7346339],[43.00371,14.7458766],[43.0143311,14.7489141]],[[43.0143311,14.7489141],[43.0292587,14.7582912],[43.0420685,14.7738495],[43.0439164,14.7984557]],[[44.437229,14.5421305],[44.4308259,14.5626572],[44.414908,14.5724676],[44.4041658,14.5691188],[44.3896801,14.5736313],[44.3680655,14.558458],[44.3721345,14.5454168],[44.3684887,14.5337306],[44.3897502,14.5206251]],[[44.3897502,14.5206251],[44.4159241,14.5274296],[44.437229,14.5421305]],[[44.3609692,14.6362005],[44.3462882,14.6220729],[44.3666658,14.6162502],[44.3609692,14.6362005]],[[44.2685569,13.9018525],[44.2833324,13.8995835],[44.2701977,13.9193467],[44.239436,13.9279119],[44.2508957,13.9107368],[44.2685569,13.9018525]],[[44.2129236,13.9360737],[44.2202953,13.9665879],[44.1795727,14.0215195],[44.1630362,14.0115464],[44.1314119,14.002741],[44.1204343,13.9759176]],[[44.1906728,14.0581004],[44.1683502,14.0637512],[44.1667748,14.0692072],[44.1704802,14.1095518]],[[44.1704802,14.1095518],[44.1534611,14.1041435],[44.1466608,14.0935001],[44.1628083,14.0707261],[44.1749991,14.0412502],[44.1906728,14.0581004]],[[43.3839417,16.0283508],[43.3834209,16.032991]],[[43.3834209,16.032991],[43.3710603,16.0168524],[43.3856023,16.0123622]],[[43.3856023,16.0123622],[43.3839417,16.0283508]],[[44.4181478,14.1137998],[44.4599763,14.0956569],[44.4749991,14.0912502],[44.4703116,14.1175848],[44.4496555,14.1265373]],[[44.4496555,14.1265373],[44.4181478,14.1137998]],[[43.0143311,14.7489141],[43.0500642,14.7591335],[43.0620434,14.7875433],[43.0753409,14.7981919],[43.0663077,14.8116237],[43.0439164,14.7984557]],[[45.2487133,13.8616359],[45.2346671,13.8696519],[45.2215974,13.8380682],[45.2416658,13.8329168],[45.2487133,13.8616359]],[[43.430092,15.9735315],[43.4040844,15.9705023],[43.3789216,15.9618841],[43.3791543,15.9503627]],[[43.3791543,15.9503627],[43.4084587,15.9268761],[43.4152641,15.9258642]],[[43.4342281,16.0392011],[43.424099,16.0337372],[43.3839417,16.0283508]],[[43.3856023,16.0123622],[43.3999991,16.0079168],[43.4114412,16.0207261],[43.4229809,16.0200425],[43.4342281,16.0392011]],[[44.3499991,14.2245835],[44.3362133,14.2217067],[44.3304516,14.2107936],[44.315266,14.2027899],[44.3362458,14.1883734],[44.3498289,14.1955523]],[[44.3498289,14.1955523],[44.3531823,14.2180508]],[[44.3531823,14.2180508],[44.3499991,14.2245835]],[[44.3499991,14.2245835],[44.3627432,14.2310329],[44.3694652,14.2591864],[44.3399568,14.244778],[44.3499991,14.2245835]],[[44.3867341,14.2795151],[44.4100902,14.2882513],[44.3873363,14.3231838],[44.3710115,14.3195257],[44.3549307,14.2790594],[44.3833324,14.2745835],[44.3867341,14.2795151]],[[44.0333324,13.4995835],[44.0318436,13.4942726]],[[44.0318436,13.4942726],[44.0355499,13.4989326]],[[44.0355499,13.4989326],[44.0333324,13.4995835]],[[44.0333324,13.4995835],[44.0376619,13.5145959]],[[44.0376619,13.5145959],[44.0239258,13.5094652],[44.0281549,13.4917524]],[[44.0281549,13.4917524],[44.0333324,13.4995835]],[[44.0145869,13.5415675],[44.0203285,13.5286655]],[[44.0203285,13.5286655],[44.0361489,13.5236549]],[[44.0361489,13.5236549],[44.0145869,13.5415675]],[[44.1070018,13.6006786],[44.0905418,13.6043787],[44.0533066,13.5803947],[44.0374336,13.562808],[44.0084114,13.5660143]],[[44.0084114,13.5660143],[44.0130706,13.5460154]],[[44.0130706,13.5460154],[44.0514314,13.5545233],[44.0630688,13.5813421],[44.0821931,13.5972316],[44.1045238,13.594957],[44.1070018,13.6006786]],[[44.1687962,15.417639],[44.1656445,15.4181045]],[[44.1656445,15.4181045],[44.1655273,15.414957]],[[44.2087957,15.446717],[44.1802074,15.4424912],[44.1785473,15.4537502],[44.1821606,15.478213],[44.1380362,15.4669866],[44.1452953,15.453213],[44.1786287,15.4395697],[44.1713078,15.4196997]],[[44.2604441,15.4479479],[44.2437979,15.4608018],[44.2499666,15.5025254],[44.2197419,15.5069891],[44.221809,15.4930242],[44.2089734,15.4469327]],[[44.2553253,15.4421349],[44.2604441,15.4479479]],[[43.9416658,13.7329168],[43.9478181,13.7129787],[43.9706046,13.7239813],[43.9416658,13.7329168]],[[43.9048498,13.7331178],[43.9083324,13.7412502],[43.9034544,13.7403911]],[[43.9416658,13.7329168],[43.9359692,13.7528672],[43.9212882,13.7387396],[43.9416658,13.7329168]],[[43.8523019,13.7681623],[43.8617504,13.7760117],[43.8407367,13.7851251]],[[43.9180084,13.8273784],[43.9292455,13.8311357],[43.9202791,13.8455104],[43.936669,13.8596421],[43.9103226,13.8697199],[43.9090919,13.8694688],[43.8961417,13.8313665],[43.9180084,13.8273784]],[[44.8200951,14.4152174],[44.8239418,14.3979361]],[[44.8239418,14.3979361],[44.8499991,14.3912502],[44.8682445,14.4064235],[44.8621765,14.4142513]],[[44.845993,14.4351278],[44.8456835,14.4355271],[44.8371883,14.4381418],[44.8230816,14.4289554]],[[43.5514051,15.679186],[43.5373363,15.6801011],[43.5218253,15.6733424],[43.5433585,15.6600693],[43.5338207,15.6294215],[43.5645198,15.6364487],[43.5636668,15.654163],[43.5582816,15.6714663],[43.5514051,15.679186]],[[44.1656445,15.4181045],[44.1383617,15.4221339],[44.1368806,15.4120835],[44.1452791,15.3552313],[44.1340582,15.3521068]],[[44.1340582,15.3521068],[44.1470299,15.3461695]],[[43.5623047,15.4665987],[43.5692699,15.4818223],[43.5535496,15.488907]],[[43.5535496,15.488907],[43.5623047,15.4665987]],[[43.5959952,15.4931789],[43.5803865,15.4853379],[43.5999991,15.4745835],[43.5959952,15.4931789]],[[44.0084114,13.5660143],[43.9918289,13.5727129],[43.9821548,13.5816565],[43.9594293,13.5942673]],[[43.9594293,13.5942673],[43.940087,13.5709865],[43.9880525,13.5624375],[43.9773266,13.5142482],[43.9870672,13.4972243]],[[43.9870672,13.4972243],[43.9796982,13.5136433],[43.9865952,13.5267458],[44.0150909,13.521821],[44.0203285,13.5286655]],[[44.0145869,13.5415675],[44.0130706,13.5460154]],[[43.4795348,15.9981234],[43.4790681,16.02084],[43.4452465,16.0201483],[43.4455086,16.0073195]],[[43.4455086,16.0073195],[43.455349,16.0073948],[43.4795348,15.9981234]],[[44.3705449,13.9478523],[44.353528,13.9649508]],[[44.353528,13.9649508],[44.3500968,13.9579168],[44.3583975,13.9409328],[44.3705449,13.9478523]],[[43.6630362,14.5959539],[43.6337719,14.6115464],[43.6213695,14.5739447],[43.6666658,14.5662502],[43.6630362,14.5959539]],[[44.2897452,14.8029811],[44.2709952,14.7900457],[44.3083324,14.7829168],[44.2897452,14.8029811]],[[44.2245434,15.653034],[44.212727,15.6309434],[44.2333324,15.6245835],[44.2245434,15.653034]],[[43.7709801,16.899644],[43.7866853,16.9058864],[43.7778149,16.9574163],[43.7744942,16.9560815]],[[43.7744942,16.9560815],[43.7806129,16.9410343],[43.7700729,16.9187717],[43.7709801,16.899644]],[[43.537743,14.365477],[43.5583324,14.3579168],[43.5580841,14.3732488]],[[43.5580841,14.3732488],[43.537743,14.365477]],[[43.9407033,15.6445219],[43.9572906,15.6694813],[43.9591447,15.6912213]],[[43.9591447,15.6912213],[43.9554679,15.6973171],[43.9083813,15.662409],[43.9302563,15.6455185],[43.9407033,15.6445219]],[[49.5999991,14.7579168],[49.6283845,14.7652044],[49.61385,14.7779852],[49.5999991,14.7579168]],[[44.3897502,14.5206251],[44.4166658,14.5162502],[44.437229,14.5421305]],[[44.4496555,14.1265373],[44.4307934,14.1460068],[44.3944978,14.1459784],[44.3968416,14.1230413],[44.4181478,14.1137998]],[[44.3498289,14.1955523],[44.3612133,14.2015692],[44.3531823,14.2180508]],[[44.2619759,13.373541],[44.2453767,13.3782904],[44.1891267,13.4025661],[44.1706918,13.3878013]],[[44.1706918,13.3878013],[44.1587638,13.3635847]],[[44.1587638,13.3635847],[44.15553,13.3522591],[44.1546626,13.3372765],[44.1546643,13.3369034],[44.1591444,13.322802],[44.2177652,13.3142704]],[[44.2177652,13.3142704],[44.2254333,13.3344412],[44.235508,13.3432789],[44.2549248,13.3706179],[44.2622719,13.3727417]],[[44.2622719,13.3727417],[44.2619759,13.373541]],[[44.2054516,13.3532049],[44.2276846,13.3603053],[44.2333324,13.3495835],[44.2054516,13.3532049]],[[43.5580841,14.3732488],[43.5326163,14.3819281],[43.537743,14.365477]],[[44.4610017,14.7852565],[44.4470531,14.7616562],[44.4749991,14.7579168],[44.4610017,14.7852565]],[[44.1583324,13.7912502],[44.1147289,13.7870876],[44.1081648,13.7685779]],[[44.1081648,13.7685779],[44.129921,13.7528276],[44.1512976,13.7484103]],[[44.1512976,13.7484103],[44.1644848,13.7538071],[44.1583324,13.7912502]],[[44.1583324,13.7912502],[44.163391,13.7959363]],[[44.163391,13.7959363],[44.1471286,13.8232248]],[[44.1471286,13.8232248],[44.1583324,13.7912502]],[[44.1050181,13.8510451],[44.096516,13.8237656],[44.1249991,13.8162502],[44.13649,13.8442002],[44.1127007,13.8510357],[44.1050181,13.8510451]],[[43.1443025,15.5028672],[43.1296215,15.4887396],[43.1499991,15.4829168],[43.1443025,15.5028672]],[[43.7744942,16.9560815],[43.7426098,16.9432643],[43.7472647,16.9162502],[43.7447094,16.9013861],[43.7583324,16.8912502],[43.7709801,16.899644]],[[44.1906728,14.0581004],[44.1944001,14.0624253],[44.2038565,14.1040594],[44.2131339,14.112055],[44.181184,14.1451076],[44.1704802,14.1095518]],[[44.2752697,13.3569548],[44.276722,13.3427792],[44.2841316,13.3259679]],[[44.2841316,13.3259679],[44.2752697,13.3569548]],[[44.2636246,13.3730693],[44.2619759,13.373541]],[[44.2622719,13.3727417],[44.2636246,13.3730693]],[[44.1872712,13.4604478],[44.1640453,13.4693508],[44.1721671,13.4457098],[44.1916658,13.4412502],[44.1872712,13.4604478]],[[44.0302074,14.5084702],[44.0056143,14.5042588],[44.0150219,14.4864935],[44.0333324,14.4829168],[44.0302074,14.5084702]],[[44.163391,13.7959363],[44.1792797,13.8106553],[44.1802563,13.8369248],[44.1459952,13.8264593],[44.1467171,13.824399],[44.1471286,13.8232248]],[[44.160091,13.8931053],[44.1749991,13.8829168],[44.179732,13.9040786]],[[43.5729168,15.720983],[43.5630362,15.689472],[43.5999991,15.6745835],[43.6130362,15.6865464],[43.621988,15.7084214],[43.6199698,15.7221339],[43.5958324,15.7185695],[43.5746226,15.7217052],[43.5729168,15.720983]],[[43.3699267,15.8776183],[43.3916658,15.8745835],[43.3957511,15.8788315],[43.3963183,15.9066134]],[[43.3963183,15.9066134],[43.3817711,15.8996468],[43.3716316,15.8888197],[43.3699267,15.8776183]],[[44.1070018,13.6006786],[44.1242992,13.6337469],[44.1428539,13.6491563],[44.1350577,13.6700303],[44.1174307,13.6488145],[44.0886547,13.6192612],[44.065559,13.6000718],[44.0124991,13.6149074],[43.9657055,13.6018215],[43.9594293,13.5942673]],[[44.1081648,13.7685779],[44.1047029,13.7588161],[44.1363598,13.7343817],[44.1512976,13.7484103]],[[44.0881013,14.0770412],[44.0804516,14.0554876],[44.0916658,14.0495835],[44.0881013,14.0770412]],[[44.1340582,15.3521068],[44.0963695,15.3416123],[44.108186,15.3333685],[44.1497875,15.3395127],[44.1573054,15.3337096]],[[43.9916658,13.9495835],[44.0247061,13.9580633],[44.0087393,13.9825791],[43.9804679,13.9762396],[43.9916658,13.9495835]],[[48.7832266,15.936183],[48.7999991,15.9162502],[48.8035798,15.9408636],[48.8384919,15.9527614],[48.8448396,15.9624619],[48.789984,15.967751]],[[48.9943025,15.9862005],[48.9796215,15.9720729],[48.9999991,15.9662502],[48.9943025,15.9862005]],[[43.6828279,13.4073716],[43.6581534,13.4018418],[43.6465974,13.3880682],[43.6666658,13.3829168],[43.6828279,13.4073716]],[[43.4455086,16.0073195],[43.4457181,15.9970666]],[[43.4644076,15.9567673],[43.4799145,15.9796453],[43.4795348,15.9981234]],[[43.9583324,13.3745835],[43.9850089,13.3787868],[43.9779451,13.4029852],[43.9583324,13.3745835]],[[44.0043271,13.470858],[43.9923859,13.4819489]],[[43.9923859,13.4819489],[43.9793624,13.4726411]],[[43.9793624,13.4726411],[44.0043271,13.470858]],[[43.3249991,14.3494096],[43.3249991,14.3662502],[43.3083324,14.3662502],[43.3083324,14.3434008],[43.3249991,14.3494096]],[[49.0930253,14.5125867],[49.1112296,14.5282131],[49.1637849,14.5075547],[49.1618155,14.5208441],[49.1723949,14.5290024],[49.1452953,14.5365464],[49.1380362,14.5542873],[49.1258943,14.5615464],[49.1113272,14.5426702],[49.0723658,14.5267253]],[[49.0723658,14.5267253],[49.0930253,14.5125867]],[[49.2370434,14.5982773],[49.21385,14.6168442],[49.2041658,14.5938625],[49.1728995,14.5977524],[49.1546215,14.584223],[49.1759268,14.5671738],[49.1870434,14.5532904],[49.200485,14.5523741],[49.2037263,14.5709906],[49.2185212,14.5691514],[49.2370434,14.5982773]],[[43.9870672,13.4972243],[43.9854993,13.4908734]],[[43.9854993,13.4908734],[43.9923859,13.4819489]],[[44.0043271,13.470858],[44.0121736,13.4716579],[44.0218904,13.4599595],[44.0216788,13.432986],[44.0704418,13.4508571],[44.0382478,13.4648219],[44.0530082,13.4770843],[44.0544586,13.4800266],[44.053059,13.4937933],[44.0355499,13.4989326]],[[44.0318436,13.4942726],[44.0281549,13.4917524]],[[44.0376619,13.5145959],[44.0361489,13.5236549]],[[45.5896678,13.9823737],[45.5865063,13.9947007],[45.5496736,14.0029852],[45.5551098,13.978742],[45.5714306,13.9768854],[45.5896678,13.9823737]],[[43.3791543,15.9503627],[43.379589,15.9288356],[43.3543285,15.8797959],[43.3699267,15.8776183]],[[43.3963183,15.9066134],[43.4157154,15.916756]],[[44.2752697,13.3569548],[44.2712882,13.3708766],[44.2636246,13.3730693]],[[44.2177652,13.3142704],[44.2347485,13.3117987],[44.2620434,13.289944],[44.2546215,13.2782904],[44.2212882,13.2515977],[44.237141,13.236522],[44.2666658,13.2360459],[44.2876456,13.2386541],[44.2944429,13.2148884],[44.3036912,13.2175162],[44.3050109,13.2209476],[44.3049426,13.2323083],[44.2959789,13.2636541],[44.2712882,13.2605861],[44.27871,13.30421],[44.2881827,13.3118027],[44.2841316,13.3259679]],[[43.3999991,14.1245835],[43.3999991,14.1412502],[43.3749991,14.1412502],[43.3749991,14.1245835],[43.3999991,14.1245835]],[[44.1166658,13.3662502],[44.1176193,13.3628487],[44.1267571,13.363416],[44.1166658,13.3662502]],[[44.1166658,13.3662502],[44.1166658,13.3829168],[44.0999991,13.3829168]],[[44.0999991,13.3829168],[44.1055981,13.3718491],[44.1166658,13.3662502]],[[44.1706918,13.3878013],[44.1641918,13.3825954],[44.1587638,13.3635847]],[[44.0999991,13.3829168],[44.0973787,13.4009303],[44.0815095,13.3856105],[44.0999991,13.3829168]],[[44.3705449,13.9478523],[44.3777986,13.9519842],[44.3640779,13.9800726],[44.3499991,13.9829168],[44.353528,13.9649508]],[[44.2586528,15.4306441],[44.2674633,15.4425278],[44.2604441,15.4479479]],[[44.2749991,15.4831517],[44.2749991,15.4745835],[44.2999991,15.4745835],[44.2999991,15.4912502],[44.2874176,15.4912502],[44.2749991,15.4831517]],[[45.0029262,12.9336115],[45.0017244,12.9365464],[44.9498526,12.9287176],[44.9502424,12.9260836]],[[44.8861319,13.046784],[44.8971996,13.052383],[44.9027986,13.0705877],[44.8709789,13.077383],[44.8638663,13.0510972],[44.8861319,13.046784]],[[44.1956046,14.7771144],[44.1723787,14.7860174],[44.1805004,14.7623765],[44.1999991,14.7579168],[44.1956046,14.7771144]],[[44.6021801,14.2195216],[44.5793936,14.208519],[44.6083324,14.1995835],[44.6021801,14.2195216]],[[43.5535496,15.488907],[43.5414705,15.4943507],[43.5302237,15.4618963],[43.5583324,15.4579168],[43.5623047,15.4665987]],[[43.9854993,13.4908734],[43.9793624,13.4726411]],[[43.9407033,15.6445219],[43.9749991,15.6412502],[43.9713695,15.6709539],[43.9591447,15.6912213]],[[49.0723658,14.5267253],[49.0581046,14.5208888],[49.0380362,14.4948797],[49.0214346,14.4820664],[49.0076488,14.4483994],[49.0295655,14.4422987],[49.0453048,14.4641553],[49.0815303,14.5050728],[49.0930253,14.5125867]],[[44.8110547,14.4143628],[44.8141755,14.4004421],[44.8239418,14.3979361]],[[43.4342281,16.0392011],[43.4456046,16.0585801],[43.4057608,16.1035142],[43.3909171,16.0396877],[43.3834209,16.032991]]],"bbox":[42.9270932,12.751871,49.6283845,16.9574163]}