{"type":"Topology","objects":{"foo":{"type":"GeometryCollection","geometries":[{"type":"Polygon","arcs":[[0]],"properties":{"name":"Nchelenge","gaul_code":65203,"targetarea":5.435436,"totpop":187355.633714,"country_id":"ZMB","targetpop":9308.8382568,"new_mean":0.0350033,"totalarea":3478.3157828}},{"type":"Polygon","arcs":[[1,2]],"properties":{"name":"Ndola","gaul_code":65189,"targetarea":111.8977955,"totpop":583112.471382,"country_id":"ZMB","targetpop":319415.432861,"new_mean":0.0130983,"totalarea":1018.6862028}},{"type":"Polygon","arcs":[[3]],"properties":{"name":"Choma","gaul_code":65228,"targetarea":24.2329888,"totpop":328167.721033,"country_id":"ZMB","targetpop":70140.7655029,"new_mean":0.0086011,"totalarea":7014.0900088}},{"type":"Polygon","arcs":[[4]],"properties":{"name":"Chingola","gaul_code":65181,"targetarea":46.1493836,"totpop":281772.013941,"country_id":"ZMB","targetpop":115838.709839,"new_mean":0.0322462,"totalarea":1746.4746988}},{"type":"Polygon","arcs":[[5]],"properties":{"name":"Mpika","gaul_code":65216,"targetarea":8.6159916,"totpop":302454.215373,"country_id":"ZMB","targetpop":22913.5197754,"new_mean":0.0111039,"totalarea":40235.461385}},{"type":"Polygon","arcs":[[6]],"properties":{"name":"Mongu","gaul_code":65242,"targetarea":16.1357796,"totpop":210085.897912,"country_id":"ZMB","targetpop":34752.1055908,"new_mean":0.0166202,"totalarea":10360.0132406}},{"type":"MultiPolygon","arcs":[[[7]],[[8]]],"properties":{"name":"Katete","gaul_code":65193,"targetarea":11.4566524,"totpop":338638.475952,"country_id":"ZMB","targetpop":25799.1671143,"new_mean":0.0065073,"totalarea":3920.450583}},{"type":"Polygon","arcs":[[9]],"properties":{"name":"Mufulira","gaul_code":65188,"targetarea":17.0994675,"totpop":177631.024895,"country_id":"ZMB","targetpop":37840.8580322,"new_mean":0.0199432,"totalarea":1134.8239415}},{"type":"MultiPolygon","arcs":[[[10,11]],[[12,13,14]]],"properties":{"name":"Kafue","gaul_code":65206,"targetarea":64.237667,"totpop":624565.956119,"country_id":"ZMB","targetpop":273618.250244,"new_mean":0.0105665,"totalarea":5549.5751956}},{"type":"MultiPolygon","arcs":[[[15,-14,16]],[[17,18]]],"properties":{"name":"Chibombo","gaul_code":65174,"targetarea":12.4847729,"totpop":416373.855595,"country_id":"ZMB","targetpop":44687.3845215,"new_mean":0.007924,"totalarea":13318.7163714}},{"type":"Polygon","arcs":[[19]],"properties":{"name":"Kitwe","gaul_code":65183,"targetarea":144.7343283,"totpop":702095.067514,"country_id":"ZMB","targetpop":436478.562927,"new_mean":0.0164052,"totalarea":880.8310399}},{"type":"Polygon","arcs":[[20]],"properties":{"name":"Livingstone","gaul_code":65233,"targetarea":36.6380731,"totpop":193109.69388,"country_id":"ZMB","targetpop":97445.6657715,"new_mean":0.0065693,"totalarea":754.684285}},{"type":"Polygon","arcs":[[21]],"properties":{"name":"Luanshya","gaul_code":65184,"targetarea":11.5155614,"totpop":166661.644087,"country_id":"ZMB","targetpop":20875.7038574,"new_mean":0.0307952,"totalarea":939.3378735}},{"type":"Polygon","arcs":[[22]],"properties":{"name":"Kapiri-Mposhi","gaul_code":65176,"targetarea":4.2286263,"totpop":205591.00937,"country_id":"ZMB","targetpop":9580.1746826,"new_mean":0.0134615,"totalarea":12174.3752466}},{"type":"Polygon","arcs":[[23,-3]],"properties":{"name":"Masaiti","gaul_code":65186,"targetarea":9.0077792,"totpop":163876.410758,"country_id":"ZMB","targetpop":19743.1983643,"new_mean":0.0220876,"totalarea":3642.3936605}},{"type":"Polygon","arcs":[[24]],"properties":{"name":"Kasama","gaul_code":65213,"targetarea":22.041225,"totpop":315908.05483,"country_id":"ZMB","targetpop":47662.1139526,"new_mean":0.0122235,"totalarea":10710.0143519}},{"type":"Polygon","arcs":[[25]],"properties":{"name":"Nakonde","gaul_code":65220,"targetarea":13.9188965,"totpop":191119.862478,"country_id":"ZMB","targetpop":43573.8967285,"new_mean":0.0152525,"totalarea":4507.8629559}},{"type":"Polygon","arcs":[[26]],"properties":{"name":"Monze","gaul_code":65235,"targetarea":10.2053979,"totpop":217378.720211,"country_id":"ZMB","targetpop":22755.1306763,"new_mean":0.0098572,"totalarea":4701.2895972}},{"type":"Polygon","arcs":[[27]],"properties":{"name":"Kabwe","gaul_code":65175,"targetarea":47.555719,"totpop":234404.939921,"country_id":"ZMB","targetpop":99304.7786865,"new_mean":0.0079614,"totalarea":1598.8694831}},{"type":"Polygon","arcs":[[28]],"properties":{"name":"Mazabuka","gaul_code":65234,"targetarea":5.5219719,"totpop":268392.711712,"country_id":"ZMB","targetpop":11102.0322266,"new_mean":0.0099275,"totalarea":6457.932085}},{"type":"Polygon","arcs":[[-18,29,-17,-13,30,-11,31]],"properties":{"name":"Lusaka","gaul_code":65208,"targetarea":339.7848982,"totpop":2645293.09151,"country_id":"ZMB","targetpop":2608161.95041,"new_mean":0.0049406,"totalarea":442.3235065}},{"type":"Polygon","arcs":[[32]],"properties":{"name":"Chipata","gaul_code":65192,"targetarea":32.579585,"totpop":565132.054688,"country_id":"ZMB","targetpop":98031.8592529,"new_mean":0.009386,"totalarea":6107.51255}},{"type":"Polygon","arcs":[[33]],"properties":{"name":"Chililabombwe","gaul_code":65180,"targetarea":11.9658249,"totpop":117121.627911,"country_id":"ZMB","targetpop":22856.2491455,"new_mean":0.0304493,"totalarea":925.0102456}},{"type":"Polygon","arcs":[[34]],"properties":{"name":"Mansa","gaul_code":65200,"targetarea":30.3104312,"totpop":735738.484096,"country_id":"ZMB","targetpop":70512.4376221,"new_mean":0.0078574,"totalarea":9596.1633483}}]}},"arcs":[[[28.7477042,-9.313657],[28.7297029,-9.3411798],[28.7416658,-9.3504164],[28.7477042,-9.313657]],[[28.6677987,-12.9503675],[28.6711906,-12.9377211],[28.6456046,-12.9298191],[28.6025871,-12.8964857],[28.5908358,-12.9377292],[28.6120923,-12.9768243],[28.5960604,-13.0043471],[28.6398917,-13.0533949],[28.6609529,-13.0298191],[28.6916658,-13.0504164],[28.7036776,-13.0169366],[28.7039217,-12.9879164]],[[28.7039217,-12.9879164],[28.6885427,-12.9885104],[28.6862617,-12.9885495],[28.6541977,-12.9856596],[28.652092,-12.9740133],[28.6677987,-12.9503675]],[[27.0118644,-16.7998874],[26.9941561,-16.7714125],[26.9698559,-16.7976332],[26.9543286,-16.8288913],[26.9999992,-16.8337497],[27.0118644,-16.7998874]],[[27.9206046,-12.5261],[27.8758455,-12.4964857],[27.8252108,-12.5146498],[27.8401196,-12.5420831],[27.8286938,-12.5631036],[27.8499992,-12.5670831],[27.8852042,-12.5338555],[27.9106763,-12.5623549],[27.9206046,-12.5261]],[[31.4670402,-11.8296726],[31.4604646,-11.8136814],[31.4299308,-11.8431247],[31.4583325,-11.8504164],[31.4670402,-11.8296726]],[[23.1646965,-15.2769138],[23.1581372,-15.2476169],[23.1446932,-15.2386814],[23.1215975,-15.2826592],[23.1583325,-15.2920831],[23.1646965,-15.2769138]],[[31.7749992,-14.2254164],[31.7749992,-14.2087497],[31.7499992,-14.2087497],[31.7499992,-14.2254164],[31.7749992,-14.2254164]],[[32.0588859,-14.0571791],[32.0430493,-14.0392103],[32.0304516,-14.0651218],[32.0499992,-14.0754164],[32.0588859,-14.0571791]],[[28.2850089,-12.5554538],[28.2238924,-12.5659763],[28.2131177,-12.5796482],[28.2666658,-12.5837497],[28.2850089,-12.5554538]],[[28.3323264,-15.4889966],[28.2981777,-15.4807177],[28.3025208,-15.5125322],[28.2849464,-15.5389271],[28.2322693,-15.5316696],[28.2277747,-15.4927535]],[[28.2277747,-15.4927535],[28.2317212,-15.5510756],[28.2619621,-15.5801202],[28.2749992,-15.5837497],[28.2786287,-15.5540459],[28.3039542,-15.5344984],[28.3121899,-15.4860202],[28.3323264,-15.4889966]],[[28.2199678,-15.4557382],[28.2330055,-15.4431543],[28.2238998,-15.4206781],[28.2217712,-15.3764658],[28.2395687,-15.3427906]],[[28.2395687,-15.3427906],[28.2165861,-15.3370591]],[[28.2165861,-15.3370591],[28.2069328,-15.3408542],[28.1963696,-15.4097507],[28.2199678,-15.4557382]],[[28.2515115,-15.328576],[28.2165861,-15.3370591]],[[28.2395687,-15.3427906],[28.2515115,-15.328576]],[[28.2627825,-15.3190059],[28.3102728,-15.3112643]],[[28.3102728,-15.3112643],[28.3020337,-15.3005873],[28.2609529,-15.3066582],[28.2627825,-15.3190059]],[[28.2749992,-12.8837497],[28.2621899,-12.8798923],[28.2544751,-12.8419447],[28.271272,-12.7961846],[28.259716,-12.775449],[28.2228996,-12.7437432],[28.172688,-12.7132256],[28.158353,-12.735138],[28.1564794,-12.7446568],[28.1717765,-12.7720635],[28.1704744,-12.7881443],[28.1954419,-12.8328871],[28.1786287,-12.8630222],[28.1891756,-12.8721205],[28.2385408,-12.8708347],[28.2364087,-12.8973402],[28.2652824,-12.8950209],[28.2749992,-12.8837497]],[[25.8167961,-17.8147963],[25.822395,-17.8693129],[25.8583325,-17.8754164],[25.8969718,-17.8497735],[25.8925122,-17.8196465],[25.8298494,-17.8316908],[25.8167961,-17.8147963]],[[28.4301912,-13.1549574],[28.4347485,-13.117197],[28.4100252,-13.122739],[28.4134269,-13.1379164],[28.406591,-13.1684584],[28.4301912,-13.1549574]],[[28.6892082,-13.9488295],[28.6648266,-13.9729262],[28.6916658,-13.9754164],[28.6892082,-13.9488295]],[[28.7039217,-12.9879164],[28.7044262,-12.9793552],[28.6621411,-12.9714613],[28.6677987,-12.9503675]],[[31.2075675,-10.2246433],[31.2285311,-10.2072198],[31.1827466,-10.1882989],[31.1545564,-10.2100193],[31.1999992,-10.2337497],[31.2075675,-10.2246433]],[[32.7871494,-9.3203169],[32.7682877,-9.3179436],[32.7551912,-9.2961033],[32.738199,-9.337477],[32.7666658,-9.3420831],[32.7871494,-9.3203169]],[[27.4880363,-16.2957126],[27.4838208,-16.2671807],[27.4734692,-16.2551202],[27.4547029,-16.2941338],[27.4880363,-16.2957126]],[[28.4956697,-14.3954278],[28.445686,-14.3960788],[28.4284171,-14.414723],[28.4293449,-14.438071],[28.3961417,-14.4485772],[28.4666658,-14.4754164],[28.4796541,-14.4627699],[28.4796541,-14.4297295],[28.4956697,-14.3954278]],[[27.7629549,-15.8367771],[27.7343253,-15.8540541],[27.7666658,-15.8670831],[27.7629549,-15.8367771]],[[28.2627825,-15.3190059],[28.2515115,-15.328576]],[[28.2199678,-15.4557382],[28.2277747,-15.4927535]],[[28.3323264,-15.4889966],[28.3508143,-15.4775095],[28.3548583,-15.4763836],[28.3713696,-15.4717868],[28.3896313,-15.4481377],[28.3853345,-15.419085],[28.4046378,-15.4219333],[28.4131822,-15.4010614],[28.4068505,-15.374273],[28.3933423,-15.3518731],[28.3728857,-15.3548979],[28.3604647,-15.3536666],[28.3352531,-15.3229913],[28.3102728,-15.3112643]],[[32.645035,-13.6054213],[32.5883455,-13.6204929],[32.6012199,-13.6397068],[32.623632,-13.634059],[32.6449861,-13.6720879],[32.6749991,-13.6754164],[32.6595044,-13.653989],[32.6644034,-13.6345391],[32.645035,-13.6054213]],[[27.8558585,-12.3712172],[27.8440747,-12.3473891],[27.8144686,-12.3585463],[27.8225415,-12.3799656],[27.8499992,-12.3837497],[27.8558585,-12.3712172]],[[28.9151359,-11.2238865],[28.9302238,-11.2134779],[28.9266105,-11.1973646],[28.9034009,-11.1886814],[28.8891756,-11.1680759],[28.8662752,-11.1732029],[28.8800447,-11.2292901],[28.9083325,-11.2337497],[28.9151359,-11.2238865]]],"bbox":[23.1215975,-17.8754164,32.7871494,-9.2961033]}