{"type":"Topology","objects":{"foo":{"type":"GeometryCollection","geometries":[{"type":"Polygon","arcs":[[0]],"properties":{"name":"Zvishavane","gaul_code":33107,"targetarea":10.8131485,"totpop":125959.244166,"country_id":"ZWE","targetpop":24895.1801758,"totalarea":2452.6040325,"new_mean":0.0007618}},{"type":"MultiPolygon","arcs":[[[1,2]],[[3,4]],[[5,6]],[[7]]],"properties":{"name":"Mazowe","gaul_code":33063,"targetarea":4.1762112,"totpop":268605.171126,"country_id":"ZWE","targetpop":11466.3188477,"totalarea":4359.966369,"new_mean":0.0027965}},{"type":"Polygon","arcs":[[8]],"properties":{"name":"Murehwa","gaul_code":33071,"targetarea":0.5579347,"totpop":234937.168414,"country_id":"ZWE","targetpop":1266.6390381,"totalarea":3549.7411047,"new_mean":0.0016809}},{"type":"Polygon","arcs":[[9,10]],"properties":{"name":"Matobo","gaul_code":33099,"targetarea":0.7044544,"totpop":98055.1122476,"country_id":"ZWE","targetpop":0,"totalarea":7264.0237159,"new_mean":0.0021603}},{"type":"Polygon","arcs":[[11]],"properties":{"name":"Beitbridge","gaul_code":33095,"targetarea":4.3119579,"totpop":126117.94446,"country_id":"ZWE","targetpop":8846.9639893,"totalarea":12821.4987028,"new_mean":0.002791}},{"type":"MultiPolygon","arcs":[[[12]],[[13]],[[14]]],"properties":{"name":"Kariba","gaul_code":33078,"targetarea":5.2868752,"totpop":80704.6678512,"country_id":"ZWE","targetpop":10129.8193359,"totalarea":8157.1540218,"new_mean":0.0064444}},{"type":"MultiPolygon","arcs":[[[15,16,17,18]],[[19,20]],[[21,22,23,24]],[[25,26]],[[27,28]],[[29,30]]],"properties":{"name":"Goromonzi","gaul_code":33067,"targetarea":28.2862002,"totpop":324904.420193,"country_id":"ZWE","targetpop":60245.1080322,"totalarea":2493.6989544,"new_mean":0.001834}},{"type":"MultiPolygon","arcs":[[[31]],[[32]]],"properties":{"name":"Kadoma","gaul_code":33077,"targetarea":16.5851445,"totpop":365915.329213,"country_id":"ZWE","targetpop":31573.8007812,"totalarea":9379.6294503,"new_mean":0.0019726}},{"type":"Polygon","arcs":[[33]],"properties":{"name":"Mutare","gaul_code":61704,"targetarea":65.3841261,"totpop":496628.662762,"country_id":"ZWE","targetpop":143158.589844,"totalarea":5690.3192323,"new_mean":0.0028599}},{"type":"Polygon","arcs":[[34]],"properties":{"name":"Makoni","gaul_code":33056,"targetarea":9.935461,"totpop":327339.000232,"country_id":"ZWE","targetpop":23357.7017822,"totalarea":7849.1241307,"new_mean":0.0014994}},{"type":"Polygon","arcs":[[35]],"properties":{"name":"Gokwe South","gaul_code":40751,"targetarea":7.8276171,"totpop":359999.630542,"country_id":"ZWE","targetpop":15281.3116455,"totalarea":11150.127365,"new_mean":0.0017746}},{"type":"Polygon","arcs":[[36]],"properties":{"name":"Kwekwe","gaul_code":33104,"targetarea":40.9167097,"totpop":338647.219685,"country_id":"ZWE","targetpop":81424.057373,"totalarea":8957.8243868,"new_mean":0.0009011}},{"type":"Polygon","arcs":[[37]],"properties":{"name":"Gwanda","gaul_code":33097,"targetarea":1.8943615,"totpop":141085.610649,"country_id":"ZWE","targetpop":4031.7218018,"totalarea":10728.5158166,"new_mean":0.001939}},{"type":"Polygon","arcs":[[38]],"properties":{"name":"Bindura","gaul_code":33060,"targetarea":16.8709185,"totpop":190978.41685,"country_id":"ZWE","targetpop":41745.7180176,"totalarea":2267.9168541,"new_mean":0.0031932}},{"type":"Polygon","arcs":[[39]],"properties":{"name":"Gweru","gaul_code":33103,"targetarea":47.8237928,"totpop":267537.358559,"country_id":"ZWE","targetpop":93673.3664551,"totalarea":6052.3283606,"new_mean":0.0010663}},{"type":"Polygon","arcs":[[40]],"properties":{"name":"Chiredzi","gaul_code":33082,"targetarea":7.7510013,"totpop":332953.375555,"country_id":"ZWE","targetpop":12870.9080811,"totalarea":17372.0334319,"new_mean":0.0022765}},{"type":"Polygon","arcs":[[41,42,43,44,45,46,47,48,49]],"properties":{"name":"Chitungwiza","gaul_code":68807,"targetarea":44.1900413,"totpop":345290.444031,"country_id":"ZWE","targetpop":340689.616455,"totalarea":47.7340154,"new_mean":0.0018267}},{"type":"MultiPolygon","arcs":[[[50]],[[51,52]]],"properties":{"name":"Chegutu","gaul_code":33075,"targetarea":43.1455344,"totpop":324595.053083,"country_id":"ZWE","targetpop":97216.5626831,"totalarea":5443.037256,"new_mean":0.0017216}},{"type":"Polygon","arcs":[[53]],"properties":{"name":"Masvingo","gaul_code":33085,"targetarea":31.1958729,"totpop":330647.835216,"country_id":"ZWE","targetpop":70157.0056458,"totalarea":6919.662726,"new_mean":0.0014528}},{"type":"MultiPolygon","arcs":[[[-52,54]],[[55,56]]],"properties":{"name":"Zvimba","gaul_code":33080,"targetarea":0.1472996,"totpop":283147.525545,"country_id":"ZWE","targetpop":0,"totalarea":6099.3899839,"new_mean":0.0024808}},{"type":"Polygon","arcs":[[57]],"properties":{"name":"Marondera","gaul_code":33069,"targetarea":21.7302149,"totpop":205015.37043,"country_id":"ZWE","targetpop":45013.9836426,"totalarea":3476.3804927,"new_mean":0.0011489}},{"type":"MultiPolygon","arcs":[[[-46,58]],[[-44,59]],[[60,-42,61]],[[62]],[[-18,63]],[[64]],[[65]],[[66,-27,67,-29,68,-30,69,-6,70,-5,71,-2,72,-16,73,-20,74,-25,75,-23,76],[77]]],"properties":{"name":"Harare","gaul_code":68809,"targetarea":602.3857982,"totpop":1957059.72197,"country_id":"ZWE","targetpop":1730082.29712,"totalarea":959.7734061,"new_mean":0.0017237}},{"type":"Polygon","arcs":[[78]],"properties":{"name":"Chipinge","gaul_code":33055,"targetarea":6.4726777,"totpop":354500.326807,"country_id":"ZWE","targetpop":17785.1966553,"totalarea":5226.2338832,"new_mean":0.0037484}},{"type":"Polygon","arcs":[[79,-10,80,81],[82]],"properties":{"name":"Bulawayo","gaul_code":33051,"targetarea":211.6784356,"totpop":629436.21086,"country_id":"ZWE","targetpop":481550.008362,"totalarea":461.4987459,"new_mean":0.0024895}},{"type":"MultiPolygon","arcs":[[[83,-48]],[[-62,-50,84]]],"properties":{"name":"Seke","gaul_code":33073,"targetarea":14.0634305,"totpop":171901.763634,"country_id":"ZWE","targetpop":49166.0357666,"totalarea":2635.5292723,"new_mean":0.00212}},{"type":"MultiPolygon","arcs":[[[83,-48]],[[-62,-50,84]]],"properties":{"name":"Seke","gaul_code":33073,"targetarea":14.0634305,"totpop":171901.763634,"country_id":"ZWE","targetpop":49166.0357666,"totalarea":2635.5292723,"new_mean":0.0011523}},{"type":"MultiPolygon","arcs":[[[-82,85]],[[86]]],"properties":{"name":"Umguza","gaul_code":33094,"targetarea":0.6001661,"totpop":101772.097111,"country_id":"ZWE","targetpop":1192.0609131,"totalarea":6140.609065,"new_mean":0.0010108}},{"type":"MultiPolygon","arcs":[[[87]],[[88,-57]]],"properties":{"name":"Makonde","gaul_code":33079,"targetarea":16.2034445,"totpop":269393.20127,"country_id":"ZWE","targetpop":34327.0057373,"totalarea":8713.2867809,"new_mean":0.0032728}},{"type":"Polygon","arcs":[[89]],"properties":{"name":"Hwange","gaul_code":61705,"targetarea":8.3417888,"totpop":159438.372552,"country_id":"ZWE","targetpop":20277.3146973,"totalarea":29785.9138672,"new_mean":0.0048796}},{"type":"Polygon","arcs":[[89]],"properties":{"name":"Hwange","gaul_code":61705,"targetarea":8.3417888,"totpop":159438.372552,"country_id":"ZWE","targetpop":20277.3146973,"totalarea":29785.9138672,"new_mean":0.0037273}},{"type":"MultiPolygon","arcs":[[[90]],[[91]]],"properties":{"name":"Hurungwe","gaul_code":33076,"targetarea":10.3653378,"totpop":423564.441309,"country_id":"ZWE","targetpop":21450.3266602,"totalarea":19871.7531578,"new_mean":0.003822}}]}},"arcs":[[[30.0710929,-20.2978773],[30.0462231,-20.2889824],[30.0385571,-20.321681],[30.0749992,-20.3254164],[30.0710929,-20.2978773]],[[31.0238868,-17.7395691],[31.0250893,-17.7399559],[31.0258007,-17.7396641],[31.0257364,-17.7392136]],[[31.0257364,-17.7392136],[31.0238868,-17.7395691]],[[31.0382894,-17.7368008],[31.0370643,-17.7370362]],[[31.0370643,-17.7370362],[31.0376835,-17.7376499],[31.0382894,-17.7368008]],[[31.0439359,-17.7357155],[31.046793,-17.7403202],[31.0822239,-17.7299423],[31.0821126,-17.7294031]],[[31.0821126,-17.7294031],[31.0791007,-17.7289564],[31.0439359,-17.7357155]],[[30.8661124,-17.0078464],[30.8471997,-17.0219089],[30.8749992,-17.0254164],[30.8661124,-17.0078464]],[[31.7804842,-17.6402601],[31.7731762,-17.6475599],[31.7833325,-17.6504164],[31.7804842,-17.6402601]],[[28.6077395,-20.2295685],[28.6039448,-20.2250195],[28.5876612,-20.2257512]],[[28.5876612,-20.2257512],[28.5945467,-20.2292982],[28.6077395,-20.2295685]],[[29.9945141,-22.1883477],[29.9727205,-22.2118747],[29.9999992,-22.217083],[29.9945141,-22.1883477]],[[28.7916658,-16.5254164],[28.7945141,-16.5355726],[28.8018221,-16.5282728],[28.7916658,-16.5254164]],[[28.7916658,-16.5254164],[28.7845695,-16.5139092],[28.7795585,-16.5152902],[28.7624091,-16.5317856],[28.7661613,-16.5368422],[28.7916658,-16.5254164]],[[28.8538078,-16.5065036],[28.8391756,-16.5137058],[28.8583325,-16.517083],[28.8538078,-16.5065036]],[[31.1829489,-17.9106116],[31.1825466,-17.9104862],[31.1821156,-17.9104748],[31.1816883,-17.9103622],[31.1811581,-17.9101429],[31.1808338,-17.9101353],[31.1803036,-17.9099159],[31.1797752,-17.9096355],[31.1791229,-17.9092102],[31.1778126,-17.9090939],[31.1772671,-17.9088783],[31.1768303,-17.9088745],[31.1763954,-17.908556],[31.1763668,-17.9082737],[31.1760731,-17.9079247],[31.176075,-17.9078197],[31.1750965,-17.9071827],[31.1742268,-17.9067554],[31.1734619,-17.9067497],[31.1733513,-17.9068527],[31.1733475,-17.9072704],[31.173254,-17.9079914],[31.1731739,-17.9109669],[31.1730633,-17.911068],[31.1729755,-17.9115505],[31.1729679,-17.9122925],[31.1727314,-17.9139671],[31.1726189,-17.9142799],[31.1726151,-17.9145927],[31.1725044,-17.9146976],[31.1725006,-17.9152203],[31.17239,-17.9153252],[31.1722927,-17.9157257],[31.1722832,-17.9160957],[31.1721725,-17.9161949],[31.172121,-17.9181519],[31.1720028,-17.91856],[31.1717758,-17.9189663],[31.1714458,-17.9192677],[31.1713314,-17.9194717],[31.1710014,-17.9197712],[31.1708889,-17.9199753],[31.1695786,-17.9206638],[31.1692505,-17.9208622],[31.1688213,-17.9208508],[31.1687107,-17.9209518],[31.1683884,-17.9209442],[31.1682835,-17.9211483],[31.1677361,-17.9211445],[31.1675167,-17.9212475],[31.1656837,-17.9214954],[31.1647167,-17.9214706],[31.1647129,-17.9215736],[31.164175,-17.9215603],[31.1639462,-17.9216576],[31.1620388,-17.9221363],[31.1606178,-17.922123],[31.1597424,-17.9223785],[31.1595268,-17.9223728],[31.1593075,-17.922575],[31.1586304,-17.9238853],[31.1584988,-17.924614],[31.1571999,-17.9247093],[31.1569805,-17.9248123],[31.1566525,-17.9248085],[31.1562138,-17.9250145],[31.1558819,-17.9253254],[31.1558723,-17.9262676],[31.1552067,-17.9270973],[31.1546593,-17.9273033],[31.1371029,-17.9280507]],[[31.1371029,-17.9280507],[31.1368848,-17.9295278]],[[31.1368848,-17.9295278],[31.1395282,-17.935924]],[[31.1395282,-17.935924],[31.1692212,-17.9245619],[31.1786287,-17.9123793],[31.1829489,-17.9106116]],[[31.2038619,-17.8868127],[31.2033882,-17.8867645],[31.2019978,-17.8858585],[31.2012653,-17.8863258],[31.2009258,-17.8869362],[31.2008095,-17.8872414],[31.2006779,-17.8881664],[31.2003536,-17.8883629],[31.1984138,-17.8883171],[31.1980877,-17.8885155],[31.1978722,-17.8885097],[31.1973267,-17.8888054],[31.1973171,-17.8891144],[31.1972046,-17.8893166],[31.1971931,-17.8897285],[31.197298,-17.8898335],[31.1972904,-17.8901424],[31.1973915,-17.8903522],[31.1977062,-17.8906689],[31.1976261,-17.8936539],[31.1978283,-17.8941727],[31.1978226,-17.8943787],[31.1980324,-17.8945904],[31.1980267,-17.8947964],[31.1982384,-17.8949051],[31.1982327,-17.8951092],[31.1984406,-17.8954239],[31.1984272,-17.8959389],[31.1982059,-17.8961391],[31.1971169,-17.8966274],[31.1970806,-17.8979664],[31.1968613,-17.8981667],[31.1964283,-17.8982582],[31.1956615,-17.898756],[31.1951084,-17.8993607],[31.1944523,-17.8997555],[31.1942291,-17.9000587],[31.1936779,-17.9005604],[31.1928635,-17.902113],[31.1928616,-17.9023228],[31.1926422,-17.9025307],[31.1925297,-17.9028435],[31.1921978,-17.9031544],[31.1920853,-17.9033623],[31.1920776,-17.9041996],[31.1922894,-17.9049358],[31.1926117,-17.9054623],[31.1928234,-17.9060917],[31.192819,-17.906573]],[[31.192819,-17.906573],[31.1963696,-17.9051202],[31.2038619,-17.8868127]],[[31.2043156,-17.886873],[31.2170727,-17.9034112],[31.2414542,-17.9070163],[31.2590649,-17.8934177],[31.2463696,-17.8623793],[31.2202954,-17.8551202],[31.2192975,-17.8515359]],[[31.2192975,-17.8515359],[31.2074119,-17.8565971]],[[31.2074119,-17.8565971],[31.2083325,-17.8587497],[31.2041065,-17.8580047]],[[31.2041065,-17.8580047],[31.1952705,-17.8617668],[31.195322,-17.8619766],[31.2041683,-17.8689899],[31.2049599,-17.8715839],[31.2152939,-17.8793545],[31.2153988,-17.8794594],[31.2183552,-17.8814888],[31.2182407,-17.8817959],[31.2180214,-17.8818932],[31.2168407,-17.8818645],[31.2166309,-17.8816528],[31.2162037,-17.8815403],[31.2154503,-17.8815212],[31.2152405,-17.8813114],[31.2148113,-17.8813],[31.2146015,-17.8810883],[31.2137527,-17.8806572],[31.2135372,-17.8806515],[31.2131023,-17.880846],[31.2130814,-17.88167],[31.2131844,-17.8817749],[31.2131748,-17.8821869],[31.2132797,-17.8822937],[31.2132568,-17.8831158],[31.2131405,-17.8834229],[31.2124863,-17.8838177],[31.2124672,-17.8845387],[31.2123508,-17.8848457],[31.2118053,-17.8851414],[31.2115726,-17.8853264],[31.2116947,-17.8855686],[31.2119427,-17.8858128],[31.2120628,-17.886055],[31.2120495,-17.8868961],[31.2115383,-17.8873692],[31.2109108,-17.8873596],[31.2102795,-17.8875923],[31.2096519,-17.8875828],[31.2043156,-17.886873]],[[31.2023872,-17.7374161],[31.2036287,-17.7354831],[31.2019965,-17.7348093]],[[31.2019965,-17.7348093],[31.2022858,-17.7368298],[31.2023872,-17.7374161]],[[31.1609903,-17.7022818],[31.1553748,-17.7013277]],[[31.1553748,-17.7013277],[31.1549301,-17.7017403],[31.1569099,-17.7033329],[31.1570358,-17.7033348],[31.1601601,-17.7039852],[31.1609903,-17.7022818]],[[31.1180507,-17.6855448],[31.1179733,-17.6860199],[31.1170311,-17.6898518],[31.1170177,-17.6905727],[31.1162338,-17.6924839],[31.1161041,-17.6927223],[31.1160946,-17.693203],[31.1159687,-17.6933212],[31.1159611,-17.6936817],[31.1160679,-17.694767],[31.1207085,-17.6913662],[31.1226811,-17.6915377]],[[31.1226811,-17.6915377],[31.1180507,-17.6855448]],[[29.9329256,-18.3298679],[29.9103996,-18.3220147],[29.8799308,-18.3516452],[29.9083325,-18.367083],[29.9329256,-18.3298679]],[[29.9785962,-18.3058607],[29.9630363,-18.318084],[29.9833325,-18.3337497],[29.9785962,-18.3058607]],[[32.6796215,-19.0050469],[32.6870434,-18.9874525],[32.7057283,-18.979583],[32.7028637,-18.9566664],[32.644563,-18.9467136],[32.5962882,-18.9824395],[32.6129549,-18.9957858],[32.6203768,-19.007114],[32.5875968,-19.0030368],[32.5796215,-19.0187025],[32.6333325,-19.0254164],[32.6407381,-19.0161634],[32.6796215,-19.0050469]],[[32.1416658,-18.5365899],[32.1237296,-18.5132989],[32.1073234,-18.5511162],[32.1333325,-18.5587497],[32.1416658,-18.5365899]],[[28.9539217,-18.2144626],[28.9302238,-18.2056491],[28.9218904,-18.2300144],[28.9583325,-18.2337497],[28.9539217,-18.2144626]],[[29.8452954,-18.9290459],[29.8617667,-18.9163343],[29.8702954,-18.8969496],[29.8074861,-18.8862806],[29.7963696,-18.9134535],[29.7781079,-18.9209242],[29.7916333,-18.9433282],[29.8333325,-18.9504164],[29.8452954,-18.9290459]],[[29.0062492,-20.9313978],[28.9970532,-20.9461927],[29.0166658,-20.9504164],[29.0062492,-20.9313978]],[[31.3624503,-17.3173516],[31.3450675,-17.305348],[31.3382641,-17.2871514],[31.3214673,-17.280348],[31.3132641,-17.3202976],[31.3666658,-17.3337497],[31.3624503,-17.3173516]],[[29.8218904,-19.4264499],[29.81302,-19.4388441],[29.7974438,-19.4357679],[29.7795239,-19.4471449],[29.7466137,-19.4406426],[29.7381828,-19.4688734],[29.7884432,-19.4789483],[29.7865552,-19.4885349],[29.7999992,-19.492083],[29.8090486,-19.4794447],[29.8467765,-19.4718845],[29.8449373,-19.4625583],[29.8554842,-19.4459323],[29.8218904,-19.4264499]],[[31.6882641,-21.0386813],[31.6950675,-21.0186211],[31.6716137,-21.0238783],[31.6632641,-21.0506442],[31.6749992,-21.0587497],[31.6882641,-21.0386813]],[[31.0693207,-17.9847202],[31.0692387,-17.9845619],[31.0687084,-17.9839134],[31.0681152,-17.9836178],[31.0677414,-17.9833221],[31.0674591,-17.9832344],[31.0664291,-17.9825249],[31.0655861,-17.9822311],[31.0646191,-17.9809608],[31.0635586,-17.980135],[31.0634327,-17.9800758],[31.0627155,-17.9794559],[31.0622463,-17.9792213],[31.0614357,-17.9791622],[31.0609055,-17.97925],[31.0603052,-17.9792932]],[[31.0603052,-17.9792932],[31.0505309,-17.9807388]],[[31.0505309,-17.9807388],[31.0499897,-17.981287],[31.0492706,-17.9813747],[31.0486469,-17.9813747],[31.0478039,-17.9812279],[31.047733,-17.9811525]],[[31.047733,-17.9811525],[31.0454748,-17.9814865]],[[31.0454748,-17.9814865],[31.0452442,-17.9816704],[31.0442448,-17.9827328],[31.0440273,-17.9829979],[31.042778,-17.9839134],[31.0413113,-17.9844437],[31.0410004,-17.9845905],[31.0395641,-17.984827],[31.037941,-17.984827],[31.0373154,-17.9847984],[31.0370228,-17.9848514]],[[31.0370228,-17.9848514],[31.0175468,-18.0100748]],[[31.0175468,-18.0100748],[31.0183697,-18.0106335],[31.0184708,-18.0106564],[31.0209751,-18.0115986],[31.0209732,-18.0117092],[31.0214767,-18.0120373],[31.0233135,-18.0138321],[31.0234814,-18.013834],[31.0238152,-18.0141602],[31.0239811,-18.0144844],[31.0251503,-18.0156269],[31.0254879,-18.0156307],[31.025486,-18.0157928],[31.0258236,-18.0157948],[31.0259895,-18.0159588],[31.0263271,-18.0159626],[31.0290241,-18.0163136],[31.0295315,-18.0163174],[31.0298672,-18.0164833],[31.0302048,-18.0164871],[31.0315475,-18.0171452],[31.0315456,-18.0173073],[31.0327148,-18.0184498],[31.0328789,-18.018774],[31.0330486,-18.0187759],[31.0335484,-18.0192661],[31.0337124,-18.0197525],[31.0340481,-18.0199165],[31.0343761,-18.0207272],[31.034544,-18.0208912],[31.034874,-18.0215397],[31.0348682,-18.0220203],[31.0350361,-18.0221882],[31.0351982,-18.0226746],[31.0357342,-18.0235786],[31.0359421,-18.0235786],[31.0364246,-18.0239773],[31.0371857,-18.0245075],[31.0374622,-18.0246391],[31.0395355,-18.0253048],[31.0397415,-18.0253048],[31.0400867,-18.0256367],[31.0400867,-18.0266285],[31.0400162,-18.0267601],[31.0400162,-18.027422],[31.0402222,-18.0278187],[31.0406361,-18.0282154],[31.0409126,-18.0286789],[31.0422249,-18.0300713],[31.0435371,-18.0300064],[31.04492,-18.0300751],[31.0467186,-18.0302086],[31.0486526,-18.0309391],[31.0487213,-18.0314026],[31.0492706,-18.0335197],[31.0492706,-18.0341816],[31.049202,-18.0344467],[31.0489922,-18.0358353],[31.0489902,-18.0363636],[31.0490589,-18.0367603],[31.0492668,-18.0374889],[31.0495415,-18.038084],[31.0497494,-18.0384159],[31.0501633,-18.0388126],[31.0504398,-18.0389462],[31.0511303,-18.039608],[31.051199,-18.0397396],[31.0517521,-18.0402699],[31.0519581,-18.0404034],[31.0532608,-18.0416985],[31.0550632,-18.042902],[31.0557384,-18.0429096],[31.0559063,-18.0430717],[31.0562305,-18.0431499],[31.05797,-18.0437851],[31.0580883,-18.0447159],[31.0584126,-18.0450115],[31.0587521,-18.0452232],[31.0587502,-18.0453625],[31.0599714,-18.0464457]],[[31.0599714,-18.0464457],[31.064134,-18.0471533]],[[31.064134,-18.0471533],[31.0644951,-18.0467834],[31.0648746,-18.046669],[31.0653782,-18.0466747],[31.065506,-18.0465565],[31.0684032,-18.0465965],[31.0686569,-18.0464802],[31.0694313,-18.0463657],[31.0697956,-18.0462551],[31.0702991,-18.0462627],[31.0706806,-18.0460262],[31.0710602,-18.0459118],[31.071312,-18.0459137],[31.0719509,-18.0453205],[31.072216,-18.0446014],[31.0722256,-18.0439987],[31.0723553,-18.0437603],[31.0723705,-18.0427952],[31.0727539,-18.0424385],[31.073513,-18.0422096],[31.0740204,-18.041975],[31.075407,-18.0419941],[31.0757828,-18.04212],[31.076664,-18.0421314],[31.0769215,-18.0417748],[31.0774307,-18.04142],[31.0777264,-18.0413303],[31.0779419,-18.0410652],[31.078577,-18.0407124],[31.0798416,-18.040369],[31.0799694,-18.0402489],[31.0806026,-18.0400181],[31.081234,-18.0400257],[31.0816135,-18.0399113],[31.0821171,-18.039917],[31.0832558,-18.0395718],[31.083889,-18.0393391],[31.0847855,-18.0385094],[31.085043,-18.0381508],[31.0852966,-18.0380325],[31.0858116,-18.0373173],[31.0860653,-18.0372009],[31.0863209,-18.0369625],[31.0865746,-18.0368462],[31.0869579,-18.0364895],[31.0873413,-18.036253],[31.0878525,-18.035778],[31.0881062,-18.0356617],[31.0882359,-18.0354233],[31.0892582,-18.0344715],[31.0893879,-18.0342331],[31.0898952,-18.0339985],[31.0902767,-18.0337639],[31.0904064,-18.0335236],[31.090662,-18.0334072],[31.0914288,-18.0326939],[31.0916824,-18.0325775],[31.091938,-18.0323391],[31.0923195,-18.0321045],[31.0948391,-18.0321388],[31.0949631,-18.0322609],[31.0953407,-18.0322666],[31.0957165,-18.0323925],[31.0962162,-18.0326405],[31.0969639,-18.0331326],[31.0978756,-18.0334759],[31.1017513,-18.0341606],[31.1022587,-18.0341644],[31.1025944,-18.0343304],[31.1030979,-18.0344963],[31.1039429,-18.0345039],[31.1041088,-18.034668],[31.1068096,-18.0346947],[31.1076584,-18.03438],[31.1079998,-18.0340595],[31.1086769,-18.0337429],[31.1093521,-18.0337505],[31.1098614,-18.0335941],[31.1103668,-18.0335979],[31.1108761,-18.0334415],[31.1109676,-18.0331955],[31.1114559,-18.0329704],[31.1118355,-18.032856],[31.1119633,-18.0327358],[31.1130962,-18.0327511],[31.1152534,-18.0318165],[31.1156368,-18.0314617],[31.1160183,-18.0312252],[31.116148,-18.0309849],[31.1169147,-18.0302734],[31.1172962,-18.0300369],[31.1175537,-18.0296783],[31.1178093,-18.0294418],[31.117939,-18.0292015],[31.1181946,-18.028965],[31.1188393,-18.0280094],[31.1190929,-18.0278931],[31.1194801,-18.0272942],[31.1196899,-18.0271015],[31.1213894,-18.0252838],[31.1222458,-18.0244789],[31.1225986,-18.0240517],[31.1228027,-18.0235386],[31.1228065,-18.0231457],[31.1230164,-18.0220947],[31.1232204,-18.0216198],[31.1232948,-18.0212955],[31.1231441,-18.021162],[31.113411,-18.0175686],[31.1133423,-18.0175686],[31.107832,-18.012352],[31.1074924,-18.011961],[31.1073551,-18.0116348],[31.1049099,-18.0070705],[31.1049538,-18.0069733],[31.1033897,-18.005724],[31.1012459,-18.0051785],[31.1012249,-18.005209],[31.0994396,-18.0039978],[31.0990677,-18.0036297],[31.098568,-18.0033817],[31.098444,-18.0032597],[31.0980682,-18.0031338],[31.096817,-18.002636],[31.096447,-18.0026302],[31.0953445,-18.0019569],[31.0948391,-18.0019512],[31.0941658,-18.0017834],[31.0938301,-18.0016174],[31.0931549,-18.0016117],[31.0928192,-18.0014458],[31.0897827,-18.001255],[31.0870838,-18.0012283],[31.0867443,-18.0013866],[31.0855618,-18.0013752],[31.0852261,-18.0012093],[31.0842133,-18.0011997],[31.0830364,-18.0008659],[31.0821915,-18.0008564],[31.0821934,-18.0006962],[31.0818558,-18.0006924],[31.0813541,-18.0003643],[31.0808487,-18.0001984],[31.080513,-18.0000324],[31.0801754,-18.0000305],[31.0801773,-17.9998684],[31.0798397,-17.9998646],[31.079504,-17.9997005],[31.0791664,-17.9996967],[31.0791683,-17.9995346],[31.0786686,-17.9990463],[31.0786152,-17.9986477],[31.0756226,-17.9979897],[31.0749741,-17.9972324],[31.074976,-17.9970703],[31.0746422,-17.9967442],[31.0746441,-17.996582],[31.0743103,-17.9962559],[31.0743141,-17.9959335],[31.0739784,-17.9956074],[31.0734825,-17.9952831],[31.0723095,-17.9940777],[31.0716419,-17.9933224],[31.0713062,-17.9931583],[31.0713081,-17.9929962],[31.0709724,-17.9926701],[31.0709744,-17.9925079],[31.0706387,-17.9923439],[31.0706425,-17.9920216],[31.0698071,-17.9912052],[31.0694771,-17.9905548],[31.0689754,-17.9902267],[31.0689774,-17.9899044],[31.0686436,-17.9895782],[31.0683136,-17.9889297],[31.0683193,-17.9884453],[31.0681515,-17.9882812],[31.0681763,-17.986021],[31.0682106,-17.9857216],[31.0691528,-17.9848022],[31.0693207,-17.9847202]],[[30.1609692,-18.1274183],[30.1388663,-18.0982028],[30.1137199,-18.1100925],[30.131005,-18.1463311],[30.1499992,-18.1504164],[30.1609692,-18.1274183]],[[30.7137484,-17.8724297],[30.7136192,-17.8728065],[30.7131062,-17.8733044],[30.71311,-17.8736744],[30.7129803,-17.8736763],[30.712986,-17.8741703],[30.7127323,-17.8746662],[30.7127361,-17.8751602],[30.7124825,-17.8757801],[30.7124863,-17.8761501],[30.7123566,-17.876152],[30.7123547,-17.8757801],[30.7122231,-17.875412],[30.7114182,-17.8719597],[30.7114162,-17.8717136],[30.7112841,-17.8713914]],[[30.7112841,-17.8713914],[30.7008455,-17.8669935],[30.6536287,-17.8728692],[30.6379549,-17.9005384],[30.6666658,-17.9087497],[30.6772778,-17.8954929],[30.6967765,-17.8979261],[30.7370434,-17.8822442],[30.7137484,-17.8724297]],[[30.8619295,-20.0625013],[30.8145499,-20.0381524],[30.7960604,-20.1017917],[30.8333325,-20.1087497],[30.8619295,-20.0625013]],[[30.7137484,-17.8724297],[30.7112841,-17.8713914]],[[30.218065,-17.3572448],[30.219091,-17.3530205],[30.2152107,-17.3528726]],[[30.2152107,-17.3528726],[30.2153339,-17.35322],[30.2156258,-17.3534966],[30.2162056,-17.3539085],[30.2164974,-17.3543224],[30.2167873,-17.3545971],[30.2167892,-17.3548756],[30.2169342,-17.3550129],[30.2169361,-17.3552895],[30.2170849,-17.3557053],[30.2173767,-17.3562584],[30.2179585,-17.3569469],[30.218065,-17.3572448]],[[31.5568025,-18.1988864],[31.5715975,-18.1886813],[31.5784008,-18.1733737],[31.5555167,-18.1636813],[31.5186515,-18.1876966],[31.5318351,-18.1968112],[31.5267732,-18.2194512],[31.5499992,-18.2254164],[31.5568025,-18.1988864]],[[31.0454748,-17.9814865],[31.0388663,-17.9824639],[31.0370228,-17.9848514]],[[31.0505309,-17.9807388],[31.047733,-17.9811525]],[[31.0706417,-17.9846871],[31.0628572,-17.9789157],[31.0603052,-17.9792932]],[[31.0693207,-17.9847202],[31.0706417,-17.9846871]],[[31.1054842,-17.9319268],[31.0981762,-17.9392266],[31.1083325,-17.942083],[31.1054842,-17.9319268]],[[31.1368848,-17.9295278],[31.1357251,-17.9373793],[31.1395282,-17.935924]],[[31.0971508,-17.9069268],[31.0898429,-17.9142266],[31.0999992,-17.917083],[31.0971508,-17.9069268]],[[31.1833325,-17.767083],[31.1861808,-17.7772393],[31.1934887,-17.7699395],[31.1833325,-17.767083]],[[31.1833325,-17.767083],[31.2023872,-17.7374161]],[[31.2019965,-17.7348093],[31.1877596,-17.728932],[31.1716951,-17.7313002],[31.1695955,-17.717083],[31.1715161,-17.7040703],[31.1609903,-17.7022818]],[[31.1553748,-17.7013277],[31.1264477,-17.6964125],[31.1226811,-17.6915377]],[[31.1180507,-17.6855448],[31.1129223,-17.6789076],[31.1041658,-17.6802015],[31.0895662,-17.678045],[31.0865714,-17.6983819],[31.1102856,-17.7166924],[31.0878247,-17.7302504],[31.0821126,-17.7294031]],[[31.0439359,-17.7357155],[31.0382894,-17.7368008]],[[31.0370643,-17.7370362],[31.0257364,-17.7392136]],[[31.0238868,-17.7395691],[31.0147452,-17.7413262],[30.9791658,-17.736069],[30.9713696,-17.7551202],[30.961962,-17.7623793],[30.9547029,-17.7717868],[30.9452954,-17.7790459],[30.9380363,-17.7884535],[30.9055167,-17.8078952],[30.9025057,-17.8282647],[30.9151359,-17.8492038],[30.909602,-17.8866387],[30.9307772,-17.9029717],[30.9571443,-17.9371433],[31.0124992,-17.9289646],[31.0287426,-17.9313653],[31.0441235,-17.9114353],[31.1359855,-17.8901462],[31.1393383,-17.9129164],[31.1371029,-17.9280507]],[[31.1829489,-17.9106116],[31.192819,-17.906573]],[[31.2038619,-17.8868127],[31.2040031,-17.8864678],[31.2043156,-17.886873]],[[31.2041065,-17.8580047],[31.1891756,-17.8553724],[31.2038077,-17.8481703],[31.2074119,-17.8565971]],[[31.2192975,-17.8515359],[31.2087068,-17.8134942],[31.1725089,-17.8034112],[31.168798,-17.7783054],[31.1833325,-17.767083]],[[31.1463696,-17.8372165],[31.1671378,-17.8138441],[31.1749992,-17.842083],[31.1463696,-17.8372165]],[[32.630533,-20.1782158],[32.605533,-20.1778171],[32.6192537,-20.2059095],[32.6333325,-20.2087497],[32.630533,-20.1782158]],[[28.6169373,-20.2318037],[28.6218742,-20.1964125],[28.6602693,-20.2161879],[28.6419914,-20.1807142],[28.6764152,-20.1695489],[28.6457511,-20.1546644],[28.6459139,-20.1462497],[28.6457511,-20.137835],[28.6624178,-20.1218194],[28.6458325,-20.1127862],[28.6235669,-20.1242608],[28.6047518,-20.1046807],[28.5797192,-20.104168],[28.5513175,-20.1188002],[28.5375805,-20.1045017],[28.5290845,-20.0963311],[28.518977,-20.0651869],[28.5040845,-20.0795017],[28.5042472,-20.0879896],[28.4957511,-20.1045017],[28.4875805,-20.1213311],[28.4542472,-20.1533623],[28.4707511,-20.1629977],[28.4959139,-20.1711683],[28.5040845,-20.1879977],[28.5127596,-20.1963311],[28.5126687,-20.2006725],[28.5126678,-20.2007177],[28.5121736,-20.2243259],[28.5558585,-20.2093682],[28.5876612,-20.2257512]],[[28.6077395,-20.2295685],[28.6124178,-20.2296644],[28.6133708,-20.2305809]],[[28.6133708,-20.2305809],[28.6143436,-20.230566],[28.6153049,-20.2305946],[28.6161366,-20.2317867],[28.6169373,-20.2318037]],[[28.5083325,-20.1587497],[28.4981762,-20.1558933],[28.5054842,-20.1485935],[28.5083325,-20.1587497]],[[31.0175468,-18.0100748],[31.0169425,-18.0108575],[31.0297029,-18.0207126],[31.0479972,-18.0444105],[31.0599714,-18.0464457]],[[31.064134,-18.0471533],[31.0833325,-18.0504164],[31.086962,-18.0457126],[31.127229,-18.0344984],[31.136962,-18.0172539],[31.086962,-17.9967868],[31.0706417,-17.9846871]],[[28.6133708,-20.2305809],[28.6166658,-20.2337497],[28.6169373,-20.2318037]],[[28.4554842,-20.1652601],[28.4481762,-20.1725599],[28.4583325,-20.1754164],[28.4554842,-20.1652601]],[[30.0788078,-17.364837],[30.0641756,-17.3720391],[30.0833325,-17.3754164],[30.0788078,-17.364837]],[[30.2152107,-17.3528726],[30.1642407,-17.3509291],[30.1856274,-17.3747735],[30.1750805,-17.3894138],[30.1999992,-17.392083],[30.2024243,-17.3778415],[30.2142407,-17.3729912],[30.218065,-17.3572448]],[[25.8515291,-17.9228773],[25.8325675,-17.9136814],[25.8132642,-17.945265],[25.8333325,-17.9504164],[25.8515291,-17.9228773]],[[29.7083325,-16.8254164],[29.7111808,-16.8355726],[29.7184887,-16.8282728],[29.7083325,-16.8254164]],[[29.7083325,-16.8254164],[29.7029451,-16.8131198],[29.707421,-16.7971612],[29.671744,-16.8083021],[29.6846509,-16.8358005],[29.7083325,-16.8254164]]],"bbox":[25.8132642,-22.217083,32.7057283,-16.5065036]}