{"type":"Topology","objects":{"foo":{"type":"GeometryCollection","geometries":[{"type":"Polygon","arcs":[[0,1,2,3,4,5,6,7]],"properties":{"name":"Porto-novo","gaul_code":5922,"targetarea":45.3572231,"totpop":323985.625793,"country_id":"BEN","targetpop":323985.625793,"new_mean":0.0395935,"totalarea":49.7192739}},{"type":"Polygon","arcs":[[8,9,10,11,12,13,14]],"properties":{"name":"Bohicon","gaul_code":5931,"targetarea":145.3299122,"totpop":227852.185593,"country_id":"BEN","targetpop":221408.882538,"new_mean":0.0403657,"totalarea":161.1182414}},{"type":"MultiPolygon","arcs":[[[15,16]],[[17,18,19]],[[20,21,22,23,24,25,26,27]]],"properties":{"name":"So-ava","gaul_code":5880,"targetarea":83.8261599,"totpop":85282.6453123,"country_id":"BEN","targetpop":81262.5440979,"new_mean":0.0396091,"totalarea":184.6606511}},{"type":"Polygon","arcs":[[28,29,30]],"properties":{"name":"Aplahoue","gaul_code":5898,"targetarea":66.6015098,"totpop":203166.660652,"country_id":"BEN","targetpop":52453.1077271,"new_mean":0.0464351,"totalarea":909.2020686}},{"type":"MultiPolygon","arcs":[[[31,32]],[[33,34,-27,35,-3]]],"properties":{"name":"Aguegue","gaul_code":5917,"targetarea":45.8563178,"totpop":46856.4494362,"country_id":"BEN","targetpop":33836.3467407,"new_mean":0.0485377,"totalarea":128.1939814}},{"type":"MultiPolygon","arcs":[[[36,37]],[[38,39]]],"properties":{"name":"Allada","gaul_code":5877,"targetarea":57.2514297,"totpop":152595.926697,"country_id":"BEN","targetpop":54499.2215881,"new_mean":0.0443683,"totalarea":382.5836436}},{"type":"Polygon","arcs":[[-19,40,41,42,43,-17,44]],"properties":{"name":"Cotonou","gaul_code":5908,"targetarea":69.708577,"totpop":773399.482132,"country_id":"BEN","targetpop":772848.61174,"new_mean":0.0387539,"totalarea":80.6344189}},{"type":"Polygon","arcs":[[45,46,47,48,49,-41,-18,50,-25,51]],"properties":{"name":"Abomey-calavi","gaul_code":5876,"targetarea":422.0593929,"totpop":1026050.26351,"country_id":"BEN","targetpop":990602.723137,"new_mean":0.0416947,"totalarea":535.3527246}},{"type":"MultiPolygon","arcs":[[[52,53,54,55]],[[56,57,58]],[[59,60,61]],[[62]]],"properties":{"name":"Lalo","gaul_code":5902,"targetarea":81.7470946,"totpop":161579.82296,"country_id":"BEN","targetpop":62715.9485474,"new_mean":0.0422175,"totalarea":455.1963417}},{"type":"MultiPolygon","arcs":[[[63,64]],[[65,66,67]],[[68]],[[69]],[[70]],[[71,-38,72,73,74]]],"properties":{"name":"Kpomasse","gaul_code":5878,"targetarea":28.0375448,"totpop":88006.6514626,"country_id":"BEN","targetpop":23470.0708618,"new_mean":0.0456782,"totalarea":292.033603}},{"type":"MultiPolygon","arcs":[[[75,-52,76]],[[77]],[[78]]],"properties":{"name":"Adjohoun","gaul_code":5916,"targetarea":25.5887107,"totpop":92893.0680542,"country_id":"BEN","targetpop":20241.1025085,"new_mean":0.0458292,"totalarea":321.3096306}},{"type":"Polygon","arcs":[[-5,79,-32,80,-43,81,82]],"properties":{"name":"Seme-kpodji","gaul_code":5923,"targetarea":199.6187871,"totpop":459602.829567,"country_id":"BEN","targetpop":455835.616959,"new_mean":0.0456451,"totalarea":224.2224412}},{"type":"Polygon","arcs":[[83,84,85,86,87,88,89,90]],"properties":{"name":"Ifangni","gaul_code":5925,"targetarea":158.9317809,"totpop":162926.605225,"country_id":"BEN","targetpop":140311.893372,"new_mean":0.0407656,"totalarea":216.4713573}},{"type":"Polygon","arcs":[[91,92,93,94,-29,95]],"properties":{"name":"Djakotome","gaul_code":5899,"targetarea":150.7802369,"totpop":164560.542747,"country_id":"BEN","targetpop":138881.899872,"new_mean":0.0431415,"totalarea":226.446955}},{"type":"Polygon","arcs":[[-64,96,-49,97],[98]],"properties":{"name":"Ouidah","gaul_code":5879,"targetarea":226.343716,"totpop":279392.587819,"country_id":"BEN","targetpop":247961.817868,"new_mean":0.0460326,"totalarea":356.5113106}},{"type":"Polygon","arcs":[[99,-93,100,-54,101,-58,102,-61,103],[104]],"properties":{"name":"Toviklin","gaul_code":5903,"targetarea":113.6972761,"totpop":106783.06012,"country_id":"BEN","targetpop":99033.5328674,"new_mean":0.0382558,"totalarea":129.2627876}},{"type":"MultiPolygon","arcs":[[[105]],[[106]]],"properties":{"name":"Toffo","gaul_code":5881,"targetarea":3.1506634,"totpop":64359.7343254,"country_id":"BEN","targetpop":2709.0804443,"new_mean":0.037617,"totalarea":486.8177063}},{"type":"Polygon","arcs":[[107,108,-1,109,-90]],"properties":{"name":"Avrankou","gaul_code":5919,"targetarea":76.4030002,"totpop":121562.365936,"country_id":"BEN","targetpop":121114.123962,"new_mean":0.0403015,"totalarea":76.9843006}},{"type":"MultiPolygon","arcs":[[[110,-47]],[[111,-39]],[[112]],[[113]]],"properties":{"name":"Ze","gaul_code":5883,"targetarea":20.597819,"totpop":128369.105431,"country_id":"BEN","targetpop":15154.4591675,"new_mean":0.044702,"totalarea":627.560447}},{"type":"MultiPolygon","arcs":[[[114,-104,-60,115]],[[116]],[[-30,-95,117]],[[118]]],"properties":{"name":"Klouekanme","gaul_code":5901,"targetarea":41.3725556,"totpop":136093.973335,"country_id":"BEN","targetpop":31823.3870544,"new_mean":0.0467709,"totalarea":381.6316141}},{"type":"MultiPolygon","arcs":[[[119]],[[120,121,122]]],"properties":{"name":"Athieme","gaul_code":5909,"targetarea":12.2092291,"totpop":67371.2394428,"country_id":"BEN","targetpop":7926.6303406,"new_mean":0.0491503,"totalarea":216.5573728}},{"type":"MultiPolygon","arcs":[[[123]],[[124,125,126]],[[127]]],"properties":{"name":"Pobe","gaul_code":5927,"targetarea":47.2557454,"totpop":149298.40657,"country_id":"BEN","targetpop":49521.9286499,"new_mean":0.0413748,"totalarea":426.7418087}},{"type":"MultiPolygon","arcs":[[[128]],[[129]]],"properties":{"name":"Ketou","gaul_code":5926,"targetarea":14.2532345,"totpop":201068.453768,"country_id":"BEN","targetpop":10287.0259399,"new_mean":0.0478011,"totalarea":1796.9030235}},{"type":"MultiPolygon","arcs":[[[130]],[[131]],[[132]],[[133]]],"properties":{"name":"Ouinhi","gaul_code":5934,"targetarea":15.1626792,"totpop":86850.9247818,"country_id":"BEN","targetpop":11387.0790405,"new_mean":0.0432936,"totalarea":345.0554484}},{"type":"MultiPolygon","arcs":[[[134]],[[135,136,137]],[[138]]],"properties":{"name":"Grand-popo","gaul_code":5912,"targetarea":44.1101803,"totpop":83943.414433,"country_id":"BEN","targetpop":23469.9057484,"new_mean":0.0520237,"totalarea":288.0445399}},{"type":"MultiPolygon","arcs":[[[139]],[[140]]],"properties":{"name":"Zangnanado","gaul_code":5936,"targetarea":10.0395743,"totpop":81379.6004577,"country_id":"BEN","targetpop":4970.1416626,"new_mean":0.0451851,"totalarea":558.4579689}},{"type":"MultiPolygon","arcs":[[[141]],[[142,-15,143]],[[144]]],"properties":{"name":"Za-kpota","gaul_code":5935,"targetarea":114.6338857,"totpop":170854.436981,"country_id":"BEN","targetpop":92260.4778442,"new_mean":0.042632,"totalarea":388.6074895}},{"type":"MultiPolygon","arcs":[[[145,146]],[[147,148,149]],[[150]],[[151]],[[152]],[[153]]],"properties":{"name":"Houeyogbe","gaul_code":5913,"targetarea":54.2962892,"totpop":128600.584064,"country_id":"BEN","targetpop":43308.3895874,"new_mean":0.044795,"totalarea":304.3028287}},{"type":"MultiPolygon","arcs":[[[154,-137,155]],[[156,-147,157,158,-67,159]],[[160]],[[161,-150,162]]],"properties":{"name":"Come","gaul_code":5911,"targetarea":64.1729415,"totpop":91697.6741238,"country_id":"BEN","targetpop":57768.1932983,"new_mean":0.0441926,"totalarea":172.3202919}},{"type":"MultiPolygon","arcs":[[[-6,-83,163]],[[164,-91,-110,-8]]],"properties":{"name":"Adjara","gaul_code":5915,"targetarea":66.204251,"totpop":149691.09193,"country_id":"BEN","targetpop":147308.418762,"new_mean":0.0411359,"totalarea":72.2670874}},{"type":"Polygon","arcs":[[165]],"properties":{"name":"Bonou","gaul_code":5920,"targetarea":4.4283696,"totpop":46866.5742416,"country_id":"BEN","targetpop":3140.2851562,"new_mean":0.0422219,"totalarea":252.183712}},{"type":"Polygon","arcs":[[-13,166,167]],"properties":{"name":"Zogbodome","gaul_code":5937,"targetarea":26.8970249,"totpop":126143.297035,"country_id":"BEN","targetpop":20509.3226624,"new_mean":0.0461951,"totalarea":831.7897845}},{"type":"Polygon","arcs":[[168]],"properties":{"name":"Tori-bossito","gaul_code":5882,"targetarea":1.1852173,"totpop":50863.8576202,"country_id":"BEN","targetpop":1056.6665955,"new_mean":0.045732,"totalarea":327.648718}},{"type":"Polygon","arcs":[[169,170,171,-34,-2,-109]],"properties":{"name":"Akpro-misserete","gaul_code":5918,"targetarea":73.2776107,"totpop":111364.110199,"country_id":"BEN","targetpop":109163.196045,"new_mean":0.0403822,"totalarea":80.2517194}},{"type":"MultiPolygon","arcs":[[[172]],[[173,174,-122,175]],[[176]],[[177,178,179]],[[180]]],"properties":{"name":"Lokossa","gaul_code":5914,"targetarea":56.3436258,"totpop":133814.565079,"country_id":"BEN","targetpop":62364.6470642,"new_mean":0.0457188,"totalarea":270.3240179}},{"type":"MultiPolygon","arcs":[[[181]],[[182,-126,183]],[[184]],[[185]]],"properties":{"name":"Adja-ouere","gaul_code":5924,"targetarea":40.2631567,"totpop":148272.191635,"country_id":"BEN","targetpop":32796.4377747,"new_mean":0.0400582,"totalarea":452.4009923}},{"type":"MultiPolygon","arcs":[[[186]],[[187,188]],[[189,190,191,192]],[[193,194,195,196]],[[197,-167,-12,198,199,-193,200]]],"properties":{"name":"Agbangnizoun","gaul_code":5930,"targetarea":67.0372333,"totpop":96118.0847511,"country_id":"BEN","targetpop":47938.6314697,"new_mean":0.042961,"totalarea":227.1673804}},{"type":"MultiPolygon","arcs":[[[-179,201]],[[-55,-101,-92,202]]],"properties":{"name":"Dogbo-tota","gaul_code":5900,"targetarea":76.8725307,"totpop":137591.699982,"country_id":"BEN","targetpop":60319.8970947,"new_mean":0.0427826,"totalarea":299.1490708}},{"type":"MultiPolygon","arcs":[[[203,-22,204]],[[205,-28,-35,-172,206,207],[208]],[[209,-77,-24,210]]],"properties":{"name":"Dangbo","gaul_code":5921,"targetarea":114.9792338,"totpop":119022.801773,"country_id":"BEN","targetpop":100294.149811,"new_mean":0.0463322,"totalarea":157.2961093}},{"type":"MultiPolygon","arcs":[[[211,-194,212]],[[213,214,-196,215]],[[216,-191,217,-199,-11,218,219,220,221]]],"properties":{"name":"Abomey","gaul_code":5929,"targetarea":67.4737216,"totpop":85636.7086411,"country_id":"BEN","targetpop":65155.6439514,"new_mean":0.0411571,"totalarea":150.3588126}},{"type":"Polygon","arcs":[[222]],"properties":{"name":"Cove","gaul_code":5932,"targetarea":11.1351456,"totpop":57676.9722118,"country_id":"BEN","targetpop":9951.4186401,"new_mean":0.0449446,"totalarea":434.915289}},{"type":"MultiPolygon","arcs":[[[223,-170,-108,-89]],[[224,-87,225]],[[226]],[[227,-85,228]],[[229]]],"properties":{"name":"Sakete","gaul_code":5928,"targetarea":51.8516733,"totpop":145288.134789,"country_id":"BEN","targetpop":47865.8501282,"new_mean":0.0395713,"totalarea":425.0334791}},{"type":"MultiPolygon","arcs":[[[230,-148,-162]],[[-74,231]],[[232]]],"properties":{"name":"Bopa","gaul_code":5910,"targetarea":32.4005202,"totpop":108371.777763,"country_id":"BEN","targetpop":27467.8034973,"new_mean":0.0476702,"totalarea":373.1632977}},{"type":"Polygon","arcs":[[233,-219,-10]],"properties":{"name":"Djidja","gaul_code":5933,"targetarea":0.3586731,"totpop":157884.568861,"country_id":"BEN","targetpop":0,"new_mean":0.0524468,"totalarea":2187.7911979}},{"type":"Polygon","arcs":[[234]],"properties":{"name":"Ouake","gaul_code":5907,"targetarea":4.0457986,"totpop":103787.356537,"country_id":"BEN","targetpop":2851.1923218,"new_mean":0.0659509,"totalarea":649.713116}},{"type":"Polygon","arcs":[[235]],"properties":{"name":"Kandi","gaul_code":5863,"targetarea":11.4007078,"totpop":264249.80186,"country_id":"BEN","targetpop":11094.3725891,"new_mean":0.0301799,"totalarea":3492.0808803}},{"type":"MultiPolygon","arcs":[[[236]],[[237]]],"properties":{"name":"Djougou","gaul_code":5905,"targetarea":20.3177328,"totpop":324070.924539,"country_id":"BEN","targetpop":17193.958313,"new_mean":0.0649548,"totalarea":3922.8565787}},{"type":"Polygon","arcs":[[238,239]],"properties":{"name":"Ndali","gaul_code":5886,"targetarea":8.6567501,"totpop":158926.164713,"country_id":"BEN","targetpop":6391.3435059,"new_mean":0.0657706,"totalarea":3679.4831722}},{"type":"Polygon","arcs":[[240]],"properties":{"name":"Natitingou","gaul_code":5872,"targetarea":14.3200292,"totpop":125732.067215,"country_id":"BEN","targetpop":9944.5672913,"new_mean":0.0715588,"totalarea":1356.2443678}},{"type":"MultiPolygon","arcs":[[[241]],[[-240,242]]],"properties":{"name":"Parakou","gaul_code":5888,"targetarea":217.4638166,"totpop":346887.987331,"country_id":"BEN","targetpop":276646.571014,"new_mean":0.0623019,"totalarea":473.7975098}},{"type":"Polygon","arcs":[[243]],"properties":{"name":"Materi","gaul_code":5871,"targetarea":2.2590719,"totpop":146031.648048,"country_id":"BEN","targetpop":1648.1031494,"new_mean":0.0410781,"totalarea":1763.7648881}},{"type":"MultiPolygon","arcs":[[[244]],[[245]],[[246]]],"properties":{"name":"Malanville","gaul_code":5865,"targetarea":16.4490107,"totpop":227763.708047,"country_id":"BEN","targetpop":13390.9199524,"new_mean":0.0237724,"totalarea":3263.4550705}},{"type":"Polygon","arcs":[[247]],"properties":{"name":"Banikoara","gaul_code":5861,"targetarea":7.8855097,"totpop":333849.971598,"country_id":"BEN","targetpop":6262.6020203,"new_mean":0.0283549,"totalarea":4386.1606283}},{"type":"Polygon","arcs":[[248]],"properties":{"name":"Glazoue","gaul_code":5894,"targetarea":1.9875175,"totpop":150912.375694,"country_id":"BEN","targetpop":1485.6083374,"new_mean":0.0566339,"totalarea":1760.4504991}}]}},"arcs":[[[2.6300869,6.5117912],[2.6101401,6.5277519]],[[2.6101401,6.5277519],[2.5867651,6.4998608],[2.580482,6.4960842]],[[2.580482,6.4960842],[2.5862922,6.4710849]],[[2.5862922,6.4710849],[2.6072096,6.4684841],[2.6170685,6.4583083]],[[2.6170685,6.4583083],[2.6234601,6.4585571],[2.658622,6.4436002]],[[2.658622,6.4436002],[2.6590198,6.4448542]],[[2.6590198,6.4448542],[2.659237,6.445539]],[[2.659237,6.445539],[2.6637959,6.4562688],[2.6554279,6.4874291],[2.6300869,6.5117912]],[[2.089398,7.2555313],[2.0726392,7.2591864],[2.0526282,7.2359593],[2.0405568,7.2219479],[2.0342089,7.2190066]],[[2.0342089,7.2190066],[2.034075,7.2189441]],[[2.034075,7.2189441],[2.024986,7.2002559],[2.0375681,7.1901059],[2.038008,7.170732],[2.0279081,7.1589799],[2.030576,7.15202]],[[2.030576,7.15202],[2.0574019,7.1324029]],[[2.0574019,7.1324029],[2.0838239,7.1237178],[2.122026,7.1289749],[2.1656664,7.1271237]],[[2.1656664,7.1271237],[2.1609368,7.1482082],[2.1786199,7.1604185]],[[2.1786199,7.1604185],[2.172981,7.1885619],[2.160521,7.1976032],[2.1482379,7.1988821],[2.118654,7.1874199],[2.107636,7.1904831],[2.1006191,7.2033138],[2.089398,7.2555313]],[[2.4058137,6.4005519],[2.3960605,6.4042995],[2.3765594,6.403943]],[[2.3765594,6.403943],[2.4058137,6.4005519]],[[2.3665894,6.4080145],[2.3662801,6.4057608]],[[2.3662801,6.4057608],[2.3687436,6.4053251]],[[2.3687436,6.4053251],[2.3665894,6.4080145]],[[2.4264324,6.5845713],[2.426399,6.5845892]],[[2.426399,6.5845892],[2.4225183,6.6061715]],[[2.4225183,6.6061715],[2.4205825,6.6142959]],[[2.4205825,6.6142959],[2.415396,6.6333961]],[[2.415396,6.6333961],[2.4020841,6.5994301],[2.3958449,6.5672898],[2.4034309,6.5475421],[2.404067,6.5141978],[2.4002349,6.4969702],[2.3803296,6.4614206]],[[2.3803296,6.4614206],[2.4152662,6.4639838],[2.4295728,6.4979559],[2.4621249,6.4939073],[2.4709791,6.5049668],[2.4788404,6.4863186],[2.4958559,6.4928603]],[[2.4958559,6.4928603],[2.5006471,6.5172248]],[[2.5006471,6.5172248],[2.4814773,6.5228682],[2.4779735,6.5238997],[2.453886,6.5360198],[2.435303,6.548737],[2.4264324,6.5845713]],[[1.6799064,6.9207984],[1.705196,6.9238029],[1.729143,6.9472919],[1.731872,6.9655328]],[[1.731872,6.9655328],[1.7379921,7.010451]],[[1.7379921,7.010451],[1.7265943,7.0260199],[1.7044589,6.9939683],[1.6803378,7.0096747],[1.6715976,6.9863185],[1.6666659,6.9829169],[1.6548495,6.9541734],[1.6618808,6.9278062],[1.6778964,6.9309719],[1.6799064,6.9207984]],[[2.5530757,6.4308108],[2.5871031,6.4476929]],[[2.5871031,6.4476929],[2.5787102,6.4458767],[2.5530757,6.4308108]],[[2.580482,6.4960842],[2.56567,6.5042038],[2.5492539,6.525105]],[[2.5492539,6.525105],[2.5305619,6.5414619],[2.521699,6.5406308],[2.5006471,6.5172248]],[[2.4958559,6.4928603],[2.5143385,6.499966],[2.540787,6.4844143],[2.5369459,6.4534898],[2.5441724,6.4375433],[2.5548821,6.4749904],[2.5862922,6.4710849]],[[2.0093061,6.5963469],[2.0021477,6.6201076],[1.9916018,6.6175349]],[[1.9916018,6.6175349],[2.0093061,6.5963469]],[[2.2190194,6.6131984],[2.2356999,6.6170049],[2.2474929,6.6288295]],[[2.2474929,6.6288295],[2.2201327,6.6554917],[2.1944003,6.6516913],[2.1521477,6.7076727],[2.1303378,6.6908392],[2.1273918,6.6709173],[2.1370761,6.636168],[2.1638176,6.6466823],[2.1963697,6.6376206],[2.1999993,6.6329169],[2.2190194,6.6131984]],[[2.3662801,6.4057608],[2.3586289,6.345399]],[[2.3586289,6.345399],[2.4239902,6.3415025],[2.4706047,6.3539862],[2.4979135,6.3552708]],[[2.4979135,6.3552708],[2.494153,6.371264],[2.4696391,6.3732748],[2.4428329,6.3787832],[2.4451405,6.3958507]],[[2.4451405,6.3958507],[2.4246737,6.393305],[2.4058137,6.4005519]],[[2.3765594,6.403943],[2.3687436,6.4053251]],[[2.4135736,6.6362807],[2.3873202,6.61942],[2.3681308,6.6442816],[2.3806633,6.6539536],[2.3586744,6.6615464],[2.3260898,6.6146877],[2.3576978,6.5755886],[2.3508945,6.5626206],[2.3280103,6.5922756],[2.3067246,6.5794286]],[[2.3067246,6.5794286],[2.2848062,6.5679843]],[[2.2848062,6.5679843],[2.2891594,6.5607692],[2.286832,6.5450913],[2.2968092,6.5285549],[2.2868157,6.5208441],[2.2866366,6.4936997],[2.2529778,6.4986721],[2.2202121,6.4515565],[2.2216136,6.4359358],[2.2213797,6.4351804]],[[2.2213797,6.4351804],[2.210453,6.4148889],[2.208797,6.4044032],[2.216939,6.3951612],[2.2238491,6.3762479],[2.237906,6.3652692],[2.2598059,6.3641248],[2.2678771,6.35917],[2.2709023,6.3400055]],[[2.2709023,6.3400055],[2.3586289,6.345399]],[[2.3665894,6.4080145],[2.3603671,6.4157823],[2.366259,6.46317],[2.3803296,6.4614206]],[[2.415396,6.6333961],[2.4135736,6.6362807]],[[1.8666659,6.8662502],[1.858565,6.8685253]],[[1.858565,6.8685253],[1.859308,6.8533769],[1.851033,6.8324628]],[[1.851033,6.8324628],[1.8639337,6.8294463]],[[1.8639337,6.8294463],[1.8619622,6.8455511],[1.8666659,6.8662502]],[[1.8666659,6.8662502],[1.8800123,6.8598822],[1.8862786,6.876732],[1.8643008,6.88878]],[[1.8643008,6.88878],[1.8584419,6.8710347]],[[1.8584419,6.8710347],[1.8666659,6.8662502]],[[1.9142991,6.9624901],[1.880213,6.933989],[1.865193,6.9358521]],[[1.865193,6.9358521],[1.873243,6.9073982],[1.8705309,6.9017039]],[[1.8705309,6.9017039],[1.8823723,6.9081976],[1.8946119,6.8858669],[1.9192213,6.8723781],[1.928401,6.889118],[1.9416659,6.8836493],[1.9541659,6.8888006],[1.9636386,6.8848944],[1.9666659,6.9245835],[1.9447096,6.9283148],[1.9552239,6.9457424],[1.9142991,6.9624901]],[[1.9359856,6.9719346],[1.9492017,6.9780951],[1.9357577,6.9938991],[1.9223463,6.9713649],[1.9359856,6.9719346]],[[2.0584391,6.3535503],[2.0716,6.3731189],[2.0616831,6.3952858]],[[2.0616831,6.3952858],[2.0556633,6.3914577],[2.0539055,6.3618964],[2.0584391,6.3535503]],[[1.9583326,6.3995835],[1.9420062,6.3914642]],[[1.9420062,6.3914642],[1.945381,6.3774719],[1.957015,6.3617881]],[[1.957015,6.3617881],[1.9670566,6.3640407],[1.9583326,6.3995835]],[[1.9583326,6.3995835],[1.9763502,6.402208],[1.9610344,6.4180731],[1.9583326,6.3995835]],[[2.0133293,6.451854],[2.0058424,6.4375515],[2.0166659,6.4329169],[2.0133293,6.451854]],[[2.0166659,6.5745835],[2.0255289,6.5704379],[2.0242353,6.5724577],[2.0166659,6.5745835]],[[2.0166659,6.5745835],[2.0093061,6.5963469]],[[1.9916018,6.6175349],[1.9798186,6.6146604]],[[1.9798186,6.6146604],[1.9786662,6.59732]],[[1.9786662,6.59732],[1.9813958,6.6034409],[1.9974765,6.5950303],[1.9928704,6.5377875],[2.0046868,6.5642686],[2.0166659,6.5745835]],[[2.4395111,6.6289461],[2.4358391,6.6505804],[2.4135736,6.6362807]],[[2.415396,6.6333961],[2.4395111,6.6289461]],[[2.5049309,6.6711818],[2.4790683,6.6808539],[2.4632642,6.6638658],[2.4882642,6.6545152],[2.5083326,6.6412502],[2.5049309,6.6711818]],[[2.4936516,6.7119981],[2.4854648,6.7287502],[2.4898756,6.7377671],[2.4806308,6.7440497],[2.4666659,6.7164455],[2.4775383,6.6941799],[2.4833326,6.6912502],[2.4936516,6.7119981]],[[2.6170685,6.4583083],[2.5871031,6.4476929]],[[2.5530757,6.4308108],[2.5547356,6.4117051],[2.543261,6.4025173],[2.5017111,6.4076823],[2.4947338,6.404943],[2.4999993,6.3912502],[2.4629645,6.3958779],[2.4492098,6.3963568],[2.4451405,6.3958507]],[[2.4979135,6.3552708],[2.6377271,6.3618475],[2.7095451,6.3706476],[2.7062812,6.4256048]],[[2.7062812,6.4256048],[2.6821489,6.4358902],[2.6723111,6.4346619],[2.658622,6.4436002]],[[2.720289,6.507771],[2.729331,6.5344257],[2.742933,6.5454283],[2.7505572,6.5573649],[2.753123,6.570467],[2.7387851,6.5804877],[2.7423292,6.5904733],[2.7314279,6.630785],[2.752459,6.6656818],[2.7865901,6.6947899],[2.7859781,6.7233071],[2.7896823,6.7398596],[2.762955,6.734223],[2.7802076,6.7204169],[2.7702629,6.7124619],[2.7721021,6.6977362],[2.742968,6.67921],[2.7128736,6.7126491],[2.703873,6.7115261],[2.6893329,6.72007]],[[2.6893329,6.72007],[2.681335,6.7116047]],[[2.681335,6.7116047],[2.6727646,6.7032888]],[[2.6727646,6.7032888],[2.6632156,6.6879523]],[[2.6632156,6.6879523],[2.662948,6.6682556],[2.6628742,6.6605367],[2.6770338,6.6507595],[2.6816399,6.6302394],[2.6592311,6.6252153]],[[2.6592311,6.6252153],[2.6558909,6.6163869]],[[2.6558909,6.6163869],[2.6777029,6.5863948],[2.6922369,6.5605402],[2.699121,6.514307]],[[2.699121,6.514307],[2.720289,6.507771]],[[1.6459973,6.7849645],[1.6748821,6.7917552],[1.687821,6.8009892],[1.700232,6.8221221],[1.758509,6.8264818],[1.770023,6.8528848]],[[1.770023,6.8528848],[1.767231,6.8829241],[1.759781,6.8944998],[1.762548,6.9058032],[1.751838,6.9208798],[1.769443,6.9270129],[1.7604935,6.9550539]],[[1.7604935,6.9550539],[1.7381991,6.9522813],[1.7366051,6.9651201]],[[1.7366051,6.9651201],[1.731872,6.9655328]],[[1.6799064,6.9207984],[1.6808098,6.9162258],[1.6700025,6.8620876],[1.6733391,6.8452093],[1.645149,6.8377712],[1.6333326,6.8162502],[1.6481601,6.8117865],[1.6459973,6.7849645]],[[2.0584391,6.3535503],[2.0702792,6.3317531],[1.9872714,6.3206529],[1.9760589,6.3103174],[1.9711641,6.3012789],[2.0127271,6.3035142],[2.123746,6.324376],[2.2709023,6.3400055]],[[2.2213797,6.4351804],[2.1702955,6.420954],[2.1622551,6.3920477],[2.1499993,6.4079169],[2.1499993,6.4162502],[2.1348137,6.4526678],[2.1072258,6.4543117],[2.0877271,6.4118475],[2.0616831,6.3952858]],[[2.1804517,6.3971543],[2.1881015,6.4187079],[2.1916659,6.3912502],[2.1804517,6.3971543]],[[1.8639784,6.9364277],[1.862776,6.9268133],[1.7953769,6.9366237],[1.786537,6.9576065],[1.7860156,6.958228],[1.7604935,6.9550539]],[[1.770023,6.8528848],[1.79865,6.847259],[1.822415,6.838644],[1.851033,6.8324628]],[[1.858565,6.8685253],[1.8584419,6.8710347]],[[1.8643008,6.88878],[1.8705309,6.9017039]],[[1.865193,6.9358521],[1.8639784,6.9364277]],[[1.844205,6.8441799],[1.8320631,6.8690497],[1.8471998,6.8634507],[1.844205,6.8441799]],[[2.1807122,6.817597],[2.164843,6.8022772],[2.1833326,6.7995835],[2.1807122,6.817597]],[[2.2716627,6.9351874],[2.2641757,6.9208848],[2.2749993,6.9162502],[2.2716627,6.9351874]],[[2.6558909,6.6163869],[2.6459219,6.6155748],[2.6287811,6.6252608]],[[2.6287811,6.6252608],[2.6039701,6.5762],[2.6183479,6.5576839],[2.6101401,6.5277519]],[[2.6300869,6.5117912],[2.6495309,6.5264421],[2.657608,6.5389228],[2.6740439,6.5376949],[2.699121,6.514307]],[[2.3067246,6.5794286],[2.2872714,6.605565],[2.264192,6.6021511],[2.2848062,6.5679843]],[[2.2190194,6.6131984],[2.2216627,6.6097723],[2.2536288,6.6228501],[2.2474929,6.6288295]],[[2.302815,6.6446437],[2.2882642,6.6318711],[2.3166659,6.6245835],[2.302815,6.6446437]],[[2.2779452,6.7049668],[2.3001295,6.717125],[2.287304,6.7358669],[2.26372,6.7057684],[2.2779452,6.7049668]],[[1.8666659,6.9579169],[1.8639784,6.9364277]],[[1.9142991,6.9624901],[1.8873853,6.9627183],[1.8666659,6.9579169]],[[1.8666659,6.9579169],[1.8596347,6.985285],[1.8333326,6.9995835],[1.8303053,6.9859442],[1.816731,6.9568711],[1.8375663,6.9490161],[1.8420131,6.9473397],[1.8666659,6.9579169]],[[1.7366051,6.9651201],[1.7358066,6.9715521],[1.7416659,7.0079169],[1.7379921,7.010451]],[[1.8236484,7.0613185],[1.7799309,7.0466172],[1.7869296,7.0360215],[1.8014967,7.0392889],[1.8166659,7.0329169],[1.8236484,7.0613185]],[[1.7166659,6.5995835],[1.7166659,6.5912502],[1.7333326,6.5912502],[1.7333326,6.5995835],[1.7166659,6.5995835]],[[1.7166659,6.5995835],[1.721288,6.6161734]],[[1.721288,6.6161734],[1.6962561,6.6216412]],[[1.6962561,6.6216412],[1.6977532,6.6126125],[1.679703,6.5986843],[1.6872063,6.5947577],[1.7044101,6.5947658],[1.7166659,6.5995835]],[[2.6916659,6.9745835],[2.6950676,6.9613185],[2.709076,6.9516476],[2.7188973,6.9533319],[2.7199305,6.9730179],[2.7039381,6.9694322],[2.6916659,6.9745835]],[[2.6916659,6.9745835],[2.6805006,7.0116888],[2.638497,7.0025275]],[[2.638497,7.0025275],[2.640605,6.9899492],[2.6540909,6.957736],[2.6579018,6.9553867]],[[2.6579018,6.9553867],[2.6916659,6.9745835]],[[2.6717766,7.1537136],[2.6676099,7.172313],[2.6429355,7.1863185],[2.6299309,7.1370957],[2.6666659,7.1329169],[2.6717766,7.1537136]],[[2.6215325,7.370897],[2.5991529,7.3782131],[2.5880364,7.357278],[2.6166659,7.3412502],[2.6215325,7.370897]],[[2.7623575,7.4190818],[2.7324537,7.427912],[2.7383456,7.4045355],[2.7475781,7.417439],[2.7623575,7.4190818]],[[2.4166659,7.0995835],[2.4091024,7.0974593],[2.414192,7.0907586],[2.4166659,7.0995835]],[[2.4166659,7.0995835],[2.4236332,7.1056249],[2.4183371,7.1055448],[2.4166659,7.0995835]],[[2.4189445,7.1379465],[2.4249993,7.1329169],[2.4452141,7.1649929],[2.4119503,7.1616027],[2.4113488,7.1608467],[2.4122761,7.1517622],[2.4189445,7.1379465]],[[2.5103508,7.1775865],[2.487955,7.1675563],[2.5166659,7.1412502],[2.5103508,7.1775865]],[[1.8540846,6.2873358],[1.8043833,6.2873179],[1.799336,6.2805581],[1.7864251,6.2780707],[1.735953,6.2616888],[1.680403,6.2544818],[1.6682049,6.2475991],[1.645669,6.2480931],[1.629565,6.2423673],[1.6281405,6.228831],[1.678627,6.2404919],[1.688512,6.2455568],[1.7125726,6.2473646],[1.8435051,6.2761053],[1.8540846,6.2873358]],[[1.8833326,6.3579169],[1.8924146,6.3461493],[1.9231911,6.3615999]],[[1.9231911,6.3615999],[1.8943045,6.3634674]],[[1.8943045,6.3634674],[1.8833326,6.3579169]],[[1.8833326,6.3579169],[1.881496,6.3644683],[1.8772045,6.3647974],[1.8833326,6.3579169]],[[2.4101392,7.2361761],[2.3710605,7.2168524],[2.3999993,7.2079169],[2.4101392,7.2361761]],[[2.5035963,7.2441392],[2.4880364,7.2319159],[2.5083326,7.2162502],[2.5035963,7.2441392]],[[2.2499993,7.2079169],[2.2530429,7.1928127],[2.2666659,7.1995835],[2.2666659,7.2079169],[2.2499993,7.2079169]],[[2.2499993,7.2079169],[2.236832,7.2397772],[2.1788567,7.2617743],[2.1623202,7.2710028],[2.1495598,7.2424099],[2.089398,7.2555313]],[[2.1786199,7.1604185],[2.1833326,7.1912502],[2.1999993,7.1712917],[2.2119784,7.1880072],[2.2272779,7.1849839],[2.2333326,7.2079169],[2.2499993,7.2079169]],[[2.1395826,7.3019313],[2.1303866,7.2871364],[2.1499993,7.2829169],[2.1395826,7.3019313]],[[1.8515559,6.4435335],[1.8427076,6.4779852],[1.827929,6.4623358],[1.8339147,6.4389849]],[[1.8339147,6.4389849],[1.8515559,6.4435335]],[[1.944128,6.502646],[1.953176,6.5091591],[1.9490277,6.5286342]],[[1.9490277,6.5286342],[1.9338209,6.5159572],[1.9367054,6.5031084]],[[1.9367054,6.5031084],[1.944128,6.502646]],[[1.8351067,6.5251247],[1.8218905,6.5363186],[1.8132642,6.5040594],[1.8416659,6.4995835],[1.8351067,6.5251247]],[[1.9280917,6.5584214],[1.9132642,6.5694281],[1.9051588,6.5400091],[1.9166659,6.5329169],[1.9280917,6.5584214]],[[1.8916659,6.5745835],[1.8638176,6.592475],[1.8416659,6.5637884],[1.8241041,6.5865464],[1.7992994,6.5575506],[1.8205234,6.5447414],[1.8499993,6.5495835],[1.8499993,6.5579169],[1.8916659,6.5579169],[1.8916659,6.5745835]],[[1.8916659,6.5745835],[1.9074387,6.576881],[1.9003026,6.5869254],[1.8916659,6.5745835]],[[1.8999993,6.3745835],[1.8943045,6.3634674]],[[1.9231911,6.3615999],[1.8999993,6.3745835]],[[1.9083326,6.4329169],[1.9047844,6.4190782],[1.854524,6.4319769],[1.8515559,6.4435335]],[[1.8339147,6.4389849],[1.8367343,6.4279852],[1.8651685,6.4031927],[1.8593254,6.3771063],[1.8819329,6.3821722],[1.8999993,6.3745835]],[[1.8999993,6.3745835],[1.9211419,6.3863186],[1.9537428,6.3610541],[1.957015,6.3617881]],[[1.9420062,6.3914642],[1.9221998,6.4301174],[1.9083326,6.4329169]],[[1.9083326,6.4329169],[1.9280429,6.4510565],[1.9328118,6.4867743],[1.8961419,6.443419],[1.9083326,6.4329169]],[[1.9584949,6.4957719],[1.944128,6.502646]],[[1.9367054,6.5031084],[1.9396314,6.4900742],[1.9499993,6.4829169],[1.9584949,6.4957719]],[[2.7062812,6.4256048],[2.7083326,6.4412502],[2.6590198,6.4448542]],[[2.659237,6.445539],[2.7127434,6.4592678],[2.7193926,6.4852142],[2.720289,6.507771]],[[2.4542473,6.9174221],[2.4307122,6.9360174],[2.4393547,6.9108303],[2.4583326,6.8995835],[2.4542473,6.9174221]],[[2.0574019,7.1324029],[2.047143,7.1191211],[2.0405358,7.1040031]],[[2.0405358,7.1040031],[2.046207,7.1027329],[2.0663892,7.1158799],[2.0913079,7.1102932],[2.1115553,7.0561916],[2.1367343,7.0690578],[2.1052076,7.0908311],[2.1162265,7.1279852],[2.1541659,7.119481],[2.1656664,7.1271237]],[[2.1466627,6.5101874],[2.1391757,6.4958848],[2.1499993,6.4912502],[2.1466627,6.5101874]],[[2.6287811,6.6252608],[2.6187799,6.6315131],[2.5882786,6.6434884]],[[2.5882786,6.6434884],[2.5781731,6.6146633],[2.5620154,6.6112562]],[[2.5620154,6.6112562],[2.5758941,6.5853601],[2.5758929,6.5760779],[2.55844,6.5288401],[2.5492539,6.525105]],[[1.6833326,6.6995835],[1.680869,6.7135661],[1.6771295,6.7130448],[1.672509,6.7042181],[1.6833326,6.6995835]],[[1.7583326,6.7162502],[1.7351067,6.7102891],[1.7408033,6.6848537],[1.7059563,6.6628485],[1.6952955,6.6913234],[1.6833326,6.6995835]],[[1.6833326,6.6995835],[1.6962561,6.6216412]],[[1.721288,6.6161734],[1.7583326,6.6245835],[1.7546217,6.6375433],[1.7393385,6.6497829],[1.7583326,6.7162502]],[[1.7966627,6.726854],[1.7891757,6.7125515],[1.7999993,6.7079169],[1.7966627,6.726854]],[[1.7583326,6.7162502],[1.7857577,6.7205715],[1.7711951,6.742917]],[[1.7711951,6.742917],[1.7555358,6.727631]],[[1.7555358,6.727631],[1.7583326,6.7162502]],[[1.8229159,6.7602647],[1.81372,6.7454698],[1.8333326,6.7412502],[1.8229159,6.7602647]],[[2.6445793,6.8875026],[2.6563632,6.8956447],[2.6367343,6.9029852],[2.6285149,6.9249416],[2.601692,6.9189276],[2.6060377,6.8995835],[2.6030754,6.886404],[2.6499993,6.8745835],[2.6445793,6.8875026]],[[2.6249993,6.9995835],[2.64733,6.949376],[2.6579018,6.9553867]],[[2.638497,7.0025275],[2.6249993,6.9995835]],[[2.6249993,6.9995835],[2.6161614,7.0114732],[2.5973951,6.9884914],[2.6249993,6.9995835]],[[2.5621086,7.1666571],[2.5392408,7.1785142],[2.5293938,7.1392767],[2.5499993,7.1329169],[2.5621086,7.1666571]],[[1.9999993,7.0579169],[1.9666659,7.0495835],[1.9694654,7.0357163],[1.981884,7.021784],[1.9999993,7.0579169]],[[1.9999993,7.0579169],[2.0167799,7.0508693],[2.0249993,7.0829169]],[[2.0249993,7.0829169],[1.9999993,7.0829169],[1.9999993,7.0579169]],[[2.0166659,7.1162502],[2.0178102,7.1287579]],[[2.0178102,7.1287579],[1.9916659,7.1200997]],[[1.9916659,7.1200997],[1.9916659,7.1079169],[2.0083326,7.1079169]],[[2.0083326,7.1079169],[2.0166659,7.1162502]],[[1.9777152,7.1186198],[1.9721296,7.1257034]],[[1.9721296,7.1257034],[1.9707126,7.131244]],[[1.9707126,7.131244],[1.9641405,7.1477728]],[[1.9641405,7.1477728],[1.9470696,7.1355332],[1.9550611,7.0950547],[1.9402011,7.0716376],[1.9631829,7.0627712],[1.9666659,7.0579169],[1.9952955,7.0800157],[1.9777152,7.1186198]],[[2.0249993,7.0829169],[2.0320703,7.0847312],[2.0364492,7.0959363],[2.0405358,7.1040031]],[[2.030576,7.15202],[2.0276395,7.1360403]],[[2.0276395,7.1360403],[2.0332187,7.1246242],[2.0166659,7.1162502]],[[2.0083326,7.1079169],[2.0083326,7.0912502],[2.0249993,7.0912502],[2.0249993,7.0829169]],[[1.7711951,6.742917],[1.7719068,6.7544053],[1.7515292,6.7613185],[1.7555358,6.727631]],[[1.6459973,6.7849645],[1.66219,6.7534409],[1.6911614,6.7290594],[1.6871412,6.7789821],[1.7048658,6.8107285],[1.7559238,6.8223293],[1.7705234,6.8189357],[1.7358391,6.8034532],[1.7544752,6.7873928],[1.7687493,6.7708319],[1.8076327,6.7984035],[1.7955234,6.8201076],[1.7916659,6.8329169],[1.8291659,6.8282334],[1.8639337,6.8294463]],[[2.4416659,6.5995835],[2.4225183,6.6061715]],[[2.426399,6.5845892],[2.4416659,6.5995835]],[[2.4416659,6.5995835],[2.4790846,6.5943589],[2.4526034,6.5704982],[2.4264324,6.5845713]],[[2.5620154,6.6112562],[2.5503085,6.613882],[2.5367343,6.6045152],[2.5281894,6.5921372],[2.4882642,6.6045152],[2.453401,6.6113186],[2.4416659,6.6162502]],[[2.4416659,6.6162502],[2.4416659,6.5995835]],[[2.4711418,6.5381822],[2.4947747,6.5615668],[2.4999993,6.5329169],[2.4711418,6.5381822]],[[2.4416659,6.6162502],[2.4395111,6.6289461]],[[2.4205825,6.6142959],[2.4416659,6.6162502]],[[1.9749993,7.1245835],[1.9721296,7.1257034]],[[1.9777152,7.1186198],[1.9749993,7.1245835]],[[1.9749993,7.1329169],[1.9666659,7.1495835]],[[1.9666659,7.1495835],[1.9641405,7.1477728]],[[1.9707126,7.131244],[1.9749993,7.1329169]],[[1.9749993,7.1245835],[1.9916659,7.1200997]],[[2.0178102,7.1287579],[2.0276395,7.1360403]],[[2.034075,7.2189441],[2.0338953,7.2190318]],[[2.0338953,7.2190318],[2.0004387,7.2197821],[1.9618808,7.1982733],[1.9666659,7.1495835]],[[1.9666659,7.1495835],[1.9861321,7.1592596],[1.9805331,7.1357163],[1.9749993,7.1329169]],[[1.9749993,7.1329169],[1.9749993,7.1245835]],[[2.3658847,7.2237494],[2.3394036,7.2442002],[2.3220533,7.2114406],[2.3583326,7.2079169],[2.3658847,7.2237494]],[[2.6592311,6.6252153],[2.6426751,6.6215033],[2.6281894,6.6779852],[2.5956536,6.6645249],[2.5882786,6.6434884]],[[2.6583326,6.6995835],[2.6632156,6.6879523]],[[2.6727646,6.7032888],[2.6583326,6.6995835]],[[2.6145826,6.7269313],[2.6053866,6.7121364],[2.6249993,6.7079169],[2.6145826,6.7269313]],[[2.6583326,6.6995835],[2.6721835,6.7196519],[2.681335,6.7116047]],[[2.6893329,6.72007],[2.6886223,6.7419175],[2.6388665,6.7532904],[2.6296217,6.7158148],[2.6583326,6.6995835]],[[2.5916659,6.8662502],[2.5906119,6.87001],[2.5837437,6.8684752],[2.5916659,6.8662502]],[[1.9584949,6.4957719],[1.970442,6.5138495],[1.9782382,6.5529852],[1.9490277,6.5286342]],[[1.9798186,6.6146604],[1.9705234,6.6123928],[1.9461419,6.5890814],[1.9625481,6.5611761],[1.9786662,6.59732]],[[1.9218254,6.629739],[1.8816236,6.6434393],[1.8916008,6.6114366],[1.9249993,6.6079169],[1.9218254,6.629739]],[[2.0342089,7.2190066],[2.0338953,7.2190318]],[[1.395149,9.6827297],[1.3708326,9.6779282],[1.3731438,9.6640204],[1.395149,9.6827297]],[[2.9467603,11.1470038],[2.9166171,11.1376165],[2.9051588,11.119953],[2.9499993,11.1162502],[2.9467603,11.1470038]],[[1.6786288,9.6876206],[1.6892896,9.6958441],[1.6858554,9.7190008],[1.6568027,9.7282131],[1.6380364,9.6891953],[1.6749993,9.6829168],[1.6786288,9.6876206]],[[1.779996,9.901854],[1.772509,9.8875514],[1.7833326,9.8829168],[1.779996,9.901854]],[[2.6898749,9.3844556],[2.6715162,9.3961045],[2.6414543,9.4077012],[2.627164,9.4447292],[2.6123667,9.438021]],[[2.6123667,9.438021],[2.6196179,9.4342642],[2.6475911,9.3987551],[2.6760161,9.3800402],[2.6898749,9.3844556]],[[1.3913079,10.3134059],[1.3846347,10.3282904],[1.3669101,10.3061428],[1.3728997,10.2579331],[1.3833326,10.2495835],[1.3913079,10.3134059]],[[2.7332834,9.2847203],[2.7369929,9.2914469],[2.7312493,9.3019313],[2.7220533,9.2871364],[2.7332834,9.2847203]],[[2.6123667,9.438021],[2.6013665,9.4232082],[2.5792473,9.4073472],[2.5689446,9.3683172],[2.5349114,9.3750433],[2.5131829,9.3447292],[2.4965162,9.3327826],[2.5199049,9.3128241],[2.5695631,9.3226385],[2.5724765,9.3079168],[2.565901,9.2746649],[2.5868157,9.2613959],[2.5999993,9.2579168],[2.6097161,9.2947292],[2.6215162,9.2877712],[2.6334628,9.2711045],[2.6465162,9.2780625],[2.6604322,9.2974798],[2.6970045,9.311583],[2.6833001,9.3449611],[2.6898749,9.3844556]],[[1.0693027,10.7028672],[1.0546217,10.6887396],[1.0749993,10.6829168],[1.0693027,10.7028672]],[[3.227636,11.7362005],[3.212955,11.7220729],[3.2333326,11.7162502],[3.227636,11.7362005]],[[3.3909986,11.8191025],[3.3713697,11.8088161],[3.3833326,11.7995835],[3.3909986,11.8191025]],[[3.4105136,11.8623927],[3.3892571,11.877383],[3.3666985,11.8663682],[3.3775872,11.8440741],[3.3999993,11.8412502],[3.4105136,11.8623927]],[[2.4499993,11.2912502],[2.4499993,11.3079168],[2.4249993,11.3079168],[2.4249993,11.2912502],[2.4499993,11.2912502]],[[2.2473788,7.9842637],[2.2315097,7.9689439],[2.2499993,7.9662502],[2.2473788,7.9842637]]],"bbox":[1.0546217,6.228831,3.4105136,11.877383]}