{"type":"Topology","objects":{"foo":{"type":"GeometryCollection","geometries":[{"type":"Polygon","arcs":[[0,1]],"properties":{"name":"Administrative unit not available","gaul_code":5755,"targetarea":16.4609404,"totpop":197076.921181,"country_id":"BHR","targetpop":197076.921181,"new_mean":0,"totalarea":16.7772958}},{"type":"MultiPolygon","arcs":[[[2,3,4],[5]],[[6]]],"properties":{"name":"Administrative unit not available","gaul_code":5758,"targetarea":19.8020388,"totpop":70934.9325762,"country_id":"BHR","targetpop":70494.456563,"new_mean":0,"totalarea":20.878464}},{"type":"Polygon","arcs":[[7,8,9,10]],"properties":{"name":"Administrative unit not available","gaul_code":5753,"targetarea":26.8763141,"totpop":192477.101807,"country_id":"BHR","targetpop":192477.101807,"new_mean":0,"totalarea":26.876314}},{"type":"MultiPolygon","arcs":[[[11]],[[12],[13]],[[14]],[[15,16,17,18,19,20,-5,21],[22]]],"properties":{"name":"Administrative unit not available","gaul_code":5757,"targetarea":90.9973116,"totpop":339113.720666,"country_id":"BHR","targetpop":286975.751389,"new_mean":0,"totalarea":254.1199282}},{"type":"Polygon","arcs":[[-2,23]],"properties":{"name":"Administrative unit not available","gaul_code":5751,"targetarea":1.2077608,"totpop":8910.0635986,"country_id":"BHR","targetpop":0,"new_mean":0,"totalarea":1.2077608}},{"type":"Polygon","arcs":[[24,25,-20,26,-18,27]],"properties":{"name":"Administrative unit not available","gaul_code":5759,"targetarea":57.3808301,"totpop":209443.564416,"country_id":"BHR","targetpop":173242.83197,"new_mean":0,"totalarea":197.1072701}},{"type":"Polygon","arcs":[[-27,-19]],"properties":{"name":"Administrative unit not available","gaul_code":5749,"targetarea":12.8588165,"totpop":33787.4649658,"country_id":"BHR","targetpop":33787.4649658,"new_mean":0,"totalarea":12.8588165}},{"type":"MultiPolygon","arcs":[[[28]],[[29,-11,30]]],"properties":{"name":"Administrative unit not available","gaul_code":5754,"targetarea":18.3412311,"totpop":405192.58667,"country_id":"BHR","targetpop":405192.58667,"new_mean":0,"totalarea":18.369613}},{"type":"Polygon","arcs":[[31,-25,32,-9]],"properties":{"name":"Administrative unit not available","gaul_code":5756,"targetarea":26.330347,"totpop":94950.177002,"country_id":"BHR","targetpop":94950.177002,"new_mean":0,"totalarea":26.3303471}},{"type":"Polygon","arcs":[[-10,-33,-28,-17,33,-22,-4,34,-31]],"properties":{"name":"Administrative unit not available","gaul_code":5748,"targetarea":34.6994791,"totpop":237274.87384,"country_id":"BHR","targetpop":237274.87384,"new_mean":0,"totalarea":34.6994792}},{"type":"Polygon","arcs":[[-34,-16]],"properties":{"name":"Administrative unit not available","gaul_code":5752,"targetarea":12.8422116,"totpop":147193.403198,"country_id":"BHR","targetpop":147193.403198,"new_mean":0,"totalarea":12.8422116}}]}},"arcs":[[[50.6633613,26.2466526],[50.6614411,26.2577988],[50.66266,26.2675619],[50.6513596,26.2710724],[50.6467247,26.2785378],[50.640213,26.2825966],[50.6266289,26.2796936],[50.6077766,26.2612782],[50.6054459,26.2505264],[50.6098213,26.2428417],[50.6195641,26.239996],[50.6239548,26.2459469],[50.6277275,26.2563419],[50.6329689,26.2585392],[50.6397133,26.2537041],[50.6339493,26.2486057],[50.6384811,26.2418861],[50.648735,26.2458973]],[[50.648735,26.2458973],[50.6514091,26.2534866],[50.6633613,26.2466526]],[[50.6270871,26.0956306],[50.62871,26.1042099],[50.6390127,26.1124619],[50.6286354,26.1214962],[50.6235924,26.1324158],[50.6217957,26.1411915],[50.6186066,26.1454029],[50.6064148,26.1463737],[50.6024784,26.1421012]],[[50.6024784,26.1421012],[50.5987784,26.1356007]],[[50.5987784,26.1356007],[50.5993958,26.1284218],[50.6033554,26.1215515],[50.6037254,26.1152363],[50.6109886,26.1021633],[50.6187744,26.0970745],[50.6270871,26.0956306]],[[50.6148428,26.1191025],[50.6221508,26.1264104],[50.6249991,26.1162501],[50.6148428,26.1191025]],[[50.6201439,26.1736412],[50.6126976,26.1712856],[50.6092033,26.1644688],[50.6109962,26.1556931],[50.6200027,26.1499691],[50.624939,26.1443386],[50.6356354,26.1261597],[50.6384978,26.1303846],[50.6368713,26.1433716],[50.6334267,26.1475887],[50.6355934,26.1547782],[50.6320258,26.1712626],[50.6201439,26.1736412]],[[50.5584755,26.2201214],[50.5561409,26.2247849],[50.5470085,26.2255783],[50.5305214,26.2301617],[50.5134964,26.2316914],[50.4998818,26.2317828]],[[50.4998818,26.2317828],[50.4994087,26.2265472],[50.4914055,26.2240124],[50.4966087,26.2128067],[50.4968758,26.2078705],[50.5066147,26.1939964],[50.5060844,26.1808529]],[[50.5060844,26.1808529],[50.5279732,26.1873455],[50.5451088,26.1884632],[50.5593262,26.1878548]],[[50.5593262,26.1878548],[50.5582314,26.1936722],[50.5541229,26.1942768],[50.5562668,26.204546],[50.5523186,26.2091713],[50.5587311,26.2130318],[50.5584755,26.2201214]],[[50.6214346,26.0103745],[50.6137849,25.9888209],[50.6249991,25.9829168],[50.6214346,26.0103745]],[[50.5999991,26.0412501],[50.5791657,26.0550156],[50.5536124,26.0383733],[50.5465974,26.0211411],[50.5845694,26.0128484],[50.5999991,26.0412501]],[[50.5731762,26.0274358],[50.5804841,26.0347438],[50.5833324,26.0245834],[50.5731762,26.0274358]],[[50.5999991,26.0412501],[50.6105785,26.0457789],[50.6033845,26.0604152],[50.5999991,26.0412501]],[[50.5937386,26.1400242],[50.5879478,26.1385727],[50.5757141,26.1399498],[50.5693207,26.1429367],[50.558815,26.1396503],[50.5533104,26.1404839]],[[50.5533104,26.1404839],[50.5225677,26.1439552],[50.5172272,26.1427479],[50.5151825,26.137413]],[[50.5151825,26.137413],[50.5198898,26.1304245]],[[50.5198898,26.1304245],[50.5259781,26.1016083],[50.5328827,26.0628452]],[[50.5328827,26.0628452],[50.5377565,26.0333409]],[[50.5377565,26.0333409],[50.5453767,26.0458766],[50.5642732,26.0717514],[50.5795401,26.0698512],[50.5870433,26.0792099],[50.5973298,26.0866236],[50.5952627,26.0700017],[50.6129548,26.0625432],[50.6211579,26.0523138],[50.6270871,26.0956306]],[[50.5987784,26.1356007],[50.5937386,26.1400242]],[[50.5804516,26.1032049],[50.6026846,26.1103053],[50.6083324,26.0995834],[50.5804516,26.1032049]],[[50.648735,26.2458973],[50.6572762,26.2433472],[50.6633613,26.2466526]],[[50.4858932,26.1551876],[50.461083,26.1769901]],[[50.461083,26.1769901],[50.4541283,26.1619759],[50.4638405,26.1341801],[50.4783707,26.1060467],[50.4852715,26.09762],[50.4891281,26.0701828],[50.4876595,26.0626297],[50.4937439,26.0424976],[50.4973461,26.036705],[50.4943187,26.0124619],[50.4999991,26.0079168],[50.5113598,26.0221136],[50.5295564,26.0198512],[50.5377565,26.0333409]],[[50.5328827,26.0628452],[50.5260315,26.0582027],[50.5198975,26.0631809],[50.5182304,26.0692329],[50.5133553,26.0750618],[50.5100594,26.1058254],[50.5087433,26.1116943],[50.5005341,26.1250744],[50.5026627,26.1306133],[50.5198898,26.1304245]],[[50.5151825,26.137413],[50.5020599,26.1407166],[50.4858932,26.1551876]],[[50.597065,26.1767025],[50.5927582,26.1869144],[50.5890465,26.1814823],[50.5897271,26.1731656],[50.597065,26.1767025]],[[50.5676422,26.1868382],[50.5727463,26.201582],[50.5763321,26.204977],[50.5872231,26.2024975],[50.5980988,26.1952019],[50.611702,26.1919403],[50.6144104,26.1955185],[50.614212,26.2024193],[50.6114349,26.2051601],[50.6017303,26.2079391],[50.5975304,26.2163677],[50.6027374,26.2189331],[50.6024399,26.2235413],[50.5935135,26.2289276],[50.5911789,26.2336102],[50.584713,26.2370663],[50.5790749,26.2363548],[50.5711594,26.2302113],[50.5689278,26.221241],[50.5584755,26.2201214]],[[50.5593262,26.1878548],[50.5676422,26.1868382]],[[50.4998818,26.2317828],[50.4798203,26.2294502],[50.4715919,26.2264137],[50.4548798,26.2104607],[50.4546165,26.2042713],[50.4616928,26.1983585],[50.4622078,26.179039],[50.461083,26.1769901]],[[50.4858932,26.1551876],[50.4883652,26.1580753],[50.4863243,26.1640224],[50.4885292,26.1705608],[50.4929581,26.1749668],[50.5060844,26.1808529]],[[50.5533104,26.1404839],[50.5471611,26.1488934],[50.5543137,26.1580944],[50.5541115,26.1665897],[50.5471764,26.1786671],[50.5527611,26.1810112],[50.5588417,26.1747856],[50.5691414,26.1723957],[50.5782204,26.1666279],[50.5920334,26.1541061],[50.5885887,26.1468391],[50.5937386,26.1400242]],[[50.6024784,26.1421012],[50.5990219,26.145855],[50.6000557,26.1557159],[50.5862656,26.1633873],[50.5738983,26.1767712],[50.5720329,26.1830196],[50.5676422,26.1868382]]],"bbox":[50.4541283,25.9829168,50.6633613,26.2825966]}