{"type":"Topology","objects":{"foo":{"type":"GeometryCollection","geometries":[{"type":"Polygon","arcs":[[0,1,2]],"properties":{"name":"Los Andes","gaul_code":40486,"targetarea":1.2356715,"totpop":62694.3554218,"country_id":"BOL","targetpop":0,"totalarea":1678.3827461,"new_mean":0.0090989}},{"type":"Polygon","arcs":[[3]],"properties":{"name":"German Busch","gaul_code":40527,"targetarea":7.6152782,"totpop":48536.194966,"country_id":"BOL","targetpop":5951.6274719,"totalarea":20114.2511712,"new_mean":0.024005}},{"type":"Polygon","arcs":[[4]],"properties":{"name":"Vaca Diez","gaul_code":6147,"targetarea":26.2489721,"totpop":127544.962699,"country_id":"BOL","targetpop":18974.9099121,"totalarea":16739.6507806,"new_mean":0.0247783}},{"type":"Polygon","arcs":[[5]],"properties":{"name":"Tiraque","gaul_code":40478,"targetarea":7.79967,"totpop":42205.8056545,"country_id":"BOL","targetpop":7979.4092712,"totalarea":2370.3473695,"new_mean":0.0214521}},{"type":"Polygon","arcs":[[6]],"properties":{"name":"Pantaleon Dalence","gaul_code":40497,"targetarea":6.8545855,"totpop":40203.5666844,"country_id":"BOL","targetpop":6418.5085754,"totalarea":1115.5774394,"new_mean":0.0089222}},{"type":"MultiPolygon","arcs":[[[7,8]],[[9]]],"properties":{"name":"Warnes","gaul_code":40535,"targetarea":63.2633917,"totpop":138399.699446,"country_id":"BOL","targetpop":46692.8862915,"totalarea":2260.593242,"new_mean":0.0183922}},{"type":"MultiPolygon","arcs":[[[10]],[[11]],[[12]]],"properties":{"name":"Obispo Santiesteban","gaul_code":40532,"targetarea":84.8349599,"totpop":225587.50373,"country_id":"BOL","targetpop":93611.6868286,"totalarea":6029.6480091,"new_mean":0.019791}},{"type":"Polygon","arcs":[[13]],"properties":{"name":"Caranavi","gaul_code":40480,"targetarea":8.1296689,"totpop":71333.4274921,"country_id":"BOL","targetpop":6550.3752747,"totalarea":2682.5424445,"new_mean":0.0261479}},{"type":"MultiPolygon","arcs":[[[14]],[[15]]],"properties":{"name":"Manco Kapac","gaul_code":6183,"targetarea":11.3386377,"totpop":30949.7644331,"country_id":"BOL","targetpop":11307.7007446,"totalarea":250.2517003,"new_mean":0.0163448}},{"type":"Polygon","arcs":[[16]],"properties":{"name":"Modesto Omiste","gaul_code":40516,"targetarea":9.3607057,"totpop":52663.7551627,"country_id":"BOL","targetpop":11904.6638794,"totalarea":2230.688974,"new_mean":0.0073683}},{"type":"Polygon","arcs":[[17]],"properties":{"name":"Cercado","gaul_code":40538,"targetarea":114.5544452,"totpop":252122.977305,"country_id":"BOL","targetpop":155351.240082,"totalarea":2107.4040837,"new_mean":0.0124298}},{"type":"MultiPolygon","arcs":[[[18]],[[19]]],"properties":{"name":"Oropeza","gaul_code":40458,"targetarea":111.4417673,"totpop":315670.469789,"country_id":"BOL","targetpop":148543.931564,"totalarea":3597.9872895,"new_mean":0.0170669}},{"type":"Polygon","arcs":[[20]],"properties":{"name":"Omasuyos","gaul_code":6187,"targetarea":5.9770298,"totpop":93020.4592493,"country_id":"BOL","targetpop":5242.3453674,"totalarea":2137.7791833,"new_mean":0.0128732}},{"type":"Polygon","arcs":[[21]],"properties":{"name":"Gran Chaco","gaul_code":40539,"targetarea":16.4429701,"totpop":175854.456099,"country_id":"BOL","targetpop":10175.8304443,"totalarea":18256.9071151,"new_mean":0.0195636}},{"type":"MultiPolygon","arcs":[[[22]],[[23]]],"properties":{"name":"Rafael Bustillo","gaul_code":40519,"targetarea":22.9470289,"totpop":93032.5469873,"country_id":"BOL","targetpop":21842.6206055,"totalarea":2136.8955568,"new_mean":0.0104266}},{"type":"Polygon","arcs":[[24,25,26,27]],"properties":{"name":"Chapare","gaul_code":40471,"targetarea":80.4826062,"totpop":240929.132161,"country_id":"BOL","targetpop":84954.3885193,"totalarea":12357.8819171,"new_mean":0.0225952}},{"type":"Polygon","arcs":[[28]],"properties":{"name":"Nicolas Suarez","gaul_code":40506,"targetarea":32.3090558,"totpop":93776.9679732,"country_id":"BOL","targetpop":44284.5937195,"totalarea":8980.3045125,"new_mean":0.0246042}},{"type":"Polygon","arcs":[[29]],"properties":{"name":"Aniceto Arce","gaul_code":40536,"targetarea":11.9764835,"totpop":53487.9516013,"country_id":"BOL","targetpop":10176.3857727,"totalarea":4746.6515515,"new_mean":0.0198576}},{"type":"MultiPolygon","arcs":[[[30]],[[31,32,33,34]]],"properties":{"name":"Quillacollo","gaul_code":40476,"targetarea":208.6298762,"totpop":392689.145306,"country_id":"BOL","targetpop":276633.901306,"totalarea":1780.5008343,"new_mean":0.0138291}},{"type":"MultiPolygon","arcs":[[[35,36]],[[37,-1,38,39,40,41,42]],[[43]]],"properties":{"name":"Murillo","gaul_code":6185,"targetarea":468.6106132,"totpop":1834153.3395,"country_id":"BOL","targetpop":1584033.94214,"totalarea":4727.4598743,"new_mean":0.0134712}},{"type":"MultiPolygon","arcs":[[[44]],[[45,-25]]],"properties":{"name":"Punata","gaul_code":40475,"targetarea":20.1616507,"totpop":75416.1018038,"country_id":"BOL","targetpop":12184.4052734,"totalarea":516.3056049,"new_mean":0.0103387}},{"type":"Polygon","arcs":[[46]],"properties":{"name":"Tomas Frias","gaul_code":40522,"targetarea":73.4370784,"totpop":257310.647686,"country_id":"BOL","targetpop":136129.942902,"totalarea":4378.7592024,"new_mean":0.0112338}},{"type":"Polygon","arcs":[[46]],"properties":{"name":"Tomas Frias","gaul_code":40522,"targetarea":73.4370784,"totpop":257310.647686,"country_id":"BOL","targetpop":136129.942902,"totalarea":4378.7592024,"new_mean":0.011368}},{"type":"Polygon","arcs":[[47]],"properties":{"name":"Cercado","gaul_code":6141,"targetarea":59.8460345,"totpop":136100.190643,"country_id":"BOL","targetpop":61482.7866211,"totalarea":12703.9394576,"new_mean":0.0235691}},{"type":"MultiPolygon","arcs":[[[-41,48]],[[-39,-3,49]]],"properties":{"name":"Ingavi","gaul_code":40483,"targetarea":56.4734435,"totpop":199464.161442,"country_id":"BOL","targetpop":59811.5137634,"totalarea":4523.9717846,"new_mean":0.0080639}},{"type":"MultiPolygon","arcs":[[[50]],[[51]],[[52]],[[53]],[[54,-9]]],"properties":{"name":"Andres Ibanez","gaul_code":40523,"targetarea":741.9859853,"totpop":2064941.156,"country_id":"BOL","targetpop":1748371.81882,"totalarea":4936.1847079,"new_mean":0.019534}},{"type":"MultiPolygon","arcs":[[[55]],[[56]]],"properties":{"name":"Cercado","gaul_code":40492,"targetarea":166.7698836,"totpop":372603.579813,"country_id":"BOL","targetpop":295966.550842,"totalarea":5149.0795696,"new_mean":0.0076789}},{"type":"Polygon","arcs":[[57]],"properties":{"name":"Cordillera","gaul_code":40525,"targetarea":13.2669898,"totpop":137864.323968,"country_id":"BOL","targetpop":9397.3857422,"totalarea":84632.6802629,"new_mean":0.0193635}},{"type":"Polygon","arcs":[[58]],"properties":{"name":"German Jordan","gaul_code":40473,"targetarea":8.0431794,"totpop":39695.5089393,"country_id":"BOL","targetpop":5814.3700256,"totalarea":195.9762483,"new_mean":0.0081134}},{"type":"Polygon","arcs":[[59,-33,60]],"properties":{"name":"Capinota","gaul_code":40468,"targetarea":13.2575991,"totpop":55520.9688756,"country_id":"BOL","targetpop":15288.6106262,"totalarea":978.1352106,"new_mean":0.0129929}},{"type":"Polygon","arcs":[[61,-34,-60,62,-27]],"properties":{"name":"Cercado","gaul_code":40470,"targetarea":267.979647,"totpop":826383.829098,"country_id":"BOL","targetpop":802987.117767,"totalarea":370.9585379,"new_mean":0.0155766}}]}},"arcs":[[[-68.2965088,-16.4923096],[-68.2776984,-16.4607763]],[[-68.2776984,-16.4607763],[-68.29738,-16.4828057],[-68.2968085,-16.4923743]],[[-68.2968085,-16.4923743],[-68.2965088,-16.4923096]],[[-57.7084693,-19.0316461],[-57.711703,-18.9814222],[-57.7363612,-19.0106052],[-57.7084693,-19.0316461]],[[-66.0268559,-10.9902602],[-66.0833338,-10.9972833],[-66.0953699,-11.015073],[-66.0333338,-11.0420831],[-66.0268559,-10.9902602]],[[-65.2105034,-16.988556],[-65.2451258,-16.9754733],[-65.2781743,-16.9885918],[-65.2105877,-16.9919704],[-65.2105034,-16.988556]],[[-66.8198409,-18.2785902],[-66.8604008,-18.2647718],[-66.844019,-18.2881035],[-66.8198409,-18.2785902]],[[-63.1402486,-17.625651],[-63.1127365,-17.6081475],[-63.144963,-17.5733575],[-63.1448084,-17.4999281],[-63.1872645,-17.4846937],[-63.1794031,-17.5381524],[-63.1701014,-17.5464613],[-63.1700526,-17.6218112],[-63.1745539,-17.6300937]],[[-63.1745539,-17.6300937],[-63.1402486,-17.625651]],[[-63.1683029,-17.4452813],[-63.1857101,-17.4392836],[-63.1944666,-17.454819],[-63.1750005,-17.4587497],[-63.1683029,-17.4452813]],[[-63.2000005,-17.4087497],[-63.1994076,-17.4108578],[-63.1978449,-17.409356],[-63.2000005,-17.4087497]],[[-63.2431238,-17.2770847],[-63.272966,-17.2869886],[-63.2973149,-17.3185316],[-63.2848312,-17.3613539],[-63.2250005,-17.3837497],[-63.211825,-17.3633396],[-63.2141525,-17.3475681],[-63.1972986,-17.3196221],[-63.2160242,-17.322389],[-63.2431238,-17.2770847]],[[-63.2139409,-17.1079929],[-63.2508712,-17.0970879],[-63.2427495,-17.1293226],[-63.2250005,-17.1337497],[-63.2139409,-17.1079929]],[[-67.542074,-15.8315362],[-67.5817957,-15.8220147],[-67.5769861,-15.8434909],[-67.5500004,-15.8504164],[-67.542074,-15.8315362]],[[-69.079834,-16.158535],[-69.0843052,-16.1589362],[-69.090754,-16.1651453],[-69.0877232,-16.171777],[-69.079834,-16.158535]],[[-68.9470563,-16.1763263],[-68.9828292,-16.1550469],[-68.9697993,-16.1889437],[-68.9539963,-16.1955184],[-68.9433583,-16.178526],[-68.9470563,-16.1763263]],[[-65.5856535,-22.0895024],[-65.5847579,-22.0639092],[-65.6180506,-22.074277],[-65.6111008,-22.0965812],[-65.5856535,-22.0895024]],[[-64.7565102,-21.4813898],[-64.7719243,-21.5013604],[-64.7690516,-21.5208265],[-64.7869634,-21.546388],[-64.72863,-21.5790459],[-64.7213709,-21.6051201],[-64.7071212,-21.596388],[-64.6605962,-21.5834323],[-64.6463709,-21.559653],[-64.6728276,-21.5392266],[-64.7119634,-21.4873793],[-64.7456059,-21.4672621],[-64.7508012,-21.473993],[-64.7565102,-21.4813898]],[[-65.2083338,-19.092083],[-65.2155929,-19.0493422],[-65.2304936,-18.9850355],[-65.2620773,-18.9896986],[-65.270549,-18.9787204],[-65.3001469,-18.9903578],[-65.3253341,-18.9866387],[-65.3196619,-19.0250013],[-65.30363,-19.0373793],[-65.2956954,-19.0658705],[-65.2713709,-19.0884535],[-65.2083338,-19.092083]],[[-65.1288742,-18.9389418],[-65.1531743,-18.9549004],[-65.1166671,-18.9587497],[-65.1288742,-18.9389418]],[[-68.6777999,-16.0365492],[-68.70127,-16.0309502],[-68.6890792,-16.0559095],[-68.6777999,-16.0365492]],[[-63.6531336,-21.9650241],[-63.690007,-21.9941745],[-63.6618172,-22.003246],[-63.6531336,-21.9650241]],[[-66.5622075,-18.4556084],[-66.5865076,-18.4715671],[-66.5500005,-18.4754164],[-66.5622075,-18.4556084]],[[-66.5800053,-18.4370782],[-66.5489832,-18.4293389],[-66.5550704,-18.4051608],[-66.5926844,-18.3970879],[-66.6033289,-18.4370944],[-66.5800053,-18.4370782]],[[-65.922229,-17.4305253],[-65.9082217,-17.4132807]],[[-65.9082217,-17.4132807],[-65.9462977,-17.4050469],[-65.9747645,-17.388307],[-66.0129643,-17.3800469],[-66.0287033,-17.3707858],[-66.065987,-17.3630573]],[[-66.065987,-17.3630573],[-66.0707782,-17.4286146]],[[-66.0707782,-17.4286146],[-66.0621261,-17.4394219],[-66.0201095,-17.4395603],[-66.0218185,-17.4258314],[-65.9871993,-17.4301364],[-65.970199,-17.4201429],[-65.922229,-17.4305253]],[[-68.7540512,-11.003521],[-68.7812993,-11.0036553],[-68.8013676,-11.0296482],[-68.7952153,-11.0712497],[-68.7975183,-11.0868422],[-68.7666671,-11.0920831],[-68.7736053,-11.0592966],[-68.7584915,-11.0269136],[-68.7540512,-11.003521]],[[-64.3412827,-22.7462327],[-64.3166671,-22.7504164],[-64.3137537,-22.725278],[-64.3523117,-22.7134535],[-64.356434,-22.7259526],[-64.3412827,-22.7462327]],[[-66.3333338,-17.4337497],[-66.3675867,-17.4523614],[-66.3368738,-17.473569],[-66.3333338,-17.4337497]],[[-66.3333338,-17.4337497],[-66.3126632,-17.4204196],[-66.2761967,-17.4385105],[-66.2544143,-17.4647786]],[[-66.2544143,-17.4647786],[-66.2422333,-17.4443226]],[[-66.2422333,-17.4443226],[-66.23172,-17.4045715],[-66.1928879,-17.3140324]],[[-66.1928879,-17.3140324],[-66.2848068,-17.3006524],[-66.3027104,-17.3038018],[-66.3605148,-17.3760756],[-66.3750737,-17.4139662],[-66.345435,-17.4123467],[-66.3333338,-17.4337497]],[[-68.0500004,-16.4587497],[-68.0130376,-16.4403497],[-68.0434575,-16.4278985],[-68.0583338,-16.4337497]],[[-68.0583338,-16.4337497],[-68.0500004,-16.4587497]],[[-68.0583338,-16.4337497],[-68.071965,-16.3964857],[-68.0872644,-16.4298191],[-68.1185551,-16.4460137],[-68.0813807,-16.3927992],[-68.1174565,-16.3798191],[-68.1289311,-16.4048191],[-68.1802495,-16.4312595],[-68.2126876,-16.4293226],[-68.2289311,-16.4381524],[-68.2649744,-16.4465345],[-68.2776984,-16.4607763]],[[-68.2965088,-16.4923096],[-68.2761066,-16.5296485]],[[-68.2761066,-16.5296485],[-68.2529464,-16.5299004],[-68.2546648,-16.5587371]],[[-68.2546648,-16.5587371],[-68.2066879,-16.6120968],[-68.1813751,-16.6546001]],[[-68.1813751,-16.6546001],[-68.1710698,-16.6376804],[-68.1210698,-16.6253757],[-68.1719731,-16.5778171],[-68.1702641,-16.5492526],[-68.1158777,-16.5381524],[-68.1044031,-16.5631524],[-68.073031,-16.5960137],[-68.0624923,-16.5618829],[-68.0148116,-16.5399997],[-68.0298751,-16.5122816],[-68.0307052,-16.4631524],[-68.0500004,-16.4837497],[-68.0500004,-16.4587497]],[[-68.0500004,-16.4587497],[-68.0666671,-16.4587497],[-68.0583338,-16.4337497]],[[-68.1500004,-16.3504164],[-68.1432459,-16.3368259],[-68.1691736,-16.3309502],[-68.1777999,-16.3469089],[-68.1500004,-16.3504164]],[[-65.8138107,-17.5321058],[-65.8586674,-17.5220147],[-65.8519861,-17.5518243],[-65.8250005,-17.5587497],[-65.8138107,-17.5321058]],[[-65.922229,-17.4305253],[-65.8986902,-17.4541192],[-65.8934982,-17.4164646],[-65.9082217,-17.4132807]],[[-65.7158696,-19.54367],[-65.7458338,-19.548097],[-65.7677902,-19.54485],[-65.7901779,-19.562127],[-65.7975509,-19.6120456],[-65.7678471,-19.6106296],[-65.7463709,-19.6384535],[-65.7250005,-19.642083],[-65.7176193,-19.5971612],[-65.722616,-19.5633395],[-65.7158696,-19.54367]],[[-64.8567225,-14.805698],[-64.8799321,-14.7970147],[-64.9045903,-14.7779066],[-64.9117355,-14.7970147],[-64.9365646,-14.8212497],[-64.9422938,-14.8468112],[-64.9192225,-14.8627374],[-64.8916671,-14.8670831],[-64.8780522,-14.8473646],[-64.8514897,-14.8290215],[-64.8567225,-14.805698]],[[-68.2546648,-16.5587371],[-68.2556971,-16.5760593],[-68.2831792,-16.6266371],[-68.2973719,-16.6376804],[-68.3191411,-16.6133151],[-68.3289311,-16.6524509],[-68.2863693,-16.6710137],[-68.2710698,-16.6376804],[-68.2445887,-16.6122491],[-68.2177902,-16.6138441],[-68.1813751,-16.6546001]],[[-68.2968085,-16.4923743],[-68.2955164,-16.5308038],[-68.2761066,-16.5296485]],[[-62.943254,-17.9582533],[-62.9822108,-17.9281833],[-63.0008957,-17.9309502],[-62.9768234,-17.9708591],[-62.9500005,-17.9754164],[-62.943254,-17.9582533]],[[-63.368018,-17.9935886],[-63.3379887,-17.9336114],[-63.3582199,-17.9216322],[-63.3709966,-17.9651706],[-63.387883,-17.9792006],[-63.412118,-18.023683],[-63.4000005,-18.0337497],[-63.368018,-17.9935886]],[[-62.9416671,-17.9004164],[-62.9250005,-17.9075697],[-62.9133387,-17.8637383],[-62.9333338,-17.8587497],[-62.9602055,-17.871087],[-62.9691248,-17.8879164],[-62.9416671,-17.9004164]],[[-62.775775,-17.6643714],[-62.7787033,-17.6541192],[-62.8114507,-17.6278985],[-62.8496587,-17.6326511],[-62.8337407,-17.6597344],[-62.7760198,-17.6669555],[-62.775775,-17.6643714]],[[-63.1745539,-17.6300937],[-63.1882085,-17.6552178],[-63.1872401,-17.6714613],[-63.2044764,-17.6868666],[-63.2030604,-17.710711],[-63.2235926,-17.7728529],[-63.27509,-17.8237237],[-63.2893966,-17.8700371],[-63.3455978,-17.8831149],[-63.3377283,-17.9131768],[-63.2456222,-17.9131768],[-63.2298426,-17.8955173],[-63.2126876,-17.9048435],[-63.1823491,-17.9030368],[-63.1127365,-17.929819],[-63.0750005,-17.9337497],[-63.0710617,-17.9209893],[-63.0497807,-17.9222588],[-63.0343104,-17.8885593],[-62.9899256,-17.9126804],[-62.9853032,-17.884531],[-63.0122645,-17.854347],[-63.0491378,-17.8308933],[-63.0450607,-17.7623793],[-63.0573165,-17.6706963],[-63.094784,-17.6729261],[-63.1402486,-17.625651]],[[-67.1202641,-17.8879978],[-67.1705164,-17.9174899],[-67.1454106,-17.9296644],[-67.1779627,-17.9609388],[-67.1540857,-17.9961683],[-67.1458989,-18.0297458],[-67.1138839,-18.01325],[-67.0549972,-18.0032077],[-67.0250005,-18.0337497],[-67.030339,-17.99721],[-67.0125818,-17.9801527],[-67.0560551,-17.9206556],[-67.0877446,-17.9043308],[-67.1042485,-17.9046726],[-67.1202641,-17.8879978]],[[-67.0421228,-17.8802992],[-67.0539311,-17.9023858],[-67.0333338,-17.9087497],[-67.0421228,-17.8802992]],[[-63.5066655,-20.0349379],[-63.5312016,-20.005348],[-63.5450688,-20.051458],[-63.5166671,-20.0587497],[-63.5066655,-20.0349379]],[[-65.9166671,-17.5837497],[-65.947201,-17.5865492],[-65.9265141,-17.6032159],[-65.9166671,-17.5837497]],[[-66.1672389,-17.5038375],[-66.1845245,-17.4942989],[-66.2422333,-17.4443226]],[[-66.2544143,-17.4647786],[-66.2079432,-17.4843601],[-66.1764409,-17.5073744],[-66.1672389,-17.5038375]],[[-66.065987,-17.3630573],[-66.1119715,-17.3535251],[-66.159351,-17.3189141],[-66.1928879,-17.3140324]],[[-66.1672389,-17.5038375],[-66.1419926,-17.4941338],[-66.1165532,-17.4972995],[-66.0845502,-17.4838161],[-66.0826886,-17.4807775],[-66.0889653,-17.4302829],[-66.0707782,-17.4286146]]],"bbox":[-69.090754,-22.7504164,-57.7084693,-10.9902602]}