{"type":"Topology","objects":{"foo":{"type":"GeometryCollection","geometries":[{"type":"MultiPolygon","arcs":[[[0,1,2]],[[3,4,5]]],"properties":{"name":"Pangkalan Batu","gaul_code":61112,"targetarea":1.490494,"totpop":13030.8379402,"country_id":"BRN","targetpop":623.9314575,"new_mean":0.0559421,"totalarea":73.3590443}},{"type":"Polygon","arcs":[[6]],"properties":{"name":"Pekan Tutong","gaul_code":61128,"targetarea":4.2019237,"totpop":12711.6828799,"country_id":"BRN","targetpop":3890.9104309,"new_mean":0.0563185,"totalarea":75.7590355}},{"type":"MultiPolygon","arcs":[[[7,8]],[[9,10,11,12,13]],[[14,15]]],"properties":{"name":"Kota Batu","gaul_code":61109,"targetarea":14.5834554,"totpop":22165.5850906,"country_id":"BRN","targetpop":13624.799408,"new_mean":0.0619841,"totalarea":57.0403818}},{"type":"Polygon","arcs":[[16,-4,17,18,19,20,21,22,23,24]],"properties":{"name":"Sengkurong","gaul_code":61115,"targetarea":30.864556,"totpop":35313.414875,"country_id":"BRN","targetpop":23348.6420593,"new_mean":0.0558489,"totalarea":77.4495462}},{"type":"MultiPolygon","arcs":[[[25]],[[26]]],"properties":{"name":"Serasa","gaul_code":61116,"targetarea":5.3161125,"totpop":13283.2400513,"country_id":"BRN","targetpop":3280.9772949,"new_mean":0.0642706,"totalarea":44.079798}},{"type":"Polygon","arcs":[[27,28,29,-16,30]],"properties":{"name":"Berakas B","gaul_code":61104,"targetarea":30.5959722,"totpop":44414.2514648,"country_id":"BRN","targetpop":44163.3855591,"new_mean":0.062256,"totalarea":31.6319452}},{"type":"Polygon","arcs":[[31,32]],"properties":{"name":"Seria","gaul_code":61101,"targetarea":1.5946039,"totpop":14474.4943178,"country_id":"BRN","targetpop":1148.4076233,"new_mean":0.0564066,"totalarea":144.2385768}},{"type":"Polygon","arcs":[[33,34,35,36,37,38,39,40,41,42,43,-11,44]],"properties":{"name":"Kianggeh","gaul_code":61107,"targetarea":14.448154,"totpop":18542.4220428,"country_id":"BRN","targetpop":17502.1641235,"new_mean":0.060088,"totalarea":18.1009856}},{"type":"Polygon","arcs":[[45]],"properties":{"name":"Bangar","gaul_code":61121,"targetarea":0.7881466,"totpop":6407.8063915,"country_id":"BRN","targetpop":624.3744507,"new_mean":0.0651289,"totalarea":101.1246945}},{"type":"Polygon","arcs":[[46,-18,-6,47,-1,48,49,50,51,-36,52,53]],"properties":{"name":"Kilanas","gaul_code":61108,"targetarea":26.873503,"totpop":28764.6701202,"country_id":"BRN","targetpop":26189.723999,"new_mean":0.0565535,"totalarea":34.7292704}},{"type":"Polygon","arcs":[[54]],"properties":{"name":"Telisai","gaul_code":61131,"targetarea":0.5828587,"totpop":8541.4500126,"country_id":"BRN","targetpop":542.3620605,"new_mean":0.0559314,"totalarea":71.9335744}},{"type":"MultiPolygon","arcs":[[[55]],[[56,57,-28]]],"properties":{"name":"Mentiri","gaul_code":61111,"targetarea":11.6906478,"totpop":24286.7071571,"country_id":"BRN","targetpop":13960.71698,"new_mean":0.0630631,"totalarea":43.963049}},{"type":"MultiPolygon","arcs":[[[58]],[[59,-33,60]]],"properties":{"name":"Kuala Belait","gaul_code":61097,"targetarea":28.6436421,"totpop":34820.4036473,"country_id":"BRN","targetpop":26501.2874146,"new_mean":0.0593042,"totalarea":93.4688391}},{"type":"Polygon","arcs":[[-58,61,62,-34,63,-29],[64]],"properties":{"name":"Berakas A","gaul_code":61103,"targetarea":36.8518183,"totpop":41787.3059692,"country_id":"BRN","targetpop":33800.046936,"new_mean":0.0642076,"totalarea":56.6088256}},{"type":"MultiPolygon","arcs":[[[-23,65]],[[66,-25,67,-21,68,-19,-47,69,-53,-35,-63]]],"properties":{"name":"Gadong","gaul_code":61106,"targetarea":52.6597939,"totpop":64971.8184433,"country_id":"BRN","targetpop":56539.3408661,"new_mean":0.0636083,"totalarea":72.7130422}},{"type":"MultiPolygon","arcs":[[[-49,-3,70]],[[71,-51]],[[72]],[[73,-38,74,75]]],"properties":{"name":"Lumapas","gaul_code":61110,"targetarea":3.1275838,"totpop":10901.2563257,"country_id":"BRN","targetpop":4535.2557068,"new_mean":0.0609146,"totalarea":43.5645698}},{"type":"Polygon","arcs":[[-43,76,77]],"properties":{"name":"Saba","gaul_code":61114,"targetarea":0.1886355,"totpop":0,"country_id":"BRN","targetpop":0,"new_mean":0,"totalarea":0.1886355}},{"type":"Polygon","arcs":[[-41,78,79]],"properties":{"name":"Sungai Kedayan","gaul_code":61118,"targetarea":0.2916469,"totpop":2049.4631348,"country_id":"BRN","targetpop":0,"new_mean":0,"totalarea":0.2916469}},{"type":"Polygon","arcs":[[-78,80,81,-76,82,-12,-44]],"properties":{"name":"Sungai Kebun","gaul_code":61117,"targetarea":0.6099959,"totpop":8114.597168,"country_id":"BRN","targetpop":0,"new_mean":0,"totalarea":0.8208671}},{"type":"Polygon","arcs":[[-77,-42,83,-81]],"properties":{"name":"Peramu","gaul_code":61113,"targetarea":0.2594198,"totpop":0,"country_id":"BRN","targetpop":0,"new_mean":0,"totalarea":0.2594199}},{"type":"Polygon","arcs":[[-80,84,-39,-74,-82,-84]],"properties":{"name":"Burong Pingai Ayer","gaul_code":61105,"targetarea":0.646434,"totpop":4036.6655273,"country_id":"BRN","targetpop":0,"new_mean":0,"totalarea":0.646434}},{"type":"Polygon","arcs":[[-79,-40,-85]],"properties":{"name":"Tamoi","gaul_code":61119,"targetarea":0.3102872,"totpop":0,"country_id":"BRN","targetpop":0,"new_mean":0,"totalarea":0.3102872}}]}},"arcs":[[[114.8576431,4.8147831],[114.8481702,4.8228885]],[[114.8481702,4.8228885],[114.8376616,4.8131496],[114.8600731,4.8097265]],[[114.8600731,4.8097265],[114.8576431,4.8147831]],[[114.8420639,4.851274],[114.8399853,4.8509748]],[[114.8399853,4.8509748],[114.8423269,4.8504169]],[[114.8423269,4.8504169],[114.8420639,4.851274]],[[114.6416655,4.8079169],[114.6454741,4.7891302],[114.6772449,4.8046535],[114.6416655,4.8079169]],[[114.9499988,4.8579169],[114.9570301,4.8469468],[114.9699207,4.8588324],[114.9583322,4.8662502]],[[114.9583322,4.8662502],[114.9583322,4.8579169],[114.9499988,4.8579169]],[[114.9583322,4.8662502],[114.9851876,4.9033474],[114.9707019,4.9039211],[114.9541004,4.8951442],[114.9517783,4.8976552]],[[114.9517783,4.8976552],[114.9461517,4.8888731],[114.940361,4.8672318]],[[114.940361,4.8672318],[114.94068,4.859867]],[[114.94068,4.859867],[114.9499988,4.8579169]],[[114.9499988,4.8579169],[114.9499988,4.8662502],[114.9583322,4.8662502]],[[114.9782844,4.9252034],[114.9950835,4.9305202],[114.9956043,4.9438524]],[[114.9956043,4.9438524],[114.9902267,4.9362602],[114.9782844,4.9252034]],[[114.8512459,4.9700934],[114.8289751,4.9528449],[114.8283517,4.9370835],[114.8305978,4.8797837],[114.8126616,4.8631496],[114.8290027,4.8535915],[114.8399853,4.8509748]],[[114.8420639,4.851274],[114.8499603,4.8528428],[114.8454361,4.8598242],[114.8469086,4.877027],[114.8433533,4.878819],[114.8457794,4.891695],[114.8562851,4.8949361]],[[114.8562851,4.8949361],[114.848877,4.9166198],[114.8507654,4.9188481]],[[114.8507654,4.9188481],[114.8511534,4.9193059]],[[114.8511534,4.9193059],[114.8530671,4.9288906]],[[114.8530671,4.9288906],[114.8459949,4.9311306],[114.8513737,4.9408237]],[[114.8513737,4.9408237],[114.8465576,4.9494061],[114.8601922,4.9567154]],[[114.8601922,4.9567154],[114.8603864,4.9570655]],[[114.8603864,4.9570655],[114.8512459,4.9700934]],[[115.0640717,5.021656],[115.0713576,5.0274968],[115.0701549,5.0361516],[115.054491,5.0057644],[115.0643231,5.0028011],[115.0737546,5.0091216],[115.0723016,5.0202597],[115.0640717,5.021656]],[[115.047591,5.0447864],[115.0230457,5.0363186],[115.0499988,5.0329169],[115.047591,5.0447864]],[[114.9957065,4.9464684],[114.9896698,4.9690108],[114.9790344,4.973527],[114.9655838,4.9884362]],[[114.9655838,4.9884362],[114.9613419,4.9790421],[114.9474335,4.9689751],[114.9440384,4.961287],[114.9407806,4.9458418],[114.9347382,4.9390669],[114.9479599,4.9379482],[114.9499817,4.9224],[114.9483899,4.9157418]],[[114.9483899,4.9157418],[114.9782844,4.9252034]],[[114.9956043,4.9438524],[114.9957065,4.9464684]],[[114.2636954,4.5899626],[114.2621733,4.6021145],[114.2421497,4.597736]],[[114.2421497,4.597736],[114.2636954,4.5899626]],[[114.943378,4.90633],[114.9272842,4.911643],[114.9212418,4.9048681],[114.9150772,4.9049878]],[[114.9150772,4.9049878],[114.9223337,4.8840362],[114.9156723,4.8782675],[114.9067688,4.8758569],[114.9006958,4.8708062]],[[114.9006958,4.8708062],[114.9111308,4.8549285]],[[114.9111308,4.8549285],[114.9176108,4.8598979]],[[114.9176108,4.8598979],[114.9223404,4.866076]],[[114.9223404,4.866076],[114.9230804,4.8674612]],[[114.9230804,4.8674612],[114.9271622,4.8765898],[114.9264603,4.8823652]],[[114.9264603,4.8823652],[114.931221,4.8740869]],[[114.931221,4.8740869],[114.9361572,4.8750682]],[[114.9361572,4.8750682],[114.9405289,4.8699212]],[[114.9405289,4.8699212],[114.940361,4.8672318]],[[114.9517783,4.8976552],[114.943378,4.90633]],[[115.0231832,4.7531833],[115.0370105,4.7720526],[115.0307832,4.771552],[115.0231832,4.7531833]],[[114.8745649,4.8660444],[114.8707047,4.8748388],[114.8581924,4.8862829],[114.8562851,4.8949361]],[[114.8423269,4.8504169],[114.8706043,4.8436794],[114.8481702,4.8228885]],[[114.8576431,4.8147831],[114.8583908,4.8225231],[114.866272,4.824954],[114.8725528,4.8226095]],[[114.8725528,4.8226095],[114.8802505,4.8309149]],[[114.8802505,4.8309149],[114.8801804,4.835021],[114.8932452,4.8412123]],[[114.8932452,4.8412123],[114.8944208,4.8421138],[114.9019821,4.8479125],[114.9111308,4.8549285]],[[114.9006958,4.8708062],[114.8981083,4.8708572]],[[114.8981083,4.8708572],[114.8916655,4.8579169],[114.8721993,4.8618475],[114.8745649,4.8660444]],[[114.5638009,4.7430772],[114.5565092,4.7357692],[114.5666655,4.7329169],[114.5638009,4.7430772]],[[115.0326811,4.9774359],[115.0130197,4.9671494],[115.0249988,4.9579169],[115.0326811,4.9774359]],[[114.9957065,4.9464684],[114.9965809,4.9688503],[114.9873361,4.9952907],[114.9882801,5.0189886],[114.9777081,5.0091973]],[[114.9777081,5.0091973],[114.9742203,4.997745],[114.9655838,4.9884362]],[[114.2666655,4.5662502],[114.2695301,4.5560899],[114.2768217,4.5633978],[114.2666655,4.5662502]],[[114.2666655,4.5662502],[114.2636954,4.5899626]],[[114.2421497,4.597736],[114.234108,4.5957079],[114.1772766,4.5891418],[114.1635,4.5904595],[114.2077137,4.5550645],[114.2166655,4.5662502],[114.2065092,4.5691026],[114.2138009,4.5764105],[114.2166655,4.5662502],[114.2459298,4.5710557],[114.2666655,4.5662502]],[[114.9777081,5.0091973],[114.9540027,4.9872422],[114.9459949,4.9785793],[114.9135079,4.9779649],[114.8951071,4.9877078],[114.8763837,4.9772964]],[[114.8763837,4.9772964],[114.8867187,4.9684372],[114.9103699,4.9748678],[114.9219284,4.9677491],[114.9066391,4.935308],[114.8996582,4.9319978],[114.9006805,4.9233632],[114.9140625,4.9127622],[114.9150772,4.9049878]],[[114.943378,4.90633],[114.9370756,4.9121608],[114.9483899,4.9157418]],[[114.9224923,4.9612941],[114.9371407,4.9684963],[114.9416655,4.9579169],[114.9224923,4.9612941]],[[114.8513737,4.9408237],[114.8601922,4.9567154]],[[114.8763837,4.9772964],[114.8630219,4.9705729],[114.8512459,4.9700934]],[[114.8603864,4.9570655],[114.8677072,4.9702582],[114.8926095,4.949848],[114.8666655,4.9245835],[114.8530671,4.9288906]],[[114.8511534,4.9193059],[114.8825509,4.9125596],[114.8698556,4.904739],[114.8666655,4.8829169],[114.8608387,4.8865098],[114.8507654,4.9188481]],[[114.8745649,4.8660444],[114.8809559,4.877383],[114.8981083,4.8708572]],[[114.8600731,4.8097265],[114.8725528,4.8226095]],[[114.8802505,4.8309149],[114.8932452,4.8412123]],[[114.9138009,4.8430772],[114.9065092,4.8357692],[114.9166655,4.8329169],[114.9138009,4.8430772]],[[114.9304352,4.8687181],[114.9223404,4.866076]],[[114.9176108,4.8598979],[114.9225249,4.8636664],[114.9378333,4.8604628]],[[114.9378333,4.8604628],[114.9304352,4.8687181]],[[114.9361572,4.8750682],[114.937439,4.8707891]],[[114.937439,4.8707891],[114.9405289,4.8699212]],[[114.9264603,4.8823652],[114.9286423,4.8736529]],[[114.9286423,4.8736529],[114.931221,4.8740869]],[[114.937439,4.8707891],[114.9328842,4.8701239]],[[114.9328842,4.8701239],[114.9304352,4.8687181]],[[114.9378333,4.8604628],[114.94068,4.859867]],[[114.931221,4.8740869],[114.9328842,4.8701239]],[[114.9286423,4.8736529],[114.9230804,4.8674612]]],"bbox":[114.1635,4.5550645,115.0737546,5.0447864]}