{"type":"Topology","objects":{"foo":{"type":"GeometryCollection","geometries":[{"type":"Polygon","arcs":[[0,1]],"properties":{"name":"Gelephu","gaul_code":6056,"targetarea":13.4580284,"totpop":14735.2084637,"country_id":"BTN","targetpop":7794.9807739,"new_mean":0.0639464,"totalarea":55.1066796}},{"type":"Polygon","arcs":[[2,3]],"properties":{"name":"Bapisa","gaul_code":6067,"targetarea":0.4487776,"totpop":4418.1078949,"country_id":"BTN","targetpop":0,"new_mean":0.0429356,"totalarea":24.1806013}},{"type":"Polygon","arcs":[[4,5,6,7,8,9,10,11,12,13]],"properties":{"name":"Chang","gaul_code":6068,"targetarea":81.7481612,"totpop":111641.68726,"country_id":"BTN","targetpop":91823.0858459,"new_mean":0.0248143,"totalarea":185.5350864}},{"type":"Polygon","arcs":[[14,-3]],"properties":{"name":"Thedtsho","gaul_code":6131,"targetarea":7.5708655,"totpop":10710.8838882,"country_id":"BTN","targetpop":3976.710907,"new_mean":0.0349861,"totalarea":28.9224325}},{"type":"Polygon","arcs":[[-2,15]],"properties":{"name":"Bhur","gaul_code":6052,"targetarea":1.3738344,"totpop":5275.1290297,"country_id":"BTN","targetpop":894.0080566,"new_mean":0.0712077,"totalarea":57.3877653}},{"type":"Polygon","arcs":[[16]],"properties":{"name":"Hastina pur","gaul_code":6029,"targetarea":2.9996834,"totpop":5870.5994766,"country_id":"BTN","targetpop":1544.7684326,"new_mean":0.0549098,"totalarea":251.6292829}},{"type":"MultiPolygon","arcs":[[[17]],[[18]]],"properties":{"name":"Wangchang","gaul_code":6007,"targetarea":5.0122368,"totpop":10633.8951225,"country_id":"BTN","targetpop":3566.921814,"new_mean":0.0272705,"totalarea":32.427921}},{"type":"Polygon","arcs":[[19,20]],"properties":{"name":"Pagli","gaul_code":6047,"targetarea":0.616567,"totpop":13389.5560608,"country_id":"BTN","targetpop":806.7347412,"new_mean":0.0498466,"totalarea":126.670784}},{"type":"MultiPolygon","arcs":[[[-13,21]],[[-11,22]]],"properties":{"name":"Mewang","gaul_code":6073,"targetarea":0.6901384,"totpop":9056.7010888,"country_id":"BTN","targetpop":0,"new_mean":0.0255856,"totalarea":211.3475051}},{"type":"MultiPolygon","arcs":[[[-9,23]],[[-7,24]],[[-5,25]]],"properties":{"name":"Kawang","gaul_code":6071,"targetarea":1.0348162,"totpop":6953.4424017,"country_id":"BTN","targetpop":1841.6304321,"new_mean":0.0272163,"totalarea":290.0433077}},{"type":"Polygon","arcs":[[26,27]],"properties":{"name":"Phuentsholing","gaul_code":5953,"targetarea":14.050298,"totpop":34442.521101,"country_id":"BTN","targetpop":14202.9457703,"new_mean":0.0583561,"totalarea":138.2593826}},{"type":"Polygon","arcs":[[28,-27]],"properties":{"name":"Tadhing","gaul_code":6050,"targetarea":4.0633035,"totpop":20134.3464785,"country_id":"BTN","targetpop":11324.9871521,"new_mean":0.0581349,"totalarea":105.0907938}},{"type":"Polygon","arcs":[[29]],"properties":{"name":"Bhalujora","gaul_code":5943,"targetarea":0.4536122,"totpop":9927.7327271,"country_id":"BTN","targetpop":219.68396,"new_mean":0.0517652,"totalarea":76.8169891}},{"type":"Polygon","arcs":[[30,-21]],"properties":{"name":"Samtse","gaul_code":6048,"targetarea":0.3007991,"totpop":5064.6023474,"country_id":"BTN","targetpop":0,"new_mean":0.0496831,"totalarea":109.1323299}},{"type":"Polygon","arcs":[[31]],"properties":{"name":"Orong","gaul_code":6032,"targetarea":0.4480119,"totpop":11254.3724461,"country_id":"BTN","targetpop":0,"new_mean":0.0422487,"totalarea":292.7564253}}]}},"arcs":[[[90.4718108,26.8720537],[90.470466,26.8674676],[90.4861145,26.859354],[90.4933108,26.8539645],[90.5025054,26.878449],[90.5086578,26.9283636],[90.4878895,26.9033636],[90.481492,26.898057]],[[90.481492,26.898057],[90.4830627,26.8929138],[90.4838028,26.8848877],[90.4794922,26.8796558],[90.4752274,26.8764534],[90.4718108,26.8720537]],[[89.8958717,27.4685068],[89.8983841,27.468338],[89.902832,27.4712124],[89.9027634,27.4735413],[89.8986565,27.4782381]],[[89.8986565,27.4782381],[89.8958717,27.4685068]],[[89.7083535,27.4732757],[89.707222,27.4688263],[89.7035083,27.4676521]],[[89.7035083,27.4676521],[89.6968294,27.4599003]],[[89.6968294,27.4599003],[89.6944199,27.454525],[89.6914291,27.4523029],[89.6845016,27.4514065],[89.6791,27.4516335],[89.672566,27.4539463]],[[89.672566,27.4539463],[89.6656274,27.4545036]],[[89.6656274,27.4545036],[89.6414795,27.4528141],[89.6329047,27.4528284]],[[89.6329047,27.4528284],[89.5961415,27.4422674],[89.6082918,27.4204845]],[[89.6082918,27.4204845],[89.6152802,27.4172516],[89.6180197,27.4030446]],[[89.6180197,27.4030446],[89.6193197,27.4007139]],[[89.6193197,27.4007139],[89.6270936,27.395949]],[[89.6270936,27.395949],[89.6833323,27.3912501],[89.6871897,27.395726],[89.7044748,27.4034409],[89.730077,27.4215927],[89.7288238,27.4372543],[89.7379058,27.4704859],[89.7284239,27.4922189],[89.7257424,27.493458],[89.7083535,27.4732757]],[[89.8958717,27.4685068],[89.8949208,27.465184],[89.89676,27.4505234],[89.9083323,27.4412501],[89.9149078,27.4938583],[89.9058257,27.5032903],[89.8986565,27.4782381]],[[90.481492,26.898057],[90.478775,26.8958033],[90.4718108,26.8720537]],[[92.1141417,26.8981205],[92.1106109,26.9029851],[92.0965972,26.8735377],[92.1096723,26.8701828],[92.1125296,26.8897148],[92.1141417,26.8981205]],[[89.4499989,27.3829168],[89.4528472,27.3727565],[89.4601552,27.3800644],[89.4499989,27.3829168]],[[89.4499989,27.3829168],[89.4438466,27.3950872],[89.4224273,27.4023829],[89.4138661,27.3862289],[89.4278313,27.3849488],[89.4322143,27.384547],[89.4499989,27.3829168]],[[89.0982435,26.8612143],[89.1020599,26.8501095],[89.1066721,26.8605006],[89.1034481,26.8632787]],[[89.1034481,26.8632787],[89.0982435,26.8612143]],[[89.6193197,27.4007139],[89.6217274,27.3963974],[89.6270936,27.395949]],[[89.6082918,27.4204845],[89.6180197,27.4030446]],[[89.6656274,27.4545036],[89.6446116,27.4561915],[89.6329047,27.4528284]],[[89.6968294,27.4599003],[89.6904612,27.4525091],[89.672566,27.4539463]],[[89.7083535,27.4732757],[89.7035083,27.4676521]],[[89.389032,26.8786109],[89.3859863,26.8726025],[89.380806,26.8562527]],[[89.380806,26.8562527],[89.3822784,26.8550968],[89.3961868,26.8381824],[89.4090347,26.8426018],[89.4260025,26.8388176],[89.4276389,26.8421475],[89.4211252,26.8707749],[89.4123036,26.8700668],[89.389032,26.8786109]],[[89.389032,26.8786109],[89.3874338,26.8791977],[89.3515126,26.8591578],[89.3481959,26.8517239],[89.3709793,26.8606205],[89.3758774,26.8601265],[89.380806,26.8562527]],[[89.4536936,26.8387192],[89.4458936,26.8380926],[89.4515076,26.8334846],[89.4547287,26.8258274],[89.4536936,26.8387192]],[[89.1034481,26.8632787],[89.0955429,26.8690739],[89.0982435,26.8612143]],[[91.5658478,26.8006365],[91.5739365,26.7993698],[91.5831375,26.799818],[91.5936493,26.8031408],[91.5658478,26.8006365]]],"bbox":[89.0955429,26.7993698,92.1141417,27.5032903]}