{"type":"Topology","objects":{"foo":{"type":"GeometryCollection","geometries":[{"type":"MultiPolygon","arcs":[[[0]],[[1]]],"properties":{"name":"Administrative unit not available","gaul_code":14469,"targetarea":3.2851831,"totpop":12169.2651907,"country_id":"COK","targetpop":1890.4415283,"totalarea":248.9248369,"new_mean":0.0197595}}]}},"arcs":[[[-159.8166667,-21.2337497],[-159.8166667,-21.2087497],[-159.8239732,-21.2087497],[-159.8202408,-21.2337497],[-159.8166667,-21.2337497]],[[-159.7461956,-21.1981703],[-159.7608318,-21.2053724],[-159.7416667,-21.2087497],[-159.7461956,-21.1981703]]],"bbox":[-159.8239732,-21.2337497,-159.7416667,-21.1981703]}