{"type":"Topology","objects":{"foo":{"type":"GeometryCollection","geometries":[{"type":"Polygon","arcs":[[0]],"properties":{"name":"Los Chiles","gaul_code":14475,"targetarea":2.51963,"totpop":28687.0012244,"country_id":"CRI","targetpop":2990.7877197,"new_mean":0.0728399,"totalarea":1304.4102732}},{"type":"Polygon","arcs":[[1]],"properties":{"name":"Coto Brus","gaul_code":14523,"targetarea":6.4311083,"totpop":36896.5882393,"country_id":"CRI","targetpop":5601.8434143,"new_mean":0.0883992,"totalarea":884.0501089}},{"type":"Polygon","arcs":[[2,3,4,5,6]],"properties":{"name":"Santa Ana","gaul_code":14546,"targetarea":40.6827193,"totpop":71983.0274124,"country_id":"CRI","targetpop":68173.9659729,"new_mean":0.0868027,"totalarea":57.4949442}},{"type":"MultiPolygon","arcs":[[[7,8,9]],[[10]]],"properties":{"name":"Tarrazu","gaul_code":14547,"targetarea":7.7087762,"totpop":17312.7459559,"country_id":"CRI","targetpop":7633.401947,"new_mean":0.071589,"totalarea":275.0622256}},{"type":"Polygon","arcs":[[11,12,13,14,15,16,17]],"properties":{"name":"Heredia","gaul_code":14507,"targetarea":25.9687457,"totpop":158651.836798,"country_id":"CRI","targetpop":157612.606689,"new_mean":0.0948704,"totalarea":292.1038784}},{"type":"MultiPolygon","arcs":[[[18,19]],[[20]]],"properties":{"name":"Pococi","gaul_code":14517,"targetarea":40.8060172,"totpop":147558.377229,"country_id":"CRI","targetpop":49483.3857727,"new_mean":0.0781232,"totalarea":2357.6084718}},{"type":"Polygon","arcs":[[21,22,23,24,25]],"properties":{"name":"Santa Barbara","gaul_code":14511,"targetarea":18.4810828,"totpop":30347.0481997,"country_id":"CRI","targetpop":28519.4995728,"new_mean":0.0724477,"totalarea":45.8178308}},{"type":"MultiPolygon","arcs":[[[26]],[[27]],[[28,29]],[[30,-3,31,-23,32,33,34,35,36]]],"properties":{"name":"Alajuela","gaul_code":14470,"targetarea":135.5688549,"totpop":291648.874454,"country_id":"CRI","targetpop":253809.436462,"new_mean":0.0875963,"totalarea":386.4366946}},{"type":"Polygon","arcs":[[37]],"properties":{"name":"Canas","gaul_code":14495,"targetarea":8.6391164,"totpop":28731.2541058,"country_id":"CRI","targetpop":12273.4000854,"new_mean":0.1003807,"totalarea":689.1777984}},{"type":"MultiPolygon","arcs":[[[38,39,40,41]],[[42,43,44]]],"properties":{"name":"Aserri","gaul_code":14533,"targetarea":30.8166516,"totpop":78253.8661008,"country_id":"CRI","targetpop":66351.0104065,"new_mean":0.0740532,"totalarea":173.5380982}},{"type":"Polygon","arcs":[[45]],"properties":{"name":"Upala","gaul_code":14483,"targetarea":4.3755104,"totpop":49497.8195901,"country_id":"CRI","targetpop":4056.3703003,"new_mean":0.0733895,"totalarea":1490.5388154}},{"type":"Polygon","arcs":[[46]],"properties":{"name":"Nicoya","gaul_code":14501,"targetarea":9.412192,"totpop":61074.6353843,"country_id":"CRI","targetpop":14491.0570068,"new_mean":0.1011719,"totalarea":1329.2075179}},{"type":"MultiPolygon","arcs":[[[47,48]],[[49]]],"properties":{"name":"Esparza","gaul_code":14524,"targetarea":26.9097122,"totpop":55522.8340614,"country_id":"CRI","targetpop":38013.93013,"new_mean":0.0987035,"totalarea":244.6746786}},{"type":"Polygon","arcs":[[50,51,52]],"properties":{"name":"Vasquez De Coronado","gaul_code":14550,"targetarea":9.0175103,"totpop":32457.4659774,"country_id":"CRI","targetpop":23721.7202148,"new_mean":0.048532,"totalarea":210.0010329}},{"type":"MultiPolygon","arcs":[[[53]],[[54]],[[55]]],"properties":{"name":"Liberia","gaul_code":14499,"targetarea":30.2132255,"totpop":83619.3724794,"country_id":"CRI","targetpop":45565.993782,"new_mean":0.1004914,"totalarea":1543.0080947}},{"type":"Polygon","arcs":[[56,-6,57,58,59]],"properties":{"name":"Escazu","gaul_code":14537,"targetarea":26.7663837,"totpop":96648.3190384,"country_id":"CRI","targetpop":94814.0734253,"new_mean":0.0873681,"totalarea":31.1566609}},{"type":"Polygon","arcs":[[60]],"properties":{"name":"Montes De Oro","gaul_code":14527,"targetarea":5.2761817,"totpop":14489.8594556,"country_id":"CRI","targetpop":5577.5699463,"new_mean":0.0920313,"totalarea":253.6990877}},{"type":"MultiPolygon","arcs":[[[61]],[[62]]],"properties":{"name":"Limon","gaul_code":14515,"targetarea":32.1939035,"totpop":82940.5566993,"country_id":"CRI","targetpop":49413.2356262,"new_mean":0.0872847,"totalarea":1739.8578108}},{"type":"Polygon","arcs":[[63,64,65,66,-52]],"properties":{"name":"Moravia","gaul_code":14542,"targetarea":11.2127252,"totpop":37527.4239273,"country_id":"CRI","targetpop":35275.5635071,"new_mean":0.0493971,"totalarea":33.9928203}},{"type":"MultiPolygon","arcs":[[[67,68,-35]],[[69,70,71,-30]]],"properties":{"name":"Poas","gaul_code":14479,"targetarea":21.7942377,"totpop":30445.2641191,"country_id":"CRI","targetpop":20816.6520691,"new_mean":0.080716,"totalarea":76.2721841}},{"type":"Polygon","arcs":[[72,73,74,75,76,77]],"properties":{"name":"Palmares","gaul_code":14478,"targetarea":31.1564614,"totpop":43321.3943481,"country_id":"CRI","targetpop":39332.2878418,"new_mean":0.0896932,"totalarea":41.0502643}},{"type":"Polygon","arcs":[[78,79]],"properties":{"name":"Puriscal","gaul_code":14544,"targetarea":12.1259138,"totpop":37528.2486057,"country_id":"CRI","targetpop":11732.8796692,"new_mean":0.0858433,"totalarea":570.3418544}},{"type":"MultiPolygon","arcs":[[[80,81]],[[82]]],"properties":{"name":"Alvarado","gaul_code":14485,"targetarea":7.9568384,"totpop":12922.6948342,"country_id":"CRI","targetpop":6171.2346497,"new_mean":0.0649441,"totalarea":80.3578411}},{"type":"Polygon","arcs":[[83,84,-26,85,-13]],"properties":{"name":"Barva","gaul_code":14504,"targetarea":19.6192141,"totpop":42526.3899837,"country_id":"CRI","targetpop":38052.046051,"new_mean":0.0673331,"totalarea":61.3238018}},{"type":"Polygon","arcs":[[86,87,88]],"properties":{"name":"Oreamuno","gaul_code":14490,"targetarea":19.2728141,"totpop":45567.8758249,"country_id":"CRI","targetpop":36575.3273926,"new_mean":0.055998,"totalarea":200.0768915}},{"type":"MultiPolygon","arcs":[[[89]],[[90]],[[91]]],"properties":{"name":"Santa Cruz","gaul_code":14502,"targetarea":10.3802034,"totpop":70272.1690085,"country_id":"CRI","targetpop":13343.1748657,"new_mean":0.1012755,"totalarea":1331.80739}},{"type":"Polygon","arcs":[[92]],"properties":{"name":"Matina","gaul_code":14516,"targetarea":6.1064061,"totpop":42010.3829744,"country_id":"CRI","targetpop":7663.1213989,"new_mean":0.0880486,"totalarea":750.8975984}},{"type":"Polygon","arcs":[[93,94]],"properties":{"name":"El Guarco","gaul_code":14487,"targetarea":23.8536318,"totpop":74670.4394426,"country_id":"CRI","targetpop":64684.5436096,"new_mean":0.0796373,"totalarea":194.1017841}},{"type":"MultiPolygon","arcs":[[[95]],[[96]],[[97]],[[98]]],"properties":{"name":"Carrillo","gaul_code":14496,"targetarea":11.4788823,"totpop":43538.6233702,"country_id":"CRI","targetpop":10813.1072998,"new_mean":0.1006328,"totalarea":585.0608274}},{"type":"Polygon","arcs":[[99,100,101,-17,102,103,-65]],"properties":{"name":"Santo Domingo","gaul_code":14512,"targetarea":30.1683866,"totpop":52851.0057373,"country_id":"CRI","targetpop":52501.1161804,"new_mean":0.0908322,"totalarea":30.7608648}},{"type":"Polygon","arcs":[[104,-84,-12,105,106]],"properties":{"name":"San Rafael","gaul_code":14510,"targetarea":20.218269,"totpop":33744.455066,"country_id":"CRI","targetpop":29402.5610352,"new_mean":0.0580587,"totalarea":52.3472297}},{"type":"Polygon","arcs":[[107]],"properties":{"name":"Garabito","gaul_code":14525,"targetarea":8.2592286,"totpop":25800.9787487,"country_id":"CRI","targetpop":8176.4605408,"new_mean":0.089321,"totalarea":313.0826474}},{"type":"MultiPolygon","arcs":[[[108]],[[109]]],"properties":{"name":"Bagaces","gaul_code":14494,"targetarea":2.8827258,"totpop":23842.8336922,"country_id":"CRI","targetpop":3328.2310181,"new_mean":0.096037,"totalarea":1283.2775858}},{"type":"MultiPolygon","arcs":[[[110]],[[-88,111,112,113,114,-94,115,116]],[[117]],[[118]]],"properties":{"name":"Cartago","gaul_code":14486,"targetarea":60.4731944,"totpop":158434.203436,"country_id":"CRI","targetpop":130753.255386,"new_mean":0.0687993,"totalarea":238.6539859}},{"type":"Polygon","arcs":[[119]],"properties":{"name":"Jimenez","gaul_code":14488,"targetarea":3.6654343,"totpop":16780.4006293,"country_id":"CRI","targetpop":3678.3975525,"new_mean":0.0694737,"totalarea":292.1655352}},{"type":"MultiPolygon","arcs":[[[120]],[[121]],[[-89,-117,122]],[[-82,123]]],"properties":{"name":"Paraiso","gaul_code":14491,"targetarea":24.4074927,"totpop":54338.2089963,"country_id":"CRI","targetpop":32689.3160706,"new_mean":0.0697067,"totalarea":453.7558928}},{"type":"MultiPolygon","arcs":[[[124]],[[-77,125]]],"properties":{"name":"Atenas","gaul_code":14472,"targetarea":9.1685738,"totpop":30667.6342716,"country_id":"CRI","targetpop":9503.5226746,"new_mean":0.0892705,"totalarea":134.564035}},{"type":"Polygon","arcs":[[126,127,128,129,130]],"properties":{"name":"Montes De Oca","gaul_code":14540,"targetarea":12.8452846,"totpop":60726.2528381,"country_id":"CRI","targetpop":0,"new_mean":0,"totalarea":17.5166325}},{"type":"Polygon","arcs":[[-24,-32,-7,-57,131,-15,132]],"properties":{"name":"Belen","gaul_code":14505,"targetarea":17.7172601,"totpop":36409.7077637,"country_id":"CRI","targetpop":36409.7077637,"new_mean":0,"totalarea":17.7172599}},{"type":"Polygon","arcs":[[133,-107,134,-101]],"properties":{"name":"San Isidro","gaul_code":14508,"targetarea":9.5515229,"totpop":18035.9803085,"country_id":"CRI","targetpop":16134.3427124,"new_mean":0,"totalarea":19.9370438}},{"type":"Polygon","arcs":[[135]],"properties":{"name":"La Cruz","gaul_code":14498,"targetarea":2.7097289,"totpop":20874.2234251,"country_id":"CRI","targetpop":2473.7537231,"new_mean":0.0843926,"totalarea":1296.130855}},{"type":"Polygon","arcs":[[136]],"properties":{"name":"Turrialba","gaul_code":14492,"targetarea":17.97805,"totpop":68692.9130467,"country_id":"CRI","targetpop":25632.9486389,"new_mean":0.0753947,"totalarea":1535.6668887}},{"type":"MultiPolygon","arcs":[[[137,-75,138]],[[139]],[[140,141]]],"properties":{"name":"San Ramon","gaul_code":14482,"targetarea":29.141772,"totpop":97177.6801403,"country_id":"CRI","targetpop":47965.9889526,"new_mean":0.0862981,"totalarea":1085.7042139}},{"type":"Polygon","arcs":[[142,143,144,145]],"properties":{"name":"Valverde Vega","gaul_code":14484,"targetarea":15.8284966,"totpop":20136.1437311,"country_id":"CRI","targetpop":14152.947998,"new_mean":0.0830994,"totalarea":128.4925468}},{"type":"Polygon","arcs":[[146,-103,-16,-132,-60,147,148,149,-128,150]],"properties":{"name":"San Jose","gaul_code":14545,"targetarea":38.3680857,"totpop":198976.409912,"country_id":"CRI","targetpop":198976.409912,"new_mean":0.1091832,"totalarea":38.3680857}},{"type":"MultiPolygon","arcs":[[[151]],[[152]]],"properties":{"name":"Orotina","gaul_code":14477,"targetarea":15.7020362,"totpop":26548.3193741,"country_id":"CRI","targetpop":13632.7133484,"new_mean":0.0964832,"totalarea":165.0147483}},{"type":"Polygon","arcs":[[-53,-67,153,-151,-127,154]],"properties":{"name":"Goicoechea","gaul_code":14538,"targetarea":22.0383221,"totpop":127439.882603,"country_id":"CRI","targetpop":0,"new_mean":0.0756109,"totalarea":38.3380546}},{"type":"Polygon","arcs":[[155,-9]],"properties":{"name":"Leon Cortes","gaul_code":14539,"targetarea":1.8797102,"totpop":13178.0857449,"country_id":"CRI","targetpop":1984.1236572,"new_mean":0.0681092,"totalarea":117.9478324}},{"type":"Polygon","arcs":[[156,-129,-150,157]],"properties":{"name":"Curridabat","gaul_code":14534,"targetarea":17.2736323,"totpop":72098.381897,"country_id":"CRI","targetpop":72098.381897,"new_mean":0.0929693,"totalarea":17.2736322}},{"type":"MultiPolygon","arcs":[[[158,-20]],[[159]]],"properties":{"name":"Guacimo","gaul_code":14514,"targetarea":8.5844962,"totpop":47398.1279612,"country_id":"CRI","targetpop":7860.2133179,"new_mean":0.0830213,"totalarea":575.4320744}},{"type":"Polygon","arcs":[[160]],"properties":{"name":"Dota","gaul_code":14536,"targetarea":1.8473581,"totpop":9637.0618041,"country_id":"CRI","targetpop":1333.4428406,"new_mean":0.0624345,"totalarea":412.9934577}},{"type":"Polygon","arcs":[[161]],"properties":{"name":"Buenos Aires","gaul_code":14521,"targetarea":8.7639927,"totpop":50128.7930578,"country_id":"CRI","targetpop":9881.9388275,"new_mean":0.0882654,"totalarea":2396.126702}},{"type":"MultiPolygon","arcs":[[[162]],[[163]]],"properties":{"name":"Corredores","gaul_code":14522,"targetarea":10.074457,"totpop":45778.8428187,"country_id":"CRI","targetpop":14396.686615,"new_mean":0.0864776,"totalarea":543.1886336}},{"type":"Polygon","arcs":[[-148,-59,164,-44,165]],"properties":{"name":"Alajuelita","gaul_code":14532,"targetarea":20.6513027,"totpop":114178.036465,"country_id":"CRI","targetpop":113173.036072,"new_mean":0.0938055,"totalarea":27.2037915}},{"type":"Polygon","arcs":[[166]],"properties":{"name":"Tilaran","gaul_code":14503,"targetarea":5.0456105,"totpop":19798.8802033,"country_id":"CRI","targetpop":6017.7527466,"new_mean":0.0809579,"totalarea":594.3020892}},{"type":"Polygon","arcs":[[167,-40]],"properties":{"name":"Acosta","gaul_code":14531,"targetarea":9.0384748,"totpop":20700.0448198,"country_id":"CRI","targetpop":6445.3974915,"new_mean":0.0857478,"totalarea":335.7412733}},{"type":"MultiPolygon","arcs":[[[168]],[[-69,169,-36]],[[170]],[[171,-146,172,-71,173]]],"properties":{"name":"Grecia","gaul_code":14473,"targetarea":48.0232716,"totpop":85840.5544596,"country_id":"CRI","targetpop":53016.5044861,"new_mean":0.0866899,"totalarea":399.4849592}},{"type":"Polygon","arcs":[[-135,-106,-18,-102]],"properties":{"name":"San Pablo","gaul_code":14509,"targetarea":11.32326,"totpop":44707.9275513,"country_id":"CRI","targetpop":0,"new_mean":0.0947595,"totalarea":11.3232601}},{"type":"Polygon","arcs":[[174]],"properties":{"name":"Osa","gaul_code":14528,"targetarea":3.5592433,"totpop":44793.282844,"country_id":"CRI","targetpop":4756.1896057,"new_mean":0.0816552,"totalarea":2736.3976757}},{"type":"Polygon","arcs":[[-144,175,-73,176]],"properties":{"name":"Naranjo","gaul_code":14476,"targetarea":29.8209779,"totpop":43699.0530338,"country_id":"CRI","targetpop":27168.2192688,"new_mean":0.0858343,"totalarea":118.3024936}},{"type":"Polygon","arcs":[[177,-130,-157,178,-113]],"properties":{"name":"La Union","gaul_code":14489,"targetarea":33.6362467,"totpop":110195.311077,"country_id":"CRI","targetpop":108599.683899,"new_mean":0.0625405,"totalarea":43.3383996}},{"type":"MultiPolygon","arcs":[[[179]],[[180]]],"properties":{"name":"Aguirre","gaul_code":14520,"targetarea":9.1408562,"totpop":34409.0603567,"country_id":"CRI","targetpop":8945.1576767,"new_mean":0.0823236,"totalarea":602.0242659}},{"type":"MultiPolygon","arcs":[[[181,-42]],[[-158,-149,-166,-43,182,-114,-179]]],"properties":{"name":"Desamparados","gaul_code":14535,"targetarea":56.5972279,"totpop":294485.792286,"country_id":"CRI","targetpop":279196.475159,"new_mean":0.0944796,"totalarea":129.5127126}},{"type":"MultiPolygon","arcs":[[[183]],[[184]],[[-141,185]]],"properties":{"name":"San Carlos","gaul_code":14480,"targetarea":26.8086103,"totpop":197683.141798,"country_id":"CRI","targetpop":43673.8007507,"new_mean":0.0789703,"totalarea":3291.4401519}},{"type":"Polygon","arcs":[[186]],"properties":{"name":"Parrita","gaul_code":14529,"targetarea":1.9539579,"totpop":20015.4346383,"country_id":"CRI","targetpop":2284.7602539,"new_mean":0.0893453,"totalarea":488.9675582}},{"type":"Polygon","arcs":[[187]],"properties":{"name":"Alfaro Ruiz","gaul_code":14471,"targetarea":1.7946017,"totpop":11970.432699,"country_id":"CRI","targetpop":1829.3166504,"new_mean":0.0698008,"totalarea":158.7506604}},{"type":"MultiPolygon","arcs":[[[188,-80]],[[-4,-31,189]]],"properties":{"name":"Mora","gaul_code":14541,"targetarea":21.2343779,"totpop":34668.2862816,"country_id":"CRI","targetpop":17590.8395233,"new_mean":0.0822694,"totalarea":154.3286879}},{"type":"Polygon","arcs":[[190]],"properties":{"name":"Perez Zeledon","gaul_code":14543,"targetarea":45.589454,"totpop":146615.962303,"country_id":"CRI","targetpop":65066.4382935,"new_mean":0.0852214,"totalarea":1949.5134444}},{"type":"Polygon","arcs":[[191]],"properties":{"name":"Siquirres","gaul_code":14518,"targetarea":13.9619688,"totpop":64060.9686813,"country_id":"CRI","targetpop":15646.1292114,"new_mean":0.081468,"totalarea":884.866519}},{"type":"Polygon","arcs":[[-86,-25,-133,-14]],"properties":{"name":"Flores","gaul_code":14506,"targetarea":8.3999645,"totpop":21607.1627197,"country_id":"CRI","targetpop":0,"new_mean":0.0904093,"totalarea":8.3999646}},{"type":"Polygon","arcs":[[-104,-147,-154,-66]],"properties":{"name":"Tibas","gaul_code":14548,"targetarea":5.6564595,"totpop":27693.5622559,"country_id":"CRI","targetpop":0,"new_mean":0,"totalarea":5.6564597}},{"type":"MultiPolygon","arcs":[[[192]],[[-49,193]],[[194]]],"properties":{"name":"Puntarenas","gaul_code":14530,"targetarea":29.004998,"totpop":101410.263696,"country_id":"CRI","targetpop":49290.0119791,"new_mean":0.0946821,"totalarea":1906.7073239}},{"type":"MultiPolygon","arcs":[[[195]],[[196]]],"properties":{"name":"Golfito","gaul_code":14526,"targetarea":8.9639921,"totpop":34862.9311078,"country_id":"CRI","targetpop":7434.2124481,"new_mean":0.0813841,"totalarea":1196.7323675}}]}},"arcs":[[[-84.7123376,11.0431789],[-84.7279545,11.0353379],[-84.7083337,11.0245835],[-84.7123376,11.0431789]],[[-82.9604496,8.8307969],[-82.9722986,8.8430609],[-82.9771163,8.8106553],[-82.9583337,8.8079168],[-82.9604496,8.8307969]],[[-84.1884003,9.9705772],[-84.2001724,9.971159],[-84.2150726,9.9644566],[-84.2327118,9.9471846]],[[-84.2327118,9.9471846],[-84.2067569,9.9124865]],[[-84.2067569,9.9124865],[-84.1872888,9.9123439],[-84.179167,9.9032538],[-84.166667,9.917243],[-84.1594225,9.9091342]],[[-84.1594225,9.9091342],[-84.1585999,9.9377947],[-84.1701584,9.9647741]],[[-84.1701584,9.9647741],[-84.1884003,9.9705772]],[[-84.0333337,9.6745835],[-84.0342613,9.6788915]],[[-84.0342613,9.6788915],[-84.0365128,9.676326]],[[-84.0365128,9.676326],[-84.0333337,9.6745835]],[[-84.0333337,9.6745835],[-84.028516,9.6623277],[-84.0332035,9.630626],[-84.0107182,9.6541774],[-84.0148116,9.681867],[-84.0333337,9.6745835]],[[-84.1089325,10.0099211],[-84.118187,10.0180607]],[[-84.118187,10.0180607],[-84.1247864,10.0166807]],[[-84.1247864,10.0166807],[-84.140686,10.0141506],[-84.159996,9.9911394]],[[-84.159996,9.9911394],[-84.1556625,9.9753618],[-84.1448517,9.9651585]],[[-84.1448517,9.9651585],[-84.1343918,9.9687405],[-84.1146622,9.9638758]],[[-84.1146622,9.9638758],[-84.1090317,9.9790239]],[[-84.1090317,9.9790239],[-84.1066055,9.9904852],[-84.1089325,10.0099211]],[[-83.7414497,10.2140909],[-83.771973,10.2192775],[-83.7863611,10.2465562],[-83.8145349,10.2121527],[-83.8018396,10.1949448],[-83.7750004,10.1912502],[-83.7661869,10.2067083],[-83.7452361,10.1988143]],[[-83.7452361,10.1988143],[-83.7414497,10.2140909]],[[-83.7301599,10.3464056],[-83.7086511,10.3921738],[-83.7522709,10.3785874],[-83.7391687,10.3365098],[-83.7301599,10.3464056]],[[-84.1283704,10.0658182],[-84.1544031,10.0785142],[-84.1604591,10.0852975]],[[-84.1604591,10.0852975],[-84.1605759,10.0711975],[-84.1677322,10.0563087],[-84.1676712,10.0425186],[-84.1745758,10.0186405]],[[-84.1745758,10.0186405],[-84.1669617,10.0155411]],[[-84.1669617,10.0155411],[-84.1558228,10.0272398],[-84.1399155,10.0306702]],[[-84.1399155,10.0306702],[-84.1399918,10.0558586],[-84.1283704,10.0658182]],[[-84.3087162,9.9673325],[-84.3365075,9.9618109],[-84.316667,9.9495835],[-84.3087162,9.9673325]],[[-84.2083337,10.0662502],[-84.1921879,10.0797796],[-84.2283288,10.0795436],[-84.2083337,10.0662502]],[[-84.2495503,10.0618649],[-84.2332523,10.0639715],[-84.2369844,10.080607]],[[-84.2369844,10.080607],[-84.2495503,10.0618649]],[[-84.2455765,9.9372454],[-84.2327118,9.9471846]],[[-84.1884003,9.9705772],[-84.1956329,9.993474],[-84.1803055,10.0067806],[-84.1745758,10.0186405]],[[-84.1604591,10.0852975],[-84.1720626,10.0951808],[-84.169556,10.0531927],[-84.191667,10.0579168],[-84.191667,10.0662502],[-84.2083337,10.0662502]],[[-84.2083337,10.0662502],[-84.2178878,10.0547512],[-84.259182,10.0471157]],[[-84.259182,10.0471157],[-84.2702179,10.0322399],[-84.2985764,10.0215807]],[[-84.2985764,10.0215807],[-84.3022185,10.0171943]],[[-84.3022185,10.0171943],[-84.2959558,10.0027533],[-84.2816003,10.0200303],[-84.2644128,10.0083766],[-84.2869307,9.9896714],[-84.2750004,9.9579168],[-84.2878096,9.9464707],[-84.2871504,9.9353664],[-84.2455765,9.9372454]],[[-85.0728275,10.4373846],[-85.1038578,10.4440497],[-85.1111332,10.4197577],[-85.0833337,10.4162502],[-85.0728275,10.4373846]],[[-84.0982208,9.8034859],[-84.1347365,9.8047747]],[[-84.1347365,9.8047747],[-84.1437535,9.7892368]],[[-84.1437535,9.7892368],[-84.1390466,9.7899318],[-84.1031659,9.7758278]],[[-84.1031659,9.7758278],[-84.0970764,9.7877073],[-84.0982208,9.8034859]],[[-84.0821988,9.8349909],[-84.0703583,9.8382158],[-84.0644913,9.8557682],[-84.076828,9.8779278],[-84.098053,9.8821516]],[[-84.098053,9.8821516],[-84.1156707,9.8697316]],[[-84.1156707,9.8697316],[-84.1044031,9.8451808],[-84.0821988,9.8349909]],[[-85.0060958,10.9115057],[-85.0371911,10.8961167],[-85.0000004,10.8912502],[-85.0060958,10.9115057]],[[-85.4450687,10.1628485],[-85.4520918,10.1779852],[-85.4700687,10.1402044],[-85.441667,10.1329168],[-85.4450687,10.1628485]],[[-84.7534252,9.9677846],[-84.7250004,9.9579168],[-84.7154708,9.9733872],[-84.6948409,9.9860947],[-84.6884932,10.0025742],[-84.7003269,10.0066076]],[[-84.7003269,10.0066076],[-84.7216263,9.9912443],[-84.7221832,9.9783258],[-84.7534252,9.9677846]],[[-84.6301436,10.0109686],[-84.6810713,10.0009019],[-84.6783695,9.9871934],[-84.641667,9.9829168],[-84.6301436,10.0109686]],[[-83.9666325,9.9816753],[-83.9960697,9.9951808],[-84.0033502,10.0110533]],[[-84.0033502,10.0110533],[-84.0150909,9.9956617],[-84.025116,9.9758959]],[[-84.025116,9.9758959],[-83.9983978,9.9799194],[-83.9666325,9.9816753]],[[-85.5714555,10.502208],[-85.5583744,10.5169623],[-85.573048,10.5230579],[-85.5714555,10.502208]],[[-85.5250004,10.5829168],[-85.5250004,10.6079168],[-85.541667,10.6079168],[-85.541667,10.5829168],[-85.5250004,10.5829168]],[[-85.4134118,10.657925],[-85.4521488,10.6521999],[-85.4656417,10.6192328],[-85.4250004,10.6079168],[-85.4134118,10.657925]],[[-84.1526108,9.9625483],[-84.1701584,9.9647741]],[[-84.1594225,9.9091342],[-84.1407475,9.888231],[-84.1323298,9.8843677]],[[-84.1323298,9.8843677],[-84.132988,9.8926029],[-84.1227722,9.9051743],[-84.1221313,9.9381828]],[[-84.1221313,9.9381828],[-84.1526108,9.9625483]],[[-84.7187911,10.0870713],[-84.7256514,10.1011135],[-84.7444665,10.0844305],[-84.7250004,10.0745835],[-84.7187911,10.0870713]],[[-83.1394942,10.002855],[-83.1622644,9.9918524],[-83.1333337,9.9829168],[-83.1394942,10.002855]],[[-83.0603485,10.005475],[-83.0679169,10.0092564],[-83.0936737,9.995697],[-83.1087747,10.0026169],[-83.1118168,9.9947292],[-83.1266443,9.9841009],[-83.0550948,9.9697577],[-83.0321937,9.9670886],[-83.0346375,9.9766989],[-83.0317535,9.9952679],[-83.0514908,10.0068903],[-83.0603485,10.005475]],[[-84.0033502,10.0110533],[-84.0128452,10.0203027]],[[-84.0128452,10.0203027],[-84.0183258,10.0045719],[-84.0312195,9.9898272],[-84.0624695,9.9742851]],[[-84.0624695,9.9742851],[-84.0616455,9.9659109]],[[-84.0616455,9.9659109],[-84.036972,9.9674788],[-84.025116,9.9758959]],[[-84.259182,10.0471157],[-84.2887478,10.0451195]],[[-84.2887478,10.0451195],[-84.2985764,10.0215807]],[[-84.2369844,10.080607],[-84.2393721,10.0912502],[-84.2337406,10.1163519],[-84.2630945,10.093598],[-84.2663775,10.1144143]],[[-84.2663775,10.1144143],[-84.2763062,10.0920563],[-84.2782186,10.0645096]],[[-84.2782186,10.0645096],[-84.2625004,10.0806179],[-84.2495503,10.0618649]],[[-84.4153231,10.0838468],[-84.4281149,10.0971023]],[[-84.4281149,10.0971023],[-84.4445154,10.0731065],[-84.4503933,10.0849507]],[[-84.4503933,10.0849507],[-84.4542465,10.0824471],[-84.4576342,10.054747]],[[-84.4576342,10.054747],[-84.4519698,10.0510565],[-84.4570479,10.028388],[-84.4338598,10.0239893]],[[-84.4338598,10.0239893],[-84.4161103,10.030638]],[[-84.4161103,10.030638],[-84.4062858,10.0621375],[-84.4077493,10.0684233],[-84.4227055,10.0787502],[-84.4153231,10.0838468]],[[-84.285741,9.8649376],[-84.3203536,9.8580267],[-84.3284835,9.8330511],[-84.316667,9.8245835],[-84.306226,9.8391465],[-84.278862,9.856159]],[[-84.278862,9.856159],[-84.285741,9.8649376]],[[-83.7865003,9.88498],[-83.7812992,9.8954453],[-83.8063399,9.902383],[-83.8141125,9.8879992]],[[-83.8141125,9.8879992],[-83.8061981,9.8831549],[-83.7865003,9.88498]],[[-83.8057051,9.9278672],[-83.8203699,9.9137396],[-83.8000004,9.9079168],[-83.8057051,9.9278672]],[[-84.118187,10.0180607],[-84.0988617,10.0281801],[-84.1064758,10.0432692],[-84.1058197,10.052289],[-84.094514,10.0760252]],[[-84.094514,10.0760252],[-84.1208337,10.0617214],[-84.1283704,10.0658182]],[[-84.1399155,10.0306702],[-84.1339111,10.0197411],[-84.1247864,10.0166807]],[[-83.8809916,9.8713791],[-83.8872644,9.8775173],[-83.8372644,9.8868475],[-83.8294031,9.8966457],[-83.8543542,9.8951564],[-83.8708337,9.9041123],[-83.8929203,9.8921087],[-83.9007506,9.8942055]],[[-83.9007506,9.8942055],[-83.9092484,9.8803644],[-83.9071808,9.8705225],[-83.889595,9.8551044]],[[-83.889595,9.8551044],[-83.8809916,9.8713791]],[[-85.5647139,10.2702785],[-85.5871504,10.277383],[-85.5944665,10.2535142],[-85.5750004,10.2495835],[-85.5647139,10.2702785]],[[-85.8366703,10.3101874],[-85.8441654,10.2958848],[-85.8333337,10.2912502],[-85.8366703,10.3101874]],[[-85.670671,10.3931789],[-85.6862878,10.3853379],[-85.666667,10.3745835],[-85.670671,10.3931789]],[[-83.3402673,10.1018581],[-83.3619633,10.080862],[-83.3250004,10.0745835],[-83.3402673,10.1018581]],[[-83.9417678,9.8222662],[-83.93647,9.8376408],[-83.9205704,9.8521671],[-83.9295807,9.8624191],[-83.974552,9.8555266]],[[-83.974552,9.8555266],[-83.9960697,9.8456528],[-84.003931,9.8386786],[-83.96224,9.828978],[-83.9600753,9.8123195],[-83.9417678,9.8222662]],[[-85.5756596,10.4191026],[-85.5952966,10.4088161],[-85.5833337,10.3995835],[-85.5756596,10.4191026]],[[-85.5435487,10.440251],[-85.5545987,10.454887],[-85.5617354,10.4467759],[-85.5435487,10.440251]],[[-85.6450036,10.526854],[-85.6524987,10.5125514],[-85.641667,10.5079168],[-85.6450036,10.526854]],[[-85.6870121,10.5604274],[-85.7112878,10.5472194],[-85.6833337,10.5329168],[-85.6870121,10.5604274]],[[-84.0128452,10.0203027],[-84.0186157,10.0267601]],[[-84.0186157,10.0267601],[-84.0320816,10.02279],[-84.0444565,10.011961],[-84.0675812,10.0083408]],[[-84.0675812,10.0083408],[-84.0823517,9.9965401],[-84.0961075,9.9808731],[-84.1090317,9.9790239]],[[-84.1146622,9.9638758],[-84.0958099,9.9694853]],[[-84.0958099,9.9694853],[-84.0775528,9.9744768],[-84.0624695,9.9742851]],[[-84.0569769,10.0346553],[-84.0718021,10.0369655],[-84.0906905,10.0781032],[-84.094514,10.0760252]],[[-84.1089325,10.0099211],[-84.0940018,10.0154209],[-84.0729218,10.0165911]],[[-84.0729218,10.0165911],[-84.0569769,10.0346553]],[[-84.6115971,9.6133897],[-84.624919,9.6367743],[-84.6455245,9.6244452],[-84.616667,9.5995835],[-84.6115971,9.6133897]],[[-85.2535648,10.5437079],[-85.2612064,10.5221543],[-85.2500004,10.5162502],[-85.2535648,10.5437079]],[[-85.2200036,10.7185207],[-85.2274988,10.7042181],[-85.216667,10.6995835],[-85.2200036,10.7185207]],[[-84.0366703,9.801854],[-84.0441654,9.7875514],[-84.0333337,9.7829168],[-84.0366703,9.801854]],[[-83.9007506,9.8942055],[-83.9421391,9.9052883],[-83.950938,9.9152114]],[[-83.950938,9.9152114],[-83.9608841,9.8948612],[-83.9959869,9.8879128]],[[-83.9959869,9.8879128],[-83.9960431,9.8824921]],[[-83.9960431,9.8824921],[-83.9460697,9.8929876],[-83.9637211,9.8604966],[-83.974552,9.8555266]],[[-83.9417678,9.8222662],[-83.9291671,9.8291123],[-83.9083337,9.8177923],[-83.8875492,9.8290838],[-83.8603488,9.8215228]],[[-83.8603488,9.8215228],[-83.889595,9.8551044]],[[-83.9000004,9.9245835],[-83.8918187,9.9070194],[-83.8901619,9.9217711],[-83.9000004,9.9245835]],[[-83.9000004,9.9245835],[-83.903931,9.9440497],[-83.9194665,9.9352972],[-83.9134688,9.91789],[-83.9000004,9.9245835]],[[-83.7333337,9.8995835],[-83.7519291,9.8955837],[-83.744084,9.8799668],[-83.7333337,9.8995835]],[[-83.8367354,9.7878485],[-83.8544682,9.8060532],[-83.8617354,9.7818711],[-83.8333337,9.7745835],[-83.8367354,9.7878485]],[[-83.803337,9.8351874],[-83.8108321,9.8208848],[-83.8000004,9.8162502],[-83.803337,9.8351874]],[[-83.8603488,9.8215228],[-83.8368087,9.8379665],[-83.8377934,9.8544785],[-83.8622318,9.8530218],[-83.8809916,9.8713791]],[[-83.8141125,9.8879992],[-83.8194665,9.878091],[-83.7916671,9.8745835],[-83.7865003,9.88498]],[[-84.3597986,9.9942287],[-84.3982995,9.9855943],[-84.3949629,9.9707098],[-84.366667,9.9662502],[-84.3597986,9.9942287]],[[-84.4338598,10.0239893],[-84.4190596,10.0211818],[-84.4161103,10.030638]],[[-83.9766855,9.9656311],[-83.9869003,9.9673338],[-84.0166855,9.9533319],[-84.0396423,9.9545107],[-84.0560684,9.9486675]],[[-84.0560684,9.9486675],[-84.0565491,9.9324598],[-84.047493,9.9318047]],[[-84.047493,9.9318047],[-84.0311356,9.9406443],[-83.9975281,9.9469528]],[[-83.9975281,9.9469528],[-83.9831726,9.9515648]],[[-83.9831726,9.9515648],[-83.9766855,9.9656311]],[[-84.1526108,9.9625483],[-84.1448517,9.9651585]],[[-84.159996,9.9911394],[-84.1669617,10.0155411]],[[-84.0186157,10.0267601],[-84.0569769,10.0346553]],[[-84.0729218,10.0165911],[-84.0675812,10.0083408]],[[-85.6295007,11.0835028],[-85.6361332,11.0618475],[-85.616667,11.0579168],[-85.6295007,11.0835028]],[[-83.6549809,9.9143906],[-83.6957198,9.9315578],[-83.7037032,9.8991481],[-83.6750004,9.8829168],[-83.6549809,9.9143906]],[[-84.441667,10.1162502],[-84.4583337,10.1162502],[-84.4583337,10.1245835],[-84.4882654,10.1045152],[-84.5034021,10.07532],[-84.4700687,10.0628485],[-84.4576342,10.054747]],[[-84.4503933,10.0849507],[-84.4531742,10.0905544],[-84.441667,10.1162502]],[[-84.441667,10.1162502],[-84.4363103,10.1177546],[-84.4344093,10.1220043],[-84.441667,10.1162502]],[[-84.6367587,10.4690036],[-84.6522224,10.4637491]],[[-84.6522224,10.4637491],[-84.6333337,10.4579168],[-84.6367587,10.4690036]],[[-84.321027,10.1014749],[-84.3298344,10.115766],[-84.3501387,10.1094427],[-84.3579615,10.1120155]],[[-84.3579615,10.1120155],[-84.3639984,10.078887],[-84.3596143,10.0701299]],[[-84.3596143,10.0701299],[-84.3409502,10.0743129]],[[-84.3409502,10.0743129],[-84.3355255,10.0853567],[-84.3238754,10.0895672],[-84.321027,10.1014749]],[[-84.0778427,9.950778],[-84.0958099,9.9694853]],[[-84.1221313,9.9381828],[-84.1043167,9.9260674],[-84.0891418,9.9105835]],[[-84.0891418,9.9105835],[-84.0664063,9.9174976],[-84.049942,9.9104452]],[[-84.049942,9.9104452],[-84.047493,9.9318047]],[[-84.0560684,9.9486675],[-84.0778427,9.950778]],[[-84.5505049,9.8990383],[-84.5751794,9.8935085],[-84.5867354,9.8797349],[-84.566667,9.8745835],[-84.5505049,9.8990383]],[[-84.5148454,9.9379055],[-84.5227496,9.9358341],[-84.5322595,9.9235093],[-84.5533532,9.9072292],[-84.5083337,9.8995835],[-84.5148454,9.9379055]],[[-84.0616455,9.9659109],[-84.0778427,9.950778]],[[-83.9766855,9.9656311],[-83.9666325,9.9816753]],[[-84.0342613,9.6788915],[-84.0373376,9.6931789],[-84.0529545,9.6853379],[-84.0365128,9.676326]],[[-84.0260162,9.9062939],[-84.0112076,9.9165926],[-83.9986267,9.9313278],[-83.9975281,9.9469528]],[[-84.049942,9.9104452],[-84.0260162,9.9062939]],[[-83.7452361,10.1988143],[-83.7399988,10.196841],[-83.7303064,10.2121974],[-83.7414497,10.2140909]],[[-83.6648604,10.2278428],[-83.703931,10.2085191],[-83.6750004,10.1995835],[-83.6648604,10.2278428]],[[-83.9589929,9.6607692],[-83.9786299,9.6504828],[-83.9666671,9.6412502],[-83.9589929,9.6607692]],[[-83.3158939,9.1783189],[-83.3438643,9.1863185],[-83.3353682,9.1484076],[-83.3250004,9.1412502],[-83.3158939,9.1783189]],[[-82.833847,8.5218458],[-82.8383942,8.5459881],[-82.8444258,8.5526841],[-82.853101,8.530923],[-82.833847,8.5218458]],[[-82.9319096,8.6525417],[-82.9453129,8.6607163],[-82.9527999,8.6385484],[-82.9416671,8.6329168],[-82.9319096,8.6525417]],[[-84.1323298,9.8843677],[-84.1197351,9.8785874],[-84.1156707,9.8697316]],[[-84.098053,9.8821516],[-84.0918503,9.8874178],[-84.0891418,9.9105835]],[[-84.9583337,10.4579168],[-84.9583337,10.4829168],[-84.9750004,10.4829168],[-84.9750004,10.4579168],[-84.9583337,10.4579168]],[[-84.1347365,9.8047747],[-84.1460779,9.8030991],[-84.1786299,9.8158962],[-84.1699046,9.7906437],[-84.1540689,9.7877135],[-84.1437535,9.7892368]],[[-84.3390385,10.0278672],[-84.3537032,10.0137396],[-84.3333337,10.0079168],[-84.3390385,10.0278672]],[[-84.2887478,10.0451195],[-84.3027754,10.046548],[-84.3050948,10.0238267],[-84.3022185,10.0171943]],[[-84.266667,10.1162502],[-84.2643325,10.1169058],[-84.2598148,10.1224102],[-84.266667,10.1162502]],[[-84.266667,10.1162502],[-84.2781742,10.1027614],[-84.2910892,10.0964056],[-84.284058,10.1189683],[-84.2929122,10.1277614],[-84.3031742,10.1110947],[-84.321027,10.1014749]],[[-84.3409502,10.0743129],[-84.3469079,10.0447861],[-84.3305261,10.0378485],[-84.304932,10.0545152],[-84.2782186,10.0645096]],[[-84.2663775,10.1144143],[-84.266667,10.1162502]],[[-83.5202315,8.9770412],[-83.5278731,8.9554876],[-83.5166671,8.9495835],[-83.5202315,8.9770412]],[[-84.3579615,10.1120155],[-84.3955814,10.1243882],[-84.4156823,10.1181301],[-84.4109542,10.1029486],[-84.4281149,10.0971023]],[[-84.4153231,10.0838468],[-84.3966719,10.096723],[-84.379932,10.0910223],[-84.3965987,10.0795152],[-84.3833337,10.0722845],[-84.3596143,10.0701299]],[[-83.950938,9.9152114],[-83.9831726,9.9515648]],[[-84.0260162,9.9062939],[-84.0274429,9.8915606],[-84.000946,9.8934765],[-83.9959869,9.8879128]],[[-84.1500004,9.4412502],[-84.1750004,9.4412502],[-84.1687469,9.4240885],[-84.1713358,9.4162502],[-84.1500004,9.4162502],[-84.1500004,9.4412502]],[[-84.1500004,9.4412502],[-84.1300541,9.4469549],[-84.1441736,9.4616237],[-84.1500004,9.4412502]],[[-84.1031659,9.7758278],[-84.0891605,9.802147],[-84.0982208,9.8034859]],[[-84.0821988,9.8349909],[-84.0580489,9.8239081],[-84.0372644,9.8451808],[-84.0127364,9.8789862],[-83.9960431,9.8824921]],[[-84.4126387,10.3332546],[-84.4375736,10.3745916],[-84.4452966,10.3141953],[-84.4083337,10.3079168],[-84.4126387,10.3332546]],[[-84.3228275,10.3784206],[-84.3442305,10.3857163],[-84.3527999,10.3695624],[-84.316667,10.3662502],[-84.3228275,10.3784206]],[[-84.6367587,10.4690036],[-84.6421228,10.4863674],[-84.6522224,10.4637491]],[[-84.320671,9.5265122],[-84.3362878,9.5186712],[-84.316667,9.5079168],[-84.320671,9.5265122]],[[-84.3867046,10.1854951],[-84.3921228,10.203034],[-84.4027298,10.1831907],[-84.3867046,10.1854951]],[[-84.278862,9.856159],[-84.2625004,9.8529282],[-84.2481531,9.8557603],[-84.238184,9.874433],[-84.285741,9.8649376]],[[-84.2455765,9.9372454],[-84.2467289,9.9179225],[-84.2434086,9.8873195],[-84.220199,9.9132879],[-84.2067569,9.9124865]],[[-83.6634444,9.3537095],[-83.6604415,9.3671087],[-83.693197,9.3897243],[-83.7036055,9.4048081],[-83.71814,9.4015529],[-83.7284021,9.3608628],[-83.6901371,9.3344427],[-83.6757247,9.3135646],[-83.6500004,9.2995835],[-83.6634444,9.3537095]],[[-83.4846195,10.0996934],[-83.513127,10.1196519],[-83.5284021,10.0923447],[-83.4916671,10.0829168],[-83.4846195,10.0996934]],[[-84.8504887,9.9858669],[-84.8361053,9.9787731],[-84.8440922,9.9703558],[-84.8250004,9.9662502],[-84.8220463,9.9716335],[-84.7973311,9.979271],[-84.8504887,9.9858669]],[[-84.7003269,10.0066076],[-84.7282719,10.0161322],[-84.7412439,9.995075],[-84.7801599,9.9880723],[-84.7948409,9.9792588],[-84.7534252,9.9677846]],[[-84.8223718,10.3278672],[-84.8370365,10.3137396],[-84.816667,10.3079168],[-84.8223718,10.3278672]],[[-83.1583337,8.6329168],[-83.1721846,8.6529771],[-83.1867354,8.6402044],[-83.1583337,8.6329168]],[[-83.0507003,8.6816026],[-83.0696618,8.6940497],[-83.0777999,8.6760972],[-83.0583337,8.6662502],[-83.0507003,8.6816026]]],"bbox":[-85.8441654,8.5218458,-82.833847,11.0835028]}