{"type":"Topology","objects":{"foo":{"type":"GeometryCollection","geometries":[{"type":"MultiPolygon","arcs":[[[0]],[[1]]],"properties":{"name":"Ali Sabieh","gaul_code":15272,"targetarea":14.7081234,"totpop":139266.559892,"country_id":"DJI","targetpop":16915.3546143,"new_mean":0.0243762,"totalarea":2138.8119948}},{"type":"Polygon","arcs":[[2]],"properties":{"name":"Tadjourah","gaul_code":15282,"targetarea":6.6790459,"totpop":58905.9973711,"country_id":"DJI","targetpop":6485.4096527,"new_mean":0.0237618,"totalarea":997.2257852}},{"type":"Polygon","arcs":[[3]],"properties":{"name":"Dikhil","gaul_code":15274,"targetarea":3.3371216,"totpop":49260.6372216,"country_id":"DJI","targetpop":2929.4009399,"new_mean":0.0352902,"totalarea":1870.5013627}},{"type":"Polygon","arcs":[[4]],"properties":{"name":"Djibouti","gaul_code":15276,"targetarea":116.7532157,"totpop":631588.150577,"country_id":"DJI","targetpop":586318.223663,"new_mean":0.032988,"totalarea":783.2114565}},{"type":"Polygon","arcs":[[5]],"properties":{"name":"Obock","gaul_code":15278,"targetarea":2.6502599,"totpop":52761.1208882,"country_id":"DJI","targetpop":1895.8154602,"new_mean":0.0316395,"totalarea":2863.3785047}}]}},"arcs":[[[42.7027986,11.1384507],[42.7324047,11.1444281],[42.7132478,11.1685492],[42.686197,11.1553412],[42.680533,11.1344305],[42.6999991,11.1245835],[42.7027986,11.1384507]],[[42.9299959,11.3185207],[42.9225089,11.3042181],[42.9333324,11.2995835],[42.9299959,11.3185207]],[[42.8927074,11.8029852],[42.8632641,11.7889756],[42.8702628,11.7776882],[42.8816605,11.7803783],[42.8994355,11.7767789],[42.8927074,11.8029852]],[[42.3744457,11.1171535],[42.355533,11.103091],[42.3833324,11.0995835],[42.3744457,11.1171535]],[[43.162674,11.5823231],[43.1568146,11.5934572],[43.1591339,11.6040859],[43.1467285,11.6157627],[43.146904,11.5982924],[43.1300284,11.588825],[43.104866,11.5805559],[43.0863457,11.5943899],[43.0673429,11.5990951],[43.0621899,11.5957261],[43.054475,11.5701076],[42.9878084,11.5579453],[43.0206371,11.5387721],[43.0628246,11.5374456],[43.154475,11.5207261],[43.1705232,11.5117743],[43.1916658,11.5079168],[43.1897502,11.5308305],[43.1760461,11.5641932],[43.162674,11.5823231]],[[43.291153,11.9601879],[43.2846834,11.9777655],[43.2713696,11.9627793],[43.291153,11.9601879]]],"bbox":[42.355533,11.0995835,43.291153,11.9777655]}