{"type":"Topology","objects":{"foo":{"type":"GeometryCollection","geometries":[{"type":"Polygon","arcs":[[0,1]],"properties":{"name":"Administrative unit not available","gaul_code":15285,"targetarea":10.1608271,"totpop":20790.9970894,"country_id":"DMA","targetpop":14518.4990387,"totalarea":50.8950173,"new_mean":0.0193317}},{"type":"Polygon","arcs":[[2]],"properties":{"name":"Administrative unit not available","gaul_code":15287,"targetarea":1.113416,"totpop":5899.1130648,"country_id":"DMA","targetpop":480.5673294,"totalarea":136.2929575,"new_mean":0.0193902}},{"type":"Polygon","arcs":[[3]],"properties":{"name":"Administrative unit not available","gaul_code":15286,"targetarea":4.7413972,"totpop":6672.8579528,"country_id":"DMA","targetpop":3143.7035408,"totalarea":50.7853223,"new_mean":0.0193593}},{"type":"MultiPolygon","arcs":[[[-2,4]],[[5]]],"properties":{"name":"Administrative unit not available","gaul_code":15291,"targetarea":8.2797928,"totpop":10826.9276528,"country_id":"DMA","targetpop":6053.1861229,"totalarea":58.1794478,"new_mean":0.0192731}}]}},"arcs":[[[-61.3952774,15.3137787],[-61.3901209,15.2907782],[-61.3666671,15.2745835],[-61.3700688,15.3128485],[-61.3798301,15.3195815]],[[-61.3798301,15.3195815],[-61.3952774,15.3137787]],[[-61.4211919,15.4101629],[-61.4358322,15.4029608],[-61.4166671,15.3995835],[-61.4211919,15.4101629]],[[-61.4527267,15.5801947],[-61.4683598,15.585639],[-61.4602951,15.5704168],[-61.4675542,15.5530129],[-61.4500005,15.5495835],[-61.4527267,15.5801947]],[[-61.3798301,15.3195815],[-61.3867355,15.3461818],[-61.4034022,15.3500189],[-61.3952774,15.3137787]],[[-61.3973719,15.3778672],[-61.4114295,15.3643245],[-61.3916671,15.3579168],[-61.3973719,15.3778672]]],"bbox":[-61.4683598,15.2745835,-61.3666671,15.585639]}