{"type":"Topology","objects":{"foo":{"type":"GeometryCollection","geometries":[{"type":"MultiPolygon","arcs":[[[0]],[[1]],[[2]],[[3]]],"properties":{"name":"Quevedo","gaul_code":15467,"targetarea":98.5140118,"totpop":302711.536278,"country_id":"ECU","targetpop":171757.818512,"totalarea":1830.1426984,"new_mean":0.0217358}},{"type":"MultiPolygon","arcs":[[[4]],[[5]],[[6]]],"properties":{"name":"Portoviejo","gaul_code":15483,"targetarea":114.285043,"totpop":313412.464613,"country_id":"ECU","targetpop":216228.945984,"totalarea":917.2714716,"new_mean":0.0243951}},{"type":"Polygon","arcs":[[7]],"properties":{"name":"Marcabeli","gaul_code":15377,"targetarea":1.1646974,"totpop":6911.9107857,"country_id":"ECU","targetpop":1190.3480225,"totalarea":136.9297775,"new_mean":0.0234537}},{"type":"Polygon","arcs":[[8,9,10,11]],"properties":{"name":"Gualaceo","gaul_code":15324,"targetarea":21.4129113,"totpop":57405.5620818,"country_id":"ECU","targetpop":24319.3028259,"totalarea":357.4274832,"new_mean":0.02255}},{"type":"Polygon","arcs":[[12]],"properties":{"name":"Shushufindi","gaul_code":15520,"targetarea":11.8887795,"totpop":57498.1115522,"country_id":"ECU","targetpop":9916.4538269,"totalarea":2315.5804654,"new_mean":0.0180039}},{"type":"Polygon","arcs":[[13]],"properties":{"name":"Balsas","gaul_code":15370,"targetarea":2.0016004,"totpop":6819.5532827,"country_id":"ECU","targetpop":2089.2562256,"totalarea":62.7195132,"new_mean":0.0228503}},{"type":"MultiPolygon","arcs":[[[14,15]],[[16]],[[17,18,19,20,21,22]]],"properties":{"name":"Guayaquil","gaul_code":15423,"targetarea":537.9563566,"totpop":2794021.36083,"country_id":"ECU","targetpop":2534446.69682,"totalarea":4381.4411135,"new_mean":0.0230828}},{"type":"MultiPolygon","arcs":[[[23,24,25]],[[26]]],"properties":{"name":"Chillanes","gaul_code":15334,"targetarea":2.3702083,"totpop":17928.7965975,"country_id":"ECU","targetpop":2434.4389038,"totalarea":625.4345383,"new_mean":0.0185805}},{"type":"MultiPolygon","arcs":[[[27]],[[28,29]]],"properties":{"name":"Pedro Moncayo","gaul_code":15510,"targetarea":12.6478293,"totpop":47617.8449831,"country_id":"ECU","targetpop":11376.1196289,"totalarea":345.406781,"new_mean":0.0223809}},{"type":"Polygon","arcs":[[30]],"properties":{"name":"Caluma","gaul_code":15333,"targetarea":2.2950704,"totpop":14120.7923126,"country_id":"ECU","targetpop":1665.571991,"totalarea":175.5137877,"new_mean":0.0186052}},{"type":"Polygon","arcs":[[31,32,33,34,35]],"properties":{"name":"Antonio Ante","gaul_code":15440,"targetarea":36.7281057,"totpop":58412.8533459,"country_id":"ECU","targetpop":47060.336853,"totalarea":77.405624,"new_mean":0.0222823}},{"type":"MultiPolygon","arcs":[[[36,37,38]],[[39]]],"properties":{"name":"Cuenca","gaul_code":15321,"targetarea":167.3283712,"totpop":604364.510987,"country_id":"ECU","targetpop":501824.595306,"totalarea":3071.6012834,"new_mean":0.0220344}},{"type":"MultiPolygon","arcs":[[[40]],[[41]],[[42]],[[43]],[[44]],[[45]]],"properties":{"name":"Sucre","gaul_code":15486,"targetarea":34.0627138,"totpop":115143.329056,"country_id":"ECU","targetpop":35500.3319244,"totalarea":1989.615658,"new_mean":0.0231963}},{"type":"MultiPolygon","arcs":[[[46]],[[47]],[[48]]],"properties":{"name":"Jipijapa","gaul_code":15477,"targetarea":21.7803096,"totpop":103807.35713,"country_id":"ECU","targetpop":34830.6901245,"totalarea":1833.0426468,"new_mean":0.0240678}},{"type":"Polygon","arcs":[[49]],"properties":{"name":"Isla Del Medio","gaul_code":15476,"targetarea":6.9472419,"totpop":61543.564023,"country_id":"ECU","targetpop":10879.0524292,"totalarea":1974.6389932,"new_mean":0.0231129}},{"type":"Polygon","arcs":[[50]],"properties":{"name":"Simon Bolivar","gaul_code":15437,"targetarea":3.0797557,"totpop":31813.3395805,"country_id":"ECU","targetpop":2910.7399597,"totalarea":285.2685822,"new_mean":0.0212788}},{"type":"Polygon","arcs":[[51,52]],"properties":{"name":"Tena","gaul_code":15500,"targetarea":32.0508295,"totpop":113442.336326,"country_id":"ECU","targetpop":36403.6417542,"totalarea":5006.423634,"new_mean":0.0200441}},{"type":"Polygon","arcs":[[53]],"properties":{"name":"Gualaquiza","gaul_code":15488,"targetarea":1.1651736,"totpop":22047.1288294,"country_id":"ECU","targetpop":1855.2783814,"totalarea":2252.8673856,"new_mean":0.0210815}},{"type":"Polygon","arcs":[[54]],"properties":{"name":"Lago Agrio","gaul_code":15518,"targetarea":38.7283467,"totpop":146443.940028,"country_id":"ECU","targetpop":50437.1632385,"totalarea":6937.4618019,"new_mean":0.0177266}},{"type":"Polygon","arcs":[[55,-32]],"properties":{"name":"Ibarra","gaul_code":15442,"targetarea":75.6049288,"totpop":203799.447248,"country_id":"ECU","targetpop":152158.153732,"totalarea":1090.5425794,"new_mean":0.0224275}},{"type":"Polygon","arcs":[[55,-32]],"properties":{"name":"Ibarra","gaul_code":15442,"targetarea":75.6049288,"totpop":203799.447248,"country_id":"ECU","targetpop":152158.153732,"totalarea":1090.5425794,"new_mean":0.0225561}},{"type":"Polygon","arcs":[[56,57]],"properties":{"name":"El Triunfo","gaul_code":15422,"targetarea":11.1238661,"totpop":52674.5085878,"country_id":"ECU","targetpop":15153.6662292,"totalarea":416.1964417,"new_mean":0.0214762}},{"type":"Polygon","arcs":[[58]],"properties":{"name":"Alausi","gaul_code":15351,"targetarea":5.1257016,"totpop":49650.5834396,"country_id":"ECU","targetpop":6736.5489807,"totalarea":1659.7055372,"new_mean":0.021275}},{"type":"Polygon","arcs":[[59]],"properties":{"name":"Santiago Pillaro","gaul_code":15528,"targetarea":10.02547,"totpop":46352.5665816,"country_id":"ECU","targetpop":8878.3442688,"totalarea":492.6657288,"new_mean":0.0220393}},{"type":"MultiPolygon","arcs":[[[60,61,62]],[[63,64,65]],[[66]]],"properties":{"name":"Latacunga","gaul_code":15362,"targetarea":77.4259555,"totpop":180614.582845,"country_id":"ECU","targetpop":90718.9368286,"totalarea":1372.9013331,"new_mean":0.0222769}},{"type":"Polygon","arcs":[[67]],"properties":{"name":"Coronel Marcelin","gaul_code":15418,"targetarea":3.2714905,"totpop":19878.5539589,"country_id":"ECU","targetpop":3141.3066101,"totalarea":265.6769054,"new_mean":0.0209777}},{"type":"Polygon","arcs":[[68]],"properties":{"name":"Ventanas","gaul_code":15469,"targetarea":20.6596426,"totpop":105221.174307,"country_id":"ECU","targetpop":24454.4163513,"totalarea":859.3943124,"new_mean":0.020109}},{"type":"Polygon","arcs":[[69,70,71]],"properties":{"name":"Zaruma","gaul_code":15383,"targetarea":7.9502333,"totpop":27300.9652424,"country_id":"ECU","targetpop":11084.730896,"totalarea":637.4558305,"new_mean":0.0209599}},{"type":"MultiPolygon","arcs":[[[72]],[[73,74,75,76,77]],[[78]]],"properties":{"name":"Ambato","gaul_code":15522,"targetarea":148.3621815,"totpop":383413.054487,"country_id":"ECU","targetpop":303482.566345,"totalarea":1018.3476544,"new_mean":0.0225991}},{"type":"MultiPolygon","arcs":[[[79]],[[80,81]]],"properties":{"name":"Urbina Jado","gaul_code":15438,"targetarea":13.8908572,"totpop":66112.7790146,"country_id":"ECU","targetpop":15391.7719116,"totalarea":362.6226924,"new_mean":0.0243624}},{"type":"MultiPolygon","arcs":[[[-65,82]],[[83]]],"properties":{"name":"Saquisili","gaul_code":15366,"targetarea":9.0776537,"totpop":32560.4699841,"country_id":"ECU","targetpop":9115.6869202,"totalarea":198.2285137,"new_mean":0.0224149}},{"type":"Polygon","arcs":[[84]],"properties":{"name":"Sucua","gaul_code":15495,"targetarea":4.7360515,"totpop":27104.5087756,"country_id":"ECU","targetpop":4737.8773499,"totalarea":1710.6931875,"new_mean":0.0220935}},{"type":"MultiPolygon","arcs":[[[85]],[[86,87]]],"properties":{"name":"Salinas","gaul_code":15433,"targetarea":48.3280694,"totpop":121838.947586,"country_id":"ECU","targetpop":113061.774582,"totalarea":81.6981827,"new_mean":0.0225336}},{"type":"MultiPolygon","arcs":[[[88]],[[89]],[[90]],[[91]],[[92]],[[93]],[[94,95,96,97],[98]]],"properties":{"name":"Quito","gaul_code":15512,"targetarea":670.6401877,"totpop":2792427.76185,"country_id":"ECU","targetpop":2594781.26332,"totalarea":4158.4332857,"new_mean":0.0231354}},{"type":"MultiPolygon","arcs":[[[99]],[[100]]],"properties":{"name":"Tulcan","gaul_code":15350,"targetarea":33.7504543,"totpop":104769.10045,"country_id":"ECU","targetpop":57444.6353989,"totalarea":1605.5876861,"new_mean":0.0223159}},{"type":"Polygon","arcs":[[101]],"properties":{"name":"Pimampiro","gaul_code":15444,"targetarea":2.2959262,"totpop":14522.0958691,"country_id":"ECU","targetpop":2648.4238892,"totalarea":371.1633439,"new_mean":0.0227026}},{"type":"Polygon","arcs":[[101]],"properties":{"name":"Pimampiro","gaul_code":15444,"targetarea":2.2959262,"totpop":14522.0958691,"country_id":"ECU","targetpop":2648.4238892,"totalarea":371.1633439,"new_mean":0.0218235}},{"type":"Polygon","arcs":[[102]],"properties":{"name":"Pajan","gaul_code":15481,"targetarea":4.5431279,"totpop":44726.2111566,"country_id":"ECU","targetpop":5215.5400391,"totalarea":1087.0104704,"new_mean":0.0244108}},{"type":"Polygon","arcs":[[103]],"properties":{"name":"Echeandia","gaul_code":15336,"targetarea":1.1668184,"totpop":13068.4880943,"country_id":"ECU","targetpop":1069.88797,"totalarea":223.2379848,"new_mean":0.0169458}},{"type":"Polygon","arcs":[[104]],"properties":{"name":"Orellana","gaul_code":15504,"targetarea":36.0423684,"totpop":107872.220219,"country_id":"ECU","targetpop":53699.5342102,"totalarea":5694.1312639,"new_mean":0.0188397}},{"type":"Polygon","arcs":[[105]],"properties":{"name":"Santa Rosa","gaul_code":15382,"targetarea":24.6316675,"totpop":81261.9009863,"country_id":"ECU","targetpop":41613.2021484,"totalarea":818.7476264,"new_mean":0.0221871}},{"type":"MultiPolygon","arcs":[[[-75,106,107]],[[108,109,110]]],"properties":{"name":"Cevallos","gaul_code":15524,"targetarea":6.1590476,"totpop":9691.2610321,"country_id":"ECU","targetpop":0,"totalarea":19.3804585,"new_mean":0.0226008}},{"type":"Polygon","arcs":[[111,112,113,114]],"properties":{"name":"Machala","gaul_code":15376,"targetarea":119.6073658,"totpop":279939.045653,"country_id":"ECU","targetpop":253243.351471,"totalarea":307.266617,"new_mean":0.0158711}},{"type":"Polygon","arcs":[[115]],"properties":{"name":"Palestina","gaul_code":15430,"targetarea":3.8865503,"totpop":20007.8757858,"country_id":"ECU","targetpop":3413.9619446,"totalarea":187.4773617,"new_mean":0.0243698}},{"type":"MultiPolygon","arcs":[[[116]],[[117]],[[118]]],"properties":{"name":"La Concordia","gaul_code":15537,"targetarea":19.5501583,"totpop":75018.8449926,"country_id":"ECU","targetpop":25365.9412842,"totalarea":697.5748317,"new_mean":0.0241145}},{"type":"MultiPolygon","arcs":[[[116]],[[117]],[[118]]],"properties":{"name":"La Concordia","gaul_code":15537,"targetarea":19.5501583,"totpop":75018.8449926,"country_id":"ECU","targetpop":25365.9412842,"totalarea":697.5748317,"new_mean":0.0222207}},{"type":"Polygon","arcs":[[119]],"properties":{"name":"Santa Cruz (is.)","gaul_code":15411,"targetarea":4.0309309,"totpop":20467.1320846,"country_id":"ECU","targetpop":16553.9587402,"totalarea":985.6112375,"new_mean":0.0222684}},{"type":"Polygon","arcs":[[-111,120,121]],"properties":{"name":"Mocha","gaul_code":15525,"targetarea":0.339555,"totpop":8558.8830757,"country_id":"ECU","targetpop":746.9013672,"totalarea":81.465961,"new_mean":0.0227361}},{"type":"Polygon","arcs":[[122]],"properties":{"name":"Naranjito","gaul_code":15428,"targetarea":10.6009212,"totpop":43486.5775986,"country_id":"ECU","targetpop":14991.8856506,"totalarea":235.4637652,"new_mean":0.0214603}},{"type":"MultiPolygon","arcs":[[[123]],[[124]],[[125,126]],[[127]],[[128]],[[129]],[[130]],[[131]]],"properties":{"name":"Santa Elena","gaul_code":15435,"targetarea":56.7139527,"totpop":174970.125573,"country_id":"ECU","targetpop":53387.5224152,"totalarea":3702.8877971,"new_mean":0.0222751}},{"type":"Polygon","arcs":[[132]],"properties":{"name":"Santa Lucia","gaul_code":15436,"targetarea":7.9286437,"totpop":37044.5398178,"country_id":"ECU","targetpop":6842.5899658,"totalarea":299.1463227,"new_mean":0.0240308}},{"type":"MultiPolygon","arcs":[[[133]],[[134]]],"properties":{"name":"El Carmen","gaul_code":15474,"targetarea":28.5607337,"totpop":104316.306997,"country_id":"ECU","targetpop":33337.3601074,"totalarea":1225.7864207,"new_mean":0.0226746}},{"type":"MultiPolygon","arcs":[[[135]],[[-58,136]]],"properties":{"name":"La Troncal","gaul_code":15345,"targetarea":21.6074709,"totpop":62648.9503851,"country_id":"ECU","targetpop":27008.429657,"totalarea":321.5720698,"new_mean":0.021865}},{"type":"MultiPolygon","arcs":[[[137]],[[138]]],"properties":{"name":"Santo Domingo","gaul_code":15514,"targetarea":135.0820679,"totpop":477113.400765,"country_id":"ECU","targetpop":283704.958221,"totalarea":3223.2001667,"new_mean":0.0222987}},{"type":"Polygon","arcs":[[139]],"properties":{"name":"Saraguro","gaul_code":15458,"targetarea":3.2050429,"totpop":31620.539032,"country_id":"ECU","targetpop":2895.0845947,"totalarea":952.8744769,"new_mean":0.0223222}},{"type":"Polygon","arcs":[[139]],"properties":{"name":"Saraguro","gaul_code":15458,"targetarea":3.2050429,"totpop":31620.539032,"country_id":"ECU","targetpop":2895.0845947,"totalarea":952.8744769,"new_mean":0.0216518}},{"type":"Polygon","arcs":[[140]],"properties":{"name":"Loreto","gaul_code":15503,"targetarea":3.1419194,"totpop":34449.4255883,"country_id":"ECU","targetpop":2655.3268433,"totalarea":2106.1806367,"new_mean":0.0191414}},{"type":"Polygon","arcs":[[141]],"properties":{"name":"Tosagua","gaul_code":15487,"targetarea":8.1142663,"totpop":44248.4464912,"country_id":"ECU","targetpop":10895.5091553,"totalarea":368.0503576,"new_mean":0.0243575}},{"type":"MultiPolygon","arcs":[[[142]],[[-35,143,144]]],"properties":{"name":"Otavalo","gaul_code":15443,"targetarea":78.8807632,"totpop":123836.309467,"country_id":"ECU","targetpop":87389.061615,"totalarea":506.6204579,"new_mean":0.0222769}},{"type":"Polygon","arcs":[[145]],"properties":{"name":"Yantzaza","gaul_code":15535,"targetarea":4.9523327,"totpop":23093.9487952,"country_id":"ECU","targetpop":4631.7442627,"totalarea":1076.1413651,"new_mean":0.0208732}},{"type":"MultiPolygon","arcs":[[[146,147]],[[148]]],"properties":{"name":"Catamayo","gaul_code":15447,"targetarea":13.6907936,"totpop":35332.0829792,"country_id":"ECU","targetpop":13823.2433777,"totalarea":663.4444995,"new_mean":0.0217806}},{"type":"Polygon","arcs":[[149]],"properties":{"name":"Lomas De Sargent","gaul_code":15425,"targetarea":11.6389023,"totpop":35253.0435185,"country_id":"ECU","targetpop":13088.6626282,"totalarea":548.0566855,"new_mean":0.0243686}},{"type":"Polygon","arcs":[[150]],"properties":{"name":"Urdaneta","gaul_code":15468,"targetarea":5.7434294,"totpop":37785.8580599,"country_id":"ECU","targetpop":5847.8592529,"totalarea":404.5878761,"new_mean":0.0193782}},{"type":"MultiPolygon","arcs":[[[-22,151]],[[152,153]],[[154,155]],[[-82,156]],[[157]]],"properties":{"name":"Daule","gaul_code":15419,"targetarea":54.9206272,"totpop":153693.616082,"country_id":"ECU","targetpop":74587.6605759,"totalarea":472.236856,"new_mean":0.0244026}},{"type":"Polygon","arcs":[[158]],"properties":{"name":"24 De Mayo","gaul_code":15471,"targetarea":3.0263361,"totpop":33495.5786924,"country_id":"ECU","targetpop":2628.1496277,"totalarea":515.3857276,"new_mean":0.0242967}},{"type":"MultiPolygon","arcs":[[[159]],[[160]]],"properties":{"name":"Loja","gaul_code":15452,"targetarea":85.6337659,"totpop":238049.618662,"country_id":"ECU","targetpop":177304.183228,"totalarea":1906.0808936,"new_mean":0.0200167}},{"type":"MultiPolygon","arcs":[[[161]],[[162]]],"properties":{"name":"Yaguachi","gaul_code":15439,"targetarea":13.007876,"totpop":74673.8841591,"country_id":"ECU","targetpop":13519.620575,"totalarea":517.9412944,"new_mean":0.0239809}},{"type":"Polygon","arcs":[[163]],"properties":{"name":"Chambo","gaul_code":15352,"targetarea":2.7333876,"totpop":13819.2356713,"country_id":"ECU","targetpop":2617.585144,"totalarea":174.598806,"new_mean":0.0221661}},{"type":"MultiPolygon","arcs":[[[164]],[[165]]],"properties":{"name":"Atacames","gaul_code":15384,"targetarea":7.199744,"totpop":31214.5928349,"country_id":"ECU","targetpop":4583.6564331,"totalarea":473.6157546,"new_mean":0.023536}},{"type":"Polygon","arcs":[[166]],"properties":{"name":"Alfredo Baqueriz","gaul_code":15414,"targetarea":4.0672868,"totpop":31364.8804789,"country_id":"ECU","targetpop":3827.427948,"totalarea":215.0628072,"new_mean":0.0231643}},{"type":"Polygon","arcs":[[167]],"properties":{"name":"Bolivar","gaul_code":15472,"targetarea":8.9858375,"totpop":47541.0695429,"country_id":"ECU","targetpop":13455.1292419,"totalarea":534.3708906,"new_mean":0.0244663}},{"type":"Polygon","arcs":[[168,169]],"properties":{"name":"Guamote","gaul_code":15356,"targetarea":3.0398741,"totpop":48577.394306,"country_id":"ECU","targetpop":4287.4592895,"totalarea":1210.2535271,"new_mean":0.0224045}},{"type":"Polygon","arcs":[[170]],"properties":{"name":"Puyango","gaul_code":15456,"targetarea":1.8685892,"totpop":16770.4261651,"country_id":"ECU","targetpop":1266.8125305,"totalarea":631.9229162,"new_mean":0.0232992}},{"type":"MultiPolygon","arcs":[[[-114,171]],[[-112,172]]],"properties":{"name":"El Guabo","gaul_code":15372,"targetarea":15.0663536,"totpop":51885.7852893,"country_id":"ECU","targetpop":14539.4391174,"totalarea":588.8488136,"new_mean":0.0222161}},{"type":"Polygon","arcs":[[173]],"properties":{"name":"Guaranda","gaul_code":15337,"targetarea":21.2223718,"totpop":102638.015352,"country_id":"ECU","targetpop":31549.8005371,"totalarea":1957.047511,"new_mean":0.0213051}},{"type":"MultiPolygon","arcs":[[[174]],[[175,176]]],"properties":{"name":"Mera","gaul_code":15505,"targetarea":6.0232139,"totpop":18045.8231455,"country_id":"ECU","targetpop":5876.1070557,"totalarea":625.7440514,"new_mean":0.0218201}},{"type":"Polygon","arcs":[[177]],"properties":{"name":"Isabels (is.)","gaul_code":15404,"targetarea":1.5485512,"totpop":2734.3782091,"country_id":"ECU","targetpop":2086.5265198,"totalarea":4712.6249382,"new_mean":0.0233577}},{"type":"MultiPolygon","arcs":[[[178,179]],[[180]],[[181]]],"properties":{"name":"Guano","gaul_code":15357,"targetarea":19.7463743,"totpop":67136.5765953,"country_id":"ECU","targetpop":23187.0775757,"totalarea":513.195969,"new_mean":0.022591}},{"type":"Polygon","arcs":[[182]],"properties":{"name":"Sissig","gaul_code":15332,"targetarea":2.2928126,"totpop":29453.856364,"country_id":"ECU","targetpop":2626.6970215,"totalarea":637.2196458,"new_mean":0.0225959}},{"type":"Polygon","arcs":[[183]],"properties":{"name":"Babahoyo","gaul_code":15462,"targetarea":52.1172553,"totpop":181744.557278,"country_id":"ECU","targetpop":91103.013916,"totalarea":1058.4578857,"new_mean":0.0220959}},{"type":"MultiPolygon","arcs":[[[-38,184,185]],[[186]],[[187,188]]],"properties":{"name":"Azogues","gaul_code":15340,"targetarea":32.6955431,"totpop":78850.0149777,"country_id":"ECU","targetpop":46460.391449,"totalarea":572.0720392,"new_mean":0.0224627}},{"type":"Polygon","arcs":[[189]],"properties":{"name":"Calvas","gaul_code":15446,"targetarea":6.3264485,"totpop":32030.330862,"country_id":"ECU","targetpop":8241.14505,"totalarea":853.9173542,"new_mean":0.0221185}},{"type":"Polygon","arcs":[[-127,190,-88,191]],"properties":{"name":"La Libertad","gaul_code":15424,"targetarea":24.0836235,"totpop":98909.325531,"country_id":"ECU","targetpop":98184.5842896,"totalarea":27.455221,"new_mean":0.0226109}},{"type":"MultiPolygon","arcs":[[[192,193,-20,194,195,196]],[[197]],[[198]]],"properties":{"name":"Samborondon","gaul_code":15434,"targetarea":48.1009879,"totpop":101072.98178,"country_id":"ECU","targetpop":62537.4692841,"totalarea":383.2015315,"new_mean":0.0242703}},{"type":"Polygon","arcs":[[199]],"properties":{"name":"S.cristobal (is.)","gaul_code":15409,"targetarea":3.2391593,"totpop":8523.2517379,"country_id":"ECU","targetpop":5655.3865356,"totalarea":550.144195,"new_mean":0.0235793}},{"type":"Polygon","arcs":[[200]],"properties":{"name":"Pucara","gaul_code":15328,"targetarea":1.7212637,"totpop":32170.5026302,"country_id":"ECU","targetpop":1729.9483948,"totalarea":809.2989232,"new_mean":0.0213012}},{"type":"MultiPolygon","arcs":[[[201]],[[202,203]]],"properties":{"name":"El Empalme","gaul_code":15421,"targetarea":25.1244512,"totpop":100842.569319,"country_id":"ECU","targetpop":34637.8703918,"totalarea":749.0381716,"new_mean":0.0230723}},{"type":"Polygon","arcs":[[204]],"properties":{"name":"Pichincha","gaul_code":15482,"targetarea":0.9840955,"totpop":36422.7883474,"country_id":"ECU","targetpop":1288.3493957,"totalarea":1090.63818,"new_mean":0.0243752}},{"type":"Polygon","arcs":[[205,-72,206]],"properties":{"name":"Portovelo","gaul_code":15381,"targetarea":4.3939277,"totpop":11675.0686707,"country_id":"ECU","targetpop":4130.2361755,"totalarea":287.4828888,"new_mean":0.0219063}},{"type":"Polygon","arcs":[[-148,207]],"properties":{"name":"Gonzanama","gaul_code":15451,"targetarea":1.6220743,"totpop":16656.2388589,"country_id":"ECU","targetpop":1767.1526794,"totalarea":714.8512756,"new_mean":0.0214913}},{"type":"Polygon","arcs":[[208]],"properties":{"name":"Pallatanga","gaul_code":15358,"targetarea":2.0046118,"totpop":12736.0671263,"country_id":"ECU","targetpop":1662.8648682,"totalarea":357.3816818,"new_mean":0.0160517}},{"type":"Polygon","arcs":[[209,210]],"properties":{"name":"Canar","gaul_code":15342,"targetarea":16.4336216,"totpop":68771.9351767,"country_id":"ECU","targetpop":16248.9384766,"totalarea":1847.7638407,"new_mean":0.0210027}},{"type":"MultiPolygon","arcs":[[[211]],[[212]]],"properties":{"name":"La Joya De Los S","gaul_code":15502,"targetarea":13.0312694,"totpop":66243.6252614,"country_id":"ECU","targetpop":9607.249054,"totalarea":1266.2164669,"new_mean":0.0180256}},{"type":"Polygon","arcs":[[213]],"properties":{"name":"El Chaco","gaul_code":15498,"targetarea":2.2959406,"totpop":13763.2072723,"country_id":"ECU","targetpop":2349.1548462,"totalarea":3454.4019833,"new_mean":0.0208003}},{"type":"MultiPolygon","arcs":[[[214]],[[-107,-74,215]]],"properties":{"name":"Tisaleo","gaul_code":15530,"targetarea":3.8037889,"totpop":13263.8893557,"country_id":"ECU","targetpop":2144.7097168,"totalarea":59.3325049,"new_mean":0.0226287}},{"type":"Polygon","arcs":[[216]],"properties":{"name":"Pedro Carbo","gaul_code":15431,"targetarea":11.4723293,"totpop":51088.0646722,"country_id":"ECU","targetpop":14615.7754822,"totalarea":881.3573852,"new_mean":0.0245586}},{"type":"Polygon","arcs":[[217]],"properties":{"name":"Baba","gaul_code":15461,"targetarea":3.7941568,"totpop":47169.8277466,"country_id":"ECU","targetpop":3157.3948975,"totalarea":495.0701185,"new_mean":0.0234686}},{"type":"Polygon","arcs":[[218]],"properties":{"name":"Junin","gaul_code":15478,"targetarea":3.0382495,"totpop":23320.5280428,"country_id":"ECU","targetpop":3979.6791992,"totalarea":256.0095548,"new_mean":0.0244938}},{"type":"Polygon","arcs":[[219]],"properties":{"name":"La Mana","gaul_code":15361,"targetarea":14.0366103,"totpop":43714.0165015,"country_id":"ECU","targetpop":14394.1069946,"totalarea":593.4416867,"new_mean":0.0196073}},{"type":"Polygon","arcs":[[220]],"properties":{"name":"San Lorenzo","gaul_code":15390,"targetarea":12.4002098,"totpop":57294.1782051,"country_id":"ECU","targetpop":13214.5990906,"totalarea":3093.292167,"new_mean":0.0231219}},{"type":"Polygon","arcs":[[221]],"properties":{"name":"El Pangui","gaul_code":15532,"targetarea":1.1649003,"totpop":11130.4190202,"country_id":"ECU","targetpop":1425.1956787,"totalarea":781.8760073,"new_mean":0.0207176}},{"type":"MultiPolygon","arcs":[[[222]],[[223]],[[224]],[[225,-95]]],"properties":{"name":"Mejia","gaul_code":15509,"targetarea":53.8444844,"totpop":113503.405392,"country_id":"ECU","targetpop":60422.4692383,"totalarea":1497.7781465,"new_mean":0.0224448}},{"type":"Polygon","arcs":[[226,-189]],"properties":{"name":"Biblian","gaul_code":15341,"targetarea":8.6389674,"totpop":22521.2367339,"country_id":"ECU","targetpop":7284.3918152,"totalarea":241.8110559,"new_mean":0.0224867}},{"type":"MultiPolygon","arcs":[[[227,-210,228]],[[229]]],"properties":{"name":"El Tambo","gaul_code":15344,"targetarea":4.58901,"totpop":12594.1959472,"country_id":"ECU","targetpop":3968.5596924,"totalarea":62.3486294,"new_mean":0.0218123}},{"type":"MultiPolygon","arcs":[[[-10,230]],[[231,-185,-37,232]],[[233]],[[234]]],"properties":{"name":"Paute","gaul_code":15327,"targetarea":7.0855811,"totpop":37105.3783722,"country_id":"ECU","targetpop":7211.8461914,"totalarea":303.3422257,"new_mean":0.0225413}},{"type":"Polygon","arcs":[[235,236]],"properties":{"name":"Salcedo","gaul_code":15365,"targetarea":29.3292362,"totpop":72304.5852442,"country_id":"ECU","targetpop":26927.486084,"totalarea":510.3890426,"new_mean":0.0220983}},{"type":"Polygon","arcs":[[235,236]],"properties":{"name":"Salcedo","gaul_code":15365,"targetarea":29.3292362,"totpop":72304.5852442,"country_id":"ECU","targetpop":26927.486084,"totalarea":510.3890426,"new_mean":0.0219487}},{"type":"MultiPolygon","arcs":[[[237,238,239]],[[240,241,242]]],"properties":{"name":"Montecristi","gaul_code":15480,"targetarea":42.5184664,"totpop":94031.5599034,"country_id":"ECU","targetpop":40242.5477104,"totalarea":837.6977113,"new_mean":0.0237872}},{"type":"Polygon","arcs":[[243]],"properties":{"name":"Macara","gaul_code":15453,"targetarea":4.9043237,"totpop":20436.7743988,"country_id":"ECU","targetpop":6980.4762573,"totalarea":577.0379994,"new_mean":0.0235119}},{"type":"Polygon","arcs":[[-97,244]],"properties":{"name":"Ruminahui","gaul_code":15513,"targetarea":46.143274,"totpop":111353.226101,"country_id":"ECU","targetpop":102207.735565,"totalarea":142.1549248,"new_mean":0.0222956}},{"type":"MultiPolygon","arcs":[[[245,246]],[[-180,247]]],"properties":{"name":"Riobamba","gaul_code":15360,"targetarea":66.5326778,"totpop":252831.947614,"country_id":"ECU","targetpop":178816.191345,"totalarea":1027.0088163,"new_mean":0.022358}},{"type":"Polygon","arcs":[[248]],"properties":{"name":"Balzar","gaul_code":15416,"targetarea":11.0665739,"totpop":65432.4506416,"country_id":"ECU","targetpop":13772.2370605,"totalarea":1198.1010339,"new_mean":0.0247854}},{"type":"Polygon","arcs":[[248]],"properties":{"name":"Balzar","gaul_code":15416,"targetarea":11.0665739,"totpop":65432.4506416,"country_id":"ECU","targetpop":13772.2370605,"totalarea":1198.1010339,"new_mean":0.0250724}},{"type":"Polygon","arcs":[[249]],"properties":{"name":"Palenque","gaul_code":15465,"targetarea":2.0051908,"totpop":26480.2570648,"country_id":"ECU","targetpop":1960.6804199,"totalarea":539.7779865,"new_mean":0.0242978}},{"type":"MultiPolygon","arcs":[[[250]],[[251]]],"properties":{"name":"San Miguel","gaul_code":15339,"targetarea":7.3068983,"totpop":29434.8389893,"country_id":"ECU","targetpop":8689.8216858,"totalarea":557.0586286,"new_mean":0.0206993}},{"type":"Polygon","arcs":[[252]],"properties":{"name":"Morona","gaul_code":15491,"targetarea":15.3650462,"totpop":86255.8369209,"country_id":"ECU","targetpop":19835.3103027,"totalarea":11379.3725608,"new_mean":0.0217386}},{"type":"Polygon","arcs":[[253]],"properties":{"name":"Mira","gaul_code":15348,"targetarea":1.1671222,"totpop":12414.8219397,"country_id":"ECU","targetpop":1121.481781,"totalarea":569.9714416,"new_mean":0.0222363}},{"type":"MultiPolygon","arcs":[[[254]],[[255]]],"properties":{"name":"Puebloviejo","gaul_code":15466,"targetarea":8.8456963,"totpop":44067.0680847,"country_id":"ECU","targetpop":10446.5913696,"totalarea":355.9882506,"new_mean":0.0226087}},{"type":"Polygon","arcs":[[256]],"properties":{"name":"Banos","gaul_code":15523,"targetarea":7.0773634,"totpop":21347.5511712,"country_id":"ECU","targetpop":9016.3921814,"totalarea":989.7399257,"new_mean":0.0220253}},{"type":"Polygon","arcs":[[257]],"properties":{"name":"Naranjal","gaul_code":15427,"targetarea":11.2668853,"totpop":95815.2895809,"country_id":"ECU","targetpop":14023.0490723,"totalarea":2007.9199867,"new_mean":0.0228272}},{"type":"Polygon","arcs":[[258]],"properties":{"name":"Paltas","gaul_code":15454,"targetarea":1.747613,"totpop":32839.3721154,"country_id":"ECU","targetpop":2319.77948,"totalarea":1291.7075073,"new_mean":0.0224496}},{"type":"MultiPolygon","arcs":[[[259,260,-26]],[[261]],[[262]],[[263]]],"properties":{"name":"Milagro","gaul_code":15426,"targetarea":65.5452257,"totpop":211793.644138,"country_id":"ECU","targetpop":137148.042511,"totalarea":564.8455829,"new_mean":0.0229329}},{"type":"Polygon","arcs":[[264]],"properties":{"name":"Montufar","gaul_code":15349,"targetarea":10.1491732,"totpop":33196.6787772,"country_id":"ECU","targetpop":11088.8479309,"totalarea":383.3303787,"new_mean":0.0224138}},{"type":"MultiPolygon","arcs":[[[-170,265]],[[266]],[[-247,267]]],"properties":{"name":"Colta","gaul_code":15354,"targetarea":6.9267587,"totpop":48270.586453,"country_id":"ECU","targetpop":5828.669342,"totalarea":861.2410919,"new_mean":0.0199668}},{"type":"MultiPolygon","arcs":[[[-170,265]],[[266]],[[-247,267]]],"properties":{"name":"Colta","gaul_code":15354,"targetarea":6.9267587,"totpop":48270.586453,"country_id":"ECU","targetpop":5828.669342,"totalarea":861.2410919,"new_mean":0.0220965}},{"type":"Polygon","arcs":[[268]],"properties":{"name":"Vinces","gaul_code":15470,"targetarea":14.5915883,"totpop":87114.4704266,"country_id":"ECU","targetpop":20819.6954346,"totalarea":710.8921531,"new_mean":0.0243794}},{"type":"Polygon","arcs":[[269]],"properties":{"name":"Chone","gaul_code":15473,"targetarea":24.9577668,"totpop":146214.363296,"country_id":"ECU","targetpop":40432.9731445,"totalarea":3012.6230896,"new_mean":0.0241252}},{"type":"Polygon","arcs":[[270]],"properties":{"name":"Patate","gaul_code":15526,"targetarea":1.3958991,"totpop":14647.1433806,"country_id":"ECU","targetpop":1371.633606,"totalarea":334.7347507,"new_mean":0.0223384}},{"type":"Polygon","arcs":[[-155,271,-154,272]],"properties":{"name":"Nobol","gaul_code":15429,"targetarea":6.3737605,"totpop":20504.587532,"country_id":"ECU","targetpop":4585.5028076,"totalarea":127.9065913,"new_mean":0.0242439}},{"type":"Polygon","arcs":[[-261,273,-24]],"properties":{"name":"Cumanda","gaul_code":15355,"targetarea":2.6540191,"totpop":13941.7661858,"country_id":"ECU","targetpop":2425.1731567,"totalarea":148.0349603,"new_mean":0.0204369}},{"type":"Polygon","arcs":[[-261,273,-24]],"properties":{"name":"Cumanda","gaul_code":15355,"targetarea":2.6540191,"totpop":13941.7661858,"country_id":"ECU","targetpop":2425.1731567,"totalarea":148.0349603,"new_mean":0.0210733}},{"type":"MultiPolygon","arcs":[[[274]],[[275]]],"properties":{"name":"Quininde","gaul_code":15389,"targetarea":17.3592167,"totpop":131788.758661,"country_id":"ECU","targetpop":19841.3486633,"totalarea":3318.7731337,"new_mean":0.0221631}},{"type":"MultiPolygon","arcs":[[[276,-196,277]],[[278,-18,279]],[[-193,280]]],"properties":{"name":"Duran","gaul_code":15420,"targetarea":129.9059384,"totpop":304896.548279,"country_id":"ECU","targetpop":256574.358246,"totalarea":344.0109664,"new_mean":0.0233809}},{"type":"MultiPolygon","arcs":[[[281]],[[282]],[[-236,283,-62,284]]],"properties":{"name":"Pujili","gaul_code":15364,"targetarea":32.8395807,"totpop":102412.603173,"country_id":"ECU","targetpop":27709.8942566,"totalarea":1377.6677584,"new_mean":0.0220088}},{"type":"MultiPolygon","arcs":[[[285,-203]],[[286]]],"properties":{"name":"Buena Fe","gaul_code":15463,"targetarea":18.9834767,"totpop":75220.4069824,"country_id":"ECU","targetpop":23517.3057251,"totalarea":579.7002345,"new_mean":0.0218582}},{"type":"Polygon","arcs":[[287,-52]],"properties":{"name":"Archidona","gaul_code":15497,"targetarea":6.7484641,"totpop":40121.2132058,"country_id":"ECU","targetpop":6067.8413391,"totalarea":2980.5271834,"new_mean":0.021281}},{"type":"Polygon","arcs":[[288]],"properties":{"name":"Pasaje","gaul_code":15379,"targetarea":32.1649177,"totpop":86116.7027807,"country_id":"ECU","targetpop":53565.5705872,"totalarea":459.0677206,"new_mean":0.0234136}},{"type":"Polygon","arcs":[[289,290]],"properties":{"name":"Huaquillas","gaul_code":15373,"targetarea":16.869252,"totpop":47184.2372508,"country_id":"ECU","targetpop":43619.442791,"totalarea":60.524138,"new_mean":0.0226672}},{"type":"MultiPolygon","arcs":[[[291]],[[-77,292]]],"properties":{"name":"Sn Pedro Pelileo","gaul_code":15529,"targetarea":33.0999478,"totpop":67873.542366,"country_id":"ECU","targetpop":30743.9177551,"totalarea":226.1130006,"new_mean":0.0224411}},{"type":"Polygon","arcs":[[293]],"properties":{"name":"Montalvo","gaul_code":15464,"targetarea":1.9796642,"totpop":29553.2534084,"country_id":"ECU","targetpop":1727.381012,"totalarea":366.0657932,"new_mean":0.0175636}},{"type":"Polygon","arcs":[[294]],"properties":{"name":"Santa Ana","gaul_code":15485,"targetarea":5.1276693,"totpop":66797.5757589,"country_id":"ECU","targetpop":5736.8634644,"totalarea":1253.0435812,"new_mean":0.0245546}},{"type":"Polygon","arcs":[[295,-176]],"properties":{"name":"Pastaza","gaul_code":15506,"targetarea":29.6538375,"totpop":97295.4155327,"country_id":"ECU","targetpop":41216.9202271,"totalarea":29611.8418219,"new_mean":0.0216088}},{"type":"MultiPolygon","arcs":[[[296]],[[-291,297]]],"properties":{"name":"Arenillas","gaul_code":15368,"targetarea":9.4589679,"totpop":37495.2631951,"country_id":"ECU","targetpop":10506.1271057,"totalarea":843.5829714,"new_mean":0.0233088}},{"type":"Polygon","arcs":[[298]],"properties":{"name":"Zamora","gaul_code":15496,"targetarea":6.2805405,"totpop":40820.1524037,"country_id":"ECU","targetpop":6165.7093201,"totalarea":2306.9708931,"new_mean":0.0202064}},{"type":"Polygon","arcs":[[299]],"properties":{"name":"Chimbo","gaul_code":15335,"targetarea":2.295014,"totpop":17589.8988028,"country_id":"ECU","targetpop":2914.6469727,"totalarea":276.1223784,"new_mean":0.0207079}},{"type":"MultiPolygon","arcs":[[[-16,300]],[[301]],[[302]],[[303]],[[304]]],"properties":{"name":"Playas","gaul_code":15432,"targetarea":24.0035446,"totpop":56111.8246939,"country_id":"ECU","targetpop":31452.6473999,"totalarea":359.153232,"new_mean":0.0227456}},{"type":"MultiPolygon","arcs":[[[305]],[[306]],[[307]],[[308]],[[309]]],"properties":{"name":"Rocafuerte","gaul_code":15484,"targetarea":19.047266,"totpop":51557.9498224,"country_id":"ECU","targetpop":16365.0764771,"totalarea":316.7448885,"new_mean":0.0240594}},{"type":"Polygon","arcs":[[310]],"properties":{"name":"Santa Isabel","gaul_code":15330,"targetarea":1.7490159,"totpop":23657.6710546,"country_id":"ECU","targetpop":2060.154541,"totalarea":777.1116407,"new_mean":0.0194131}},{"type":"Polygon","arcs":[[311]],"properties":{"name":"Isla Luis Vargas","gaul_code":15386,"targetarea":55.5398421,"totpop":245519.215158,"country_id":"ECU","targetpop":177829.641251,"totalarea":2947.4319936,"new_mean":0.0241839}},{"type":"Polygon","arcs":[[-34,312,-144]],"properties":{"name":"Cotacachi","gaul_code":15441,"targetarea":19.5736614,"totpop":46650.5884169,"country_id":"ECU","targetpop":17505.7261963,"totalarea":1653.1490705,"new_mean":0.0220314}},{"type":"Polygon","arcs":[[313]],"properties":{"name":"Giron","gaul_code":15323,"targetarea":1.1654478,"totpop":15658.0386548,"country_id":"ECU","targetpop":1804.4604492,"totalarea":351.4247267,"new_mean":0.0204112}},{"type":"Polygon","arcs":[[-12,314]],"properties":{"name":"Chordeleg","gaul_code":15320,"targetarea":1.0914086,"totpop":12346.8020577,"country_id":"ECU","targetpop":1042.0861816,"totalarea":99.727408,"new_mean":0.0225678}},{"type":"Polygon","arcs":[[315]],"properties":{"name":"Chunchi","gaul_code":15353,"targetarea":1.8716085,"totpop":15323.5657089,"country_id":"ECU","targetpop":2304.7198486,"totalarea":308.0419651,"new_mean":0.0207519}},{"type":"MultiPolygon","arcs":[[[-207,-71,316]],[[317]]],"properties":{"name":"Pinas","gaul_code":15380,"targetarea":9.6363792,"totpop":32141.4357839,"country_id":"ECU","targetpop":9229.7010498,"totalarea":593.8969678,"new_mean":0.0224407}},{"type":"Polygon","arcs":[[318,-239,319,-242]],"properties":{"name":"Manta","gaul_code":15479,"targetarea":92.6351658,"totpop":271897.814694,"country_id":"ECU","targetpop":248043.42157,"totalarea":288.5927986,"new_mean":0.023448}},{"type":"Polygon","arcs":[[320,-109,-122]],"properties":{"name":"Quero","gaul_code":15527,"targetarea":1.8877787,"totpop":20193.4033327,"country_id":"ECU","targetpop":2302.8115234,"totalarea":162.2125666,"new_mean":0.0225052}},{"type":"Polygon","arcs":[[-29,321]],"properties":{"name":"Cayambe","gaul_code":15508,"targetarea":26.0265703,"totpop":101452.224446,"country_id":"ECU","targetpop":39029.3815308,"totalarea":1207.721384,"new_mean":0.0223757}}]}},"arcs":[[[-79.4916671,-1.1920831],[-79.4916671,-1.1754164],[-79.5166671,-1.1754164],[-79.5166671,-1.1920831],[-79.4916671,-1.1920831]],[[-79.4366703,-1.1064793],[-79.4441654,-1.1207778],[-79.4333337,-1.1254164],[-79.4366703,-1.1064793]],[[-79.4750004,-0.9587498],[-79.4784021,-0.9720148],[-79.4882654,-0.9871515],[-79.4950688,-1.0136814],[-79.504932,-1.0371515],[-79.5117354,-1.0823907],[-79.443905,-1.0657322],[-79.429932,-1.0454848],[-79.4180017,-1.0372491],[-79.4320561,-0.9800226],[-79.4632654,-0.9720148],[-79.4750004,-0.9587498]],[[-79.3390955,-0.9529881],[-79.3229008,-0.9457534],[-79.3494145,-0.9395115],[-79.3692387,-0.9555841],[-79.3416671,-0.9587498],[-79.3390955,-0.9529881]],[[-80.3389815,-1.023032],[-80.3612065,-1.0301284],[-80.3333337,-1.0337498],[-80.3389815,-1.023032]],[[-80.4140385,-0.9804702],[-80.4287032,-0.9945896],[-80.4083337,-1.0004164],[-80.4140385,-0.9804702]],[[-80.5144304,-1.0820677],[-80.4701501,-1.0872329],[-80.4319177,-1.0988377],[-80.4048507,-1.1386],[-80.3951501,-1.1372329],[-80.403337,-1.095794],[-80.413184,-1.0802667],[-80.4284835,-1.0372329],[-80.4514978,-1.0207289],[-80.4434656,-0.9801039],[-80.4548507,-0.9719334],[-80.462415,-0.953398],[-80.4714759,-0.9536663],[-80.480046,-0.9964044],[-80.5048507,-1.0288995],[-80.5118168,-1.0636],[-80.5262451,-1.0739454],[-80.5144304,-1.0820677]],[[-79.9116703,-3.7731459],[-79.9191654,-3.7874444],[-79.9083337,-3.7920831],[-79.9116703,-3.7731459]],[[-78.7708346,-2.9329896],[-78.7666671,-2.9337498],[-78.7621667,-2.8795912],[-78.7634444,-2.8636326],[-78.7867413,-2.8602606]],[[-78.7867413,-2.8602606],[-78.7958525,-2.8706579]],[[-78.7958525,-2.8706579],[-78.7863611,-2.9112644],[-78.787161,-2.9212114]],[[-78.787161,-2.9212114],[-78.7708346,-2.9329896]],[[-76.6246912,-0.1830662],[-76.6560632,-0.1720148],[-76.6700688,-0.2014581],[-76.6416671,-0.2087498],[-76.6246912,-0.1830662]],[[-79.8192956,-3.7490737],[-79.8351567,-3.7643894],[-79.8166671,-3.7670831],[-79.8192956,-3.7490737]],[[-80.2395024,-2.7220562],[-80.2376404,-2.7114539],[-80.2469635,-2.6911891],[-80.2685388,-2.7151951],[-80.2587169,-2.721977]],[[-80.2587169,-2.721977],[-80.2395024,-2.7220562]],[[-80.3623376,-2.3984877],[-80.3779545,-2.4063328],[-80.3583337,-2.4170831],[-80.3623376,-2.3984877]],[[-79.8822626,-2.2161286],[-79.8866577,-2.2093999],[-79.8872833,-2.1945109],[-79.8734665,-2.1722369],[-79.8712441,-2.1574625]],[[-79.8712441,-2.1574625],[-79.8729415,-2.1520115]],[[-79.8729415,-2.1520115],[-79.8815918,-2.1179979],[-79.8816299,-2.0967059],[-79.8987122,-2.0648561],[-79.8998635,-2.0521375]],[[-79.8998635,-2.0521375],[-79.9300785,-2.0565606],[-79.9280317,-2.0427306]],[[-79.9280317,-2.0427306],[-79.9430542,-2.0451069],[-79.9440918,-2.0305009],[-79.9366549,-2.021112]],[[-79.9366549,-2.021112],[-79.9510746,-2.009824],[-79.9655928,-1.9910089],[-79.9797042,-1.9801202],[-79.9910079,-1.9654799],[-80.0121021,-1.9623567],[-80.0141891,-1.963964],[-80.0112716,-1.9837498],[-80.0131677,-1.9965753],[-80.0032719,-2.0129734],[-80.0225264,-2.0389418],[-80.0197758,-2.057586],[-80.0431645,-2.1170831],[-80.0282637,-2.1549819],[-80.0852543,-2.1757827],[-80.111003,-2.2412693],[-80.07946,-2.260296],[-80.0547693,-2.2412286],[-80.0453617,-2.2182387],[-80.0204106,-2.2219252],[-80.0096521,-2.2079929],[-79.9797042,-2.2467869],[-79.9750004,-2.2504164],[-79.9718998,-2.2556492],[-79.9473067,-2.2637628],[-79.955933,-2.2888849],[-79.9333337,-2.2920831],[-79.9286055,-2.2989272],[-79.9119389,-2.2951918],[-79.90446,-2.3060317],[-79.8857344,-2.2938409],[-79.8465987,-2.3026137],[-79.8553796,-2.2719171],[-79.8867354,-2.2237644],[-79.8822626,-2.2161286]],[[-79.1349106,-2.2019069],[-79.1292018,-2.2034854]],[[-79.1292018,-2.2034854],[-79.1296651,-2.2019861]],[[-79.1296651,-2.2019861],[-79.1349106,-2.2019069]],[[-79.0640385,-1.9304702],[-79.0787032,-1.9445896],[-79.0583337,-1.9504164],[-79.0640385,-1.9304702]],[[-78.2136397,0.0382229],[-78.1834802,0.0449123],[-78.1969731,0.0526109],[-78.206462,0.0692531],[-78.2363611,0.0441474],[-78.2166671,0.0329169],[-78.2136397,0.0382229]],[[-78.1635902,0.0207028],[-78.1576462,0.033415],[-78.1598434,0.051393],[-78.1498566,0.067022],[-78.1534791,0.0754304]],[[-78.1534791,0.0754304],[-78.1652022,0.0425442],[-78.1613285,0.0287502],[-78.1635902,0.0207028]],[[-79.2557052,-1.6221368],[-79.2703699,-1.6362563],[-79.2500004,-1.6420831],[-79.2557052,-1.6221368]],[[-78.1793464,0.3201773],[-78.1874619,0.338066],[-78.1673584,0.351186],[-78.1665649,0.339819],[-78.1518631,0.341331],[-78.1460419,0.349232],[-78.1455994,0.369441],[-78.1349903,0.3810599]],[[-78.1349903,0.3810599],[-78.1539311,0.3618475],[-78.1738855,0.3526923],[-78.2143966,0.3541083],[-78.243724,0.3212847]],[[-78.243724,0.3212847],[-78.2421494,0.295093]],[[-78.2421494,0.295093],[-78.2218694,0.2904333]],[[-78.2218694,0.2904333],[-78.2199711,0.2975165],[-78.1956222,0.3211493],[-78.1793464,0.3201773]],[[-78.8863191,-2.8469296],[-78.8929443,-2.841718]],[[-78.8929443,-2.841718],[-78.9184305,-2.8463243]],[[-78.9184305,-2.8463243],[-78.9295414,-2.8452325],[-78.9459314,-2.8559015],[-78.9863774,-2.8221694],[-79.0117354,-2.8386814],[-79.0390304,-2.8488865],[-79.0762862,-2.8731541],[-79.061239,-2.8962498],[-79.0771814,-2.9207371],[-79.0534021,-2.9371515],[-79.0460616,-2.9477797],[-79.0208988,-2.928281],[-79.0045414,-2.9389337],[-78.9954594,-2.9368992],[-78.9731368,-2.9514337],[-78.9456547,-2.9452732],[-78.9416671,-2.9004164],[-78.9416671,-2.8920831],[-78.9301599,-2.8702569],[-78.8928634,-2.8575535],[-78.8863191,-2.8469296]],[[-78.9942957,-2.7990737],[-79.0101567,-2.8143894],[-78.9916671,-2.8170831],[-78.9942957,-2.7990737]],[[-80.4750004,-0.8504164],[-80.4738833,-0.85807],[-80.4631774,-0.8595475],[-80.4750004,-0.8504164]],[[-80.4750004,-0.8504164],[-80.4784021,-0.8371515],[-80.4882654,-0.8303481],[-80.4961348,-0.8189467],[-80.5007746,-0.834383],[-80.4963375,-0.8449385],[-80.4750004,-0.8504164]],[[-80.5035079,-0.7626886],[-80.5102615,-0.7498611],[-80.518767,-0.7891762],[-80.5083337,-0.7920831],[-80.5035079,-0.7626886]],[[-80.4172668,-0.598768],[-80.4313508,-0.6024572],[-80.4362878,-0.6401788],[-80.4000004,-0.6587498],[-80.4071121,-0.6401371],[-80.4141769,-0.636212],[-80.4200668,-0.621267],[-80.4172668,-0.598768]],[[-80.3975509,-0.5962498],[-80.3932947,-0.5859308],[-80.4104822,-0.5724623],[-80.4147352,-0.5802186],[-80.4060898,-0.59788],[-80.3975509,-0.5962498]],[[-80.2543868,-0.1978855],[-80.2776208,-0.1889825],[-80.2695072,-0.2126235],[-80.2500004,-0.2170831],[-80.2543868,-0.1978855]],[[-80.8063725,-1.5305678],[-80.8096205,-1.5379504],[-80.8099365,-1.5573031],[-80.7916671,-1.5670831],[-80.8063725,-1.5305678]],[[-80.5551762,-1.3397312],[-80.5793624,-1.3220148],[-80.6034021,-1.3629083],[-80.5666671,-1.3670831],[-80.5551762,-1.3397312]],[[-80.578337,-1.2481459],[-80.5858321,-1.2624444],[-80.5750004,-1.2670831],[-80.578337,-1.2481459]],[[-80.0422611,0.0617662],[-80.029932,0.0793768],[-80.049625,0.090391],[-80.0625639,0.058564],[-80.0422611,0.0617662]],[[-79.4807052,-1.9888035],[-79.4953699,-2.002923],[-79.4750004,-2.0087498],[-79.4807052,-1.9888035]],[[-77.8072527,-0.9297078],[-77.8152237,-0.918216],[-77.8240294,-0.9190773]],[[-77.8240294,-0.9190773],[-77.8191003,-0.967433],[-77.8534184,-0.9823175],[-77.828573,-1.0029555],[-77.8296309,-1.0132745],[-77.8000004,-1.0254164],[-77.794434,-0.9902276],[-77.8137699,-0.9387628],[-77.8072527,-0.9297078]],[[-78.578337,-3.3898126],[-78.5858321,-3.4041111],[-78.5750004,-3.4087498],[-78.578337,-3.3898126]],[[-76.8619633,0.0698798],[-76.850505,0.0978746],[-76.8612309,0.1198798],[-76.92085,0.0964423],[-76.9369633,0.0811835],[-76.9017826,0.0667873],[-76.8750004,0.0495836],[-76.8619633,0.0698798]],[[-78.1793464,0.3201773],[-78.1274255,0.2949612],[-78.1124272,0.2781724],[-78.0955977,0.3118475],[-78.0862634,0.3618557],[-78.1047449,0.3703436],[-78.0951013,0.3789618],[-78.0961511,0.3966376],[-78.1224776,0.3950669],[-78.1349903,0.3810599]],[[-79.3888922,-2.3490346],[-79.3784021,-2.3381362],[-79.3895268,-2.3133803],[-79.4287032,-2.3257664],[-79.4163431,-2.3356641]],[[-79.4163431,-2.3356641],[-79.4055099,-2.336375],[-79.4001846,-2.3467081],[-79.3888922,-2.3490346]],[[-78.8303634,-2.1889744],[-78.8618901,-2.202044],[-78.8416671,-2.2170831],[-78.8303634,-2.1889744]],[[-78.5371179,-1.155698],[-78.5687504,-1.1768243],[-78.548324,-1.1904067],[-78.5333337,-1.2087498],[-78.5371179,-1.155698]],[[-78.6250004,-0.8587498],[-78.646143,-0.8709405],[-78.6607674,-0.9246693]],[[-78.6607674,-0.9246693],[-78.6464691,-0.928452],[-78.636589,-0.95511],[-78.6340866,-0.968868],[-78.6260834,-0.970736],[-78.6063581,-0.9901277]],[[-78.6063581,-0.9901277],[-78.5952966,-0.9717869],[-78.5752283,-0.9227472],[-78.6048507,-0.9050307],[-78.6050378,-0.877866],[-78.6213464,-0.8802748],[-78.6250004,-0.8587498]],[[-78.6250004,-0.8587498],[-78.6238133,-0.8582421]],[[-78.6238133,-0.8582421],[-78.6247856,-0.8575309]],[[-78.6247856,-0.8575309],[-78.6250004,-0.8587498]],[[-78.6120284,-0.731048],[-78.6197677,-0.7603041],[-78.6083337,-0.7670831],[-78.6120284,-0.731048]],[[-79.4294763,-2.1975193],[-79.453101,-2.2131036],[-79.4250004,-2.2170831],[-79.4294763,-2.1975193]],[[-79.441838,-1.4421157],[-79.4568608,-1.4190525],[-79.484294,-1.4252049],[-79.4950688,-1.4576593],[-79.4583337,-1.4670831],[-79.441838,-1.4421157]],[[-79.6131982,-3.7065087],[-79.5983728,-3.6942804],[-79.6127771,-3.6722426],[-79.6281742,-3.6972426],[-79.6342107,-3.7009615]],[[-79.6342107,-3.7009615],[-79.6291428,-3.713002]],[[-79.6291428,-3.713002],[-79.6131982,-3.7065087]],[[-78.6950037,-1.2981459],[-78.7024988,-1.3124444],[-78.6916671,-1.3170831],[-78.6950037,-1.2981459]],[[-78.6515414,-1.3262323],[-78.6414871,-1.325935],[-78.6422119,-1.344602]],[[-78.6422119,-1.344602],[-78.6419933,-1.3444315]],[[-78.6419933,-1.3444315],[-78.6181889,-1.3177993],[-78.5967832,-1.3294314]],[[-78.5967832,-1.3294314],[-78.59655,-1.314553],[-78.5838699,-1.319544],[-78.5817851,-1.3101349]],[[-78.5817851,-1.3101349],[-78.5879073,-1.3046645],[-78.5712488,-1.2740086],[-78.5713302,-1.2420831],[-78.569124,-1.2050407],[-78.5695211,-1.2042595],[-78.5793949,-1.2048435],[-78.5889571,-1.1738784],[-78.6044031,-1.1876804],[-78.6266931,-1.2126316],[-78.6627364,-1.2210138],[-78.6706221,-1.2298435],[-78.6955977,-1.2283543],[-78.6877364,-1.2381524],[-78.6610111,-1.2620294],[-78.6788171,-1.2779392],[-78.6794275,-1.288128],[-78.6705977,-1.2960138],[-78.6644298,-1.3225333],[-78.6604573,-1.327793],[-78.6515414,-1.3262323]],[[-78.5868982,-1.1229588],[-78.5945398,-1.1445164],[-78.5833337,-1.1504164],[-78.5868982,-1.1229588]],[[-79.8021163,-1.819199],[-79.8185876,-1.8149672],[-79.8436609,-1.8397394],[-79.8000004,-1.8420831],[-79.8021163,-1.819199]],[[-79.9060551,-1.7913192],[-79.9000004,-1.7920831],[-79.8933679,-1.7787368],[-79.9063399,-1.772617],[-79.9120496,-1.776863]],[[-79.9120496,-1.776863],[-79.9060551,-1.7913192]],[[-78.6238133,-0.8582421],[-78.6206971,-0.8569093],[-78.623342,-0.8493391],[-78.6247856,-0.8575309]],[[-78.6516307,-0.8478558],[-78.6541508,-0.8310154],[-78.6821781,-0.8221612],[-78.6949223,-0.8354588],[-78.6652953,-0.8508197],[-78.6516307,-0.8478558]],[[-78.1661951,-2.4388442],[-78.1869633,-2.4622166],[-78.1583337,-2.4670831],[-78.1661951,-2.4388442]],[[-80.8500004,-2.2920831],[-80.8494246,-2.2941302],[-80.8489765,-2.2923711],[-80.8500004,-2.2920831]],[[-80.9113311,-2.219123],[-80.9319382,-2.2204092],[-80.9476547,-2.2054069],[-80.9679871,-2.2046471],[-80.9731979,-2.1908309],[-80.9876804,-2.1874526],[-80.9979276,-2.1993485],[-80.9578018,-2.2348061],[-80.9473067,-2.2319269],[-80.9354496,-2.244199],[-80.9334743,-2.2577834],[-80.9131851,-2.2844021],[-80.9102402,-2.294071],[-80.897728,-2.3109012],[-80.89711,-2.3306801],[-80.874068,-2.3246123],[-80.8636804,-2.315659],[-80.9057296,-2.2948907],[-80.9033126,-2.2647638],[-80.8865923,-2.2597311]],[[-80.8865923,-2.2597311],[-80.9088364,-2.247484],[-80.9113311,-2.219123]],[[-78.3250004,-0.2004164],[-78.3481205,-0.2182631],[-78.3437585,-0.2477879],[-78.32745,-0.245379],[-78.3297856,-0.2295587],[-78.3250004,-0.2004164]],[[-78.3250004,-0.2004164],[-78.3197677,-0.1973159],[-78.2987716,-0.1581313],[-78.3284753,-0.1473159],[-78.3364343,-0.1754246],[-78.3250004,-0.2004164]],[[-78.3083337,-0.1004164],[-78.2962976,-0.1375095],[-78.280752,-0.0946126],[-78.2939373,-0.0954901],[-78.3083337,-0.1004164]],[[-78.3083337,-0.1004164],[-78.3336755,-0.0720554],[-78.3455977,-0.0934584],[-78.3083337,-0.1004164]],[[-78.2854212,-0.0469021],[-78.2882483,-0.042823],[-78.2923654,-0.0506771],[-78.2843125,-0.053195],[-78.2854212,-0.0469021]],[[-78.3029063,-0.0547071],[-78.2999686,-0.0480049],[-78.2967452,-0.0406508],[-78.3250004,-0.0485935],[-78.3398279,-0.0444269],[-78.3699223,-0.0626642],[-78.3500004,-0.0754164],[-78.3381352,-0.0568862],[-78.3076176,-0.0654555],[-78.3029063,-0.0547071]],[[-78.5831919,-0.3531581],[-78.5746536,-0.350021],[-78.5421219,-0.357522],[-78.5325851,-0.35412],[-78.5147476,-0.357097],[-78.5038071,-0.362556],[-78.5086962,-0.3745689],[-78.5094816,-0.3752142],[-78.5146458,-0.3914894]],[[-78.5146458,-0.3914894],[-78.4741386,-0.377612]],[[-78.4741386,-0.377612],[-78.4710464,-0.36721],[-78.4752655,-0.354803],[-78.4657211,-0.344588],[-78.4789963,-0.328498],[-78.4702225,-0.310565],[-78.4608688,-0.305098],[-78.4573746,-0.294904],[-78.4416733,-0.304513],[-78.4173965,-0.327031],[-78.4136157,-0.338136]],[[-78.4136157,-0.338136],[-78.3946049,-0.3223403],[-78.4048507,-0.3044448],[-78.3878829,-0.2849868],[-78.4208337,-0.2883396],[-78.4348718,-0.2869073],[-78.4454513,-0.2332859],[-78.3958337,-0.2383396],[-78.3719161,-0.2359064],[-78.3525557,-0.191253],[-78.3557784,-0.159588],[-78.391016,-0.1466323],[-78.3833337,-0.1670831],[-78.3632654,-0.1809422],[-78.3760502,-0.1954767],[-78.3833337,-0.1670831],[-78.4127934,-0.1717462],[-78.4255538,-0.1563898],[-78.3783126,-0.1171482],[-78.3808679,-0.0920831],[-78.3786056,-0.0699151],[-78.3961837,-0.0717136],[-78.4037846,-0.0542006],[-78.4296228,-0.0215509],[-78.4274662,-0.0004164],[-78.4297123,0.0216376],[-78.4541671,0.0191392],[-78.4850834,0.0193915],[-78.4578129,-0.0185154],[-78.4718022,-0.055755],[-78.4950932,-0.0533868],[-78.5204513,-0.0716323],[-78.5378829,-0.0792006],[-78.5510177,-0.0950128],[-78.5269617,-0.1590346],[-78.5568119,-0.229046],[-78.5756596,-0.261948],[-78.5995447,-0.2723077],[-78.5926436,-0.3400242],[-78.5831919,-0.3531581]],[[-78.503337,-0.3398126],[-78.5000004,-0.3587498],[-78.5108321,-0.3541111],[-78.503337,-0.3398126]],[[-77.7118168,0.6624579],[-77.7187911,0.6698798],[-77.72863,0.6421535],[-77.7166671,0.6329169],[-77.7118168,0.6624579]],[[-77.68396,0.8233168],[-77.7098311,0.839289],[-77.7404871,0.8264146],[-77.7534021,0.7801093],[-77.7333337,0.7662502],[-77.7275151,0.7889227],[-77.6842371,0.8187974],[-77.68396,0.8233168]],[[-77.9390385,0.4028632],[-77.9537032,0.3887437],[-77.9333337,0.3829169],[-77.9390385,0.4028632]],[[-80.4136967,-1.5389744],[-80.4452234,-1.552044],[-80.4250004,-1.5670831],[-80.4136967,-1.5389744]],[[-79.278337,-1.4231459],[-79.2858321,-1.4374444],[-79.2750004,-1.4420831],[-79.278337,-1.4231459]],[[-76.9923958,-0.3984906],[-76.9936782,-0.3980963],[-77.0349044,-0.4515069],[-76.9951502,-0.4791437],[-76.9965255,-0.4884291],[-76.9750004,-0.4920831],[-76.970085,-0.4795831],[-76.9798181,-0.4548273],[-76.9785242,-0.4460707],[-76.9923958,-0.3984906]],[[-79.9387292,-3.4309991],[-79.9955977,-3.4403416],[-79.9744958,-3.4791762],[-79.9500004,-3.4837498],[-79.9387292,-3.4309991]],[[-78.6422119,-1.344602],[-78.6422575,-1.3447271]],[[-78.6422575,-1.3447271],[-78.6419933,-1.3444315]],[[-78.6133423,-1.376772],[-78.6038436,-1.3694642]],[[-78.6038436,-1.3694642],[-78.6074548,-1.348211],[-78.6250655,-1.3384536],[-78.6199296,-1.373192]],[[-78.6199296,-1.373192],[-78.6133423,-1.376772]],[[-79.9292257,-3.2253918],[-79.9477997,-3.2277811],[-79.9503849,-3.2231372]],[[-79.9503849,-3.2231372],[-79.9621749,-3.2302504],[-79.993525,-3.2256139],[-80.0030594,-3.236716],[-80.0033722,-3.2767429],[-80.006591,-3.2832847],[-79.9750004,-3.2920831],[-79.9713708,-3.3051202],[-79.9592696,-3.3251886],[-79.9226729,-3.3031101],[-79.8827641,-3.3188002],[-79.8702996,-3.303219],[-79.8681453,-3.2909436],[-79.8822188,-3.2800795],[-79.8618168,-3.2717218],[-79.8631921,-3.2624119],[-79.851075,-3.2598553]],[[-79.851075,-3.2598553],[-79.8699875,-3.256259],[-79.8733187,-3.2501353]],[[-79.8733187,-3.2501353],[-79.8865808,-3.254046],[-79.9202966,-3.229046],[-79.9292257,-3.2253918]],[[-79.9652429,-1.6224623],[-79.9786462,-1.6142836],[-79.9861332,-1.6364516],[-79.9750004,-1.6420831],[-79.9652429,-1.6224623]],[[-79.4437585,-0.0480646],[-79.4529545,-0.0628595],[-79.4333337,-0.0670831],[-79.4437585,-0.0480646]],[[-79.4950037,-0.0231459],[-79.5024988,-0.0374444],[-79.4916671,-0.0420831],[-79.4950037,-0.0231459]],[[-79.3682458,0.0203843],[-79.3963708,0.0282131],[-79.4044193,0.0478746],[-79.4119633,-0.0024672],[-79.3750004,-0.0087498],[-79.3682458,0.0203843]],[[-90.3043868,-0.7395522],[-90.3276208,-0.7306492],[-90.3195072,-0.7542901],[-90.3101273,-0.756323],[-90.3043868,-0.7395522]],[[-78.6199296,-1.373192],[-78.613665,-1.3815343]],[[-78.613665,-1.3815343],[-78.6133423,-1.376772]],[[-79.4447514,-2.1623712],[-79.458643,-2.1527846],[-79.4830164,-2.1582452],[-79.4782963,-2.1792901],[-79.4500004,-2.1837498],[-79.4447514,-2.1623712]],[[-80.6777999,-2.4032159],[-80.6965743,-2.3937188],[-80.6950989,-2.4056261],[-80.6777999,-2.4032159]],[[-80.8591422,-2.3222231],[-80.8500004,-2.3337498],[-80.8436934,-2.3210626],[-80.8527733,-2.3072757],[-80.8591422,-2.3222231]],[[-80.8592213,-2.2514928],[-80.821143,-2.2359226],[-80.8468998,-2.2137221],[-80.8454757,-2.1959894],[-80.850759,-2.1904076],[-80.8809441,-2.20765]],[[-80.8809441,-2.20765],[-80.8574066,-2.2382281],[-80.8592213,-2.2514928]],[[-80.7727787,-2.1517999],[-80.7728958,-2.1379309],[-80.8072281,-2.1580541],[-80.8223952,-2.162385],[-80.8083337,-2.1754164],[-80.7970788,-2.1632745],[-80.7727787,-2.1517999]],[[-80.7307051,-2.0138035],[-80.7362137,-2.0196331],[-80.7338974,-2.0312047],[-80.7250004,-2.0337498],[-80.7307051,-2.0138035]],[[-80.7467011,-1.9661485],[-80.7575839,-1.9791966],[-80.7416671,-1.9837498],[-80.7467011,-1.9661485]],[[-80.680461,-1.9374119],[-80.7237043,-1.9315194],[-80.714893,-1.9395603],[-80.6955326,-1.9482599],[-80.680461,-1.9374119]],[[-80.7426029,-1.822796],[-80.7547042,-1.8134536],[-80.748703,-1.8432471],[-80.7325036,-1.8829353],[-80.7237716,-1.8873793],[-80.7426029,-1.822796]],[[-79.9701583,-1.7128351],[-79.9751713,-1.6967869],[-80.00363,-1.7177179],[-79.9750004,-1.7337498],[-79.9701583,-1.7128351]],[[-79.553337,-0.4648126],[-79.5608321,-0.4791111],[-79.5500004,-0.4837498],[-79.553337,-0.4648126]],[[-79.4086422,-0.2546397],[-79.4519617,-0.2620945],[-79.4785567,-0.2456394],[-79.5035567,-0.2437107],[-79.4763188,-0.2877211],[-79.4500004,-0.2920831],[-79.4270186,-0.272853],[-79.4080569,-0.2653156],[-79.4086422,-0.2546397]],[[-79.3183109,-2.4198663],[-79.3529952,-2.4053481],[-79.3617354,-2.4361342],[-79.3367354,-2.4454848],[-79.3215987,-2.4553481],[-79.3083337,-2.4587498],[-79.3183109,-2.4198663]],[[-79.4163431,-2.3356641],[-79.3916671,-2.3587498],[-79.3888922,-2.3490346]],[[-79.3378096,-0.2308526],[-79.3614343,-0.246437],[-79.3333337,-0.2504164],[-79.3378096,-0.2308526]],[[-79.1916671,-0.2004164],[-79.1984705,-0.2102797],[-79.2132654,-0.2204848],[-79.2200688,-0.2303481],[-79.24821,-0.2375665],[-79.234823,-0.2468113],[-79.2385583,-0.263478],[-79.2248702,-0.2729262],[-79.2321049,-0.3051772],[-79.1432052,-0.3121515],[-79.1490971,-0.2858738],[-79.0940841,-0.2717625],[-79.1132654,-0.2470148],[-79.1200688,-0.2288181],[-79.1382654,-0.2220148],[-79.1649662,-0.2046238],[-79.1916671,-0.2004164]],[[-79.2311609,-3.6138116],[-79.2539311,-3.6248142],[-79.2250004,-3.6337498],[-79.2311609,-3.6138116]],[[-77.3020268,-0.6877293],[-77.3119796,-0.672617],[-77.3194666,-0.6947849],[-77.3083337,-0.7004164],[-77.3020268,-0.6877293]],[[-80.2196456,-0.7876723],[-80.2393966,-0.7636814],[-80.2534021,-0.7931248],[-80.2250004,-0.8004164],[-80.2196456,-0.7876723]],[[-78.3116703,0.2518541],[-78.3191654,0.2375556],[-78.3083337,0.2329169],[-78.3116703,0.2518541]],[[-78.2421494,0.295093],[-78.2436203,0.2940026],[-78.25095,0.2868923],[-78.2585216,0.2752515],[-78.2591516,0.2748136],[-78.2653961,0.264574],[-78.2755356,0.262324],[-78.284996,0.272627],[-78.3012916,0.2731357]],[[-78.3012916,0.2731357],[-78.3084338,0.2651429],[-78.3098774,0.2635273],[-78.3122074,0.2609198],[-78.2785893,0.2454901],[-78.2877608,0.2372951],[-78.2864343,0.2150783],[-78.2536951,0.2000556],[-78.199919,0.1708319],[-78.1794031,0.2073147],[-78.2083337,0.2162502],[-78.2013595,0.1878485],[-78.2367354,0.2065904],[-78.229932,0.2128485],[-78.2083337,0.2162502],[-78.2294845,0.2620184],[-78.2218694,0.2904333]],[[-78.7473718,-3.8186212],[-78.7580245,-3.8057224],[-78.7696944,-3.8356052],[-78.7583337,-3.8420831],[-78.7473718,-3.8186212]],[[-79.3838086,-4.0251762],[-79.3735762,-4.0057957],[-79.3869796,-3.997617],[-79.3902571,-4.0073214]],[[-79.3902571,-4.0073214],[-79.3838086,-4.0251762]],[[-79.3436283,-3.9935805],[-79.3479171,-3.9744724],[-79.3853601,-3.9636814],[-79.3609135,-4.001214],[-79.3500004,-4.0087498],[-79.3436283,-3.9935805]],[[-80.0715417,-1.8745864],[-80.10717,-1.8551202],[-80.1026046,-1.8859796],[-80.0666671,-1.8920831],[-80.0715417,-1.8745864]],[[-79.4614587,-1.5581964],[-79.48606,-1.5624037],[-79.4766524,-1.580169],[-79.4583337,-1.5837498],[-79.4614587,-1.5581964]],[[-79.9280317,-2.0427306],[-79.9267338,-2.0339614],[-79.9366549,-2.021112]],[[-80.0115302,-1.9320679],[-80.0027673,-1.9182387],[-80.0059165,-1.8969058]],[[-80.0059165,-1.8969058],[-80.0131073,-1.918202],[-80.0115302,-1.9320679]],[[-80.0135387,-1.8716504],[-80.00177,-1.87289],[-80.0068957,-1.8902732]],[[-80.0068957,-1.8902732],[-80.0016024,-1.888153],[-79.9963522,-1.8873748],[-79.9786951,-1.8898289],[-79.9416671,-1.8837498],[-79.9589441,-1.8427016],[-79.9851241,-1.8130792],[-79.9916671,-1.8337498],[-80.0143233,-1.8464288],[-80.0135387,-1.8716504]],[[-79.9120496,-1.776863],[-79.9277999,-1.7885756],[-79.9060551,-1.7913192]],[[-79.9972476,-1.7699744],[-80.0108891,-1.7969415],[-79.9833337,-1.8004164],[-79.9915938,-1.7837986],[-79.9882602,-1.7684386],[-79.9972476,-1.7699744]],[[-80.4130701,-1.2641941],[-80.42863,-1.2764174],[-80.4083337,-1.2920831],[-80.4130701,-1.2641941]],[[-79.2200037,-4.2481459],[-79.2274988,-4.2624444],[-79.2166671,-4.2670831],[-79.2200037,-4.2481459]],[[-79.2456036,-4.0159997],[-79.2205245,-4.0376072],[-79.2128096,-4.046559],[-79.1916671,-4.0587498],[-79.1878096,-4.0292739],[-79.1713383,-3.9997491],[-79.1890466,-3.9515151],[-79.2161137,-3.9281996],[-79.2427657,-3.9303399],[-79.2532626,-4.0046728],[-79.2456036,-4.0159997]],[[-79.6269128,-2.2524347],[-79.6406661,-2.2304946],[-79.6615889,-2.2520278],[-79.6333337,-2.2670831],[-79.6269128,-2.2524347]],[[-79.6903813,-2.081284],[-79.7117354,-2.1014581],[-79.6833337,-2.1087498],[-79.6903813,-2.081284]],[[-78.5947432,-1.7177016],[-78.6111332,-1.7322361],[-78.5916671,-1.7420831],[-78.5947432,-1.7177016]],[[-79.9362898,0.8299242],[-79.9498743,0.8225871],[-79.9416671,0.8162502],[-79.9362898,0.8299242]],[[-79.8377364,0.8623196],[-79.8031498,0.8729966],[-79.7955627,0.8959889],[-79.8463745,0.8614429],[-79.8377364,0.8623196]],[[-79.5602543,-1.8803481],[-79.5790043,-1.8932875],[-79.5416671,-1.9004164],[-79.5602543,-1.8803481]],[[-80.1532556,-0.837005],[-80.1861902,-0.8254164],[-80.1780033,-0.8545587],[-80.1500004,-0.8587498],[-80.1532556,-0.837005]],[[-78.7157213,-1.9466795],[-78.7083337,-1.9504164],[-78.6985763,-1.9307957],[-78.7093677,-1.9242107]],[[-78.7093677,-1.9242107],[-78.7157213,-1.9466795]],[[-80.0089929,-4.0059015],[-80.02863,-4.0161798],[-80.0166671,-4.0254164],[-80.0089929,-4.0059015]],[[-79.851075,-3.2598553],[-79.8304195,-3.2554973],[-79.8115226,-3.2469373],[-79.8205164,-3.2217869],[-79.8619633,-3.2467869],[-79.8733187,-3.2501353]],[[-79.9292257,-3.2253918],[-79.9440596,-3.2193211],[-79.9503849,-3.2231372]],[[-78.988184,-1.6122328],[-78.9784835,-1.6052667],[-78.9715173,-1.5922133],[-78.988184,-1.5802667],[-78.9951501,-1.5538995],[-79.0201501,-1.5533868],[-79.0101811,-1.60381],[-78.9916671,-1.6170831],[-78.988184,-1.6122328]],[[-78.0500004,-1.5087498],[-78.0500004,-1.4920831],[-78.0750004,-1.4920831],[-78.0750004,-1.5087498],[-78.0500004,-1.5087498]],[[-78.02144,-1.5084497],[-78.0346298,-1.501128],[-78.0278654,-1.4886939]],[[-78.0278654,-1.4886939],[-78.0369633,-1.5021987],[-78.02144,-1.5084497]],[[-90.9614099,-0.9427016],[-90.9697571,-0.954634],[-90.9592665,-0.9596895],[-90.9614099,-0.9427016]],[[-78.613077,-1.6556174],[-78.6274906,-1.6347426],[-78.6490808,-1.6395766],[-78.6796309,-1.6196873],[-78.6852435,-1.6346925]],[[-78.6852435,-1.6346925],[-78.6729355,-1.64641],[-78.6523209,-1.654029],[-78.6308823,-1.644081],[-78.6227951,-1.644547],[-78.613077,-1.6556174]],[[-78.630461,-1.6116225],[-78.6057784,-1.6042494],[-78.643726,-1.5975437],[-78.6528731,-1.613006],[-78.6333337,-1.6170831],[-78.630461,-1.6116225]],[[-78.6973718,-1.5804702],[-78.7120365,-1.5945896],[-78.6916671,-1.6004164],[-78.6973718,-1.5804702]],[[-78.7890385,-3.0388035],[-78.8037032,-3.0529229],[-78.7833337,-3.0587498],[-78.7890385,-3.0388035]],[[-79.5380375,-1.854046],[-79.5202966,-1.8467869],[-79.4819747,-1.8236668],[-79.4713708,-1.7912693],[-79.5399906,-1.7801202],[-79.5553227,-1.8175877],[-79.5502201,-1.8521498],[-79.5380375,-1.854046]],[[-78.8929443,-2.841718],[-78.8906592,-2.839007]],[[-78.8906592,-2.839007],[-78.8958337,-2.8368341],[-78.9184305,-2.8463243]],[[-78.8700037,-2.7898126],[-78.8774988,-2.8041111],[-78.8666671,-2.8087498],[-78.8700037,-2.7898126]],[[-78.8761729,-2.7285271],[-78.871908,-2.7278985],[-78.8630375,-2.7801202],[-78.8416671,-2.7837498],[-78.8334802,-2.7629164],[-78.8275883,-2.7230645],[-78.8487878,-2.7102716],[-78.8694107,-2.7133249]],[[-78.8694107,-2.7133249],[-78.8761729,-2.7285271]],[[-79.5397139,-4.3213881],[-79.5621505,-4.3142836],[-79.5694665,-4.3381524],[-79.5500004,-4.3420831],[-79.5397139,-4.3213881]],[[-80.8809441,-2.20765],[-80.9113311,-2.219123]],[[-80.8865923,-2.2597311],[-80.8592213,-2.2514928]],[[-79.8551195,-2.0826316],[-79.8516083,-2.067982],[-79.8319687,-2.0731548]],[[-79.8319687,-2.0731548],[-79.831169,-2.0601332],[-79.8561446,-2.0638279],[-79.8517338,-2.0339614],[-79.8626632,-2.0198012],[-79.8772628,-2.0554783],[-79.8998635,-2.0521375]],[[-79.8729415,-2.1520115],[-79.8690419,-2.150306]],[[-79.8690419,-2.150306],[-79.8549011,-2.1310544]],[[-79.8549011,-2.1310544],[-79.8583337,-2.1170831],[-79.8530737,-2.1130247],[-79.8543785,-2.0989887],[-79.8551195,-2.0826316]],[[-79.7530766,-1.9677016],[-79.7694665,-1.9822361],[-79.7500004,-1.9920831],[-79.7530766,-1.9677016]],[[-79.7223718,-1.9471368],[-79.7370365,-1.9612563],[-79.7166671,-1.9670831],[-79.7223718,-1.9471368]],[[-89.5979659,-0.8881931],[-89.6086738,-0.8918178],[-89.6201777,-0.9064979],[-89.6083337,-0.9170831],[-89.5979659,-0.8881931]],[[-79.7448768,-3.0488657],[-79.7472989,-3.0525247],[-79.7524988,-3.0624444],[-79.7416671,-3.0670831],[-79.7448768,-3.0488657]],[[-79.6305343,-1.0698826],[-79.6063236,-1.062892],[-79.6230636,-1.0292088],[-79.6543949,-1.022617],[-79.6694665,-1.0447849],[-79.6527999,-1.0532159],[-79.6472009,-1.072617],[-79.6333337,-1.0754164],[-79.6305343,-1.0698826]],[[-79.5053502,-0.9007448],[-79.4953942,-0.869451]],[[-79.4953942,-0.869451],[-79.5076339,-0.8853041],[-79.5053502,-0.9007448]],[[-79.8105618,-1.0452069],[-79.82669,-1.0471817],[-79.8201117,-1.0483409],[-79.8122896,-1.0497193],[-79.8105618,-1.0452069]],[[-79.632095,-3.7261077],[-79.6218266,-3.7285903],[-79.6088139,-3.7205824],[-79.6131982,-3.7065087]],[[-79.6291428,-3.713002],[-79.632095,-3.7261077]],[[-79.3902571,-4.0073214],[-79.3944665,-4.0197849],[-79.3838086,-4.0251762]],[[-78.9609623,-1.9907403],[-78.9768233,-2.0060561],[-78.9583337,-2.0087498],[-78.9609623,-1.9907403]],[[-78.9282171,-2.5370834],[-78.9344254,-2.5325799],[-78.9516713,-2.5343498]],[[-78.9516713,-2.5343498],[-78.9615889,-2.5662856],[-78.9303308,-2.5786716],[-78.9217452,-2.5518406],[-78.9282171,-2.5370834]],[[-76.8687911,-0.3295913],[-76.8756515,-0.3155532],[-76.8944666,-0.3322361],[-76.8750004,-0.3420831],[-76.8687911,-0.3295913]],[[-76.8415125,-0.2959649],[-76.8585942,-0.2718601],[-76.8702234,-0.3115981],[-76.8500004,-0.3170831],[-76.8415125,-0.2959649]],[[-77.8057052,-0.3221368],[-77.8203699,-0.3362563],[-77.8000004,-0.3420831],[-77.8057052,-0.3221368]],[[-78.6640385,-1.3388035],[-78.6787032,-1.352923],[-78.6583337,-1.3587498],[-78.6640385,-1.3388035]],[[-78.6515414,-1.3262323],[-78.6422575,-1.3447271]],[[-80.2199874,-1.8069024],[-80.2404382,-1.7975437],[-80.2528731,-1.82374],[-80.2166671,-1.8420831],[-80.2199874,-1.8069024]],[[-79.6728275,-1.772145],[-79.6955977,-1.7831476],[-79.6666671,-1.7920831],[-79.6728275,-1.772145]],[[-80.2069828,-0.9139011],[-80.2202966,-0.9288832],[-80.1916671,-0.9337498],[-80.2069828,-0.9139011]],[[-79.2219685,-0.927134],[-79.2263808,-0.9264729],[-79.2700688,-0.9428155],[-79.2484949,-0.9561131],[-79.2372644,-0.9535984],[-79.2250004,-0.9587498],[-79.204932,-0.942311],[-79.2219685,-0.927134]],[[-78.8115971,1.288646],[-78.8531742,1.3016018],[-78.845907,1.2743313],[-78.8291671,1.2691229],[-78.8206547,1.2717678],[-78.8083337,1.2662502],[-78.8115971,1.288646]],[[-78.5866703,-3.6148126],[-78.5941654,-3.6291111],[-78.5833337,-3.6337498],[-78.5866703,-3.6148126]],[[-78.5710697,-0.5293471],[-78.5377771,-0.4996026],[-78.5689539,-0.485296],[-78.5955977,-0.5153416],[-78.5750004,-0.5337498],[-78.5710697,-0.5293471]],[[-78.5807052,-0.4554702],[-78.5953699,-0.4695896],[-78.5750004,-0.4754164],[-78.5807052,-0.4554702]],[[-78.5618982,-0.4479588],[-78.5695398,-0.4695164],[-78.5583337,-0.4754164],[-78.5618982,-0.4479588]],[[-78.5831919,-0.3531581],[-78.552808,-0.395379],[-78.5553471,-0.4202895],[-78.5501143,-0.4292006],[-78.5295496,-0.3958673],[-78.5146458,-0.3914894]],[[-78.8694107,-2.7133249],[-78.8989994,-2.6967869],[-78.907406,-2.7074884],[-78.8896326,-2.7305108],[-78.8761729,-2.7285271]],[[-78.9333337,-2.5254164],[-78.9501632,-2.5294936],[-78.9516713,-2.5343498]],[[-78.9282171,-2.5370834],[-78.9333337,-2.5254164]],[[-78.9333337,-2.5254164],[-78.9134851,-2.5101007],[-78.9284672,-2.4967869],[-78.9333337,-2.5254164]],[[-78.7867413,-2.8602606],[-78.8121912,-2.8565769],[-78.7958525,-2.8706579]],[[-78.8833337,-2.8420831],[-78.8906592,-2.839007]],[[-78.8863191,-2.8469296],[-78.8833337,-2.8420831]],[[-78.8833337,-2.8420831],[-78.8799704,-2.8324337],[-78.8806225,-2.8324432],[-78.8833337,-2.8420831]],[[-78.7666671,-2.8004164],[-78.7611332,-2.797617],[-78.7516361,-2.7788425],[-78.7631596,-2.772617],[-78.7666671,-2.8004164]],[[-78.6022713,-1.0005683],[-78.6147003,-1.008291],[-78.6203039,-1.0054829]],[[-78.6203039,-1.0054829],[-78.6128097,-1.046559],[-78.5982914,-1.0860935],[-78.5878097,-1.0626072],[-78.5743819,-1.0510349],[-78.5573572,-1.0312758],[-78.5916671,-1.0170831],[-78.6022713,-1.0005683]],[[-80.6500004,-0.9337498],[-80.6579365,-0.9388264]],[[-80.6579365,-0.9388264],[-80.6668625,-0.963203],[-80.6813354,-0.990644],[-80.694458,-0.991772],[-80.6988831,-1.004781],[-80.7067724,-1.0131102]],[[-80.7067724,-1.0131102],[-80.6954106,-1.0145278],[-80.6629643,-1.055047],[-80.6462976,-1.0567397],[-80.6629643,-1.0133803],[-80.6703699,-0.9822442],[-80.6453699,-0.9717136],[-80.6416671,-0.9670831],[-80.6212813,-0.9501479],[-80.6458206,-0.938741],[-80.6500004,-0.9337498]],[[-80.6500004,-0.9337498],[-80.6544061,-0.9282493]],[[-80.6544061,-0.9282493],[-80.6568887,-0.9356871]],[[-80.6568887,-0.9356871],[-80.6500004,-0.9337498]],[[-79.9385583,-4.3634373],[-79.9621912,-4.3868178],[-79.9333337,-4.3920831],[-79.9385583,-4.3634373]],[[-78.4741386,-0.377612],[-78.4479496,-0.3699233],[-78.4206303,-0.3801853],[-78.4114425,-0.3691258],[-78.4136157,-0.338136]],[[-78.7459579,-1.6680476],[-78.7380375,-1.6555841],[-78.7506352,-1.6384536],[-78.7564991,-1.6729551]],[[-78.7564991,-1.6729551],[-78.7459579,-1.6680476]],[[-78.6852435,-1.6346925],[-78.696851,-1.6542088],[-78.6931563,-1.6706883],[-78.7104008,-1.6825942],[-78.6740808,-1.7062433],[-78.6541671,-1.7017836],[-78.6465987,-1.7220147],[-78.6416671,-1.7254164],[-78.6357019,-1.7021824],[-78.6201908,-1.7056655],[-78.6132654,-1.6871515],[-78.5983891,-1.6768894],[-78.613077,-1.6556174]],[[-79.8844731,-1.3544448],[-79.9114425,-1.3470148],[-79.9200688,-1.3792739],[-79.8916671,-1.3837498],[-79.8844731,-1.3544448]],[[-79.752629,-1.4240737],[-79.76849,-1.4393894],[-79.7500004,-1.4420831],[-79.752629,-1.4240737]],[[-79.0623376,-1.8068211],[-79.0779545,-1.8146661],[-79.0583337,-1.8254164],[-79.0623376,-1.8068211]],[[-79.0265792,-1.7034926],[-79.0525069,-1.697617],[-79.0611332,-1.7135756],[-79.0333337,-1.7170831],[-79.0265792,-1.7034926]],[[-78.1222009,-2.3282159],[-78.1111332,-2.322617],[-78.1020675,-2.3046889],[-78.1165857,-2.2754734],[-78.1332931,-2.2836358],[-78.1271244,-2.2962579],[-78.1415857,-2.3253595],[-78.1250004,-2.3337498],[-78.1222009,-2.3282159]],[[-78.0366703,0.5601874],[-78.0441654,0.5458889],[-78.0333337,0.5412502],[-78.0366703,0.5601874]],[[-79.5529138,-1.6102716],[-79.5766443,-1.6218601],[-79.5685958,-1.6383315],[-79.5500004,-1.6420831],[-79.5529138,-1.6102716]],[[-79.5307052,-1.5388035],[-79.5453699,-1.552923],[-79.5250004,-1.5587498],[-79.5307052,-1.5388035]],[[-78.4402447,-1.4021818],[-78.4166671,-1.4087498],[-78.4031091,-1.3963881],[-78.4156824,-1.3801202],[-78.4394494,-1.3966964],[-78.4402447,-1.4021818]],[[-79.5966964,-2.6643813],[-79.6239099,-2.6553481],[-79.6367354,-2.6876072],[-79.6083337,-2.6920831],[-79.5966964,-2.6643813]],[[-79.6450037,-4.0398126],[-79.6524988,-4.0541111],[-79.6416671,-4.0587498],[-79.6450037,-4.0398126]],[[-79.1296651,-2.2019861],[-79.1404565,-2.2016366]],[[-79.1404565,-2.2016366],[-79.1349106,-2.2019069]],[[-79.5623376,-2.1818211],[-79.5779545,-2.1896661],[-79.5583337,-2.2004164],[-79.5623376,-2.1818211]],[[-79.554281,-2.1085626],[-79.5898767,-2.0945652],[-79.6143477,-2.1045831],[-79.6118331,-2.1215753],[-79.6215824,-2.1377293],[-79.6118575,-2.1710707],[-79.6134119,-2.1815606],[-79.5955896,-2.1789321],[-79.5833337,-2.1837498],[-79.5745854,-2.1724216],[-79.5583337,-2.1700209],[-79.5434656,-2.1722182],[-79.554281,-2.1085626]],[[-79.6035299,-1.973228],[-79.6036273,-1.9731348],[-79.6112065,-1.9945164],[-79.6000004,-2.0004164],[-79.6035299,-1.973228]],[[-77.8117924,0.6042385],[-77.8356124,0.6115464],[-77.8452966,0.5825588],[-77.8166671,0.5745835],[-77.8117924,0.6042385]],[[-78.7093677,-1.9242107],[-78.7194666,-1.9447849],[-78.7157213,-1.9466795]],[[-78.7666671,-1.6920831],[-78.7859054,-1.7039402],[-78.7577804,-1.7119236],[-78.7666671,-1.6920831]],[[-78.7564991,-1.6729551],[-78.7583337,-1.6837498],[-78.7459579,-1.6680476]],[[-79.736768,-1.5337986],[-79.7780766,-1.5466648],[-79.7606856,-1.571437],[-79.7333337,-1.5754164],[-79.736768,-1.5337986]],[[-80.0882654,-0.7204848],[-80.0564376,-0.6985121],[-80.0925297,-0.6779067],[-80.1260665,-0.6854262],[-80.1186527,-0.718491],[-80.0916671,-0.7254164],[-80.0882654,-0.7204848]],[[-78.5187402,-1.3137808],[-78.5000004,-1.3170831],[-78.5045251,-1.3065037],[-78.5185534,-1.3134047],[-78.5187402,-1.3137808]],[[-80.0135387,-1.8716504],[-80.0224369,-1.9179376],[-80.0115302,-1.9320679]],[[-80.0059165,-1.8969058],[-80.0068957,-1.8902732]],[[-79.1404565,-2.2016366],[-79.141375,-2.2120256],[-79.1312017,-2.2151678],[-79.1292018,-2.2034854]],[[-79.3987146,0.1520494],[-79.4200688,0.1318752],[-79.3916671,0.1245836],[-79.3987146,0.1520494]],[[-79.4433516,0.3355211],[-79.4847986,0.3447333],[-79.4784265,0.3125149],[-79.4500004,0.3079169],[-79.4433516,0.3355211]],[[-79.8666671,-2.1587498],[-79.8507898,-2.1477879],[-79.8549011,-2.1310544]],[[-79.8690419,-2.150306],[-79.8666671,-2.1587498]],[[-79.8666671,-2.1587498],[-79.8712441,-2.1574625]],[[-79.8822626,-2.2161286],[-79.8792322,-2.2109552],[-79.8647872,-2.2318699],[-79.8500004,-2.2420831],[-79.8500004,-2.2254164],[-79.8288253,-2.2202162],[-79.8107345,-2.231992],[-79.7958337,-2.2286472],[-79.7656498,-2.2316827],[-79.7465987,-2.2251886],[-79.7666671,-2.2087498],[-79.747144,-2.1962498],[-79.7666671,-2.1837498],[-79.7618005,-2.1541111],[-79.7955082,-2.1372491],[-79.8104333,-2.1394627],[-79.8165537,-2.117486],[-79.8238275,-2.1013199],[-79.8374353,-2.0908136],[-79.8452966,-2.1551202],[-79.8619633,-2.1884535],[-79.8666671,-2.1920831],[-79.8718347,-2.1710463],[-79.8666671,-2.1587498]],[[-79.8551195,-2.0826316],[-79.8319687,-2.0731548]],[[-78.8942957,-0.9490737],[-78.9101567,-0.9643894],[-78.8916671,-0.9670831],[-78.8942957,-0.9490737]],[[-78.6716069,-0.9358738],[-78.7012781,-0.938893],[-78.7121179,-0.9619562],[-78.6833337,-0.9670831],[-78.6716069,-0.9358738]],[[-78.6022713,-1.0005683],[-78.6063581,-0.9901277]],[[-78.6607674,-0.9246693],[-78.6671065,-0.9479588],[-78.6203039,-1.0054829]],[[-79.5053502,-0.9007448],[-79.5029952,-0.9166681],[-79.4916671,-0.9254164],[-79.4701664,-0.8966079],[-79.4735437,-0.8737563],[-79.4907637,-0.8634536],[-79.4953942,-0.869451]],[[-79.3589929,-0.5642348],[-79.37863,-0.5745131],[-79.3666671,-0.5837498],[-79.3589929,-0.5642348]],[[-77.8072527,-0.9297078],[-77.795378,-0.9132094],[-77.795378,-0.8959812],[-77.799683,-0.8882989],[-77.8240294,-0.9190773]],[[-79.8104415,-3.309531],[-79.8375004,-3.3135349],[-79.8569665,-3.3106541],[-79.8282963,-3.3461277],[-79.7833337,-3.3504164],[-79.7760746,-3.3410089],[-79.7552169,-3.3249119],[-79.8104415,-3.309531]],[[-80.1865832,-3.4806225],[-80.1794031,-3.474627],[-80.2130375,-3.4591892],[-80.239225,-3.4647811],[-80.2337952,-3.4873588],[-80.2260405,-3.4966874],[-80.2166951,-3.4972445]],[[-80.2166951,-3.4972445],[-80.1865832,-3.4806225]],[[-78.5210535,-1.3812189],[-78.5442875,-1.3723159],[-78.5361739,-1.3959568],[-78.5166671,-1.4004164],[-78.5210535,-1.3812189]],[[-78.5967832,-1.3294314],[-78.5833337,-1.3337498],[-78.5771407,-1.3406752],[-78.5219324,-1.3604913],[-78.5199016,-1.3264859],[-78.5209256,-1.321638],[-78.53453,-1.3064142],[-78.5665043,-1.3237888],[-78.5817851,-1.3101349]],[[-79.2873376,-1.7818211],[-79.3029545,-1.7896661],[-79.2833337,-1.8004164],[-79.2873376,-1.7818211]],[[-80.3583337,-1.2170831],[-80.3583337,-1.2004164],[-80.3833337,-1.2004164],[-80.3833337,-1.2170831],[-80.3583337,-1.2170831]],[[-78.02144,-1.5084497],[-78.0000004,-1.5170831],[-77.9963709,-1.5123793],[-77.9654382,-1.5037693],[-77.9797042,-1.4801202],[-77.9907149,-1.4532078],[-78.0054285,-1.4553888],[-78.0278654,-1.4886939]],[[-80.0510746,-3.5581231],[-80.0616052,-3.5386814],[-80.0867354,-3.5558038],[-80.0583337,-3.5754164],[-80.0510746,-3.5581231]],[[-80.2166951,-3.4972445],[-80.20717,-3.4978123],[-80.1865832,-3.4806225]],[[-78.9416671,-4.0587498],[-78.9666671,-4.0587498],[-78.9666671,-4.0754164],[-78.9416671,-4.0754164],[-78.9416671,-4.0587498]],[[-79.0223718,-1.6721368],[-79.0370365,-1.6862563],[-79.0166671,-1.6920831],[-79.0223718,-1.6721368]],[[-80.2587169,-2.721977],[-80.2434443,-2.7325226],[-80.2395024,-2.7220562]],[[-80.2942712,-2.7059503],[-80.3103783,-2.713957],[-80.2944058,-2.7234668],[-80.2942712,-2.7059503]],[[-80.323324,-2.691131],[-80.3375567,-2.6952804],[-80.3191988,-2.7072132],[-80.323324,-2.691131]],[[-80.3736088,-2.6155043],[-80.3928471,-2.6048923],[-80.4121912,-2.6315769],[-80.3989649,-2.6429755],[-80.3904037,-2.6408908],[-80.360442,-2.6743305],[-80.3736088,-2.6155043]],[[-80.475155,-2.5638523],[-80.4948331,-2.5739825],[-80.4833337,-2.5837498],[-80.475155,-2.5638523]],[[-80.4416671,-0.9587498],[-80.4400679,-0.9644355],[-80.4352433,-0.9653387],[-80.4416671,-0.9587498]],[[-80.4416671,-0.9587498],[-80.4524806,-0.9540764],[-80.4447356,-0.9574357],[-80.4416671,-0.9587498]],[[-80.4352869,-0.920908],[-80.4476811,-0.9059503],[-80.4611332,-0.9298191],[-80.4416671,-0.9337498],[-80.4352869,-0.920908]],[[-80.5166671,-0.8670831],[-80.5128341,-0.8740737],[-80.488713,-0.884352],[-80.4992598,-0.8587742],[-80.5166671,-0.8670831]],[[-80.5166671,-0.8670831],[-80.529934,-0.8426752],[-80.5377197,-0.865095],[-80.5367354,-0.8803481],[-80.5166671,-0.8670831]],[[-79.3116703,-3.2648126],[-79.3191654,-3.2791111],[-79.3083337,-3.2837498],[-79.3116703,-3.2648126]],[[-79.6380463,0.9621969],[-79.6449051,0.9630271],[-79.6447144,0.9778701],[-79.6519852,0.982882],[-79.6822815,0.965085],[-79.6978494,0.9627693],[-79.7069584,0.9470608],[-79.7019535,0.9217271],[-79.7281173,0.887466],[-79.7000004,0.8829169],[-79.6895593,0.8974758],[-79.6534835,0.9114],[-79.6465173,0.9377671],[-79.6329156,0.9591977],[-79.6380463,0.9621969]],[[-78.243724,0.3212847],[-78.2687504,0.3095526],[-78.3012916,0.2731357]],[[-79.1450037,-3.1481459],[-79.1524988,-3.1624444],[-79.1416671,-3.1670831],[-79.1450037,-3.1481459]],[[-78.787161,-2.9212114],[-78.7878585,-2.9298842],[-78.7708346,-2.9329896]],[[-78.9089929,-2.2809015],[-78.92863,-2.2911798],[-78.9166671,-2.3004164],[-78.9089929,-2.2809015]],[[-79.6342107,-3.7009615],[-79.6390059,-3.7039158],[-79.632095,-3.7261077]],[[-79.6718022,-3.6720717],[-79.7067956,-3.6636814],[-79.7024906,-3.6828871],[-79.6666671,-3.6920831],[-79.6718022,-3.6720717]],[[-80.6544061,-0.9282493],[-80.6672363,-0.9283361],[-80.6878052,-0.9397579],[-80.71315,-0.947719],[-80.7236099,-0.9387249],[-80.735466,-0.936619],[-80.7692642,-0.946619],[-80.7857132,-0.955295],[-80.8000946,-0.959383],[-80.8121796,-0.955667],[-80.8297577,-0.9595141],[-80.8386725,-0.9729493],[-80.8204594,-0.9706883],[-80.8126632,-0.9804132],[-80.7962976,-0.9707859],[-80.7748783,-0.9633803],[-80.7629643,-1.005047],[-80.7297367,-1.014544],[-80.7067724,-1.0131102]],[[-80.6579365,-0.9388264],[-80.6568887,-0.9356871]],[[-78.613665,-1.3815343],[-78.6000004,-1.3920831],[-78.6038436,-1.3694642]],[[-78.1635902,0.0207028],[-78.1656835,0.0132543],[-78.1416671,0.0079169],[-78.1220463,0.0492418],[-78.131169,0.0817043],[-78.1534791,0.0754304]]],"bbox":[-90.9697571,-4.3920831,-76.6246912,1.3016018]}