{"type":"Topology","objects":{"foo":{"type":"GeometryCollection","geometries":[{"type":"MultiPolygon","arcs":[[[0]],[[1]]],"properties":{"name":"Kindia","gaul_code":40730,"targetarea":100.8196727,"totpop":503482.907262,"country_id":"GIN","targetpop":126513.520447,"new_mean":0.0638722,"totalarea":8780.0590506}},{"type":"MultiPolygon","arcs":[[[2]],[[3]]],"properties":{"name":"Pita","gaul_code":40739,"targetarea":37.9149417,"totpop":293554.350982,"country_id":"GIN","targetpop":36290.3381653,"new_mean":0.0613787,"totalarea":4496.3242488}},{"type":"MultiPolygon","arcs":[[[4]],[[5,6]],[[7,-7]],[[8]],[[9]],[[10]]],"properties":{"name":"Siguiri","gaul_code":40725,"targetarea":139.1206881,"totpop":962531.880149,"country_id":"GIN","targetpop":122110.676392,"new_mean":0.0248815,"totalarea":17649.3567683}},{"type":"MultiPolygon","arcs":[[[11]],[[12]]],"properties":{"name":"Kissidougou","gaul_code":40720,"targetarea":84.2217083,"totpop":310462.850095,"country_id":"GIN","targetpop":92649.7638855,"new_mean":0.0696434,"totalarea":6187.6676828}},{"type":"Polygon","arcs":[[13]],"properties":{"name":"Labe","gaul_code":40733,"targetarea":83.98323,"totpop":349943.18445,"country_id":"GIN","targetpop":174425.353134,"new_mean":0.0487967,"totalarea":2107.0899243}},{"type":"MultiPolygon","arcs":[[[14]],[[15]]],"properties":{"name":"Forecariah","gaul_code":40728,"targetarea":33.5461819,"totpop":273081.129573,"country_id":"GIN","targetpop":39855.381134,"new_mean":0.0591209,"totalarea":4214.0599797}},{"type":"Polygon","arcs":[[16]],"properties":{"name":"Mandiana","gaul_code":40724,"targetarea":5.6176845,"totpop":420028.336926,"country_id":"GIN","targetpop":3542.4428406,"new_mean":0.0322643,"totalarea":11630.7623623}},{"type":"Polygon","arcs":[[17,18,19,20]],"properties":{"name":"Matam","gaul_code":40714,"targetarea":19.2532017,"totpop":244345.313469,"country_id":"GIN","targetpop":244345.313469,"new_mean":0.0414083,"totalarea":19.342182}},{"type":"Polygon","arcs":[[21]],"properties":{"name":"Kouroussa","gaul_code":40723,"targetarea":13.2994893,"totpop":327900.992607,"country_id":"GIN","targetpop":9782.0195007,"new_mean":0.0488702,"totalarea":15769.3450376}},{"type":"Polygon","arcs":[[22]],"properties":{"name":"Lelouma","gaul_code":40734,"targetarea":8.3596168,"totpop":175434.821566,"country_id":"GIN","targetpop":6249.6164551,"new_mean":0.056791,"totalarea":2717.7119337}},{"type":"MultiPolygon","arcs":[[[23,24,25]],[[26]]],"properties":{"name":"Dubreka","gaul_code":40727,"targetarea":126.5145693,"totpop":565728.542254,"country_id":"GIN","targetpop":376967.827301,"new_mean":0.0516834,"totalarea":3978.8054373}},{"type":"Polygon","arcs":[[27]],"properties":{"name":"Kankan","gaul_code":40721,"targetarea":125.0695718,"totpop":577968.781014,"country_id":"GIN","targetpop":233704.336159,"new_mean":0.0451703,"totalarea":17310.9374857}},{"type":"Polygon","arcs":[[-26,28,29,30,31]],"properties":{"name":"Ratoma","gaul_code":40716,"targetarea":127.1885555,"totpop":732252.23521,"country_id":"GIN","targetpop":726847.422424,"new_mean":0.0538894,"totalarea":148.4636722}},{"type":"MultiPolygon","arcs":[[[32]],[[33]]],"properties":{"name":"Gueckedou","gaul_code":40741,"targetarea":63.5442985,"totpop":275743.692146,"country_id":"GIN","targetpop":50047.0137024,"new_mean":0.0639962,"totalarea":4215.2960193}},{"type":"Polygon","arcs":[[34]],"properties":{"name":"Telemele","gaul_code":40731,"targetarea":5.3374031,"totpop":302429.357907,"country_id":"GIN","targetpop":4033.9021301,"new_mean":0.0585144,"totalarea":7528.099391}},{"type":"Polygon","arcs":[[35]],"properties":{"name":"Faranah","gaul_code":40719,"targetarea":53.1489,"totpop":343609.783695,"country_id":"GIN","targetpop":53584.6149597,"new_mean":0.0680869,"totalarea":12873.4792203}},{"type":"Polygon","arcs":[[36]],"properties":{"name":"Kerouane","gaul_code":40722,"targetarea":45.2397772,"totpop":230862.899234,"country_id":"GIN","targetpop":33188.8498535,"new_mean":0.0778096,"totalarea":9372.0747385}},{"type":"Polygon","arcs":[[37]],"properties":{"name":"Fria","gaul_code":40729,"targetarea":37.1621798,"totpop":105071.016928,"country_id":"GIN","targetpop":32005.7346497,"new_mean":0.06004,"totalarea":1578.6558791}},{"type":"Polygon","arcs":[[38,39,-20]],"properties":{"name":"Kaloum","gaul_code":40713,"targetarea":32.134494,"totpop":113666.672994,"country_id":"GIN","targetpop":112886.16024,"new_mean":0.0357245,"totalarea":52.112129}},{"type":"Polygon","arcs":[[40]],"properties":{"name":"Koundara","gaul_code":40711,"targetarea":22.1480684,"totpop":148153.942744,"country_id":"GIN","targetpop":17680.3528748,"new_mean":0.0197743,"totalarea":5265.0467444}},{"type":"Polygon","arcs":[[-30,41,-39,-19]],"properties":{"name":"Dixinn","gaul_code":40712,"targetarea":30.7415426,"totpop":210916.544556,"country_id":"GIN","targetpop":210916.544556,"new_mean":0.0375576,"totalarea":30.7415427}},{"type":"MultiPolygon","arcs":[[[42]],[[43]],[[44]],[[45]],[[46]]],"properties":{"name":"Boke","gaul_code":40709,"targetarea":140.9400314,"totpop":526184.70256,"country_id":"GIN","targetpop":115186.748428,"new_mean":0.0382508,"totalarea":10983.1951571}},{"type":"MultiPolygon","arcs":[[[47]],[[48]],[[49]]],"properties":{"name":"Mamou","gaul_code":40738,"targetarea":62.6072115,"totpop":352515.067744,"country_id":"GIN","targetpop":78457.7004547,"new_mean":0.0679582,"totalarea":10187.6225314}},{"type":"MultiPolygon","arcs":[[[50]],[[51]]],"properties":{"name":"Dabola","gaul_code":40717,"targetarea":29.0510574,"totpop":212453.118121,"country_id":"GIN","targetpop":28313.8476257,"new_mean":0.0518175,"totalarea":5178.6263559}},{"type":"MultiPolygon","arcs":[[[52]],[[53,54,-31,-18]]],"properties":{"name":"Matoto","gaul_code":40715,"targetarea":128.347756,"totpop":586884.616287,"country_id":"GIN","targetpop":568283.002945,"new_mean":0.0409289,"totalarea":189.9123285}},{"type":"Polygon","arcs":[[55,-24,-32,-55]],"properties":{"name":"Coyah","gaul_code":40726,"targetarea":91.5755051,"totpop":419176.101808,"country_id":"GIN","targetpop":372336.241669,"new_mean":0.0613866,"totalarea":1140.9265675}},{"type":"MultiPolygon","arcs":[[[56]],[[57]]],"properties":{"name":"Mali","gaul_code":40735,"targetarea":9.7542921,"totpop":322425.272171,"country_id":"GIN","targetpop":7413.4268799,"new_mean":0.0298296,"totalarea":8351.36497}},{"type":"MultiPolygon","arcs":[[[58]],[[59]]],"properties":{"name":"N'Zerekore","gaul_code":40744,"targetarea":94.269603,"totpop":450797.055388,"country_id":"GIN","targetpop":240201.980133,"new_mean":0.0499595,"totalarea":4068.3567099}},{"type":"Polygon","arcs":[[60]],"properties":{"name":"Lola","gaul_code":40742,"targetarea":14.0947905,"totpop":191211.440539,"country_id":"GIN","targetpop":10430.6898193,"new_mean":0.0550383,"totalarea":4541.2832485}},{"type":"Polygon","arcs":[[61]],"properties":{"name":"Macenta","gaul_code":40743,"targetarea":54.6562444,"totpop":280393.910955,"country_id":"GIN","targetpop":55933.0068665,"new_mean":0.057494,"totalarea":8009.0357222}},{"type":"MultiPolygon","arcs":[[[62]],[[63]]],"properties":{"name":"Beyla","gaul_code":40740,"targetarea":28.4764909,"totpop":409037.599127,"country_id":"GIN","targetpop":21326.7709656,"new_mean":0.0681652,"totalarea":12533.1688549}}]}},"arcs":[[[-12.9302741,9.9594793],[-12.9490241,9.9695786],[-12.9616543,9.9379055],[-12.9416673,9.9329168],[-12.9302741,9.9594793]],[[-12.9166673,9.9829168],[-12.8946133,9.9970851],[-12.8788418,9.9947536],[-12.8630378,10.0042873],[-12.8153815,10.0123805],[-12.8047044,10.035818],[-12.8283047,10.0958482],[-12.8509935,10.1032131],[-12.8739264,10.0735093],[-12.9039557,10.0503281],[-12.9166673,9.9829168]],[[-12.3804857,11.0647894],[-12.3897956,11.0952581],[-12.4440925,11.0762233],[-12.4000007,11.0329168],[-12.3804857,11.0647894]],[[-12.5500007,11.1745835],[-12.5286302,11.1783026],[-12.5287279,11.219957],[-12.5620449,11.2059027],[-12.5500007,11.1745835]],[[-9.2459968,11.3289089],[-9.2132168,11.3392848],[-9.2456713,11.3705755],[-9.2641771,11.3785915],[-9.296306,11.3615871],[-9.2956062,11.343773],[-9.2500007,11.3245835],[-9.2459968,11.3289089]],[[-9.1500007,11.3912502],[-9.1222663,11.4111314],[-9.1416674,11.4162502]],[[-9.1416674,11.4162502],[-9.1500007,11.4079168],[-9.1500007,11.3912502]],[[-9.1416674,11.4162502],[-9.12142,11.4348455],[-9.1656582,11.4701076],[-9.1979173,11.4521104],[-9.2180996,11.4068508],[-9.1802416,11.3742254],[-9.201791,11.3355983],[-9.1641446,11.3386257],[-9.158334,11.3579168],[-9.1661465,11.36046],[-9.1643236,11.3849595],[-9.1500007,11.3912502]],[[-9.3276862,11.5777614],[-9.3134935,11.5360947],[-9.2916673,11.5329168],[-9.2962246,11.5522772],[-9.3276862,11.5777614]],[[-9.3500007,11.5412502],[-9.3574226,11.5701442],[-9.3901374,11.5779852],[-9.3838386,11.5499334],[-9.3500007,11.5412502]],[[-9.3750007,11.6079168],[-9.4026374,11.6040025],[-9.3795254,11.5881496],[-9.3750007,11.6079168]],[[-10.1764067,8.8854755],[-10.1609889,8.8945188],[-10.1858189,8.8873076],[-10.1842821,8.8865905],[-10.1764067,8.8854755]],[[-10.129444,9.2480414],[-10.137045,9.1566066],[-10.083334,9.1412502],[-10.0703783,9.1532904],[-10.0509284,9.1853135],[-10.0630703,9.1950384],[-10.059864,9.2207953],[-10.0918789,9.246426],[-10.129444,9.2480414]],[[-12.2447598,11.3182114],[-12.2557461,11.3665513],[-12.34961,11.3548773],[-12.3446784,11.3153469],[-12.3169115,11.2931138],[-12.258334,11.2829168],[-12.2447598,11.3182114]],[[-13.0652839,9.4352321],[-13.0978197,9.4529852],[-13.1117357,9.4233547],[-13.083334,9.4079168],[-13.0652839,9.4352321]],[[-13.2797044,9.5292873],[-13.2552741,9.548139],[-13.3070807,9.5693426],[-13.3026862,9.5395168],[-13.2797044,9.5292873]],[[-8.683334,10.6079168],[-8.683334,10.6329168],[-8.7000007,10.6329168],[-8.7000007,10.6079168],[-8.683334,10.6079168]],[[-13.6000223,9.559287],[-13.5910301,9.5620804],[-13.5885,9.6230001]],[[-13.5885,9.6230001],[-13.6354504,9.5743198]],[[-13.6354504,9.5743198],[-13.6265356,9.5571617]],[[-13.6265356,9.5571617],[-13.616785,9.5656271],[-13.6000223,9.559287]],[[-9.8613614,10.6442775],[-9.8597338,10.6776109],[-9.8946947,10.6603338],[-9.8859707,10.6372015],[-9.8666673,10.6329168],[-9.8613614,10.6442775]],[[-12.678614,11.4400783],[-12.7028001,11.4195623],[-12.6666673,11.4162502],[-12.678614,11.4400783]],[[-13.475049,9.7328577],[-13.4464502,9.7368479],[-13.4270401,9.7502804],[-13.3891301,9.7626914]],[[-13.3891301,9.7626914],[-13.4378099,9.7701076],[-13.4544766,9.8117743],[-13.4622402,9.8543727],[-13.5206712,9.8217759],[-13.5296882,9.8015651],[-13.55503,9.7770697],[-13.5546154,9.7447718]],[[-13.5546154,9.7447718],[-13.5015202,9.7369804],[-13.4774399,9.7432299],[-13.475049,9.7328577]],[[-13.6963711,10.070954],[-13.6798021,10.0837388],[-13.7003587,10.0948797],[-13.7119636,10.0754828],[-13.6963711,10.070954]],[[-9.205209,10.4158392],[-9.2661628,10.4284409],[-9.2614265,10.369599],[-9.2925951,10.381041],[-9.3143724,10.368891],[-9.3474779,10.3699489],[-9.3438646,10.3249741],[-9.258334,10.3162502],[-9.2510423,10.340473],[-9.2170254,10.3214911],[-9.1931322,10.3492173],[-9.205209,10.4158392]],[[-13.5546154,9.7447718],[-13.5711432,9.7373928],[-13.6014492,9.7159043],[-13.6211432,9.6957261],[-13.6311275,9.6543275]],[[-13.6311275,9.6543275],[-13.6093798,9.6425505],[-13.5885,9.6230001]],[[-13.5885,9.6230001],[-13.4988604,9.6954803]],[[-13.4988604,9.6954803],[-13.4751778,9.7219477],[-13.475049,9.7328577]],[[-9.9416673,8.5329169],[-9.9416673,8.5495835],[-9.9666673,8.5495835],[-9.9666673,8.5329169],[-9.9416673,8.5329169]],[[-10.1166673,8.5912502],[-10.1225755,8.61577],[-10.118474,8.6365545],[-10.1297533,8.6447292],[-10.1451504,8.5863959],[-10.1548509,8.5794378],[-10.1618171,8.5247707],[-10.1375007,8.5295721],[-10.1221361,8.5265366],[-10.0924649,8.549201],[-10.1036953,8.6060492],[-10.1166673,8.5912502]],[[-13.0282233,10.934695],[-13.0440436,10.9034247],[-13.0250007,10.8995835],[-13.0282233,10.934695]],[[-10.7045417,10.0468735],[-10.7212572,10.0793361],[-10.7586595,10.0785752],[-10.7707526,10.0536688],[-10.7827481,10.0421494],[-10.7620287,10.0115993],[-10.7250007,9.9995835],[-10.7045417,10.0468735]],[[-9.2753262,9.1909613],[-9.3221524,9.2184881],[-9.3202644,9.2033718],[-9.3354011,9.1912502],[-9.3201016,9.1789943],[-9.335694,9.1384141],[-9.318946,9.1363307],[-9.2991706,9.1610256],[-9.2750007,9.1329168],[-9.2604825,9.1557359],[-9.2753262,9.1909613]],[[-13.5448086,10.3617051],[-13.5479662,10.3757595],[-13.5632656,10.3863185],[-13.5793626,10.4096299],[-13.6117357,10.4000189],[-13.5993822,10.3449001],[-13.558334,10.3412502],[-13.5448086,10.3617051]],[[-13.6354504,9.5743198],[-13.6562814,9.6051205]],[[-13.6562814,9.6051205],[-13.6718397,9.5578556],[-13.6930766,9.5382946],[-13.6991215,9.5236244],[-13.7217588,9.5167818],[-13.7146375,9.5022541],[-13.6679497,9.5344381],[-13.6265356,9.5571617]],[[-13.2712897,12.47921],[-13.2614753,12.4959051],[-13.3098314,12.5116237],[-13.3262539,12.4726629],[-13.2750007,12.4662502],[-13.2712897,12.47921]],[[-13.6311275,9.6543275],[-13.632637,9.6338511],[-13.6562814,9.6051205]],[[-14.5442227,10.6993272],[-14.5641771,10.6705755],[-14.6107591,10.6952256],[-14.6168871,10.6576262],[-14.6260611,10.6292832],[-14.5916673,10.6245835],[-14.5876634,10.6372544],[-14.5473639,10.6356594],[-14.5209968,10.6554266],[-14.5442227,10.6993272]],[[-14.3833503,10.8167791],[-14.420069,10.7873928],[-14.3916673,10.7829168],[-14.3833503,10.8167791]],[[-14.2702969,10.9282131],[-14.2598314,10.9778021],[-14.2843268,10.9948797],[-14.3055671,10.9673732],[-14.3034837,10.9533229],[-14.3232917,10.9380357],[-14.3213711,10.9209539],[-14.3286302,10.9041001],[-14.2916673,10.8995835],[-14.2702969,10.9282131]],[[-13.833334,11.0912502],[-13.8632656,11.0878485],[-13.8784024,11.0797349],[-13.8368333,11.0690659],[-13.833334,11.0912502]],[[-13.833334,11.0912502],[-13.7985297,11.0782418],[-13.7653534,11.0927419],[-13.7768561,11.1078843],[-13.8080248,11.1342678],[-13.8297858,11.1178167],[-13.833334,11.0912502]],[[-11.3960173,10.179641],[-11.4131192,10.1798203],[-11.420069,10.1652044],[-11.4035558,10.1609673],[-11.3960173,10.179641]],[[-12.0821296,10.3452785],[-12.0536302,10.3532131],[-12.0380378,10.367182],[-12.0782396,10.4198797],[-12.1215502,10.3877712],[-12.1215176,10.3533107],[-12.0916673,10.3329168],[-12.0821296,10.3452785]],[[-11.9128099,10.5040594],[-11.8965013,10.5181056],[-11.9255052,10.5284409],[-11.9371914,10.5057643],[-11.9128099,10.5040594]],[[-11.4544754,10.7107786],[-11.4250007,10.7079168],[-11.434864,10.7259141],[-11.4559776,10.7289783],[-11.4544754,10.7107786]],[[-11.0795417,10.7500555],[-11.1277351,10.7618475],[-11.1456061,10.7329046],[-11.0916673,10.7162502],[-11.0795417,10.7500555]],[[-13.5027025,9.5267604],[-13.5093268,9.5448797],[-13.5341804,9.5126857],[-13.5333614,9.4956675],[-13.5027025,9.5267604]],[[-13.6000223,9.559287],[-13.5747728,9.529979],[-13.5544766,9.5623928],[-13.5108242,9.6046209],[-13.4944831,9.6033067],[-13.468832,9.6330755],[-13.4708904,9.6585946]],[[-13.4708904,9.6585946],[-13.4948702,9.6780567],[-13.4988604,9.6954803]],[[-13.4708904,9.6585946],[-13.471778,9.669599],[-13.4600755,9.6905707],[-13.389291,9.6848822],[-13.3603197,9.668716],[-13.3716478,9.7311753],[-13.3878587,9.7451483],[-13.3891301,9.7626914]],[[-12.347364,11.8278672],[-12.3620449,11.8137396],[-12.3416673,11.8079168],[-12.347364,11.8278672]],[[-12.2866543,12.0931707],[-12.3112149,12.081924],[-12.3021817,12.0618475],[-12.283334,12.0579168],[-12.2866543,12.0931707]],[[-8.8003262,7.7082342],[-8.7873379,7.7202582],[-8.762696,7.7686753],[-8.8247077,7.7834458],[-8.8662442,7.7688869],[-8.8860521,7.7063544],[-8.808334,7.6995835],[-8.8003262,7.7082342]],[[-8.708806,8.0320664],[-8.7288256,8.0440497],[-8.7361335,8.0201808],[-8.7166674,8.0162502],[-8.708806,8.0320664]],[[-8.5139818,7.810989],[-8.5508633,7.8199571],[-8.562045,7.7979681],[-8.508334,7.7912502],[-8.5139818,7.810989]],[[-9.4377285,8.5289862],[-9.4212409,8.5593288],[-9.4949551,8.5730861],[-9.5094896,8.5414007],[-9.4890957,8.5231756],[-9.4627285,8.4868475],[-9.4416673,8.4829169],[-9.4377285,8.5289862]],[[-8.6203783,8.6958766],[-8.6451993,8.7157538],[-8.662045,8.6802598],[-8.6166674,8.6745835],[-8.6203783,8.6958766]],[[-8.283334,8.8579168],[-8.2694668,8.8607163],[-8.2506355,8.8756781],[-8.2608731,8.8966538],[-8.2804532,8.9065537],[-8.283334,8.8579168]]],"bbox":[-14.6260611,7.6995835,-8.2506355,12.5116237]}