{"type":"Topology","objects":{"foo":{"type":"GeometryCollection","geometries":[{"type":"Polygon","arcs":[[0]],"properties":{"name":"Gabu","gaul_code":17088,"targetarea":4.1079059,"totpop":107414.158294,"country_id":"GNB","targetpop":2196.1670837,"totalarea":2210.049366,"new_mean":0.0105975}},{"type":"Polygon","arcs":[[1,2,3]],"properties":{"name":"Safim","gaul_code":17076,"targetarea":3.1963454,"totpop":29413.5896292,"country_id":"GNB","targetpop":7996.2058106,"totalarea":169.563763,"new_mean":0.0062225}},{"type":"Polygon","arcs":[[4,5]],"properties":{"name":"Nhacra","gaul_code":17096,"targetarea":3.688269,"totpop":12230.5224867,"country_id":"GNB","targetpop":1580.9179382,"totalarea":262.768948,"new_mean":0.0073067}},{"type":"Polygon","arcs":[[6,-6,7,-2,8]],"properties":{"name":"Sector Autonomo De Bissau","gaul_code":17101,"targetarea":83.3852036,"totpop":507763.122009,"country_id":"GNB","targetpop":507763.122009,"totalarea":83.3854022,"new_mean":0.0068432}},{"type":"MultiPolygon","arcs":[[[9]],[[10,-9,-4,11]]],"properties":{"name":"Prabis","gaul_code":17074,"targetarea":29.1456823,"totpop":56197.7966185,"country_id":"GNB","targetpop":26154.8739014,"totalarea":158.7308231,"new_mean":0.0074904}},{"type":"Polygon","arcs":[[12]],"properties":{"name":"Bafata","gaul_code":17068,"targetarea":19.6100838,"totpop":86159.3212242,"country_id":"GNB","targetpop":15166.1386719,"totalarea":781.0327881,"new_mean":0.0096634}}]}},"arcs":[[[-14.2104662,12.278738],[-14.2173184,12.2927801],[-14.2361335,12.2760972],[-14.2166673,12.2662502],[-14.2104662,12.278738]],[[-15.6532803,11.8567495],[-15.6108683,11.9330596]],[[-15.6108683,11.9330596],[-15.6461758,11.8806382],[-15.6552155,11.8564895]],[[-15.6552155,11.8564895],[-15.6532803,11.8567495]],[[-15.5527678,11.8951597],[-15.5782233,11.9343003],[-15.6030606,11.9446519],[-15.6106402,11.9333983]],[[-15.6106402,11.9333983],[-15.5992603,11.9405699],[-15.5797901,11.9309597],[-15.5771999,11.92237],[-15.5588408,11.8969755],[-15.5527678,11.8951597]],[[-15.6638632,11.7976084],[-15.6341925,11.8272619],[-15.6174097,11.8293476],[-15.6021175,11.8373919],[-15.5959759,11.8482943],[-15.5739326,11.8734589],[-15.5549898,11.8875351],[-15.5527678,11.8951597]],[[-15.6106402,11.9333983],[-15.6108683,11.9330596]],[[-15.6532803,11.8567495],[-15.6584301,11.8453503],[-15.6638632,11.7976084]],[[-15.7250007,11.8079168],[-15.7526374,11.8040024],[-15.7320283,11.7898664],[-15.7250007,11.8079168]],[[-15.7250007,11.8079168],[-15.695069,11.8045151],[-15.6781274,11.7973972],[-15.6638632,11.7976084]],[[-15.6552155,11.8564895],[-15.6570482,11.8515936],[-15.689584,11.8588893],[-15.6897956,11.8309963],[-15.721599,11.8128485],[-15.7250007,11.8079168]],[[-14.6774352,12.162178],[-14.6643724,12.1531642],[-14.6416673,12.1495835],[-14.6281745,12.1868516],[-14.6310065,12.1994696],[-14.6916511,12.1719875],[-14.6843174,12.166927],[-14.6774352,12.162178]]],"bbox":[-15.7526374,11.7898664,-14.2104662,12.2927801]}