{"type":"Topology","objects":{"foo":{"type":"GeometryCollection","geometries":[{"type":"Polygon","arcs":[[0]],"properties":{"name":"Right Bank Essequibo/upper Demerara","gaul_code":17162,"targetarea":14.490975,"totpop":31130.9496431,"country_id":"GUY","targetpop":9535.6038513,"totalarea":9774.3210742,"new_mean":0.0225753}},{"type":"MultiPolygon","arcs":[[[1,2]],[[3]],[[4]]],"properties":{"name":"Mahaicony/berbice","gaul_code":17157,"targetarea":17.1938737,"totpop":43478.9759094,"country_id":"GUY","targetpop":12677.5950012,"totalarea":1123.9441776,"new_mean":0.020866}},{"type":"MultiPolygon","arcs":[[[5,6]],[[7,-2]]],"properties":{"name":"East Berbice/west Canje","gaul_code":17147,"targetarea":10.6314606,"totpop":19680.2323562,"country_id":"GUY","targetpop":11617.1635437,"totalarea":1150.149169,"new_mean":0.0217898}},{"type":"MultiPolygon","arcs":[[[8,-6]],[[9]],[[10]]],"properties":{"name":"East Canje/east Coast Berbice","gaul_code":17148,"targetarea":14.8637819,"totpop":36557.6762046,"country_id":"GUY","targetpop":15561.0005035,"totalarea":360.9729017,"new_mean":0.0210185}},{"type":"Polygon","arcs":[[11,12,13,14,15,16]],"properties":{"name":"Moblissa/la Reconnaissance","gaul_code":17145,"targetarea":103.920402,"totpop":229917.997397,"country_id":"GUY","targetpop":186755.243797,"totalarea":880.4221632,"new_mean":0.0223378}},{"type":"Polygon","arcs":[[17]],"properties":{"name":"Mazaruni/left Bank Essequibo River","gaul_code":17143,"targetarea":3.4341029,"totpop":17704.0935857,"country_id":"GUY","targetpop":8391.2799416,"totalarea":33315.4955253,"new_mean":0.0211646}},{"type":"MultiPolygon","arcs":[[[18]],[[19]]],"properties":{"name":"Somerset And Berks/supenaam River","gaul_code":17159,"targetarea":6.4184893,"totpop":31705.6906245,"country_id":"GUY","targetpop":2902.2603226,"totalarea":2075.8171975,"new_mean":0.0220582}},{"type":"MultiPolygon","arcs":[[[20]],[[21,-17]]],"properties":{"name":"Buxton/mahaica","gaul_code":17144,"targetarea":36.7201362,"totpop":60502.2369384,"country_id":"GUY","targetpop":39641.6202393,"totalarea":1120.1421186,"new_mean":0.0224459}},{"type":"MultiPolygon","arcs":[[[-15,22]],[[23]],[[-13,24]],[[25,26]]],"properties":{"name":"Lower West Demerara River","gaul_code":17155,"targetarea":41.9511849,"totpop":61030.8599509,"country_id":"GUY","targetpop":31837.5583639,"totalarea":1238.0545106,"new_mean":0.0219857}},{"type":"MultiPolygon","arcs":[[[27]],[[28,-27]]],"properties":{"name":"Bonasika/boerasirie","gaul_code":17153,"targetarea":32.3307458,"totpop":42990.405103,"country_id":"GUY","targetpop":26884.3274508,"totalarea":952.8756877,"new_mean":0.0218352}}]}},"arcs":[[[-58.2916672,5.9912502],[-58.2804692,6.0179063],[-58.3059819,6.0236273],[-58.3284022,6.0081447],[-58.3214442,5.9943467],[-58.3124679,5.9963568],[-58.2916672,5.9912502]],[[-57.519067,6.2183176],[-57.5133743,6.2332506],[-57.5195745,6.2596144]],[[-57.5195745,6.2596144],[-57.5288579,6.2267523],[-57.519067,6.2183176]],[[-57.5381432,6.2945682],[-57.5590602,6.3240633],[-57.5663091,6.3282131],[-57.5457118,6.2758002],[-57.5333338,6.2662502],[-57.5381432,6.2945682]],[[-57.5831711,6.3782131],[-57.5955246,6.3582709],[-57.5666672,6.3495835],[-57.5831711,6.3782131]],[[-57.4611971,6.2360471],[-57.483215,6.2522813]],[[-57.483215,6.2522813],[-57.4739425,6.2285712],[-57.4611971,6.2360471]],[[-57.519067,6.2183176],[-57.5044764,6.2457261],[-57.4898722,6.2583109],[-57.4933386,6.2615918],[-57.5166102,6.2701076],[-57.5195745,6.2596144]],[[-57.4611971,6.2360471],[-57.4583745,6.2419623],[-57.483215,6.2522813]],[[-57.3250005,6.2329169],[-57.3573817,6.2759344],[-57.3702967,6.2455308],[-57.3250005,6.2329169]],[[-57.3873377,6.2848456],[-57.4029546,6.2770046],[-57.3833338,6.2662502],[-57.3873377,6.2848456]],[[-58.0201911,6.8046395],[-58.0576913,6.8191419],[-58.1031113,6.8204618],[-58.1341209,6.826437],[-58.1446756,6.8333053],[-58.156189,6.8284388],[-58.1613808,6.809854],[-58.1708221,6.8078532],[-58.1782569,6.8167638]],[[-58.1782569,6.8167638],[-58.1887404,6.7953525]],[[-58.1887404,6.7953525],[-58.1712163,6.7966498],[-58.1887021,6.7436364]],[[-58.1887021,6.7436364],[-58.1799545,6.7133265],[-58.1779442,6.6946836],[-58.1807061,6.682177]],[[-58.1807061,6.682177],[-58.1528,6.7027696],[-58.1783534,6.7382757],[-58.1462163,6.7350002],[-58.1704513,6.7596462],[-58.1503179,6.7612657],[-58.1185796,6.7705796],[-58.0985356,6.794717],[-58.0794927,6.7966579],[-58.0584071,6.7712754],[-58.0294586,6.7708136]],[[-58.0294586,6.7708136],[-58.0201911,6.8046395]],[[-58.6146827,6.3995835],[-58.6130288,6.4162502],[-58.6226203,6.4162502],[-58.6333338,6.4079802],[-58.6333338,6.3995835],[-58.6146827,6.3995835]],[[-58.4765816,7.2408061],[-58.4788498,7.2856187],[-58.4867355,7.2410223],[-58.4765816,7.2408061]],[[-58.4787765,7.3442043],[-58.486589,7.3070013],[-58.4750005,7.2995835],[-58.4787765,7.3442043]],[[-57.9205815,6.6938869],[-57.9364344,6.6707709],[-57.9166672,6.6662502],[-57.9205815,6.6938869]],[[-58.0294586,6.7708136],[-58.0136561,6.7525946],[-57.9787847,6.7374701],[-57.9543706,6.7199001],[-57.940876,6.731811],[-58,6.780869],[-58.0049143,6.7932237],[-58.0201911,6.8046395]],[[-58.1887021,6.7436364],[-58.1954513,6.725674],[-58.1807061,6.682177]],[[-58.1950282,6.7793565],[-58.2236659,6.7690822],[-58.2122401,6.7372504],[-58.2142257,6.7039781],[-58.2000005,6.6995835],[-58.1950282,6.7793565]],[[-58.1782569,6.8167638],[-58.1985031,6.8313381],[-58.2252935,6.8090847],[-58.1887404,6.7953525]],[[-58.2697588,6.8516564],[-58.2250005,6.8412502],[-58.236882,6.8560899],[-58.269276,6.8751339]],[[-58.269276,6.8751339],[-58.2697588,6.8516564]],[[-58.4303065,6.8465562],[-58.4053146,6.8608059],[-58.4185718,6.8661098],[-58.4303065,6.8465562]],[[-58.269276,6.8751339],[-58.2727625,6.8771836],[-58.3429538,6.8885001],[-58.3550271,6.8858206],[-58.3805262,6.8703355],[-58.3620366,6.8625433],[-58.3500005,6.8475124],[-58.3323654,6.8695339],[-58.2697588,6.8516564]]],"bbox":[-58.6333338,5.9912502,-57.3250005,7.3442043]}