{"type":"Topology","objects":{"foo":{"type":"GeometryCollection","geometries":[{"type":"Polygon","arcs":[[0]],"properties":{"name":"Santa Fe","gaul_code":17409,"targetarea":0.242465,"totpop":6404.9817553,"country_id":"HND","targetpop":438.6015015,"new_mean":0.1436127,"totalarea":81.620161}},{"type":"MultiPolygon","arcs":[[[1]],[[2,3,4]]],"properties":{"name":"Trinidad","gaul_code":17284,"targetarea":1.187886,"totpop":9931.1657276,"country_id":"HND","targetpop":884.4980164,"new_mean":0.1091168,"totalarea":77.1742766}},{"type":"Polygon","arcs":[[5]],"properties":{"name":"La Union","gaul_code":17377,"targetarea":1.1164468,"totpop":12810.1867599,"country_id":"HND","targetpop":1605.7209473,"new_mean":0.1327765,"totalarea":90.5489662}},{"type":"Polygon","arcs":[[6]],"properties":{"name":"Morazan","gaul_code":17493,"targetarea":8.10292,"totpop":45121.3111668,"country_id":"HND","targetpop":10946.5881348,"new_mean":0.1313944,"totalarea":507.2192574}},{"type":"Polygon","arcs":[[7]],"properties":{"name":"Aramecina","gaul_code":17482,"targetarea":1.1216159,"totpop":7174.2326889,"country_id":"HND","targetpop":949.583252,"new_mean":0.1426422,"totalarea":92.2818085}},{"type":"Polygon","arcs":[[8]],"properties":{"name":"Dulce Nombre","gaul_code":17269,"targetarea":2.1095537,"totpop":6753.2682056,"country_id":"HND","targetpop":2489.8653565,"new_mean":0.1147498,"totalarea":32.1791342}},{"type":"MultiPolygon","arcs":[[[9]],[[10]],[[11]],[[12,13]]],"properties":{"name":"Villa De San Antonio","gaul_code":17262,"targetarea":5.743127,"totpop":31064.8294723,"country_id":"HND","targetpop":6915.7638245,"new_mean":0.1183783,"totalarea":335.5207324}},{"type":"Polygon","arcs":[[14]],"properties":{"name":"San Esteban","gaul_code":17429,"targetarea":3.7553737,"totpop":29086.8825815,"country_id":"HND","targetpop":4956.3228149,"new_mean":0.1113638,"totalarea":1937.9982351}},{"type":"MultiPolygon","arcs":[[[15]],[[16]]],"properties":{"name":"Talanga","gaul_code":17322,"targetarea":9.2357745,"totpop":39914.5694027,"country_id":"HND","targetpop":11986.9716492,"new_mean":0.1153069,"totalarea":424.0661182}},{"type":"Polygon","arcs":[[17]],"properties":{"name":"La Union","gaul_code":17424,"targetarea":3.2785213,"totpop":11062.0179435,"country_id":"HND","targetpop":3431.2314148,"new_mean":0.1051774,"totalarea":556.6098415}},{"type":"Polygon","arcs":[[18]],"properties":{"name":"Yorito","gaul_code":17498,"targetarea":1.9008993,"totpop":19106.8755331,"country_id":"HND","targetpop":2363.3380127,"new_mean":0.1219945,"totalarea":200.883189}},{"type":"MultiPolygon","arcs":[[[19,20]],[[21]]],"properties":{"name":"Santiago De Puringla","gaul_code":17366,"targetarea":2.9970672,"totpop":18390.8527489,"country_id":"HND","targetpop":2083.1730347,"new_mean":0.1257202,"totalarea":139.1559851}},{"type":"Polygon","arcs":[[22,23]],"properties":{"name":"La Lima","gaul_code":17287,"targetarea":28.2435877,"totpop":70116.9013844,"country_id":"HND","targetpop":58327.9449005,"new_mean":0.0992786,"totalarea":129.4114027}},{"type":"Polygon","arcs":[[24]],"properties":{"name":"Puerto Lempira","gaul_code":17328,"targetarea":2.2176449,"totpop":82330.5019666,"country_id":"HND","targetpop":1262.235199,"new_mean":0.1195126,"totalarea":11811.3312686}},{"type":"MultiPolygon","arcs":[[[25]],[[26]],[[27]],[[28]],[[29,30]],[[31]],[[32,33]],[[34,35,36]],[[37]],[[38]],[[39]],[[40,41,42,43,44,45]],[[46]],[[47]]],"properties":{"name":"Distrito Central","gaul_code":17301,"targetarea":533.3681649,"totpop":1307047.32175,"country_id":"HND","targetpop":1116283.84093,"new_mean":0.118511,"totalarea":1477.6692135}},{"type":"Polygon","arcs":[[48]],"properties":{"name":"Marcala","gaul_code":17356,"targetarea":8.9547075,"totpop":33087.0619364,"country_id":"HND","targetpop":9229.8946838,"new_mean":0.135648,"totalarea":212.0236926}},{"type":"MultiPolygon","arcs":[[[49,50,51]],[[52]],[[53,54]],[[55]]],"properties":{"name":"Quimistan","gaul_code":17469,"targetarea":18.5771368,"totpop":67337.3672566,"country_id":"HND","targetpop":15344.3865662,"new_mean":0.1241801,"totalarea":803.1622224}},{"type":"Polygon","arcs":[[56,57]],"properties":{"name":"Ojojona","gaul_code":17310,"targetarea":2.0666822,"totpop":12927.7560875,"country_id":"HND","targetpop":3838.2928772,"new_mean":0.1401818,"totalarea":257.9013438}},{"type":"MultiPolygon","arcs":[[[58]],[[59,60]]],"properties":{"name":"La Libertad","gaul_code":17247,"targetarea":8.4780592,"totpop":36487.6253796,"country_id":"HND","targetpop":10013.6490479,"new_mean":0.1203763,"totalarea":300.7798104}},{"type":"Polygon","arcs":[[61]],"properties":{"name":"San Antonio","gaul_code":17276,"targetarea":2.2201148,"totpop":11965.1274714,"country_id":"HND","targetpop":2296.7122803,"new_mean":0.1099254,"totalarea":125.8644928}},{"type":"MultiPolygon","arcs":[[[62]],[[63]]],"properties":{"name":"El Porvenir","gaul_code":17210,"targetarea":7.8742365,"totpop":19067.3882788,"country_id":"HND","targetpop":8126.9145508,"new_mean":0.1534771,"totalarea":288.5552045}},{"type":"MultiPolygon","arcs":[[[64]],[[65]]],"properties":{"name":"Copan Ruinas","gaul_code":17265,"targetarea":9.090111,"totpop":51859.2367935,"country_id":"HND","targetpop":9324.7044373,"new_mean":0.1216903,"totalarea":398.6554713}},{"type":"Polygon","arcs":[[66,67]],"properties":{"name":"San Jose Del Potrero","gaul_code":17257,"targetarea":0.4514694,"totpop":8006.7867091,"country_id":"HND","targetpop":0,"new_mean":0.1234075,"totalarea":192.9761257}},{"type":"Polygon","arcs":[[68]],"properties":{"name":"Patuca","gaul_code":17427,"targetarea":1.118755,"totpop":25265.8529561,"country_id":"HND","targetpop":1163.48526,"new_mean":0.0780353,"totalarea":670.1664226}},{"type":"MultiPolygon","arcs":[[[69]],[[70]]],"properties":{"name":"Bonito Oriental","gaul_code":17233,"targetarea":5.7840958,"totpop":30634.6360457,"country_id":"HND","targetpop":6188.1018982,"new_mean":0.1168086,"totalarea":514.1878564}},{"type":"Polygon","arcs":[[71,72]],"properties":{"name":"Potrerillos","gaul_code":17290,"targetarea":5.0800753,"totpop":19936.2703726,"country_id":"HND","targetpop":9803.3574219,"new_mean":0.1159994,"totalarea":91.2899477}},{"type":"MultiPolygon","arcs":[[[73]],[[74]]],"properties":{"name":"Gracias","gaul_code":17372,"targetarea":11.0422677,"totpop":58279.2636728,"country_id":"HND","targetpop":15741.5522461,"new_mean":0.1207296,"totalarea":429.225377}},{"type":"MultiPolygon","arcs":[[[75,-55,76]],[[77,78,79]],[[80]],[[81,82,83,84,-23,85]]],"properties":{"name":"San Pedro Sula","gaul_code":17295,"targetarea":294.2528291,"totpop":859885.296068,"country_id":"HND","targetpop":789213.233452,"new_mean":0.1235836,"totalarea":913.5393925}},{"type":"Polygon","arcs":[[86]],"properties":{"name":"Santa Rosa De Copan","gaul_code":17283,"targetarea":30.4348687,"totpop":69977.2949848,"country_id":"HND","targetpop":31489.8362122,"new_mean":0.1156685,"totalarea":296.8413731}},{"type":"Polygon","arcs":[[87]],"properties":{"name":"Caridad","gaul_code":17483,"targetarea":0.5979441,"totpop":4081.2801971,"country_id":"HND","targetpop":599.9345703,"new_mean":0.1483523,"totalarea":44.3384225}},{"type":"Polygon","arcs":[[88,89]],"properties":{"name":"San Ignacio","gaul_code":17316,"targetarea":2.818655,"totpop":12503.1368971,"country_id":"HND","targetpop":2091.2715149,"new_mean":0.1184055,"totalarea":337.4435004}},{"type":"Polygon","arcs":[[90]],"properties":{"name":"Brus Laguna","gaul_code":17327,"targetarea":2.6967868,"totpop":20972.9371115,"country_id":"HND","targetpop":1936.8252564,"new_mean":0.1316877,"totalarea":5235.9208219}},{"type":"MultiPolygon","arcs":[[[91,92]],[[93,94]]],"properties":{"name":"Saba","gaul_code":17236,"targetarea":7.8985036,"totpop":30658.7523847,"country_id":"HND","targetpop":11815.3296509,"new_mean":0.1347705,"totalarea":363.8229711}},{"type":"Polygon","arcs":[[95]],"properties":{"name":"Guaimaca","gaul_code":17303,"targetarea":11.8086749,"totpop":32752.4125353,"country_id":"HND","targetpop":11223.8454285,"new_mean":0.1083751,"totalarea":784.960561}},{"type":"Polygon","arcs":[[96]],"properties":{"name":"Sabanagrande","gaul_code":17313,"targetarea":2.2319613,"totpop":24010.9459381,"country_id":"HND","targetpop":2574.0531006,"new_mean":0.143948,"totalarea":247.0498229}},{"type":"Polygon","arcs":[[97]],"properties":{"name":"Santa Maria","gaul_code":17365,"targetarea":1.133156,"totpop":14488.9620647,"country_id":"HND","targetpop":1253.6176758,"new_mean":0.1337669,"totalarea":95.8004654}},{"type":"Polygon","arcs":[[98,-43]],"properties":{"name":"Santa Lucia","gaul_code":17321,"targetarea":21.227271,"totpop":28147.9486275,"country_id":"HND","targetpop":20203.2402954,"new_mean":0.1189075,"totalarea":58.8589168}},{"type":"MultiPolygon","arcs":[[[99]],[[100]],[[101,102]],[[103]],[[104,105,106]],[[107,108]],[[109,110]]],"properties":{"name":"Puerto Cortes","gaul_code":17291,"targetarea":59.5561768,"totpop":123103.363335,"country_id":"HND","targetpop":90834.3902969,"new_mean":0.1354484,"totalarea":357.0745504}},{"type":"Polygon","arcs":[[111,112]],"properties":{"name":"Lejamani","gaul_code":17251,"targetarea":0.9819882,"totpop":5899.750412,"country_id":"HND","targetpop":762.5899658,"new_mean":0.119835,"totalarea":20.1049986}},{"type":"Polygon","arcs":[[113]],"properties":{"name":"Jocon","gaul_code":17492,"targetarea":1.1269859,"totpop":10794.8227617,"country_id":"HND","targetpop":1007.5805969,"new_mean":0.1205788,"totalarea":373.1476478}},{"type":"MultiPolygon","arcs":[[[114]],[[115]]],"properties":{"name":"Valle De Angeles","gaul_code":17324,"targetarea":11.6504921,"totpop":21489.9735852,"country_id":"HND","targetpop":11639.8866882,"new_mean":0.1133466,"totalarea":97.5988641}},{"type":"Polygon","arcs":[[116]],"properties":{"name":"San Jose","gaul_code":17229,"targetarea":0.5687413,"totpop":4986.3281908,"country_id":"HND","targetpop":444.1520691,"new_mean":0.1522214,"totalarea":64.2056299}},{"type":"Polygon","arcs":[[117,118,-5]],"properties":{"name":"Naranjito","gaul_code":17465,"targetarea":1.0310449,"totpop":11662.8896866,"country_id":"HND","targetpop":1176.3087158,"new_mean":0.1121066,"totalarea":140.5558896}},{"type":"MultiPolygon","arcs":[[[119]],[[120,121,-52]],[[122,123]],[[124,125]]],"properties":{"name":"Macuelizo","gaul_code":17464,"targetarea":12.3853072,"totpop":46957.7338703,"country_id":"HND","targetpop":13313.4432983,"new_mean":0.1185909,"totalarea":407.8237881}},{"type":"Polygon","arcs":[[126]],"properties":{"name":"Lepaterique","gaul_code":17306,"targetarea":2.2295282,"totpop":22917.0296369,"country_id":"HND","targetpop":2147.4220276,"new_mean":0.1424402,"totalarea":557.3531637}},{"type":"Polygon","arcs":[[127]],"properties":{"name":"Duyure","gaul_code":17219,"targetarea":0.5688786,"totpop":3905.8196783,"country_id":"HND","targetpop":567.1621094,"new_mean":0.1315871,"totalarea":105.1020393}},{"type":"MultiPolygon","arcs":[[[128]],[[129]],[[130]]],"properties":{"name":"Tela","gaul_code":17215,"targetarea":27.7487485,"totpop":96742.2847101,"country_id":"HND","targetpop":38252.9499512,"new_mean":0.139346,"totalarea":1217.9211329}},{"type":"Polygon","arcs":[[131]],"properties":{"name":"San Francisco De Coray","gaul_code":17487,"targetarea":0.5688198,"totpop":10545.6365585,"country_id":"HND","targetpop":480.1478577,"new_mean":0.151813,"totalarea":89.7347946}},{"type":"Polygon","arcs":[[132]],"properties":{"name":"Sulaco","gaul_code":17496,"targetarea":3.7734066,"totpop":20997.5309649,"country_id":"HND","targetpop":4133.498291,"new_mean":0.1214616,"totalarea":233.1669776}},{"type":"MultiPolygon","arcs":[[[133,-57,134]],[[135,136,137]],[[138]],[[139,-41,140]]],"properties":{"name":"Santa Ana","gaul_code":17320,"targetarea":14.5747563,"totpop":19053.0018854,"country_id":"HND","targetpop":10125.9926147,"new_mean":0.1330843,"totalarea":64.5039899}},{"type":"Polygon","arcs":[[141]],"properties":{"name":"Masaguara","gaul_code":17337,"targetarea":3.4441893,"totpop":18796.3108354,"country_id":"HND","targetpop":2609.1551514,"new_mean":0.1247051,"totalarea":249.7580522}},{"type":"Polygon","arcs":[[142]],"properties":{"name":"Santa Rita","gaul_code":17478,"targetarea":1.1166559,"totpop":5163.9473777,"country_id":"HND","targetpop":1048.4503174,"new_mean":0.1146751,"totalarea":80.4144633}},{"type":"Polygon","arcs":[[143]],"properties":{"name":"San Jose De Colimas","gaul_code":17471,"targetarea":2.9241592,"totpop":18468.3396177,"country_id":"HND","targetpop":2798.8299866,"new_mean":0.1222251,"totalarea":228.9738986}},{"type":"Polygon","arcs":[[144,145]],"properties":{"name":"Cucuyagua","gaul_code":17267,"targetarea":5.2993004,"totpop":19574.973793,"country_id":"HND","targetpop":4105.9217529,"new_mean":0.1205331,"totalarea":135.2283361}},{"type":"MultiPolygon","arcs":[[[146]],[[147]]],"properties":{"name":"El Negrito","gaul_code":17490,"targetarea":11.5351211,"totpop":46048.4329782,"country_id":"HND","targetpop":11621.4598389,"new_mean":0.126568,"totalarea":498.9220811}},{"type":"Polygon","arcs":[[148]],"properties":{"name":"Florida","gaul_code":17271,"targetarea":2.2201149,"totpop":30764.9888339,"country_id":"HND","targetpop":1898.4571533,"new_mean":0.1227869,"totalarea":359.9967358}},{"type":"MultiPolygon","arcs":[[[149]],[[150]],[[151]],[[152]],[[153]],[[154]],[[155]]],"properties":{"name":"Tocoa","gaul_code":17240,"targetarea":37.4564429,"totpop":110449.322762,"country_id":"HND","targetpop":69907.596283,"new_mean":0.118603,"totalarea":895.0265908}},{"type":"Polygon","arcs":[[156]],"properties":{"name":"San Francisco De Becerra","gaul_code":17430,"targetarea":1.130323,"totpop":10952.3424248,"country_id":"HND","targetpop":1318.7759399,"new_mean":0.0794877,"totalarea":298.1912329}},{"type":"Polygon","arcs":[[157]],"properties":{"name":"San Francisco De La Paz","gaul_code":17431,"targetarea":4.5967085,"totpop":19772.2597268,"country_id":"HND","targetpop":5087.7710266,"new_mean":0.1100376,"totalarea":506.8682682}},{"type":"Polygon","arcs":[[158]],"properties":{"name":"Victoria","gaul_code":17497,"targetarea":2.3690736,"totpop":30943.7714919,"country_id":"HND","targetpop":2298.6685791,"new_mean":0.1233631,"totalarea":722.4852193}},{"type":"Polygon","arcs":[[159]],"properties":{"name":"Siguatepeque","gaul_code":17260,"targetarea":30.3695699,"totpop":118366.207382,"country_id":"HND","targetpop":77793.4051819,"new_mean":0.1209438,"totalarea":377.3902446}},{"type":"MultiPolygon","arcs":[[[160]],[[161]]],"properties":{"name":"Namasigue","gaul_code":17224,"targetarea":2.5769883,"totpop":31956.0260048,"country_id":"HND","targetpop":2141.0129089,"new_mean":0.1316678,"totalarea":208.2611528}},{"type":"Polygon","arcs":[[162]],"properties":{"name":"San Pedro De Tutule","gaul_code":17362,"targetarea":1.9646828,"totpop":7980.7947807,"country_id":"HND","targetpop":2381.0395813,"new_mean":0.1383133,"totalarea":47.3207193}},{"type":"MultiPolygon","arcs":[[[163,-20]],[[164,-14]]],"properties":{"name":"La Paz","gaul_code":17354,"targetarea":21.1541768,"totpop":44121.6587553,"country_id":"HND","targetpop":23885.1224976,"new_mean":0.1297833,"totalarea":218.917844}},{"type":"Polygon","arcs":[[165]],"properties":{"name":"Jacaleapa","gaul_code":17439,"targetarea":1.1203196,"totpop":5135.3508158,"country_id":"HND","targetpop":847.9553528,"new_mean":0.1166578,"totalarea":109.5891981}},{"type":"MultiPolygon","arcs":[[[166,-35,167]],[[168,-34]],[[169]],[[170]]],"properties":{"name":"San Juan De Flores","gaul_code":17317,"targetarea":6.4853078,"totpop":26966.0397362,"country_id":"HND","targetpop":6380.2780151,"new_mean":0.1192358,"totalarea":390.9848281}},{"type":"Polygon","arcs":[[171]],"properties":{"name":"Las Vegas","gaul_code":17463,"targetarea":11.7119587,"totpop":24396.1561274,"country_id":"HND","targetpop":14347.857666,"new_mean":0.1298168,"totalarea":124.728187}},{"type":"MultiPolygon","arcs":[[[172]],[[173]],[[174]],[[175]],[[176]],[[177]]],"properties":{"name":"Marcovia","gaul_code":17222,"targetarea":8.4349048,"totpop":46290.9172602,"country_id":"HND","targetpop":8096.0731811,"new_mean":0.1411614,"totalarea":483.086439}},{"type":"Polygon","arcs":[[178]],"properties":{"name":"Proteccion","gaul_code":17468,"targetarea":1.1283722,"totpop":18150.2238331,"country_id":"HND","targetpop":1429.0135193,"new_mean":0.1206618,"totalarea":154.7073475}},{"type":"Polygon","arcs":[[179]],"properties":{"name":"Jesus De Otoro","gaul_code":17334,"targetarea":4.4238546,"totpop":34307.7909517,"country_id":"HND","targetpop":3397.2537537,"new_mean":0.1273155,"totalarea":431.6788379}},{"type":"MultiPolygon","arcs":[[[180]],[[181]],[[182]]],"properties":{"name":"Santa Rita","gaul_code":17282,"targetarea":4.2379531,"totpop":34071.8468971,"country_id":"HND","targetpop":4029.3643494,"new_mean":0.1332688,"totalarea":306.8122372}},{"type":"Polygon","arcs":[[183]],"properties":{"name":"Marale","gaul_code":17308,"targetarea":1.9590413,"totpop":13225.9281859,"country_id":"HND","targetpop":1295.0189514,"new_mean":0.123291,"totalarea":470.2588835}},{"type":"Polygon","arcs":[[184]],"properties":{"name":"San Marcos De Colon","gaul_code":17230,"targetarea":6.4066709,"totpop":30769.9990438,"country_id":"HND","targetpop":9383.4216614,"new_mean":0.1313228,"totalarea":609.6789987}},{"type":"Polygon","arcs":[[185]],"properties":{"name":"Gualaco","gaul_code":17418,"targetarea":2.2201148,"totpop":24819.6800345,"country_id":"HND","targetpop":1953.4245911,"new_mean":0.1123241,"totalarea":2218.5303484}},{"type":"MultiPolygon","arcs":[[[186]],[[187]],[[188]],[[189]]],"properties":{"name":"Trinidad","gaul_code":17479,"targetarea":5.2405761,"totpop":26806.9953651,"country_id":"HND","targetpop":8738.6850891,"new_mean":0.1168642,"totalarea":206.0098559}},{"type":"Polygon","arcs":[[190,191]],"properties":{"name":"La Esperanza","gaul_code":17335,"targetarea":1.320743,"totpop":7829.4384711,"country_id":"HND","targetpop":1045.7946167,"new_mean":0.1378186,"totalarea":147.7544327}},{"type":"MultiPolygon","arcs":[[[192]],[[193]],[[194,195,196]]],"properties":{"name":"Catacamas","gaul_code":17413,"targetarea":33.6847286,"totpop":196292.869037,"country_id":"HND","targetpop":56464.3170166,"new_mean":0.1013912,"totalarea":8762.6384147}},{"type":"MultiPolygon","arcs":[[[197,198]],[[199]],[[200]],[[201]]],"properties":{"name":"San Francisco  De Yojoa","gaul_code":17293,"targetarea":13.5634581,"totpop":25337.123661,"country_id":"HND","targetpop":11822.6309204,"new_mean":0.1167742,"totalarea":85.2783892}},{"type":"Polygon","arcs":[[202]],"properties":{"name":"San Juan","gaul_code":17340,"targetarea":1.1314863,"totpop":15521.2323704,"country_id":"HND","targetpop":958.8298645,"new_mean":0.1506368,"totalarea":175.1570541}},{"type":"MultiPolygon","arcs":[[[203]],[[204]],[[205]]],"properties":{"name":"Trujillo","gaul_code":17241,"targetarea":15.2027628,"totpop":61327.2794548,"country_id":"HND","targetpop":14060.4470749,"new_mean":0.1247612,"totalarea":967.5257458}},{"type":"Polygon","arcs":[[206]],"properties":{"name":"Esquias","gaul_code":17245,"targetarea":1.2580499,"totpop":22747.2798944,"country_id":"HND","targetpop":947.8133545,"new_mean":0.121593,"totalarea":369.3173883}},{"type":"Polygon","arcs":[[207]],"properties":{"name":"El Paraiso","gaul_code":17270,"targetarea":4.5935758,"totpop":21546.3466721,"country_id":"HND","targetpop":4140.3113098,"new_mean":0.1387096,"totalarea":266.1652919}},{"type":"Polygon","arcs":[[208]],"properties":{"name":"San Luis","gaul_code":17472,"targetarea":2.2190975,"totpop":25237.7570143,"country_id":"HND","targetpop":2232.3059387,"new_mean":0.1302009,"totalarea":400.6314769}},{"type":"MultiPolygon","arcs":[[[-199,209]],[[210]],[[211]],[[212]]],"properties":{"name":"Santa Cruz De Yojoa","gaul_code":17296,"targetarea":17.6459208,"totpop":86345.4341168,"country_id":"HND","targetpop":17267.4425354,"new_mean":0.1136181,"totalarea":779.1694915}},{"type":"Polygon","arcs":[[213]],"properties":{"name":"El Paraiso","gaul_code":17437,"targetarea":14.3099346,"totpop":52529.215281,"country_id":"HND","targetpop":22289.5080261,"new_mean":0.1136895,"totalarea":388.8920119}},{"type":"MultiPolygon","arcs":[[[-51,214,-121]],[[215,-126]],[[-123,216]]],"properties":{"name":"Azacualpa","gaul_code":17455,"targetarea":10.8174294,"totpop":27567.7934947,"country_id":"HND","targetpop":11682.8707275,"new_mean":0.1290107,"totalarea":214.8920889}},{"type":"Polygon","arcs":[[217]],"properties":{"name":"San Jeronimo","gaul_code":17255,"targetarea":2.2746954,"totpop":24944.5284824,"country_id":"HND","targetpop":2088.9738769,"new_mean":0.1230171,"totalarea":214.4096132}},{"type":"MultiPolygon","arcs":[[[218]],[[219]],[[220]],[[221]],[[222]],[[-103,223]]],"properties":{"name":"Omoa","gaul_code":17288,"targetarea":15.8859719,"totpop":46780.3011165,"country_id":"HND","targetpop":17201.8439331,"new_mean":0.1386186,"totalarea":383.8208128}},{"type":"Polygon","arcs":[[224]],"properties":{"name":"Tambla","gaul_code":17391,"targetarea":1.1193207,"totpop":5168.984602,"country_id":"HND","targetpop":1111.244751,"new_mean":0.1638843,"totalarea":62.0048005}},{"type":"Polygon","arcs":[[225]],"properties":{"name":"Santa Barbara","gaul_code":17477,"targetarea":15.2671912,"totpop":52107.3377056,"country_id":"HND","targetpop":20425.2208557,"new_mean":0.1172469,"totalarea":303.8629582}},{"type":"MultiPolygon","arcs":[[[226]],[[227]]],"properties":{"name":"Jose Santos Guardiola","gaul_code":17346,"targetarea":4.4582571,"totpop":6742.1740274,"country_id":"HND","targetpop":2733.691803,"new_mean":0.1392196,"totalarea":71.0809876}},{"type":"Polygon","arcs":[[228]],"properties":{"name":"Atima","gaul_code":17454,"targetarea":1.940248,"totpop":26491.9240627,"country_id":"HND","targetpop":1928.4624329,"new_mean":0.1306123,"totalarea":194.6044793}},{"type":"MultiPolygon","arcs":[[[229]],[[230]]],"properties":{"name":"Juticalpa","gaul_code":17423,"targetarea":24.0890487,"totpop":151651.213968,"country_id":"HND","targetpop":68754.7488708,"new_mean":0.1011159,"totalarea":2677.9316467}},{"type":"MultiPolygon","arcs":[[[231]],[[232]]],"properties":{"name":"La Ceiba","gaul_code":17212,"targetarea":61.3435183,"totpop":215452.101406,"country_id":"HND","targetpop":191514.381102,"new_mean":0.144443,"totalarea":645.7592704}},{"type":"Polygon","arcs":[[233,-112]],"properties":{"name":"Ajuterique","gaul_code":17242,"targetarea":4.3101406,"totpop":14079.1326637,"country_id":"HND","targetpop":4173.4594116,"new_mean":0.1287972,"totalarea":58.9500896}},{"type":"MultiPolygon","arcs":[[[234]],[[235]]],"properties":{"name":"Balfate","gaul_code":17232,"targetarea":5.1409047,"totpop":48638.013016,"country_id":"HND","targetpop":5399.4862366,"new_mean":0.1418256,"totalarea":920.9533989}},{"type":"Polygon","arcs":[[236]],"properties":{"name":"Roatan","gaul_code":17347,"targetarea":15.2099532,"totpop":28746.6999493,"country_id":"HND","targetpop":24404.4016724,"new_mean":0.1412064,"totalarea":89.221372}},{"type":"Polygon","arcs":[[237]],"properties":{"name":"Teupasenti","gaul_code":17448,"targetarea":4.9755532,"totpop":48226.5296559,"country_id":"HND","targetpop":5188.4435425,"new_mean":0.1082292,"totalarea":667.9882296}},{"type":"Polygon","arcs":[[238]],"properties":{"name":"San Jose De Comayagua","gaul_code":17256,"targetarea":1.1168643,"totpop":9621.5404415,"country_id":"HND","targetpop":1051.1247559,"new_mean":0.1290254,"totalarea":85.6813553}},{"type":"Polygon","arcs":[[239]],"properties":{"name":"Petoa","gaul_code":17467,"targetarea":1.9371316,"totpop":14419.9576316,"country_id":"HND","targetpop":1441.7184448,"new_mean":0.1195872,"totalarea":210.9039547}},{"type":"MultiPolygon","arcs":[[[240,241]],[[242]],[[243,244]],[[245,246]]],"properties":{"name":"San Manuel","gaul_code":17294,"targetarea":25.9430485,"totpop":56992.2346916,"country_id":"HND","targetpop":34589.4674072,"new_mean":0.1125135,"totalarea":134.47099}},{"type":"Polygon","arcs":[[-90,247]],"properties":{"name":"El Porvenir","gaul_code":17302,"targetarea":2.5553032,"totpop":21691.1919169,"country_id":"HND","targetpop":1441.6647949,"new_mean":0.1228938,"totalarea":413.5077663}},{"type":"MultiPolygon","arcs":[[[248]],[[249]],[[250]]],"properties":{"name":"El Triunfo","gaul_code":17221,"targetarea":8.0116134,"totpop":46122.9020023,"country_id":"HND","targetpop":8992.3401794,"new_mean":0.1256025,"totalarea":299.2201469}},{"type":"MultiPolygon","arcs":[[[251,252,253]],[[254]],[[255]],[[256]],[[257,-246]],[[258]],[[259]],[[260]]],"properties":{"name":"El Progreso","gaul_code":17491,"targetarea":83.0091048,"totpop":208077.106943,"country_id":"HND","targetpop":141562.444946,"new_mean":0.1239814,"totalarea":548.8361506}},{"type":"MultiPolygon","arcs":[[[261]],[[262]]],"properties":{"name":"San Lorenzo","gaul_code":17488,"targetarea":19.4452648,"totpop":44285.131361,"country_id":"HND","targetpop":26149.7556152,"new_mean":0.1536457,"totalarea":180.372717}},{"type":"Polygon","arcs":[[263]],"properties":{"name":"Utila","gaul_code":17348,"targetarea":2.5807317,"totpop":4446.574007,"country_id":"HND","targetpop":1903.6322327,"new_mean":0.1428319,"totalarea":42.0836706}},{"type":"Polygon","arcs":[[264]],"properties":{"name":"Comayagua","gaul_code":17243,"targetarea":72.6479194,"totpop":184279.60629,"country_id":"HND","targetpop":119404.186615,"new_mean":0.1212852,"totalarea":791.4615177}},{"type":"Polygon","arcs":[[265,266]],"properties":{"name":"San Francisco Del Valle","gaul_code":17406,"targetarea":9.5795619,"totpop":17926.825758,"country_id":"HND","targetpop":7399.7628632,"new_mean":0.1382309,"totalarea":106.2435897}},{"type":"Polygon","arcs":[[267]],"properties":{"name":"San Lucas","gaul_code":17445,"targetarea":1.1347083,"totpop":7919.2969661,"country_id":"HND","targetpop":929.3186035,"new_mean":0.1320902,"totalarea":123.7008909}},{"type":"MultiPolygon","arcs":[[[268]],[[269]]],"properties":{"name":"Yoro","gaul_code":17499,"targetarea":9.8843351,"totpop":109112.666043,"country_id":"HND","targetpop":25528.9655762,"new_mean":0.1184614,"totalarea":2253.1784085}},{"type":"Polygon","arcs":[[270]],"properties":{"name":"Yuscaran","gaul_code":17452,"targetarea":1.1206756,"totpop":13948.5001702,"country_id":"HND","targetpop":1363.0220337,"new_mean":0.1201916,"totalarea":326.1228208}},{"type":"Polygon","arcs":[[271]],"properties":{"name":"Liure","gaul_code":17440,"targetarea":1.9269186,"totpop":9626.9941807,"country_id":"HND","targetpop":1563.9488831,"new_mean":0.1293771,"totalarea":85.0314998}},{"type":"Polygon","arcs":[[272,-191]],"properties":{"name":"Intibuca","gaul_code":17333,"targetarea":19.013792,"totpop":71761.8954206,"country_id":"HND","targetpop":27396.133667,"new_mean":0.1327647,"totalarea":518.7029621}},{"type":"Polygon","arcs":[[273]],"properties":{"name":"San Antonio De Cortes","gaul_code":17292,"targetarea":4.1324584,"totpop":25445.4528999,"country_id":"HND","targetpop":6844.2824402,"new_mean":0.1223813,"totalarea":219.9822872}},{"type":"MultiPolygon","arcs":[[[274]],[[275]]],"properties":{"name":"Concepcion De Maria","gaul_code":17218,"targetarea":1.7069441,"totpop":27671.1366196,"country_id":"HND","targetpop":1397.0993957,"new_mean":0.1344695,"totalarea":161.631414}},{"type":"MultiPolygon","arcs":[[[276]],[[277,278]]],"properties":{"name":"Nueva Ocotepeque","gaul_code":17404,"targetarea":3.3394984,"totpop":9304.5036931,"country_id":"HND","targetpop":2601.7305908,"new_mean":0.1342332,"totalarea":138.1563365}},{"type":"MultiPolygon","arcs":[[[279]],[[280]]],"properties":{"name":"Lepaera","gaul_code":17380,"targetarea":4.664843,"totpop":42849.9571686,"country_id":"HND","targetpop":4256.3661499,"new_mean":0.1115031,"totalarea":309.6707633}},{"type":"MultiPolygon","arcs":[[[281]],[[282]],[[283]],[[284]],[[-93,285]],[[-95,286]]],"properties":{"name":"Olanchito","gaul_code":17494,"targetarea":38.9486514,"totpop":128673.157589,"country_id":"HND","targetpop":56548.2793884,"new_mean":0.1122962,"totalarea":2144.3231277}},{"type":"MultiPolygon","arcs":[[[287]],[[288,289,290,291]],[[292]]],"properties":{"name":"Nueva Arcadia","gaul_code":17274,"targetarea":18.5908819,"totpop":47463.2619171,"country_id":"HND","targetpop":26808.9075317,"new_mean":0.0995055,"totalarea":155.8889191}},{"type":"MultiPolygon","arcs":[[[293]],[[294,295]]],"properties":{"name":"Santa Ana De Yusguare","gaul_code":17231,"targetarea":6.6078268,"totpop":15683.5979252,"country_id":"HND","targetpop":5366.7648926,"new_mean":0.1356381,"totalarea":74.292118}},{"type":"MultiPolygon","arcs":[[[296]],[[-168,-37,297]]],"properties":{"name":"Villa De San Francisco","gaul_code":17326,"targetarea":4.7013727,"totpop":11738.8528163,"country_id":"HND","targetpop":4961.7117615,"new_mean":0.1282971,"totalarea":88.3251177}},{"type":"MultiPolygon","arcs":[[[298,299]],[[300]],[[301]]],"properties":{"name":"San Francisco","gaul_code":17214,"targetarea":9.5290192,"totpop":23240.6336532,"country_id":"HND","targetpop":13034.1326904,"new_mean":0.1420725,"totalarea":281.4530528}},{"type":"Polygon","arcs":[[302]],"properties":{"name":"Tatumbla","gaul_code":17323,"targetarea":1.211967,"totpop":9658.8947444,"country_id":"HND","targetpop":848.0000916,"new_mean":0.1191325,"totalarea":78.6470761}},{"type":"Polygon","arcs":[[-253,303]],"properties":{"name":"Santa Rita","gaul_code":17495,"targetarea":7.8403683,"totpop":23712.0943143,"country_id":"HND","targetpop":14700.778656,"new_mean":0.1159562,"totalarea":118.0293423}},{"type":"MultiPolygon","arcs":[[[304]],[[305]],[[306]]],"properties":{"name":"Arizona","gaul_code":17209,"targetarea":6.7232262,"totpop":24958.8718544,"country_id":"HND","targetpop":6089.1809998,"new_mean":0.1440195,"totalarea":489.6954555}},{"type":"MultiPolygon","arcs":[[[307]],[[308]]],"properties":{"name":"Corquin","gaul_code":17266,"targetarea":3.2161476,"totpop":20484.0901146,"country_id":"HND","targetpop":2728.3709412,"new_mean":0.1325496,"totalarea":137.3808619}},{"type":"Polygon","arcs":[[309]],"properties":{"name":"El Corpus","gaul_code":17220,"targetarea":1.1314257,"totpop":25317.3725243,"country_id":"HND","targetpop":1029.8254394,"new_mean":0.1383033,"totalarea":237.8460102}},{"type":"Polygon","arcs":[[-146,310]],"properties":{"name":"La Union","gaul_code":17273,"targetarea":2.3118802,"totpop":21730.1681805,"country_id":"HND","targetpop":1562.6534729,"new_mean":0.1319098,"totalarea":231.8210468}},{"type":"Polygon","arcs":[[311,-61]],"properties":{"name":"Las Lajas","gaul_code":17250,"targetarea":3.2229628,"totpop":17443.8949645,"country_id":"HND","targetpop":2975.3546753,"new_mean":0.1182679,"totalarea":155.8081436}},{"type":"Polygon","arcs":[[312]],"properties":{"name":"Oropoli","gaul_code":17442,"targetarea":0.5684452,"totpop":6487.762877,"country_id":"HND","targetpop":426.6082153,"new_mean":0.1267466,"totalarea":166.4805931}},{"type":"Polygon","arcs":[[313]],"properties":{"name":"Campamento","gaul_code":17412,"targetarea":4.9685003,"totpop":24360.9404726,"country_id":"HND","targetpop":7304.6896667,"new_mean":0.1051113,"totalarea":381.0791796}},{"type":"Polygon","arcs":[[314]],"properties":{"name":"Langue","gaul_code":17485,"targetarea":4.087698,"totpop":21085.745163,"country_id":"HND","targetpop":3826.8598938,"new_mean":0.1497004,"totalarea":133.9272351}},{"type":"Polygon","arcs":[[315]],"properties":{"name":"Nuevo Celilac","gaul_code":17466,"targetarea":1.9993247,"totpop":15400.2124996,"country_id":"HND","targetpop":2027.5911865,"new_mean":0.1182422,"totalarea":151.3053833}},{"type":"Polygon","arcs":[[-196,316]],"properties":{"name":"Santa Maria Del Real","gaul_code":17432,"targetarea":3.5397286,"totpop":12890.4056914,"country_id":"HND","targetpop":2919.2116394,"new_mean":0.1021123,"totalarea":232.0177345}},{"type":"Polygon","arcs":[[317]],"properties":{"name":"San Marcos","gaul_code":17473,"targetarea":2.4457365,"totpop":14723.4542696,"country_id":"HND","targetpop":2180.6379394,"new_mean":0.1144322,"totalarea":222.227937}},{"type":"Polygon","arcs":[[318,-278]],"properties":{"name":"Sinuapa","gaul_code":17411,"targetarea":10.4495766,"totpop":25120.5402069,"country_id":"HND","targetpop":15657.3435669,"new_mean":0.1352532,"totalarea":127.4740762}},{"type":"Polygon","arcs":[[319]],"properties":{"name":"Orocuina","gaul_code":17225,"targetarea":1.1359164,"totpop":18306.9891319,"country_id":"HND","targetpop":973.78125,"new_mean":0.1334374,"totalarea":118.3131717}},{"type":"Polygon","arcs":[[320]],"properties":{"name":"Belen Gualcho","gaul_code":17396,"targetarea":1.2575554,"totpop":16130.2349892,"country_id":"HND","targetpop":1081.2935791,"new_mean":0.1451732,"totalarea":159.3730853}},{"type":"Polygon","arcs":[[321]],"properties":{"name":"El Nispero","gaul_code":17460,"targetarea":1.6288157,"totpop":9644.5107727,"country_id":"HND","targetpop":1375.543335,"new_mean":0.1175018,"totalarea":78.9184689}},{"type":"MultiPolygon","arcs":[[[-291,322]],[[-289,323]]],"properties":{"name":"La Jigua","gaul_code":17272,"targetarea":4.4181125,"totpop":13727.296175,"country_id":"HND","targetpop":2137.5537109,"new_mean":0.0971313,"totalarea":115.8599211}},{"type":"MultiPolygon","arcs":[[[-79,324]],[[-84,325,326,327,-242,328,-244,329]]],"properties":{"name":"Villanueva","gaul_code":17297,"targetarea":69.6536018,"totpop":190622.257151,"country_id":"HND","targetpop":159629.158478,"new_mean":0.1176657,"totalarea":347.7182963}},{"type":"Polygon","arcs":[[330]],"properties":{"name":"Dulce Nombre De Culmi","gaul_code":17415,"targetarea":2.2195222,"totpop":32837.362758,"country_id":"HND","targetpop":2081.6046143,"new_mean":0.099151,"totalarea":2937.2448626}},{"type":"MultiPolygon","arcs":[[[331]],[[332]],[[333]]],"properties":{"name":"Nacaome","gaul_code":17486,"targetarea":14.3813788,"totpop":67052.7167525,"country_id":"HND","targetpop":17251.8058777,"new_mean":0.1499109,"totalarea":664.5937892}},{"type":"MultiPolygon","arcs":[[[334]],[[335]],[[336,-82,337]],[[338]]],"properties":{"name":"Choloma","gaul_code":17286,"targetarea":124.3870353,"totpop":273964.903507,"country_id":"HND","targetpop":217141.145187,"new_mean":0.1211664,"totalarea":433.5061141}},{"type":"Polygon","arcs":[[339]],"properties":{"name":"Taulabe","gaul_code":17261,"targetarea":4.600495,"totpop":27360.7277479,"country_id":"HND","targetpop":6078.0698242,"new_mean":0.1281715,"totalarea":219.1955569}},{"type":"Polygon","arcs":[[340,-3,-119]],"properties":{"name":"San Nicolas","gaul_code":17280,"targetarea":0.5007616,"totpop":6826.9018745,"country_id":"HND","targetpop":643.9324341,"new_mean":0.1056321,"totalarea":78.9732134}},{"type":"Polygon","arcs":[[341,-266]],"properties":{"name":"San Marcos","gaul_code":17408,"targetarea":2.8031113,"totpop":17909.7225761,"country_id":"HND","targetpop":2773.7826843,"new_mean":0.1416677,"totalarea":169.4825779}},{"type":"MultiPolygon","arcs":[[[342]],[[343]]],"properties":{"name":"Sonaguera","gaul_code":17239,"targetarea":10.8600197,"totpop":49192.6213531,"country_id":"HND","targetpop":15608.900116,"new_mean":0.1309136,"totalarea":446.6947131}},{"type":"Polygon","arcs":[[344]],"properties":{"name":"San Luis","gaul_code":17258,"targetarea":2.6965668,"totpop":15807.4569778,"country_id":"HND","targetpop":2337.1726379,"new_mean":0.1235895,"totalarea":119.2382531}},{"type":"MultiPolygon","arcs":[[[345]],[[346,-295]],[[347]]],"properties":{"name":"Choluteca","gaul_code":17217,"targetarea":60.5216713,"totpop":165314.133295,"country_id":"HND","targetpop":58932.986145,"new_mean":0.1389092,"totalarea":1082.8377658}},{"type":"Polygon","arcs":[[348]],"properties":{"name":"Santa Elena","gaul_code":17364,"targetarea":1.5305986,"totpop":11797.8535776,"country_id":"HND","targetpop":972.2597351,"new_mean":0.138597,"totalarea":153.0838996}},{"type":"Polygon","arcs":[[349]],"properties":{"name":"Danli","gaul_code":17436,"targetarea":33.1454917,"totpop":235576.522242,"country_id":"HND","targetpop":74491.2866821,"new_mean":0.1121729,"totalarea":2556.0423625}},{"type":"MultiPolygon","arcs":[[[-327,350,-72,351]],[[352]]],"properties":{"name":"Pimienta","gaul_code":17289,"targetarea":13.4406093,"totpop":24063.1925278,"country_id":"HND","targetpop":13809.7108459,"new_mean":0.1165789,"totalarea":58.5959855}},{"type":"Polygon","arcs":[[-30,353]],"properties":{"name":"San Antonio De Oriente","gaul_code":17314,"targetarea":1.2346322,"totpop":20456.9225016,"country_id":"HND","targetpop":1044.1867065,"new_mean":0.1251122,"totalarea":211.0915934}},{"type":"Polygon","arcs":[[-68,354]],"properties":{"name":"Minas De Oro","gaul_code":17253,"targetarea":2.286643,"totpop":15610.7514757,"country_id":"HND","targetpop":2810.6627197,"new_mean":0.1206768,"totalarea":376.0067312}},{"type":"MultiPolygon","arcs":[[[355]],[[-300,356]]],"properties":{"name":"La Masica","gaul_code":17213,"targetarea":5.2574561,"totpop":29589.6909509,"country_id":"HND","targetpop":11115.9098511,"new_mean":0.1385294,"totalarea":466.7287939}},{"type":"Polygon","arcs":[[357]],"properties":{"name":"Cane","gaul_code":17351,"targetarea":1.1190788,"totpop":5055.7653389,"country_id":"HND","targetpop":1032.4347839,"new_mean":0.1239447,"totalarea":44.7737339}},{"type":"MultiPolygon","arcs":[[[358]],[[359]]],"properties":{"name":"La Labor","gaul_code":17401,"targetarea":2.2647599,"totpop":11876.9589958,"country_id":"HND","targetpop":1877.6470032,"new_mean":0.1417286,"totalarea":107.6347352}},{"type":"MultiPolygon","arcs":[[[360]],[[361]]],"properties":{"name":"Guayape","gaul_code":17421,"targetarea":2.2460956,"totpop":12085.1960912,"country_id":"HND","targetpop":2151.4264221,"new_mean":0.1116091,"totalarea":416.4446401}}]}},"arcs":[[[-89.2309794,14.509596],[-89.232506,14.5134228],[-89.2328123,14.5101108],[-89.2313972,14.5097134],[-89.2309794,14.509596]],[[-88.7378584,14.9518296],[-88.7524987,14.9446274],[-88.7333337,14.9412502],[-88.7378584,14.9518296]],[[-88.6892776,14.9543476],[-88.6908448,14.9545943]],[[-88.6908448,14.9545943],[-88.6902789,14.9522759]],[[-88.6902789,14.9522759],[-88.6892776,14.9543476]],[[-88.4045251,14.8184963],[-88.4191654,14.8112941],[-88.4000004,14.8079168],[-88.4045251,14.8184963]],[[-87.5861332,15.3301173],[-87.6064782,15.3357163],[-87.6194665,15.311229],[-87.5833337,15.3079168],[-87.5861332,15.3301173]],[[-87.7045251,13.7518296],[-87.7191654,13.7446274],[-87.7000004,13.7412502],[-87.7045251,13.7518296]],[[-88.8285783,14.8537628],[-88.8316167,14.8603223],[-88.8453698,14.8470729],[-88.8250004,14.8412502],[-88.8285783,14.8537628]],[[-87.5700036,14.301854],[-87.5774987,14.2875514],[-87.566667,14.2829168],[-87.5700036,14.301854]],[[-87.5795251,14.3268296],[-87.5941654,14.3196274],[-87.5750004,14.3162502],[-87.5795251,14.3268296]],[[-87.6104252,14.3352646],[-87.6196211,14.3204697],[-87.6000004,14.3162502],[-87.6104252,14.3352646]],[[-87.6426644,14.3295692],[-87.6373295,14.3369411],[-87.6376875,14.3459051],[-87.6472912,14.3455247]],[[-87.6472912,14.3455247],[-87.6482925,14.3384638],[-87.6426644,14.3295692]],[[-85.7569096,15.2192083],[-85.7703129,15.227383],[-85.7777999,15.205215],[-85.766667,15.1995835],[-85.7569096,15.2192083]],[[-87.066667,14.4162502],[-87.0978194,14.421369],[-87.0943119,14.3976426],[-87.0715336,14.3876206],[-87.066667,14.4162502]],[[-87.066667,14.4162502],[-87.0565108,14.4191025],[-87.0638106,14.4264105],[-87.066667,14.4162502]],[[-86.7072839,15.0363063],[-86.7200687,15.0217759],[-86.7000004,15.0079168],[-86.7072839,15.0363063]],[[-87.2785814,15.0745484],[-87.2800622,15.075981],[-87.2946211,15.0686712],[-87.2750004,15.0579168],[-87.2785814,15.0745484]],[[-87.8401715,14.313194],[-87.8278656,14.3262768]],[[-87.8278656,14.3262768],[-87.8452966,14.3171494],[-87.8401715,14.313194]],[[-87.8923262,14.3691025],[-87.9119633,14.3588161],[-87.9000004,14.3495835],[-87.8923262,14.3691025]],[[-87.9023142,15.4766519],[-87.9113998,15.4719419],[-87.9060364,15.4582138],[-87.9113235,15.4478579],[-87.9160156,15.4483538],[-87.9324951,15.4306269],[-87.9429321,15.4323339],[-87.9500275,15.4481153],[-87.9594621,15.4386329]],[[-87.9594621,15.4386329],[-87.9556482,15.4410589],[-87.9460697,15.4201808],[-87.9209613,15.4124308],[-87.9118426,15.4118749],[-87.8997213,15.4120673],[-87.8929993,15.4175197],[-87.8877364,15.4289862],[-87.8710697,15.4461492],[-87.8882653,15.4451239],[-87.8871911,15.4631374],[-87.9023142,15.4766519]],[[-83.7723718,15.2778672],[-83.7870365,15.2637396],[-83.7666671,15.2579168],[-83.7723718,15.2778672]],[[-87.128337,13.9185207],[-87.1358321,13.9042181],[-87.1250004,13.8995835],[-87.128337,13.9185207]],[[-87.3390385,14.0445339],[-87.3537032,14.0304062],[-87.3333337,14.0245835],[-87.3390385,14.0445339]],[[-87.0795251,14.0601629],[-87.0941654,14.0529608],[-87.0750004,14.0495835],[-87.0795251,14.0601629]],[[-87.341667,14.0663478],[-87.3542891,14.0725124],[-87.3777998,14.0606187],[-87.3715173,14.051382],[-87.3624922,14.0557928],[-87.3500004,14.0495835],[-87.341667,14.0663478]],[[-87.0702361,14.0776375],[-87.0611979,14.0857477]],[[-87.0611979,14.0857477],[-87.0645934,14.0989827],[-87.072143,14.0956627],[-87.0867354,14.0818711],[-87.0702361,14.0776375]],[[-87.216667,14.2079168],[-87.2211918,14.2184963],[-87.2358321,14.2112941],[-87.216667,14.2079168]],[[-87.0766782,14.2258451],[-87.0784021,14.2217759],[-87.0583337,14.2079168],[-87.0499998,14.2162513]],[[-87.0499998,14.2162513],[-87.0766782,14.2258451]],[[-87.017334,14.2274742],[-87.0182673,14.2276588]],[[-87.0182673,14.2276588],[-87.0172804,14.2270962]],[[-87.0172804,14.2270962],[-87.017334,14.2274742]],[[-87.166667,14.2329168],[-87.1565108,14.2357692],[-87.1638106,14.2430771],[-87.166667,14.2329168]],[[-87.2333337,14.2662502],[-87.2231775,14.2691025],[-87.2304773,14.2764105],[-87.2333337,14.2662502]],[[-87.2333337,14.2662502],[-87.2427575,14.2712144],[-87.2351648,14.288113],[-87.2592045,14.294127],[-87.2504235,14.2745835],[-87.2606693,14.2517808],[-87.2369551,14.2383734],[-87.2333337,14.2662502]],[[-87.2119257,13.9612191],[-87.1993045,13.9581]],[[-87.1993045,13.9581],[-87.1606449,14.0217393],[-87.1375004,14.0188625],[-87.1174856,14.0213518],[-87.1126922,14.0272679],[-87.1046309,14.039944],[-87.1270756,14.0579168],[-87.105751,14.0750055]],[[-87.105751,14.0750055],[-87.1128616,14.0719891],[-87.1196899,14.0834322],[-87.1363602,14.0933237],[-87.1377258,14.1035566],[-87.144165,14.121417],[-87.1395264,14.1379967],[-87.1132013,14.1522779]],[[-87.1132013,14.1522779],[-87.111947,14.1623846],[-87.1269291,14.187881],[-87.140723,14.1861639],[-87.1606124,14.1613307],[-87.183114,14.1641302],[-87.1953698,14.1999375],[-87.1703698,14.219957],[-87.166667,14.2329168]],[[-87.166667,14.2329168],[-87.1888676,14.2301173],[-87.19821,14.211644],[-87.216667,14.2079168]],[[-87.216667,14.2079168],[-87.2243656,14.1626206],[-87.2463708,14.1698797],[-87.2712406,14.2056423],[-87.2750004,14.1662502],[-87.2558353,14.1628729],[-87.2704756,14.1556707],[-87.2750004,14.1662502],[-87.2877364,14.1701808],[-87.3113285,14.1965887],[-87.3377364,14.2201808],[-87.3518803,14.2360093],[-87.379403,14.2535142],[-87.398625,14.3035142],[-87.4435388,14.2920395],[-87.4062748,14.2569647],[-87.3951257,14.2364487],[-87.3964522,14.1975124],[-87.3877364,14.1785142],[-87.3544844,14.1632554],[-87.3539066,14.1535223],[-87.3872644,14.1432236],[-87.3325362,14.1290024],[-87.3206058,14.1549871],[-87.304403,14.1368475],[-87.2710697,14.1156479],[-87.2838138,14.0959865],[-87.3372644,14.0835475],[-87.329403,14.0701808],[-87.303931,14.0623195],[-87.2960697,14.0451808],[-87.2828617,14.0333848],[-87.2706221,14.0196844],[-87.2461267,14.0211452],[-87.2455733,14.0118719],[-87.2622644,13.996959],[-87.2460697,13.9868475],[-87.2170739,13.9778957],[-87.2119257,13.9612191]],[[-87.2000004,14.3162502],[-87.2212569,14.3263901],[-87.2339359,14.2966335],[-87.203988,14.3089748],[-87.2000004,14.3162502]],[[-87.2000004,14.3162502],[-87.1786218,14.3214992],[-87.1707686,14.3101222],[-87.154932,14.3371974],[-87.1668949,14.3529852],[-87.1786055,14.3360256],[-87.1940352,14.3394842],[-87.2000004,14.3162502]],[[-88.0221114,14.1733058],[-88.0475508,14.1695461],[-88.0440596,14.1459051],[-88.016667,14.1412502],[-88.0221114,14.1733058]],[[-88.4865552,15.2833232],[-88.4765303,15.296605],[-88.4920047,15.2987643]],[[-88.4920047,15.2987643],[-88.4933243,15.296504]],[[-88.4933243,15.296504],[-88.4865552,15.2833232]],[[-88.3964685,15.369599],[-88.4121911,15.3390977],[-88.391667,15.3329168],[-88.3964685,15.369599]],[[-88.1836991,15.3743313],[-88.1959802,15.3658555],[-88.2017419,15.3378485],[-88.1715987,15.3466375],[-88.183197,15.374258]],[[-88.183197,15.374258],[-88.1836991,15.3743313]],[[-88.3803633,15.4026963],[-88.41189,15.3896266],[-88.391667,15.3745835],[-88.3803633,15.4026963]],[[-87.2902417,13.9208613],[-87.2872872,13.9312146]],[[-87.2872872,13.9312146],[-87.305754,13.9296901],[-87.3018803,13.9172349],[-87.2902417,13.9208613]],[[-87.5985762,14.760875],[-87.6119795,14.7690496],[-87.6194665,14.7468817],[-87.6083337,14.7412502],[-87.5985762,14.760875]],[[-87.571555,14.8833694],[-87.5687829,14.8974635],[-87.5889896,14.9179022],[-87.5912934,14.9022938]],[[-87.5912934,14.9022938],[-87.571555,14.8833694]],[[-88.8723718,15.0362005],[-88.8870365,15.0220729],[-88.866667,15.0162502],[-88.8723718,15.0362005]],[[-86.9250004,15.7162502],[-86.9250004,15.6995835],[-86.9000004,15.6995835],[-86.9000004,15.7162502],[-86.9250004,15.7162502]],[[-86.9589929,15.7274359],[-86.9786299,15.7171494],[-86.966667,15.7079168],[-86.9589929,15.7274359]],[[-89.1396325,14.8454453],[-89.1646732,14.852383],[-89.1777998,14.828091],[-89.1500004,14.8245835],[-89.1396325,14.8454453]],[[-89.223153,14.8624009],[-89.2243414,14.8501362],[-89.216667,14.8495835],[-89.223153,14.8624009]],[[-87.3345191,14.7935938],[-87.3422204,14.8088201],[-87.3458385,14.80613]],[[-87.3458385,14.80613],[-87.3345191,14.7935938]],[[-85.8878584,14.3518296],[-85.9024987,14.3446274],[-85.8833337,14.3412502],[-85.8878584,14.3518296]],[[-85.7229659,15.7618068],[-85.753931,15.751321],[-85.7333337,15.7329168],[-85.7229659,15.7618068]],[[-85.7866703,15.7851873],[-85.7941654,15.7708848],[-85.7833337,15.7662502],[-85.7866703,15.7851873]],[[-87.9495483,15.237607],[-87.971448,15.2392508]],[[-87.971448,15.2392508],[-87.9727543,15.2173081],[-87.9460697,15.2246201],[-87.9495483,15.237607]],[[-88.5833337,14.6162502],[-88.5923181,14.579682],[-88.571973,14.5711818],[-88.5632653,14.6023911],[-88.5833337,14.6162502]],[[-88.5833337,14.6162502],[-88.5861901,14.6264105],[-88.5934899,14.6191025],[-88.5833337,14.6162502]],[[-88.1833337,15.3745835],[-88.1836991,15.3743313]],[[-88.183197,15.374258],[-88.1833337,15.3745835]],[[-88.1833337,15.3745835],[-88.171029,15.3791001],[-88.1622725,15.3783962],[-88.133236,15.3945949],[-88.1250098,15.3970719],[-88.1039415,15.4034157],[-88.099428,15.4059117],[-88.0877282,15.4124375],[-88.0680424,15.4108546],[-88.0588074,15.400135]],[[-88.0588074,15.400135],[-88.0510101,15.4145699],[-88.0456754,15.4059438]],[[-88.0456754,15.4059438],[-88.0468184,15.4201401],[-88.1777347,15.4310817],[-88.1979821,15.4075832],[-88.1833337,15.3745835]],[[-88.1616703,15.551854],[-88.1691654,15.5375514],[-88.1583337,15.5329168],[-88.1616703,15.551854]],[[-87.9091402,15.5361996],[-87.9531555,15.5519695],[-87.969162,15.5481997],[-88.0138288,15.594203]],[[-88.0138288,15.594203],[-88.0225183,15.5960597],[-88.0385176,15.5951076],[-88.053931,15.5451808],[-88.0627364,15.5289862],[-88.0705977,15.4933701],[-88.03724,15.4456162],[-88.038656,15.4218776],[-88.0363724,15.4176754]],[[-88.0363724,15.4176754],[-88.0321732,15.4120846],[-88.0198364,15.4144058],[-88.0161362,15.4073277],[-88.002655,15.4060745],[-87.994815,15.4150615]],[[-87.994815,15.4150615],[-87.9942345,15.416515],[-87.9900184,15.4191968],[-87.9594621,15.4386329]],[[-87.9023142,15.4766519],[-87.9132816,15.4864528],[-87.911711,15.5127834],[-87.8956303,15.5118231],[-87.879403,15.5239813],[-87.9083337,15.5329168],[-87.9091402,15.5361996]],[[-88.7543375,14.8089205],[-88.7581114,14.8149923],[-88.7838952,14.8105535],[-88.8035567,14.7616969],[-88.766667,14.7412502],[-88.7492273,14.7792262],[-88.7543375,14.8089205]],[[-87.6861901,13.8347438],[-87.69349,13.8274359],[-87.6833337,13.8245835],[-87.6861901,13.8347438]],[[-87.1215486,14.6953317],[-87.1083337,14.6912502],[-87.1144942,14.7111883],[-87.1259964,14.7056304]],[[-87.1259964,14.7056304],[-87.1215486,14.6953317]],[[-84.734152,15.8839772],[-84.7702711,15.8967603],[-84.7786299,15.8906113],[-84.734152,15.8839772]],[[-86.2246995,15.4995835],[-86.216667,15.4995835],[-86.216667,15.5329168],[-86.228675,15.5329168]],[[-86.228675,15.5329168],[-86.2358627,15.5265026],[-86.2240677,15.5051098],[-86.2246995,15.4995835]],[[-86.2702588,15.5363799],[-86.2639083,15.5521795],[-86.2790317,15.5398382]],[[-86.2790317,15.5398382],[-86.2702588,15.5363799]],[[-86.8030765,14.5539577],[-86.8299727,14.5698797],[-86.8452966,14.5402492],[-86.8250004,14.5245835],[-86.8030765,14.5539577]],[[-87.2557051,13.8195339],[-87.2703698,13.8054062],[-87.2500004,13.7995835],[-87.2557051,13.8195339]],[[-87.8950036,14.2601873],[-87.9024987,14.2458848],[-87.891667,14.2412502],[-87.8950036,14.2601873]],[[-87.105751,14.0750055],[-87.1212976,14.1032904],[-87.1263106,14.1282904],[-87.1129642,14.1116237],[-87.1016361,14.10421],[-87.1046879,14.1287502],[-87.1036055,14.1374619],[-87.1140059,14.1457952],[-87.1132013,14.1522779]],[[-87.7750004,15.7329168],[-87.7835005,15.7284064],[-87.776003,15.7293505],[-87.7750004,15.7329168]],[[-87.7750004,15.7329168],[-87.7663013,15.73536],[-87.7724796,15.7418831],[-87.7750004,15.7329168]],[[-87.9641842,15.7834499],[-87.9583337,15.7829168],[-87.9610231,15.7995577],[-87.9700546,15.7979756]],[[-87.9700546,15.7979756],[-87.9641842,15.7834499]],[[-87.8500004,15.8162502],[-87.8623376,15.7785915],[-87.8784324,15.7481799],[-87.8778231,15.7481646],[-87.8500004,15.7579168],[-87.8409672,15.7462103],[-87.8213708,15.7805161],[-87.8380049,15.7780584],[-87.8452966,15.8126206],[-87.8500004,15.8162502]],[[-87.8500004,15.8162502],[-87.8633386,15.8428533],[-87.8833337,15.8329168]],[[-87.8833337,15.8329168],[-87.891667,15.8162502]],[[-87.891667,15.8162502],[-87.8500004,15.8162502]],[[-87.8833337,15.8329168],[-87.8833337,15.8579168],[-87.9000004,15.8579168],[-87.9000004,15.8329168]],[[-87.9000004,15.8329168],[-87.8833337,15.8329168]],[[-87.891667,15.8162502],[-87.9067712,15.8192978],[-87.9000004,15.8329168]],[[-87.9000004,15.8329168],[-87.9188643,15.8367254],[-87.9083337,15.8579168],[-87.9143123,15.8600123],[-87.9441528,15.862072],[-87.9560013,15.8597841],[-87.965997,15.8474153],[-87.9513095,15.8379297],[-87.9372864,15.8329382],[-87.9344406,15.8219261],[-87.9444996,15.8116461],[-87.903101,15.8039088],[-87.891667,15.8162502]],[[-87.7010838,14.3697334],[-87.7140982,14.3650483]],[[-87.7140982,14.3650483],[-87.7000004,14.3579168],[-87.7010838,14.3697334]],[[-86.9116703,15.301854],[-86.9191654,15.2875514],[-86.9083337,15.2829168],[-86.9116703,15.301854]],[[-87.013835,14.1376938],[-87.0617354,14.1388657],[-87.0367354,14.1295151],[-87.0215987,14.1196519],[-87.0083337,14.1162502],[-87.013835,14.1376938]],[[-87.0409183,14.1780177],[-87.0596032,14.1538112],[-87.0250004,14.1495835],[-87.0409183,14.1780177]],[[-87.4195235,13.7014105],[-87.4268233,13.6941025],[-87.416667,13.6912502],[-87.4195235,13.7014105]],[[-88.6902789,14.9522759],[-88.6750004,14.9495835],[-88.6795251,14.9601629],[-88.6887685,14.9556157]],[[-88.6887685,14.9556157],[-88.6892776,14.9543476]],[[-88.5557051,15.2612005],[-88.5703698,15.2470729],[-88.5500004,15.2412502],[-88.5557051,15.2612005]],[[-88.4933243,15.296504],[-88.5004389,15.2999413]],[[-88.5004389,15.2999413],[-88.5179366,15.302383],[-88.5100752,15.28629],[-88.4865552,15.2833232]],[[-88.5346269,15.3144716],[-88.5482797,15.3093549]],[[-88.5482797,15.3093549],[-88.5466719,15.3029119],[-88.5333337,15.2995835],[-88.5346269,15.3144716]],[[-88.666667,15.315452],[-88.666667,15.2912502],[-88.6500004,15.2912502],[-88.6500004,15.3014779]],[[-88.6500004,15.3014779],[-88.666667,15.315452]],[[-87.4640385,14.0778672],[-87.4787032,14.0637396],[-87.4583337,14.0579168],[-87.4640385,14.0778672]],[[-86.8111902,13.6430771],[-86.81849,13.6357692],[-86.8083337,13.6329168],[-86.8111902,13.6430771]],[[-87.6417077,15.5502956],[-87.6671553,15.5608669],[-87.6572758,15.5369045],[-87.6500004,15.5329168],[-87.6417077,15.5502956]],[[-87.6542403,15.6162298],[-87.6786299,15.5992213],[-87.6500004,15.5912502],[-87.6542403,15.6162298]],[[-87.4755402,15.7740612],[-87.5020599,15.7832928],[-87.4838952,15.7536403],[-87.466667,15.7495835],[-87.4598962,15.7605739],[-87.4092289,15.7872951],[-87.4361044,15.7964516],[-87.4513702,15.7779083],[-87.4755402,15.7740612]],[[-87.5278568,13.6680771],[-87.5351566,13.6607692],[-87.5250004,13.6579168],[-87.5278568,13.6680771]],[[-87.2572839,14.927973],[-87.2700687,14.9134425],[-87.2500004,14.8995835],[-87.2572839,14.927973]],[[-87.266667,13.9329168],[-87.2872872,13.9312146]],[[-87.2902417,13.9208613],[-87.270264,13.9270859],[-87.266667,13.9329168]],[[-87.266667,13.9329168],[-87.2196338,13.9220198],[-87.2139638,13.9293617],[-87.2083337,13.9495835]],[[-87.2083337,13.9495835],[-87.2333337,13.9495835]],[[-87.2333337,13.9495835],[-87.2333337,13.9412502],[-87.266667,13.9412502],[-87.266667,13.9329168]],[[-87.2333337,13.9495835],[-87.2361901,13.9597438],[-87.24349,13.9524359],[-87.2333337,13.9495835]],[[-87.2083337,13.9495835],[-87.1993045,13.9581]],[[-87.2119257,13.9612191],[-87.2083337,13.9495835]],[[-87.8872806,14.4067897],[-87.9171553,14.4192002],[-87.9105717,14.4032293],[-87.8833337,14.3995835],[-87.8872806,14.4067897]],[[-88.2545251,14.7768296],[-88.2691654,14.7696274],[-88.2500004,14.7662502],[-88.2545251,14.7768296]],[[-88.2973718,15.0528672],[-88.3120365,15.0387396],[-88.291667,15.0329168],[-88.2973718,15.0528672]],[[-88.8707759,14.6350816],[-88.866667,14.6329168],[-88.8577885,14.6511541],[-88.8748172,14.666656]],[[-88.8748172,14.666656],[-88.8776779,14.6410246],[-88.8707759,14.6350816]],[[-87.6864424,15.3125189],[-87.7003747,15.3279852],[-87.7200687,15.2985378],[-87.691667,15.2912502],[-87.6864424,15.3125189]],[[-87.6944665,15.5384507],[-87.7096032,15.5440496],[-87.6974613,15.5191798],[-87.691667,15.5162502],[-87.6944665,15.5384507]],[[-88.8307051,15.0362005],[-88.8453698,15.0220729],[-88.8250004,15.0162502],[-88.8307051,15.0362005]],[[-86.0711918,15.5934962],[-86.0858321,15.5862941],[-86.066667,15.5829168],[-86.0711918,15.5934962]],[[-86.1116703,15.601854],[-86.1191654,15.5875514],[-86.1083337,15.5829168],[-86.1116703,15.601854]],[[-86.0711918,15.6184962],[-86.0858321,15.6112941],[-86.066667,15.6079168],[-86.0711918,15.6184962]],[[-86.0359623,15.6259303],[-86.0518233,15.6106105],[-86.0333337,15.6079168],[-86.0359623,15.6259303]],[[-86.016667,15.6329168],[-86.0272465,15.628388],[-86.0200443,15.6137518],[-86.016667,15.6329168]],[[-86.016667,15.6329168],[-85.9722823,15.6368638],[-85.9632653,15.6686346],[-86.000334,15.6825059],[-86.024919,15.6664984],[-86.016667,15.6329168]],[[-85.8782696,15.7476648],[-85.8830844,15.7461402],[-85.8947676,15.7291042],[-85.8750004,15.7245835],[-85.8782696,15.7476648]],[[-86.103337,14.651854],[-86.1108321,14.6375514],[-86.1000004,14.6329168],[-86.103337,14.651854]],[[-86.1686202,14.879092],[-86.1810144,14.8940496],[-86.1944665,14.8701808],[-86.1750004,14.8662502],[-86.1686202,14.879092]],[[-87.3848347,14.938166],[-87.3877788,14.9484618],[-87.4037032,14.9387396],[-87.3833337,14.9329168],[-87.3848347,14.938166]],[[-87.8518151,14.617007],[-87.8618168,14.6030625],[-87.8782963,14.5912502],[-87.8618168,14.5794378],[-87.8548506,14.5697292],[-87.8333337,14.5579168],[-87.8263757,14.5676255],[-87.8043949,14.5833807],[-87.7965173,14.6093776],[-87.8295251,14.602855],[-87.8518151,14.617007]],[[-87.1361902,13.1847438],[-87.14349,13.1774359],[-87.1333337,13.1745835],[-87.1361902,13.1847438]],[[-87.1359623,13.217597],[-87.1518233,13.2022772],[-87.1333337,13.1995835],[-87.1359623,13.217597]],[[-87.8520918,14.2602646],[-87.8612878,14.2454697],[-87.841667,14.2412502],[-87.8520918,14.2602646]],[[-87.8401715,14.313194],[-87.8333337,14.3079168],[-87.8278656,14.3262768]],[[-87.6472912,14.3455247],[-87.6865889,14.3462062],[-87.7040043,14.3141587],[-87.6583337,14.3079168],[-87.6455862,14.3255317],[-87.6430569,14.3290268],[-87.6426644,14.3295692]],[[-86.6628584,14.0268296],[-86.6774987,14.0196274],[-86.6583337,14.0162502],[-86.6628584,14.0268296]],[[-87.0088064,14.2262647],[-87.0182673,14.2276588]],[[-87.017334,14.2274742],[-87.0088064,14.2262647]],[[-87.0499998,14.2162513],[-87.043962,14.2204168],[-87.0710534,14.2391221],[-87.0766782,14.2258451]],[[-86.9878584,14.2518296],[-87.0024987,14.2446274],[-86.9833337,14.2412502],[-86.9878584,14.2518296]],[[-87.0211918,14.2684963],[-87.0358321,14.2612941],[-87.016667,14.2579168],[-87.0211918,14.2684963]],[[-88.0950083,14.8634008],[-88.0750004,14.8495835],[-88.0617354,14.8696519],[-88.054932,14.8915838],[-88.0861088,14.8845933],[-88.0950451,14.8634983],[-88.0950083,14.8634008]],[[-87.4028568,13.1264105],[-87.4101566,13.1191025],[-87.4000004,13.1162502],[-87.4028568,13.1264105]],[[-87.4295251,13.1768296],[-87.436412,13.1682611],[-87.4250004,13.1662502],[-87.4295251,13.1768296]],[[-87.3750004,13.1995835],[-87.3851566,13.1967311],[-87.3778568,13.1894232],[-87.3750004,13.1995835]],[[-87.3750004,13.1995835],[-87.3648441,13.2024359],[-87.3721439,13.2097438],[-87.3750004,13.1995835]],[[-87.4270918,13.268598],[-87.4362878,13.2538031],[-87.416667,13.2495835],[-87.4270918,13.268598]],[[-87.2975752,13.2888291],[-87.2810876,13.2955837],[-87.3001062,13.3020046],[-87.3190922,13.2861639],[-87.3000004,13.2829168],[-87.2975752,13.2888291]],[[-88.6450036,15.0351873],[-88.6524987,15.0208848],[-88.641667,15.0162502],[-88.6450036,15.0351873]],[[-87.9836023,14.5033921],[-87.9956709,14.4801214],[-87.966667,14.4745835],[-87.9836023,14.5033921]],[[-89.0894942,14.877855],[-89.1122644,14.8668524],[-89.0833337,14.8579168],[-89.0894942,14.877855]],[[-88.9833337,14.9245835],[-88.9934899,14.9217311],[-88.9861901,14.9144232],[-88.9833337,14.9245835]],[[-88.9833337,14.9245835],[-88.9731774,14.9274359],[-88.9804773,14.9347438],[-88.9833337,14.9245835]],[[-87.1770918,14.9102646],[-87.1862878,14.8954697],[-87.166667,14.8912502],[-87.1770918,14.9102646]],[[-86.7976322,13.4478175],[-86.8174564,13.4433701],[-86.8284021,13.4287624],[-86.791667,13.4245835],[-86.7976322,13.4478175]],[[-86.0640385,15.0362005],[-86.0787032,15.0220729],[-86.0583337,15.0162502],[-86.0640385,15.0362005]],[[-88.2250309,15.0413216],[-88.2295251,15.0518296],[-88.2348468,15.0492116],[-88.2301746,15.042162],[-88.2251481,15.0412762],[-88.2250309,15.0413216]],[[-88.2200036,15.076854],[-88.2274987,15.0625514],[-88.216667,15.0579168],[-88.2200036,15.076854]],[[-88.2290043,15.1515122],[-88.2446211,15.1436712],[-88.2250004,15.1329168],[-88.2290043,15.1515122]],[[-88.2545251,15.1601629],[-88.2691654,15.1529608],[-88.2500004,15.1495835],[-88.2545251,15.1601629]],[[-88.1547491,14.2963079],[-88.1682129,14.2957993],[-88.1906662,14.3027735],[-88.2024277,14.3042538]],[[-88.2024277,14.3042538],[-88.1583337,14.2912502],[-88.1547491,14.2963079]],[[-85.9840336,14.0816025],[-86.0029952,14.0940496],[-86.0109753,14.0764456],[-85.991667,14.0662502],[-85.9840336,14.0816025]],[[-85.8583337,14.8329168],[-85.8555342,14.827383],[-85.8320642,14.821784],[-85.8415694,14.8412502],[-85.8583337,14.8329168]],[[-85.8583337,14.8329168],[-85.8629317,14.8613429],[-85.9012862,14.8689235],[-85.9151785,14.8449686]],[[-85.9151785,14.8449686],[-85.9113761,14.8210189]],[[-85.9113761,14.8210189],[-85.8922123,14.8172308],[-85.8583337,14.8329168]],[[-88.0143499,14.9720233],[-88.0118005,14.9875433],[-88.027515,14.9948797],[-88.0325051,14.9783428]],[[-88.0325051,14.9783428],[-88.0143499,14.9720233]],[[-87.9700036,15.026854],[-87.9774987,15.0125514],[-87.966667,15.0079168],[-87.9700036,15.026854]],[[-87.9520918,15.0602646],[-87.9612878,15.0454697],[-87.941667,15.0412502],[-87.9520918,15.0602646]],[[-87.9922616,15.0439178],[-88.0006107,15.022903],[-87.991667,15.0162502],[-87.9716719,15.0470892],[-87.9852868,15.0614731],[-87.9888792,15.0524311],[-87.9922616,15.0439178]],[[-88.4200036,14.4185207],[-88.4274987,14.4042181],[-88.416667,14.3995835],[-88.4200036,14.4185207]],[[-86.091667,15.6995835],[-86.0717208,15.7052882],[-86.0858402,15.719957],[-86.091667,15.6995835]],[[-85.9427413,15.908991],[-85.9286299,15.9198797],[-85.9130375,15.9441717],[-85.9266495,15.9388204],[-85.9336929,15.9260015],[-85.9489212,15.9187756],[-85.9615021,15.9172649],[-85.9786299,15.9075547],[-85.9500004,15.8995835],[-85.9427413,15.908991]],[[-85.9687585,16.018598],[-85.9776428,16.0043045],[-85.9583337,15.9995835],[-85.9687585,16.018598]],[[-87.4950036,14.701854],[-87.5024987,14.6875514],[-87.491667,14.6829168],[-87.4950036,14.701854]],[[-88.9686202,15.029092],[-88.9810144,15.0440496],[-88.9944665,15.0201808],[-88.9750004,15.0162502],[-88.9686202,15.029092]],[[-88.4390385,15.1362005],[-88.4537032,15.1220729],[-88.4333337,15.1162502],[-88.4390385,15.1362005]],[[-88.0325051,14.9783428],[-88.0369633,14.9635687],[-88.016667,14.9579168],[-88.0143499,14.9720233]],[[-87.8718998,14.9934678],[-87.8947269,15.0029852],[-87.9034021,14.9714015],[-87.8833337,14.9662502],[-87.8718998,14.9934678]],[[-87.8045251,15.0518296],[-87.8191654,15.0446274],[-87.8000004,15.0412502],[-87.8045251,15.0518296]],[[-87.9321545,15.0697847],[-87.9365889,15.048668],[-87.9250004,15.0412502],[-87.9313321,15.0737008],[-87.9313568,15.0735832],[-87.931925,15.0708775],[-87.9321545,15.0697847]],[[-86.5347253,13.8615342],[-86.5448734,13.8953354],[-86.5790857,13.8634629],[-86.541667,13.8412502],[-86.5347253,13.8615342]],[[-88.4920047,15.2987643],[-88.5004389,15.2999413]],[[-88.6500004,15.3014779],[-88.6500004,15.3162502],[-88.666667,15.315452]],[[-88.5346269,15.3144716],[-88.5371993,15.3440863],[-88.568905,15.3529119],[-88.5533288,15.3295884],[-88.5482797,15.3093549]],[[-87.6035648,14.6520412],[-87.6112064,14.6304876],[-87.6000004,14.6245835],[-87.6035648,14.6520412]],[[-88.3698319,15.592546],[-88.3774987,15.5792181],[-88.366667,15.5745835],[-88.3698319,15.592546]],[[-88.2526289,15.642597],[-88.26849,15.6272772],[-88.2500004,15.6245835],[-88.2526289,15.642597]],[[-88.1903812,15.6770534],[-88.2117354,15.6568711],[-88.1833337,15.6495835],[-88.1903812,15.6770534]],[[-88.0698087,15.7461216],[-88.0809897,15.7375392],[-88.0750004,15.7329168],[-88.0698087,15.7461216]],[[-88.0169449,15.7824546],[-88.0446167,15.7802162],[-88.0470848,15.7690366],[-88.0250004,15.7662502],[-88.0169449,15.7824546]],[[-87.9700546,15.7979756],[-87.975914,15.7992373],[-87.9823074,15.7907524],[-87.9937418,15.786143],[-87.9641842,15.7834499]],[[-88.7795251,14.2351629],[-88.7941654,14.2279608],[-88.7750004,14.2245835],[-88.7795251,14.2351629]],[[-88.2524493,14.9199897],[-88.2534834,14.9154323],[-88.2250004,14.9079168],[-88.2199629,14.9201768],[-88.2261885,14.951675],[-88.2378802,14.9657717],[-88.2421721,14.9652799],[-88.2517648,14.9230059],[-88.2524493,14.9199897]],[[-86.3583337,16.4079168],[-86.3600279,16.4006046],[-86.3509827,16.3954544],[-86.3429338,16.3992954],[-86.3583337,16.4079168]],[[-86.3583337,16.4079168],[-86.3613773,16.4230006],[-86.380404,16.413707],[-86.3833337,16.4079168],[-86.3583337,16.4079168]],[[-88.4859623,14.942597],[-88.5018233,14.9272772],[-88.4833337,14.9245835],[-88.4859623,14.942597]],[[-86.2132653,14.6378485],[-86.2034021,14.6446519],[-86.1936771,14.6706569],[-86.2339685,14.6857326],[-86.2450687,14.6696519],[-86.2580652,14.6606797],[-86.216667,14.6329168],[-86.2132653,14.6378485]],[[-86.0890385,14.7528672],[-86.1037032,14.7387396],[-86.0833337,14.7329168],[-86.0890385,14.7528672]],[[-86.8833763,15.7575794],[-86.8993162,15.754116],[-86.9027999,15.7387436],[-86.8868412,15.7301173],[-86.8833763,15.7575794]],[[-86.7767868,15.7928123],[-86.7846069,15.7923889],[-86.7957993,15.7793646],[-86.8078995,15.7750607],[-86.8188324,15.7677689],[-86.8411255,15.7614441],[-86.8829948,15.7576143],[-86.878931,15.7539862],[-86.8624109,15.7280096],[-86.8372969,15.7284897],[-86.8042566,15.7541001],[-86.7709802,15.7421575],[-86.7127364,15.7682236],[-86.7460697,15.7785142],[-86.7505065,15.788187],[-86.7767868,15.7928123]],[[-87.7010838,14.3697334],[-87.7027998,14.3884507],[-87.7123539,14.3940496],[-87.7194665,14.3677638],[-87.7140982,14.3650483]],[[-86.5050053,15.7379217],[-86.4921879,15.7464463],[-86.5283288,15.7462103],[-86.5083337,15.7329168],[-86.5050053,15.7379217]],[[-86.2856881,15.8105178],[-86.2954244,15.8062105],[-86.2833337,15.7995835],[-86.2856881,15.8105178]],[[-86.5583337,16.3162502],[-86.5533676,16.3141136],[-86.5286179,16.3242493],[-86.5368575,16.3377956],[-86.5458337,16.3364691],[-86.5623213,16.3389023],[-86.6036299,16.3070176],[-86.5921465,16.3010022],[-86.5683365,16.3142738],[-86.5583337,16.3162502]],[[-86.7000004,14.2162502],[-86.7000004,14.2329168],[-86.7250004,14.2329168],[-86.7250004,14.2162502],[-86.7000004,14.2162502]],[[-88.0295251,14.7351629],[-88.0441654,14.7279608],[-88.0250004,14.7245835],[-88.0295251,14.7351629]],[[-88.2776125,15.284151],[-88.2777274,15.2841686],[-88.29349,15.2689438],[-88.2750004,15.2662502],[-88.2776125,15.284151]],[[-87.9496579,15.3068457],[-87.9147953,15.322846],[-87.904403,15.3461492],[-87.929167,15.3446722],[-87.9460209,15.3456772],[-87.9579458,15.3391963]],[[-87.9579458,15.3391963],[-87.9496579,15.3068457]],[[-87.881698,15.3779689],[-87.897681,15.3857163],[-87.9111332,15.3618475],[-87.891667,15.3579168],[-87.881698,15.3779689]],[[-87.969543,15.4040748],[-87.9673233,15.3981705],[-87.9575842,15.3899504]],[[-87.9575842,15.3899504],[-87.9497582,15.4011527],[-87.9500433,15.4052358],[-87.969543,15.4040748]],[[-87.8397939,15.3899942],[-87.8265915,15.388237],[-87.8240051,15.3942909],[-87.826038,15.4091521]],[[-87.826038,15.4091521],[-87.8397939,15.3899942]],[[-87.1259964,14.7056304],[-87.1372644,14.7001857],[-87.1215486,14.6953317]],[[-87.0333337,13.1329168],[-87.04349,13.1300645],[-87.0361902,13.1227565],[-87.0333337,13.1329168]],[[-86.9874434,13.1357489],[-87.0117354,13.1191961],[-86.9833337,13.0995835],[-86.9874434,13.1357489]],[[-87.0333337,13.1329168],[-87.0143965,13.1362534],[-87.028695,13.1437485],[-87.0333337,13.1329168]],[[-87.866667,15.2662502],[-87.8880293,15.247846],[-87.8859786,15.2222845],[-87.89158,15.2122386]],[[-87.89158,15.2122386],[-87.8705377,15.212606]],[[-87.8705377,15.212606],[-87.8711674,15.2204494],[-87.866667,15.2662502]],[[-87.866667,15.2662502],[-87.8565108,15.2691025],[-87.8638106,15.2764105],[-87.866667,15.2662502]],[[-87.8866703,15.2935207],[-87.8941654,15.2792181],[-87.8833337,15.2745835],[-87.8866703,15.2935207]],[[-87.8205245,15.3201076],[-87.8185957,15.3284409],[-87.860238,15.2989162],[-87.841667,15.2829168],[-87.8205245,15.3201076]],[[-87.8397939,15.3899942],[-87.8409753,15.388349],[-87.811654,15.3630804],[-87.7833337,15.3579168],[-87.7794763,15.3790594],[-87.7693851,15.4065456],[-87.771501,15.4329168],[-87.768669,15.4682399],[-87.7762862,15.4784409],[-87.826038,15.4091521]],[[-87.7545251,15.4934963],[-87.7691654,15.4862941],[-87.7500004,15.4829168],[-87.7545251,15.4934963]],[[-87.6965963,15.4980991],[-87.7015381,15.5061023],[-87.7346032,15.5107163],[-87.7267419,15.4946234],[-87.7000004,15.4912502],[-87.6965963,15.4980991]],[[-87.7487681,15.6021558],[-87.7486921,15.6026124],[-87.7619795,15.6107163],[-87.7694665,15.5885483],[-87.7583337,15.5829168],[-87.7487681,15.6021558]],[[-87.4333337,13.4079168],[-87.4311951,13.3932612],[-87.4253998,13.3960066],[-87.4224857,13.4063364],[-87.4333337,13.4079168]],[[-87.4333337,13.4079168],[-87.4148441,13.4358913],[-87.4382653,13.4446519],[-87.4537927,13.4547674],[-87.4685306,13.4514634],[-87.4596928,13.4120713],[-87.4333337,13.4079168]],[[-86.8860245,16.0875454],[-86.8906172,16.1113063],[-86.9034021,16.0967759],[-86.8860245,16.0875454]],[[-87.6530293,14.3600075],[-87.6465987,14.3628485],[-87.6034021,14.3696519],[-87.5812666,14.3840684],[-87.6154382,14.4076645],[-87.6031823,14.4368516],[-87.6107995,14.4708278],[-87.6449711,14.4836126],[-87.6929122,14.4728664],[-87.6573083,14.4482814],[-87.6465987,14.4196519],[-87.6367354,14.4128485],[-87.629932,14.4011175],[-87.6558109,14.4069199],[-87.6513676,14.3870835],[-87.6543663,14.3737008],[-87.6558669,14.3670036],[-87.6545105,14.36103],[-87.6530293,14.3600075]],[[-88.9624558,14.3998513],[-88.9370731,14.4143373]],[[-88.9370731,14.4143373],[-88.9429447,14.440534],[-88.9649662,14.4355942],[-88.9615645,14.4204168],[-88.9656742,14.4020737],[-88.9624558,14.3998513]],[[-86.953337,13.751854],[-86.9608321,13.7375514],[-86.9500004,13.7329168],[-86.953337,13.751854]],[[-87.278337,15.1185207],[-87.2858321,15.1042181],[-87.2750004,15.0995835],[-87.278337,15.1185207]],[[-87.1142338,15.1402777],[-87.1332849,15.1610947],[-87.1448409,15.1284775],[-87.1250004,15.1162502],[-87.1142338,15.1402777]],[[-86.8461918,13.9518296],[-86.8608321,13.9446274],[-86.841667,13.9412502],[-86.8461918,13.9518296]],[[-87.0873376,13.5431789],[-87.1029545,13.5353379],[-87.0833337,13.5245835],[-87.0873376,13.5431789]],[[-88.1547491,14.2963079],[-88.1450687,14.3029852],[-88.1382653,14.3186346],[-88.1816491,14.3348659],[-88.2024277,14.3042538]],[[-88.0266361,15.1213852],[-88.0440433,15.127383],[-88.0527998,15.1118475],[-88.0333337,15.1079168],[-88.0266361,15.1213852]],[[-87.0111902,13.2097438],[-87.01849,13.2024359],[-87.0083337,13.1995835],[-87.0111902,13.2097438]],[[-86.9866703,13.2435207],[-86.9941654,13.2292181],[-86.9833337,13.2245835],[-86.9866703,13.2435207]],[[-89.1950036,14.4101873],[-89.2024987,14.3958848],[-89.191667,14.3912502],[-89.1950036,14.4101873]],[[-89.1670762,14.4282433],[-89.1902695,14.423872],[-89.1975938,14.4198107]],[[-89.1975938,14.4198107],[-89.1750004,14.4162502],[-89.1670762,14.4282433]],[[-88.5838871,14.7921535],[-88.6027998,14.778091],[-88.5750004,14.7745835],[-88.5838871,14.7921535]],[[-88.5859623,14.817597],[-88.6018233,14.8022772],[-88.5833337,14.7995835],[-88.5859623,14.817597]],[[-86.6544763,15.4457261],[-86.6409834,15.4573553],[-86.6524743,15.4701076],[-86.6788578,15.447431],[-86.6583337,15.4412502],[-86.6544763,15.4457261]],[[-86.3270918,15.4769313],[-86.3362878,15.4621364],[-86.316667,15.4579168],[-86.3270918,15.4769313]],[[-86.2794763,15.4707261],[-86.2659834,15.4823553],[-86.2774743,15.4951076],[-86.3038578,15.472431],[-86.2833337,15.4662502],[-86.2794763,15.4707261]],[[-86.5552575,15.4999456],[-86.5983239,15.4945908],[-86.5947269,15.4657008],[-86.5500004,15.4579168],[-86.5552575,15.4999456]],[[-86.228675,15.5329168],[-86.2313154,15.5329168],[-86.241667,15.5311484],[-86.241667,15.4995835],[-86.2246995,15.4995835]],[[-86.2790317,15.5398382],[-86.28689,15.5334254],[-86.2750004,15.5245835],[-86.2702588,15.5363799]],[[-88.7419225,15.0001808],[-88.7461918,15.0101629],[-88.7542555,15.0061961],[-88.7419225,15.0001808]],[[-88.7162675,15.0941118],[-88.7288284,15.0851402],[-88.7463731,15.0825738]],[[-88.7463731,15.0825738],[-88.7491335,15.0808212]],[[-88.7491335,15.0808212],[-88.7691169,15.0466172]],[[-88.7691169,15.0466172],[-88.7500004,15.0329168],[-88.7457523,15.0490138],[-88.7232751,15.0651271],[-88.7162675,15.0941118]],[[-88.6854252,15.1102646],[-88.6946211,15.0954697],[-88.6750004,15.0912502],[-88.6854252,15.1102646]],[[-87.0795251,13.2684963],[-87.0941654,13.2612941],[-87.0750004,13.2579168],[-87.0795251,13.2684963]],[[-87.1223799,13.3307847],[-87.1318359,13.3187943],[-87.141752,13.299378]],[[-87.141752,13.299378],[-87.1340499,13.3050889],[-87.1109379,13.3016709],[-87.1223799,13.3307847]],[[-86.9495284,14.1944891],[-86.9702966,14.1711126],[-86.941667,14.1662502],[-86.9495284,14.1944891]],[[-87.0172804,14.2270962],[-87.0088064,14.2262647]],[[-87.1019836,15.6266666],[-87.091667,15.6245835],[-87.1060823,15.6450054]],[[-87.1060823,15.6450054],[-87.1071243,15.6391792],[-87.1019836,15.6266666]],[[-87.0496749,15.6439072],[-87.0552331,15.6610947],[-87.0781742,15.6292588],[-87.0583337,15.6245835],[-87.0496749,15.6439072]],[[-87.0359623,15.6842637],[-87.0518233,15.6689438],[-87.0333337,15.6662502],[-87.0359623,15.6842637]],[[-87.0961918,14.0018296],[-87.1108321,13.9946274],[-87.091667,13.9912502],[-87.0961918,14.0018296]],[[-87.89158,15.2122386],[-87.8961836,15.2039821],[-87.8947025,15.1855006],[-87.8685306,15.1876043],[-87.8705377,15.212606]],[[-87.3604252,15.5852646],[-87.3696211,15.5704697],[-87.3500004,15.5662502],[-87.3604252,15.5852646]],[[-87.3240802,15.6848613],[-87.3369795,15.6940496],[-87.3444665,15.6718817],[-87.3333337,15.6662502],[-87.3287777,15.6754136],[-87.3240802,15.6848613]],[[-87.3200036,15.751854],[-87.3274987,15.7375514],[-87.316667,15.7329168],[-87.3200036,15.751854]],[[-88.8087785,14.5187746],[-88.8116703,14.5351873],[-88.8188823,14.521425],[-88.8087785,14.5187746]],[[-88.8640385,14.5778672],[-88.8787032,14.5637396],[-88.8583337,14.5579168],[-88.8640385,14.5778672]],[[-87.0685003,13.2539335],[-87.0583337,13.2495835],[-87.0616703,13.2685207],[-87.0684395,13.2556034],[-87.0685003,13.2539335]],[[-88.8748172,14.666656],[-88.8862064,14.6432114],[-88.8707759,14.6350816]],[[-87.5912934,14.9022938],[-87.5937829,14.8854274],[-87.571555,14.8833694]],[[-86.8195235,13.8264105],[-86.8268233,13.8191025],[-86.816667,13.8162502],[-86.8195235,13.8264105]],[[-86.6500004,14.5412502],[-86.6500004,14.5579168],[-86.6750004,14.5579168],[-86.6750004,14.5412502],[-86.6500004,14.5412502]],[[-87.6437911,13.6204046],[-87.6506514,13.6344468],[-87.6694665,13.6177638],[-87.6500004,13.6079168],[-87.6437911,13.6204046]],[[-88.3173952,14.9354633],[-88.3223718,14.9528672],[-88.3370365,14.9387396],[-88.3276845,14.9360662],[-88.3173952,14.9354633]],[[-85.9151785,14.8449686],[-85.9201501,14.8363958],[-85.9368168,14.8244492],[-85.9295414,14.8195176],[-85.9113761,14.8210189]],[[-88.4196286,15.2973125],[-88.4000004,15.2912502],[-88.4058112,15.3100567],[-88.4087435,15.3099403],[-88.4163148,15.3062819],[-88.4196286,15.2973125]],[[-89.1670762,14.4282433],[-89.1575118,14.4427191],[-89.1947758,14.4529852],[-89.2034021,14.4207261],[-89.1975938,14.4198107]],[[-87.103337,13.4935207],[-87.1108321,13.4792181],[-87.1000004,13.4745835],[-87.103337,13.4935207]],[[-88.7878584,14.4851629],[-88.8024987,14.4779608],[-88.7833337,14.4745835],[-88.7878584,14.4851629]],[[-88.3286645,14.7790643],[-88.3379161,14.7792537],[-88.3453698,14.7720729],[-88.3250004,14.7662502],[-88.3286645,14.7790643]],[[-88.7491335,15.0808212],[-88.7628991,15.072081],[-88.7691169,15.0466172]],[[-88.7162675,15.0941118],[-88.7155902,15.0969134],[-88.7151879,15.0985775],[-88.7463731,15.0825738]],[[-88.0588074,15.400135],[-88.0441817,15.3873927],[-88.0456754,15.4059438]],[[-88.0363724,15.4176754],[-88.0289066,15.4039373],[-88.0294763,15.3943629],[-88.0122644,15.3789862],[-87.98807,15.3519069],[-88.0128096,15.329804],[-88.0107263,15.294778],[-87.9912194,15.2959417],[-87.9875422,15.287925]],[[-87.9875422,15.287925],[-87.9772339,15.2826176],[-87.9629167,15.2875158]],[[-87.9629167,15.2875158],[-87.9646407,15.293952],[-87.9496579,15.3068457]],[[-87.9579458,15.3391963],[-87.965487,15.3350978],[-87.978931,15.3593939],[-87.9575842,15.3899504]],[[-87.969543,15.4040748],[-87.9793705,15.4034897],[-87.987687,15.4097209],[-87.9891536,15.4108197],[-87.994815,15.4150615]],[[-85.5557051,15.0945338],[-85.5703698,15.0804062],[-85.5500004,15.0745835],[-85.5557051,15.0945338]],[[-87.4378584,13.5351629],[-87.4524987,13.5279608],[-87.4333337,13.5245835],[-87.4378584,13.5351629]],[[-87.4445235,13.5514105],[-87.4518233,13.5441025],[-87.441667,13.5412502],[-87.4445235,13.5514105]],[[-87.4638025,13.5595729],[-87.494613,13.5664821],[-87.5175378,13.5312852],[-87.4872644,13.5380682],[-87.4750004,13.5329168],[-87.4638025,13.5595729]],[[-87.891667,15.5495835],[-87.8950036,15.5685207],[-87.9024987,15.5542181],[-87.891667,15.5495835]],[[-87.8819828,15.6027655],[-87.8952966,15.5877793],[-87.866667,15.5829168],[-87.8819828,15.6027655]],[[-87.916667,15.7245835],[-87.9377364,15.7123195],[-87.9455977,15.6868475],[-87.954403,15.6789862],[-87.9631189,15.6599879],[-87.9622481,15.6453476],[-87.9640385,15.6289862],[-87.9844649,15.6518459],[-87.997559,15.6618475],[-87.9954187,15.6259954],[-87.9734623,15.585578],[-88.0138288,15.594203]],[[-87.9091402,15.5361996],[-87.9153975,15.5616684],[-87.9115645,15.5787502],[-87.9151778,15.5948594],[-87.9022953,15.6037502],[-87.9132653,15.6113185],[-87.9363122,15.6447088],[-87.9195723,15.6704168],[-87.9306156,15.6873724],[-87.9200687,15.6946518],[-87.916667,15.7245835]],[[-87.916667,15.7245835],[-87.8909102,15.713528],[-87.8806604,15.7482357],[-87.8880745,15.7484215],[-87.9033776,15.7445664],[-87.916667,15.7245835]],[[-87.9519535,14.6957586],[-87.9643477,14.7107163],[-87.9777998,14.6868475],[-87.9583337,14.6829168],[-87.9519535,14.6957586]],[[-88.6887685,14.9556157],[-88.6908448,14.9545943]],[[-88.9624558,14.3998513],[-88.9500004,14.3912502],[-88.9364831,14.4117051],[-88.9370731,14.4143373]],[[-86.1795251,15.6101629],[-86.1941654,15.6029608],[-86.1750004,15.5995835],[-86.1795251,15.6101629]],[[-86.2521,15.6154404],[-86.267139,15.6365464],[-86.2952966,15.6202785],[-86.2583337,15.5995835],[-86.2521,15.6154404]],[[-87.5032206,14.8160564],[-87.5042517,14.8167704],[-87.5112064,14.7971543],[-87.5000004,14.7912502],[-87.5032206,14.8160564]],[[-87.2307051,13.3445339],[-87.2453698,13.3304063],[-87.2250004,13.3245835],[-87.2307051,13.3445339]],[[-87.1223799,13.3307847],[-87.1201501,13.3458644],[-87.1324304,13.3532131],[-87.1454105,13.336404],[-87.1583337,13.3383164],[-87.1750004,13.3358506],[-87.1875004,13.3376979],[-87.2138594,13.3338039],[-87.2096114,13.3050319],[-87.2257572,13.2925645],[-87.191667,13.2662502],[-87.1880375,13.2709539],[-87.1702966,13.2782131],[-87.141752,13.299378]],[[-87.3211918,13.4101629],[-87.3358321,13.4029608],[-87.316667,13.3995835],[-87.3211918,13.4101629]],[[-88.1041815,14.0934779],[-88.107527,14.0988385],[-88.1202966,14.0921494],[-88.1083337,14.0829168],[-88.1041815,14.0934779]],[[-86.5304203,14.0418198],[-86.5574304,14.060464],[-86.6015873,14.0419175],[-86.5941573,14.0087754],[-86.5583337,13.9995835],[-86.5304203,14.0418198]],[[-87.9875422,15.287925],[-87.979403,15.2701808],[-87.9701013,15.2618719],[-87.971448,15.2392508]],[[-87.9495483,15.237607],[-87.9629167,15.2875158]],[[-87.9263879,15.290089],[-87.9284823,15.2917167],[-87.9531742,15.2868109],[-87.9333337,15.2745835],[-87.9263879,15.290089]],[[-87.0702361,14.0776375],[-87.0583337,14.0745835],[-87.0611979,14.0857477]],[[-87.3458385,14.80613],[-87.3611332,14.7947576],[-87.3345191,14.7935938]],[[-87.1977624,15.6115057],[-87.2288578,15.5961167],[-87.191667,15.5912502],[-87.1977624,15.6115057]],[[-87.1060823,15.6450054],[-87.1111332,15.6285142],[-87.1019836,15.6266666]],[[-87.6545251,14.2851629],[-87.6691654,14.2779608],[-87.6500004,14.2745835],[-87.6545251,14.2851629]],[[-89.0083337,14.4829168],[-89.0272709,14.4795802],[-89.0129724,14.4720851],[-89.0083337,14.4829168]],[[-89.0083337,14.4829168],[-88.9981774,14.4857692],[-89.0054773,14.4930771],[-89.0083337,14.4829168]],[[-86.8545251,14.7934963],[-86.8691654,14.7862941],[-86.8500004,14.7829168],[-86.8545251,14.7934963]],[[-86.8866703,14.8101873],[-86.8941654,14.7958848],[-86.8833337,14.7912502],[-86.8866703,14.8101873]]],"bbox":[-89.2328123,13.0995835,-83.7666671,16.4230006]}