{"type":"Topology","objects":{"foo":{"type":"GeometryCollection","geometries":[{"type":"Polygon","arcs":[[0,1]],"properties":{"name":"Administrative unit not available","gaul_code":25277,"targetarea":1.7120925,"totpop":2663.0399399,"country_id":"KNA","targetpop":0,"totalarea":12.549308,"new_mean":0.0173738}},{"type":"Polygon","arcs":[[2]],"properties":{"name":"Administrative unit not available","gaul_code":25276,"targetarea":0.5588861,"totpop":2643.0497704,"country_id":"KNA","targetpop":0,"totalarea":16.9818472,"new_mean":0.0175447}},{"type":"Polygon","arcs":[[3,4]],"properties":{"name":"Administrative unit not available","gaul_code":25287,"targetarea":0.5900798,"totpop":3790.5697365,"country_id":"KNA","targetpop":272.3942261,"totalarea":20.0383755,"new_mean":0.0177871}},{"type":"MultiPolygon","arcs":[[[5]],[[-2,6]]],"properties":{"name":"Administrative unit not available","gaul_code":25288,"targetarea":0.6605835,"totpop":2630.3017645,"country_id":"KNA","targetpop":220.4559937,"totalarea":23.7361654,"new_mean":0.0175682}},{"type":"Polygon","arcs":[[7,8]],"properties":{"name":"Administrative unit not available","gaul_code":25278,"targetarea":14.3136185,"totpop":16757.1341619,"country_id":"KNA","targetpop":12949.0319214,"totalarea":40.6676834,"new_mean":0.0178048}},{"type":"Polygon","arcs":[[9,-8]],"properties":{"name":"Administrative unit not available","gaul_code":25286,"targetarea":0.6381824,"totpop":5656.4528313,"country_id":"KNA","targetpop":0,"totalarea":22.8075944,"new_mean":0.0174558}},{"type":"Polygon","arcs":[[10,11]],"properties":{"name":"Administrative unit not available","gaul_code":25282,"targetarea":1.9292402,"totpop":4252.5486889,"country_id":"KNA","targetpop":1475.506897,"totalarea":19.7175115,"new_mean":0.0179181}},{"type":"Polygon","arcs":[[12]],"properties":{"name":"Administrative unit not available","gaul_code":25281,"targetarea":0.9640341,"totpop":3282.7805061,"country_id":"KNA","targetpop":418.4784851,"totalarea":20.6367082,"new_mean":0.0175217}},{"type":"Polygon","arcs":[[13]],"properties":{"name":"Administrative unit not available","gaul_code":25283,"targetarea":1.1026045,"totpop":3736.7919197,"country_id":"KNA","targetpop":981.6879578,"totalarea":13.5312641,"new_mean":0.0170425}},{"type":"Polygon","arcs":[[14]],"properties":{"name":"Administrative unit not available","gaul_code":25284,"targetarea":0.5588363,"totpop":2480.8549089,"country_id":"KNA","targetpop":534.0011597,"totalarea":11.36811,"new_mean":0}},{"type":"Polygon","arcs":[[-5,15,-12,16]],"properties":{"name":"Administrative unit not available","gaul_code":25285,"targetarea":2.1391069,"totpop":2509.5037231,"country_id":"KNA","targetpop":0,"totalarea":3.4271477,"new_mean":0}}]}},"arcs":[[[-62.843288,17.3541042],[-62.8444666,17.3634507],[-62.8596033,17.3690496],[-62.8536148,17.3606625],[-62.8479538,17.348135],[-62.8455658,17.3461853]],[[-62.8455658,17.3461853],[-62.843288,17.3541042]],[[-62.7695236,17.3930771],[-62.7768234,17.3857692],[-62.7666671,17.3829168],[-62.7695236,17.3930771]],[[-62.614605,17.1402066],[-62.6301518,17.1480698],[-62.6320302,17.1417959]],[[-62.6320302,17.1417959],[-62.6203308,17.1412888],[-62.614605,17.1402066]],[[-62.8002693,17.3172062],[-62.8028569,17.3264105],[-62.807866,17.3213958],[-62.8004489,17.3163761],[-62.8002693,17.3172062]],[[-62.8455658,17.3461853],[-62.8419134,17.3432032],[-62.843288,17.3541042]],[[-62.7105476,17.310222],[-62.7156334,17.3077221],[-62.7219734,17.3171509]],[[-62.7219734,17.3171509],[-62.7574375,17.2933628],[-62.7354088,17.2901154],[-62.7240982,17.2930527],[-62.715744,17.2926197],[-62.7035217,17.2847462],[-62.6966248,17.2834282],[-62.6909981,17.2791595],[-62.6827491,17.2762918],[-62.6797565,17.2850356],[-62.6829109,17.2867641],[-62.686142,17.2912045],[-62.6867665,17.2979951],[-62.6977646,17.3015644],[-62.7027768,17.3031911],[-62.7105476,17.310222]],[[-62.7105476,17.310222],[-62.719076,17.3190944],[-62.7219734,17.3171509]],[[-62.6337441,17.13266],[-62.6330543,17.1277025],[-62.6083338,17.1245835],[-62.6104624,17.1351274]],[[-62.6104624,17.1351274],[-62.6203842,17.1321392],[-62.6337441,17.13266]],[[-62.7949142,17.4118252],[-62.8029546,17.4103379],[-62.7833338,17.3995835],[-62.7847927,17.406359],[-62.7904625,17.4082756],[-62.7949142,17.4118252]],[[-62.7295252,17.3601629],[-62.7441655,17.3529608],[-62.7250005,17.3495835],[-62.7295252,17.3601629]],[[-62.8361902,17.4097438],[-62.8434901,17.4024359],[-62.8333338,17.3995835],[-62.8361902,17.4097438]],[[-62.6320302,17.1417959],[-62.6337441,17.13266]],[[-62.6104624,17.1351274],[-62.6111333,17.1384507],[-62.614605,17.1402066]]],"bbox":[-62.8596033,17.1245835,-62.6083338,17.4118252]}