{"type":"Topology","objects":{"foo":{"type":"GeometryCollection","geometries":[{"type":"Polygon","arcs":[[0]],"properties":{"name":"Pleebo/Sodeken","gaul_code":39214,"targetarea":6.3907052,"totpop":140700.292864,"country_id":"LBR","targetpop":3588.699585,"totalarea":1464.3946973,"new_mean":0.0153496}},{"type":"Polygon","arcs":[[1]],"properties":{"name":"Firestone","gaul_code":39209,"targetarea":12.2920823,"totpop":78595.5336952,"country_id":"LBR","targetpop":7163.9205017,"totalarea":492.4261142,"new_mean":0.0168222}},{"type":"Polygon","arcs":[[2]],"properties":{"name":"District #3","gaul_code":39189,"targetarea":21.6716804,"totpop":115389.412481,"country_id":"LBR","targetpop":34634.8752136,"totalarea":2498.0094715,"new_mean":0.0166134}},{"type":"Polygon","arcs":[[3,4,5]],"properties":{"name":"Greater Monrovia","gaul_code":39216,"targetarea":142.2491628,"totpop":1021039.12927,"country_id":"LBR","targetpop":1021039.12927,"totalarea":142.2491633,"new_mean":0.0194575}},{"type":"Polygon","arcs":[[6,7]],"properties":{"name":"Klay","gaul_code":39172,"targetarea":39.0235545,"totpop":142297.253947,"country_id":"LBR","targetpop":31341.0449829,"totalarea":1837.1560665,"new_mean":0.018021}},{"type":"Polygon","arcs":[[8]],"properties":{"name":"Sanniquelleh-Mahn","gaul_code":39221,"targetarea":13.3239558,"totpop":132296.907646,"country_id":"LBR","targetpop":7536.0394592,"totalarea":1551.5059944,"new_mean":0.0191682}},{"type":"Polygon","arcs":[[8]],"properties":{"name":"Sanniquelleh-Mahn","gaul_code":39221,"targetarea":13.3239558,"totpop":132296.907646,"country_id":"LBR","targetpop":7536.0394592,"totalarea":1551.5059944,"new_mean":0.0153682}},{"type":"Polygon","arcs":[[9,10,-6]],"properties":{"name":"Mambah-Kaba","gaul_code":39212,"targetarea":51.5784977,"totpop":210145.796488,"country_id":"LBR","targetpop":162031.713852,"totalarea":564.1642117,"new_mean":0.019035}},{"type":"Polygon","arcs":[[9,10,-6]],"properties":{"name":"Mambah-Kaba","gaul_code":39212,"targetarea":51.5784977,"totpop":210145.796488,"country_id":"LBR","targetpop":162031.713852,"totalarea":564.1642117,"new_mean":0.0191343}},{"type":"Polygon","arcs":[[-8,11,-4,-11,12]],"properties":{"name":"St Paul River","gaul_code":39217,"targetarea":68.3764757,"totpop":242008.964937,"country_id":"LBR","targetpop":198416.251053,"totalarea":310.7601604,"new_mean":0.018032}},{"type":"Polygon","arcs":[[13]],"properties":{"name":"Greenville","gaul_code":39231,"targetarea":8.3016798,"totpop":21637.4857082,"country_id":"LBR","targetpop":4687.0030518,"totalarea":153.9576747,"new_mean":0.016657}}]}},"arcs":[[[-7.7096019,4.3696589],[-7.6884935,4.3822821],[-7.704558,4.3948798],[-7.7268246,4.3758257],[-7.7228599,4.3682833],[-7.7096019,4.3696589]],[[-10.3284024,6.2779852],[-10.321599,6.3072455],[-10.3366706,6.3196519],[-10.3534024,6.2660223],[-10.3416673,6.2579169],[-10.3284024,6.2779852]],[[-10.0491562,5.9053779],[-10.0528373,5.9142573],[-10.0656567,5.9166932],[-10.0533295,5.893898],[-10.0556936,5.87322],[-10.0460949,5.8587089],[-10.0312535,5.8463797],[-10.008334,5.8412502],[-10.0393073,5.9108099],[-10.0491562,5.9053779]],[[-10.6872988,6.306529],[-10.729867,6.3217201],[-10.7482862,6.3525681],[-10.7325697,6.3912382],[-10.7308042,6.4194463]],[[-10.7308042,6.4194463],[-10.7402077,6.404851],[-10.7668905,6.3952651],[-10.7894564,6.3773961],[-10.7986574,6.3742008],[-10.7883615,6.3551059],[-10.7904549,6.344542],[-10.8035955,6.32688],[-10.8114185,6.322072],[-10.8116817,6.3089762],[-10.7905807,6.2923822],[-10.7623558,6.2755418],[-10.7545614,6.2681699],[-10.7226362,6.2616601],[-10.7063456,6.252429],[-10.6926002,6.23562],[-10.6804342,6.2307639],[-10.6456752,6.2228107]],[[-10.6456752,6.2228107],[-10.6513567,6.239264],[-10.6872988,6.306529]],[[-10.8073753,6.4632404],[-10.8280117,6.4606716],[-10.8604499,6.479739],[-10.8787116,6.4758897],[-10.8451405,6.4471421],[-10.8284159,6.4238982],[-10.8107595,6.4066262],[-10.7995044,6.3868222]],[[-10.7995044,6.3868222],[-10.7833681,6.399507],[-10.7819204,6.4228382],[-10.79638,6.4362712],[-10.8073753,6.4632404]],[[-8.9670985,7.2035561],[-8.9720849,7.2494992],[-8.9812913,7.2487382],[-9.0098314,7.2340358],[-8.9842748,7.2085572],[-8.9670985,7.2035561]],[[-10.6456752,6.2228107],[-10.6293998,6.2190867],[-10.6144538,6.2377631],[-10.6469571,6.2822617],[-10.6432461,6.3120835],[-10.6469082,6.3416123],[-10.6894084,6.3374751]],[[-10.6894084,6.3374751],[-10.6872988,6.306529]],[[-10.7995044,6.3868222],[-10.7912807,6.3833742],[-10.7703228,6.4017062],[-10.7496328,6.403955],[-10.7308042,6.4194463]],[[-10.6894084,6.3374751],[-10.7102383,6.3497178],[-10.6953783,6.3616237],[-10.6879564,6.3782782],[-10.7249844,6.4245672],[-10.7643887,6.4196641],[-10.7750007,6.4329169],[-10.8073753,6.4632404]],[[-9.0228848,4.9950425],[-9.0385424,5.0271226],[-9.0635098,5.0397528],[-9.0675805,5.0247267],[-9.0491905,5.0184932],[-9.0412216,5.0051198],[-9.0228848,4.9950425]]],"bbox":[-10.8787116,4.3682833,-7.6884935,7.2494992]}