{"type":"Topology","objects":{"foo":{"type":"GeometryCollection","geometries":[{"type":"Polygon","arcs":[[0,1,2]],"properties":{"name":"Administrative unit not available","gaul_code":25298,"targetarea":34.534692,"totpop":55009.1701961,"country_id":"LCA","targetpop":47447.7528076,"totalarea":69.3138811,"new_mean":0.0159164}},{"type":"Polygon","arcs":[[3]],"properties":{"name":"Administrative unit not available","gaul_code":25295,"targetarea":22.2710897,"totpop":26086.2634922,"country_id":"LCA","targetpop":15916.6282959,"totalarea":103.1398332,"new_mean":0.0159721}},{"type":"MultiPolygon","arcs":[[[4]],[[5]],[[6]]],"properties":{"name":"Administrative unit not available","gaul_code":25296,"targetarea":7.6870461,"totpop":13536.5215721,"country_id":"LCA","targetpop":5353.297699,"totalarea":68.5572764,"new_mean":0.0158665}},{"type":"Polygon","arcs":[[7,-1,8]],"properties":{"name":"Administrative unit not available","gaul_code":25291,"targetarea":26.0720738,"totpop":27410.1868191,"country_id":"LCA","targetpop":22379.2190552,"totalarea":58.0838864,"new_mean":0.0159474}},{"type":"MultiPolygon","arcs":[[[9]],[[10]]],"properties":{"name":"Administrative unit not available","gaul_code":25297,"targetarea":3.0208105,"totpop":9931.3205557,"country_id":"LCA","targetpop":3105.5830689,"totalarea":52.5958106,"new_mean":0.015864}},{"type":"Polygon","arcs":[[11]],"properties":{"name":"Administrative unit not available","gaul_code":25294,"targetarea":4.5187763,"totpop":14686.8534502,"country_id":"LCA","targetpop":4084.0549622,"totalarea":85.6716903,"new_mean":0.01591}},{"type":"Polygon","arcs":[[12,-9,-3]],"properties":{"name":"Administrative unit not available","gaul_code":25292,"targetarea":8.1305736,"totpop":8284.5866718,"country_id":"LCA","targetpop":4736.892456,"totalarea":43.2524911,"new_mean":0.0159296}},{"type":"Polygon","arcs":[[13]],"properties":{"name":"Administrative unit not available","gaul_code":25293,"targetarea":3.9146791,"totpop":12313.1885252,"country_id":"LCA","targetpop":4446.7679443,"totalarea":71.0193025,"new_mean":0.0157859}}]}},"arcs":[[[-60.9597931,14.0165148],[-60.9628448,14.0268717],[-60.9686661,14.0360041],[-60.9745987,14.0396066]],[[-60.9745987,14.0396066],[-60.9829674,14.02456],[-60.9869995,14.020689],[-61.0027657,14.0201378],[-61.0040169,14.0116472],[-61.0138512,13.9892139],[-61.0136681,13.9830074],[-61.0189621,13.9745835],[-61.0219324,13.9613592],[-60.9916671,13.9579168],[-60.9736984,13.9839422],[-60.9579371,13.9898408]],[[-60.9579371,13.9898408],[-60.9639702,14.0029964],[-60.9597931,14.0165148]],[[-60.9771164,13.7665106],[-61.0037033,13.7494574],[-60.9555832,13.7202297],[-60.9416671,13.7162502],[-60.9370933,13.7278742],[-60.9336186,13.7557887],[-60.9544682,13.7531927],[-60.9771164,13.7665106]],[[-61.0337911,13.7671543],[-61.0422205,13.7838201],[-61.0548174,13.7744538],[-61.0499983,13.7683527],[-61.0341031,13.7663472],[-61.0337911,13.7671543]],[[-61.0361903,13.8180771],[-61.0434901,13.8107692],[-61.0333338,13.8079168],[-61.0361903,13.8180771]],[[-61.0416671,13.8495835],[-61.0416671,13.8662502],[-61.0666671,13.8662502],[-61.0666671,13.8531828],[-61.0600494,13.8495835],[-61.0416671,13.8495835]],[[-60.9338819,14.0227087],[-60.9470952,14.0541693],[-60.9367355,14.0613185],[-60.9299321,14.0820868],[-60.9491193,14.0999456],[-60.953434,14.0930004],[-60.9587593,14.0755854],[-60.9751091,14.0628634],[-60.9765739,14.0564423],[-60.9731522,14.0442343],[-60.9745987,14.0396066]],[[-60.9597931,14.0165148],[-60.947628,14.0196409],[-60.9396019,14.0184565],[-60.9338819,14.0227087]],[[-61.0628585,13.9101629],[-61.0657027,13.9008821],[-61.0583338,13.8995835],[-61.0628585,13.9101629]],[[-61.0269536,13.9457586],[-61.0342751,13.9545945],[-61.0471803,13.9357128],[-61.0333338,13.9329168],[-61.0269536,13.9457586]],[[-60.8971522,13.8366522],[-60.9189539,13.8131252],[-60.8916671,13.8079168],[-60.8971522,13.8366522]],[[-60.9579371,13.9898408],[-60.9413091,13.9960638],[-60.9299321,14.0133042],[-60.9338819,14.0227087]],[[-60.8863831,13.9003286],[-60.8887367,13.9060659],[-60.8832588,13.913599],[-60.8826828,13.9197174],[-60.8954839,13.927383],[-60.9028,13.9035142],[-60.8863831,13.9003286]]],"bbox":[-61.0666671,13.7162502,-60.8826828,14.0999456]}