{"type":"Topology","objects":{"foo":{"type":"GeometryCollection","geometries":[{"type":"Polygon","arcs":[[0,1,2,3,4,5]],"properties":{"name":"Urban","gaul_code":18948,"targetarea":16.5669052,"totpop":16484.4906998,"country_id":"LSO","targetpop":11692.3803101,"totalarea":34.2623585,"new_mean":0}},{"type":"Polygon","arcs":[[6]],"properties":{"name":"Urban","gaul_code":18970,"targetarea":2.6681279,"totpop":5811.3761711,"country_id":"LSO","targetpop":1971.2952576,"totalarea":31.8421852,"new_mean":0.005972}},{"type":"MultiPolygon","arcs":[[[7,8]],[[9,10,11]]],"properties":{"name":"Thaba-Bosiu","gaul_code":18924,"targetarea":7.5250904,"totpop":23804.1127663,"country_id":"LSO","targetpop":5642.2565308,"totalarea":123.7319375,"new_mean":0.0023414}},{"type":"Polygon","arcs":[[12]],"properties":{"name":"Leribe","gaul_code":18866,"targetarea":0.5139262,"totpop":12121.6860809,"country_id":"LSO","targetpop":372.3183594,"totalarea":53.9750465,"new_mean":0.0018428}},{"type":"Polygon","arcs":[[13,14]],"properties":{"name":"Name Unknown","gaul_code":19016,"targetarea":3.8392641,"totpop":7396.4547844,"country_id":"LSO","targetpop":3056.1135559,"totalarea":30.9499165,"new_mean":0.0003791}},{"type":"MultiPolygon","arcs":[[[15,16]],[[17,18]]],"properties":{"name":"Koali","gaul_code":18824,"targetarea":0.4577836,"totpop":10527.6779327,"country_id":"LSO","targetpop":368.90802,"totalarea":72.9936894,"new_mean":0.0029447}},{"type":"MultiPolygon","arcs":[[[19,20,21]],[[22,23,24,25,26]]],"properties":{"name":"Urban","gaul_code":18858,"targetarea":14.0218457,"totpop":14774.0035706,"country_id":"LSO","targetpop":12200.6496887,"totalarea":21.7006561,"new_mean":0.0020288}},{"type":"Polygon","arcs":[[-24,27]],"properties":{"name":"Matlakeng","gaul_code":18870,"targetarea":6.4505081,"totpop":14915.7341995,"country_id":"LSO","targetpop":3759.5620422,"totalarea":76.915736,"new_mean":0.0023568}},{"type":"MultiPolygon","arcs":[[[28,29,30]],[[31,32,33]]],"properties":{"name":"Tsikoane","gaul_code":18880,"targetarea":6.3024382,"totpop":19475.5766296,"country_id":"LSO","targetpop":4458.4913025,"totalarea":89.7747644,"new_mean":0.0002366}},{"type":"MultiPolygon","arcs":[[[34,35,-12]],[[36,37]]],"properties":{"name":"Mazenod","gaul_code":18907,"targetarea":11.9953674,"totpop":30962.2597046,"country_id":"LSO","targetpop":8036.9111633,"totalarea":155.9414552,"new_mean":0.0010856}},{"type":"Polygon","arcs":[[38]],"properties":{"name":"Khukhune","gaul_code":18844,"targetarea":1.0135024,"totpop":10303.3066206,"country_id":"LSO","targetpop":806.354187,"totalarea":159.9034141,"new_mean":0.0044673}},{"type":"MultiPolygon","arcs":[[[39,-30,40]],[[41,42]],[[43,-33,44]]],"properties":{"name":"Urban","gaul_code":18881,"targetarea":43.1977247,"totpop":45821.2134323,"country_id":"LSO","targetpop":37007.228363,"totalarea":68.5728994,"new_mean":0.0014758}},{"type":"Polygon","arcs":[[45,-15]],"properties":{"name":"Name Unknown","gaul_code":19007,"targetarea":0.1691166,"totpop":5366.4180527,"country_id":"LSO","targetpop":347.5443726,"totalarea":43.0933905,"new_mean":0.0001521}},{"type":"MultiPolygon","arcs":[[[46,47,48]],[[49,50]]],"properties":{"name":"Sebetia (II)","gaul_code":18837,"targetarea":7.0359877,"totpop":16656.0994301,"country_id":"LSO","targetpop":3901.7482758,"totalarea":90.5110869,"new_mean":0.0024166}},{"type":"Polygon","arcs":[[51,52,53]],"properties":{"name":"URBAN","gaul_code":18902,"targetarea":16.0533536,"totpop":19121.5997314,"country_id":"LSO","targetpop":15234.8225098,"totalarea":31.5511832,"new_mean":0.0013075}},{"type":"MultiPolygon","arcs":[[[54,55]],[[-8,56]]],"properties":{"name":"Popa","gaul_code":18914,"targetarea":7.5257903,"totpop":30449.9146042,"country_id":"LSO","targetpop":6165.6729126,"totalarea":164.4552592,"new_mean":0.0022479}},{"type":"Polygon","arcs":[[57]],"properties":{"name":"Pheellong","gaul_code":18985,"targetarea":0.4709964,"totpop":5769.9071503,"country_id":"LSO","targetpop":367.1104736,"totalarea":86.7734176,"new_mean":0.0044065}},{"type":"Polygon","arcs":[[58,59,60,-51]],"properties":{"name":"Foso","gaul_code":18821,"targetarea":7.978577,"totpop":9381.8525124,"country_id":"LSO","targetpop":5948.4291382,"totalarea":28.5919165,"new_mean":0.0014782}},{"type":"Polygon","arcs":[[61]],"properties":{"name":"Kolonyama","gaul_code":18863,"targetarea":0.5127534,"totpop":17289.8651352,"country_id":"LSO","targetpop":355.0521851,"totalarea":142.2791545,"new_mean":0.0020299}},{"type":"MultiPolygon","arcs":[[[-5,62]],[[-3,63]],[[64,-1]],[[65]]],"properties":{"name":"Qalakheng","gaul_code":18942,"targetarea":2.0508637,"totpop":14443.6021156,"country_id":"LSO","targetpop":734.8053284,"totalarea":79.0688633,"new_mean":0.000069}},{"type":"Polygon","arcs":[[66]],"properties":{"name":"Pitseng","gaul_code":18877,"targetarea":0.5130373,"totpop":19504.0618839,"country_id":"LSO","targetpop":331.0522461,"totalarea":193.1657664,"new_mean":0.0042296}},{"type":"MultiPolygon","arcs":[[[-43,67]],[[68]]],"properties":{"name":"Hleoheng","gaul_code":18862,"targetarea":3.4824369,"totpop":17163.9863434,"country_id":"LSO","targetpop":3691.2893372,"totalarea":91.5740683,"new_mean":0.002}},{"type":"MultiPolygon","arcs":[[[-56,69]],[[70,71,-37,72,-35,-11,73,-49]]],"properties":{"name":"Urban","gaul_code":18925,"targetarea":113.1709816,"totpop":200100.626038,"country_id":"LSO","targetpop":194788.504578,"totalarea":123.3987589,"new_mean":0.001516}},{"type":"MultiPolygon","arcs":[[[74]],[[75]]],"properties":{"name":"Mapoteng","gaul_code":18828,"targetarea":2.2872182,"totpop":14739.9876175,"country_id":"LSO","targetpop":1498.520874,"totalarea":75.4391115,"new_mean":0.0026088}},{"type":"MultiPolygon","arcs":[[[-60,76,-71,-48,77]],[[-18,78,-16,79]]],"properties":{"name":"Urban","gaul_code":18840,"targetarea":38.3228257,"totpop":71535.2965164,"country_id":"LSO","targetpop":64234.9280396,"totalarea":72.4758314,"new_mean":0.0008143}},{"type":"Polygon","arcs":[[80,-52,81]],"properties":{"name":"LIKHOELE","gaul_code":18886,"targetarea":1.3732455,"totpop":14711.6510963,"country_id":"LSO","targetpop":0,"totalarea":140.3122868,"new_mean":0.0017644}},{"type":"Polygon","arcs":[[82]],"properties":{"name":"Urban","gaul_code":18991,"targetarea":1.037483,"totpop":2747.5249634,"country_id":"LSO","targetpop":0,"totalarea":10.0014601,"new_mean":0.0043784}},{"type":"Polygon","arcs":[[-82,-54,83]],"properties":{"name":"Maboloka","gaul_code":18893,"targetarea":0.1751193,"totpop":8346.8597603,"country_id":"LSO","targetpop":0,"totalarea":81.2922821,"new_mean":0.0019826}},{"type":"MultiPolygon","arcs":[[[84,-26]],[[-21,85]]],"properties":{"name":"Mopeli","gaul_code":18852,"targetarea":3.1128599,"totpop":11301.1265869,"country_id":"LSO","targetpop":1471.8679199,"totalarea":39.7233186,"new_mean":0}},{"type":"Polygon","arcs":[[86]],"properties":{"name":"Name Unknown","gaul_code":19029,"targetarea":0.4841995,"totpop":2242.82901,"country_id":"LSO","targetpop":0,"totalarea":7.0181028,"new_mean":0}}]}},"arcs":[[[27.486771,-30.1361862],[27.4844246,-30.1356068],[27.483223,-30.1325626],[27.4842548,-30.1293888],[27.4837011,-30.1264251]],[[27.4837011,-30.1264251],[27.4572768,-30.129712]],[[27.4572768,-30.129712],[27.4561024,-30.135273],[27.4563847,-30.1395874],[27.4542694,-30.1408901],[27.4427413,-30.1451553]],[[27.4427413,-30.1451553],[27.4417742,-30.1466752]],[[27.4417742,-30.1466752],[27.4429798,-30.1486645],[27.4397009,-30.1499333]],[[27.4397009,-30.1499333],[27.4296216,-30.1657728],[27.4416658,-30.1754163],[27.445686,-30.1613457],[27.4708325,-30.1644707],[27.4899894,-30.1620862],[27.486771,-30.1361862]],[[29.0565629,-29.2827288],[29.038785,-29.2882663],[29.0749992,-29.292083],[29.0716789,-29.2780205],[29.0594874,-29.2818179],[29.0565629,-29.2827288]],[[27.614694,-29.4122979],[27.6162186,-29.4115124],[27.6276221,-29.4088126]],[[27.6276221,-29.4088126],[27.6194816,-29.3970228],[27.6049308,-29.4097913],[27.614694,-29.4122979]],[[27.577799,-29.4157112],[27.5795402,-29.4044935],[27.5699699,-29.3695244],[27.571272,-29.3532321],[27.5692891,-29.3515236]],[[27.5692891,-29.3515236],[27.5661621,-29.3562908],[27.5603752,-29.3629379],[27.5580406,-29.3722878],[27.5585766,-29.3738708],[27.5626659,-29.3756828],[27.5652084,-29.3794556],[27.564991,-29.3833675],[27.5675411,-29.3850098],[27.5708542,-29.3829346],[27.5722218,-29.3889713],[27.5711784,-29.3921452],[27.5726261,-29.3958778],[27.5660248,-29.3941841],[27.5656109,-29.3982277]],[[27.5656109,-29.3982277],[27.5663128,-29.3991146],[27.5653515,-29.406004],[27.569725,-29.4089031],[27.5713329,-29.413784],[27.5754585,-29.4137058],[27.577799,-29.4157112]],[[28.0804842,-28.8152601],[28.0731763,-28.8225599],[28.0833325,-28.8254163],[28.0804842,-28.8152601]],[[27.6853707,-30.398209],[27.6934725,-30.4066012],[27.7166658,-30.4087497],[27.71455,-30.3941989],[27.6889426,-30.3939738]],[[27.6889426,-30.3939738],[27.6853707,-30.398209]],[[27.7636765,-29.1637429],[27.7568016,-29.1605148],[27.7542286,-29.1601658],[27.7495294,-29.161339]],[[27.7495294,-29.161339],[27.7636765,-29.1637429]],[[27.7412918,-29.1599392],[27.7366219,-29.1571045],[27.7343426,-29.1543179],[27.728473,-29.1577609]],[[27.728473,-29.1577609],[27.7412918,-29.1599392]],[[28.2833325,-28.7587497],[28.2834454,-28.7588671]],[[28.2834454,-28.7588671],[28.2835043,-28.7585844]],[[28.2835043,-28.7585844],[28.2833325,-28.7587497]],[[28.2833325,-28.7587497],[28.258479,-28.7298922],[28.2474611,-28.7364531]],[[28.2474611,-28.7364531],[28.247942,-28.7426147],[28.2474499,-28.7486649],[28.2440662,-28.7585297],[28.2436218,-28.7624035],[28.2399139,-28.7691689],[28.2414608,-28.7744236],[28.2418232,-28.7816906],[28.2405783,-28.7844568]],[[28.2405783,-28.7844568],[28.2631585,-28.7798241]],[[28.2631585,-28.7798241],[28.2631073,-28.7765827],[28.2677345,-28.775444],[28.2682362,-28.7703571],[28.2709067,-28.7680211]],[[28.2709067,-28.7680211],[28.2704744,-28.7626234],[28.2833325,-28.7587497]],[[28.2474611,-28.7364531],[28.2455233,-28.7376071],[28.2378084,-28.7548922],[28.2128084,-28.7901543],[28.2405783,-28.7844568]],[[28.0333325,-28.8837497],[27.9968091,-28.8876966],[28.0306144,-28.9093437],[28.0413295,-28.8926083]],[[28.0413295,-28.8926083],[28.0411631,-28.892083]],[[28.0411631,-28.892083],[28.0333325,-28.892083],[28.0333325,-28.8837497]],[[28.0333325,-28.8837497],[28.0411758,-28.8837497]],[[28.0411758,-28.8837497],[28.0390224,-28.8768177],[28.0375223,-28.8760397]],[[28.0375223,-28.8760397],[28.0359835,-28.8771714],[28.0333325,-28.8837497]],[[27.5656109,-29.3982277],[27.5624924,-29.3969975],[27.5595779,-29.3992043],[27.5572815,-29.4044476],[27.5558109,-29.4037991],[27.555109,-29.4001942],[27.5520782,-29.400444],[27.5511093,-29.4066391],[27.5486259,-29.4009113],[27.5441818,-29.4014702],[27.5417614,-29.4003696],[27.5391235,-29.396944],[27.5368576,-29.3964539],[27.5327816,-29.3998127],[27.5306263,-29.403883],[27.5275326,-29.402523],[27.5241776,-29.399622],[27.5198848,-29.4045317]],[[27.5198848,-29.4045317],[27.5206046,-29.4049329],[27.5457348,-29.4029147],[27.5538566,-29.4298922],[27.5749992,-29.4337497],[27.577799,-29.4157112]],[[27.5003921,-29.3948807],[27.4974499,-29.3926849],[27.4969234,-29.3887997],[27.5008335,-29.3832035],[27.4987221,-29.380188],[27.4913673,-29.3769951],[27.4916897,-29.3803196],[27.488533,-29.3802185],[27.486187,-29.3856583],[27.4808502,-29.380022],[27.4803162,-29.3852596],[27.4769154,-29.3892689],[27.4789352,-29.3899574],[27.4758519,-29.3968532]],[[27.4758519,-29.3968532],[27.5003921,-29.3948807]],[[28.4123723,-28.7320443],[28.411895,-28.7316247],[28.3975089,-28.7387057],[28.4166658,-28.742083],[28.4123723,-28.7320443]],[[28.0416658,-28.892083],[28.0411631,-28.892083]],[[28.0413295,-28.8926083],[28.0416658,-28.892083]],[[27.9438864,-28.9274007],[27.9365063,-28.9208021],[27.9699048,-28.8909681],[27.9456046,-28.879819],[27.931005,-28.863486],[27.9186175,-28.8745567],[27.916357,-28.8797817],[27.9093345,-28.8828528],[27.9039054,-28.8877047],[27.9044727,-28.897239],[27.9061451,-28.8998566],[27.9049693,-28.9055864],[27.9053865,-28.912599],[27.893686,-28.9130403],[27.8903255,-28.9144897],[27.8818775,-28.9154061],[27.8822173,-28.9184341],[27.8957632,-28.9266253]],[[27.8957632,-28.9266253],[27.9051361,-28.9211102],[27.9099636,-28.9214058],[27.9138966,-28.9252281],[27.9174595,-28.9275379],[27.9228134,-28.929491],[27.9374294,-28.9293385],[27.9438864,-28.9274007]],[[28.0416658,-28.892083],[28.0798494,-28.8717054],[28.0757153,-28.8436781],[28.052538,-28.847106],[28.0467573,-28.8504365],[28.0386353,-28.8705909],[28.0399742,-28.8726692],[28.0375223,-28.8760397]],[[28.0411758,-28.8837497],[28.0416658,-28.8852043],[28.0416658,-28.8869393],[28.0416658,-28.892083]],[[27.6889426,-30.3939738],[27.6812166,-30.3939059],[27.6853707,-30.398209]],[[27.562212,-29.3454257],[27.546158,-29.3315931],[27.5803052,-29.3213066],[27.5553377,-29.3101738],[27.5605342,-29.3056971]],[[27.5605342,-29.3056971],[27.5581226,-29.3041515],[27.5546303,-29.2969208],[27.545269,-29.3016148]],[[27.545269,-29.3016148],[27.547224,-29.3042774],[27.5534534,-29.306715],[27.5518456,-29.3119812],[27.5478916,-29.3137569],[27.5460072,-29.3232651],[27.5371399,-29.3305645],[27.536911,-29.3318367],[27.5456047,-29.3336372],[27.5482388,-29.3381882],[27.5542374,-29.341465],[27.5570354,-29.3445206],[27.562212,-29.3454257]],[[27.5744319,-29.2891873],[27.5788566,-29.2792738],[27.584463,-29.2744432]],[[27.584463,-29.2744432],[27.5756931,-29.2710552],[27.5742302,-29.2749119],[27.5777798,-29.2799721],[27.5743313,-29.2843285],[27.5744319,-29.2891873]],[[27.2625008,-29.818676],[27.2610359,-29.8097572],[27.2622244,-29.7985006]],[[27.2622244,-29.7985006],[27.2135571,-29.8042493],[27.2248201,-29.8370374],[27.2333325,-29.842083],[27.2364412,-29.8368502],[27.2635571,-29.8306491],[27.2643751,-29.8263019]],[[27.2643751,-29.8263019],[27.2622089,-29.8227844],[27.2625008,-29.818676]],[[27.7396694,-29.4636626],[27.7355949,-29.4396741],[27.7110669,-29.4301201],[27.6963696,-29.4444674],[27.7239202,-29.4632915]],[[27.7239202,-29.4632915],[27.7188454,-29.4568558],[27.7175064,-29.4532089],[27.7182636,-29.4480705],[27.7200222,-29.4456654],[27.7252083,-29.445715],[27.7279491,-29.4478607],[27.7323685,-29.4539566],[27.7337112,-29.4573002],[27.7396694,-29.4636626]],[[27.614694,-29.4122979],[27.6333325,-29.417083],[27.6276221,-29.4088126]],[[28.6899254,-30.1275438],[28.6874056,-30.1250038],[28.6815096,-30.1308932],[28.6916658,-30.1337497],[28.6899254,-30.1275438]],[[27.584463,-29.2744432],[27.5934399,-29.2667086],[27.5689445,-29.2530449],[27.5467935,-29.2597146]],[[27.5467935,-29.2597146],[27.5526943,-29.2669392],[27.5551167,-29.2688179],[27.5599651,-29.2703876],[27.5620461,-29.2724209],[27.5619469,-29.2757721],[27.5655785,-29.2804489],[27.5664139,-29.2840595],[27.5731487,-29.2920623]],[[27.5731487,-29.2920623],[27.5744319,-29.2891873]],[[27.7388175,-29.0569267],[27.7315096,-29.0642266],[27.7416658,-29.067083],[27.7388175,-29.0569267]],[[27.4417742,-30.1466752],[27.4397009,-30.1499333]],[[27.4572768,-30.129712],[27.4521639,-30.130348],[27.4427413,-30.1451553]],[[27.486771,-30.1361862],[27.4855298,-30.1261976],[27.4837011,-30.1264251]],[[27.4721509,-30.0985934],[27.4648429,-30.1058932],[27.4749992,-30.1087497],[27.4721509,-30.0985934]],[[28.2138175,-28.9985934],[28.2065096,-29.0058932],[28.2166658,-29.0087497],[28.2138175,-28.9985934]],[[27.8957632,-28.9266253],[27.8998201,-28.9290784],[27.9124992,-28.9298353],[27.9210278,-28.9293226],[27.9416658,-28.942083],[27.9461906,-28.9294609],[27.9438864,-28.9274007]],[[27.859635,-28.9027713],[27.8565096,-28.9058932],[27.8665193,-28.9087084],[27.859635,-28.9027713]],[[27.7239202,-29.4632915],[27.7416658,-29.4754163],[27.7396694,-29.4636626]],[[27.545269,-29.3016148],[27.544487,-29.2988853],[27.5403061,-29.2963295],[27.5367622,-29.29776],[27.5354805,-29.3023491],[27.5311337,-29.3076267],[27.5242958,-29.3089619],[27.512207,-29.3019543],[27.5103912,-29.2969704],[27.5119057,-29.2912006],[27.5113201,-29.2891731],[27.5123787,-29.2849731],[27.5084523,-29.2776733]],[[27.5084523,-29.2776733],[27.5041961,-29.2799557],[27.5011826,-29.287569],[27.4982624,-29.2888756],[27.4716544,-29.2873536],[27.4698234,-29.2877698],[27.4711973,-29.3049832],[27.4751701,-29.3075981],[27.4782104,-29.3108826],[27.4775753,-29.314537],[27.4740734,-29.3176651],[27.4611964,-29.3217943],[27.4491827,-29.3321483],[27.4484465,-29.3345577],[27.4450675,-29.3766777],[27.463313,-29.397861],[27.4758519,-29.3968532]],[[27.5003921,-29.3948807],[27.5022941,-29.3947279],[27.5198848,-29.4045317]],[[27.5692891,-29.3515236],[27.562212,-29.3454257]],[[27.9749992,-29.117083],[27.9778475,-29.1272392],[27.9851554,-29.1199394],[27.9749992,-29.117083]],[[27.9749992,-29.117083],[27.9645825,-29.0980644],[27.9553865,-29.1128594],[27.9749992,-29.117083]],[[27.5467935,-29.2597146],[27.5346015,-29.2633856],[27.5249615,-29.271841],[27.5130106,-29.2751303],[27.5084523,-29.2776733]],[[27.5605342,-29.3056971],[27.5711417,-29.2965589],[27.5731487,-29.2920623]],[[27.7412918,-29.1599392],[27.7495294,-29.161339]],[[27.7636765,-29.1637429],[27.7816268,-29.1667932],[27.7828017,-29.1662567],[27.7701652,-29.1465833],[27.7714835,-29.1376315],[27.7637687,-29.1217868],[27.7191886,-29.1393079],[27.721744,-29.1566175],[27.728473,-29.1577609]],[[27.2654831,-29.8204139],[27.2697746,-29.7976087],[27.2622244,-29.7985006]],[[27.2625008,-29.818676],[27.2654831,-29.8204139]],[[28.6871411,-30.1065036],[28.6725089,-30.1137057],[28.6916658,-30.117083],[28.6871411,-30.1065036]],[[27.2643751,-29.8263019],[27.2654831,-29.8204139]],[[28.2631585,-28.7798241],[28.2717114,-28.7780693],[28.2709067,-28.7680211]],[[28.2834454,-28.7588671],[28.2950187,-28.7709079],[28.2987572,-28.7380146],[28.2992659,-28.7335381],[28.2997062,-28.7296644],[28.2875805,-28.7546644],[28.2835043,-28.7585844]],[[27.6328083,-30.398547],[27.6304842,-30.3902601],[27.6231763,-30.3975599],[27.6310755,-30.3997815],[27.6328083,-30.398547]]],"bbox":[27.2135571,-30.4087497,29.0749992,-28.7296644]}