{"type":"Topology","objects":{"foo":{"type":"GeometryCollection","geometries":[{"type":"Polygon","arcs":[[0]],"properties":{"name":"Guerou","gaul_code":19496,"targetarea":6.534495,"totpop":52223.9276856,"country_id":"MRT","targetpop":4419.5834045,"totalarea":2630.9845984,"new_mean":0.0073263}},{"type":"Polygon","arcs":[[1]],"properties":{"name":"Atar","gaul_code":19491,"targetarea":9.9316527,"totpop":39418.9538585,"country_id":"MRT","targetpop":7223.8217468,"totalarea":25400.5870513,"new_mean":0.0050074}},{"type":"Polygon","arcs":[[2]],"properties":{"name":"Nouakchott","gaul_code":19522,"targetarea":206.0987028,"totpop":1353219.19183,"country_id":"MRT","targetpop":1323588.01538,"totalarea":1501.8447375,"new_mean":0.0070894}},{"type":"Polygon","arcs":[[3]],"properties":{"name":"M Bagne","gaul_code":19502,"targetarea":4.4540654,"totpop":47325.2754126,"country_id":"MRT","targetpop":3289.9420166,"totalarea":632.906064,"new_mean":0.0054264}},{"type":"Polygon","arcs":[[4]],"properties":{"name":"Kaedi","gaul_code":19505,"targetarea":27.2991475,"totpop":147911.144759,"country_id":"MRT","targetpop":24118.1116028,"totalarea":4239.0001436,"new_mean":0.0044579}},{"type":"Polygon","arcs":[[5]],"properties":{"name":"Rosso","gaul_code":19534,"targetarea":10.2539782,"totpop":47912.5543716,"country_id":"MRT","targetpop":7967.3969116,"totalarea":1292.6989807,"new_mean":0.005808}},{"type":"Polygon","arcs":[[6]],"properties":{"name":"Boghe","gaul_code":19501,"targetarea":9.2877254,"totpop":75972.0490232,"country_id":"MRT","targetpop":5815.4629822,"totalarea":1569.0336747,"new_mean":0.0052939}},{"type":"Polygon","arcs":[[7]],"properties":{"name":"Aioun Al Atrous","gaul_code":19517,"targetarea":22.1021148,"totpop":80194.1340873,"country_id":"MRT","targetpop":21000.3046417,"totalarea":17698.9840502,"new_mean":0.0080241}},{"type":"MultiPolygon","arcs":[[[8]],[[9]]],"properties":{"name":"Bassikounou","gaul_code":19512,"targetarea":9.6663422,"totpop":207029.383524,"country_id":"MRT","targetpop":7743.4537964,"totalarea":16566.4483912,"new_mean":0.0088948}},{"type":"Polygon","arcs":[[10]],"properties":{"name":"F Derik","gaul_code":19527,"targetarea":24.0483585,"totpop":56485.6914947,"country_id":"MRT","targetpop":23126.2821655,"totalarea":172161.427658,"new_mean":0.0000453}},{"type":"MultiPolygon","arcs":[[[11]],[[12]]],"properties":{"name":"Aleg","gaul_code":19499,"targetarea":14.3665243,"totpop":138921.43389,"country_id":"MRT","targetpop":11858.2279053,"totalarea":16311.4885617,"new_mean":0.0054276}},{"type":"Polygon","arcs":[[13]],"properties":{"name":"Kiffa","gaul_code":19498,"targetarea":32.8950616,"totpop":132200.341049,"country_id":"MRT","targetpop":28365.7246399,"totalarea":10824.3236699,"new_mean":0.0066793}},{"type":"Polygon","arcs":[[14]],"properties":{"name":"Nema","gaul_code":19514,"targetarea":17.3664802,"totpop":104769.722144,"country_id":"MRT","targetpop":27209.8576355,"totalarea":9927.1021086,"new_mean":0.0079276}},{"type":"Polygon","arcs":[[15]],"properties":{"name":"Nouadhibou","gaul_code":19504,"targetarea":77.5305933,"totpop":153771.327892,"country_id":"MRT","targetpop":144276.016205,"totalarea":17105.0962031,"new_mean":0.0099232}},{"type":"Polygon","arcs":[[16]],"properties":{"name":"Selibaby","gaul_code":19510,"targetarea":25.1714734,"totpop":252395.419944,"country_id":"MRT","targetpop":23046.4605408,"totalarea":7130.2221586,"new_mean":0.0082875}},{"type":"Polygon","arcs":[[17]],"properties":{"name":"Tintane","gaul_code":19520,"targetarea":13.617722,"totpop":128896.892604,"country_id":"MRT","targetpop":9641.9234924,"totalarea":10636.1236591,"new_mean":0.0090453}}]}},"arcs":[[[-11.8132656,16.8211818],[-11.8380378,16.8384018],[-11.845069,16.8207261],[-11.8132656,16.8211818]],[[-13.0216153,20.5317002],[-13.0634772,20.5283392],[-13.061638,20.5055975],[-13.0416673,20.4995835],[-13.0216153,20.5317002]],[[-15.8859707,18.0768825],[-15.8961432,18.0951076],[-15.9118333,18.1472275],[-16.0300746,18.1373436],[-16.0246811,18.0792465],[-16.0228577,18.0319119],[-16.0253616,17.982614],[-16.0034349,17.9953558],[-16.0205247,18.0100856],[-16.0062832,18.0451076],[-15.9955247,18.0373927],[-15.9780443,17.9793442],[-15.9416673,17.9745835],[-15.9362474,18.0159816],[-15.8889655,18.0396999],[-15.8859707,18.0768825]],[[-13.7750007,16.1437793],[-13.7750007,16.1579168],[-13.8000007,16.1579168],[-13.8000007,16.1412502],[-13.7750007,16.1437793]],[[-13.4750007,16.1495835],[-13.4787767,16.1804917],[-13.5130378,16.1709539],[-13.5216478,16.1598008],[-13.5761074,16.1446356],[-13.5025565,16.1337645],[-13.4750007,16.1495835]],[[-15.8191404,16.5081693],[-15.7873388,16.4978036],[-15.7777188,16.5123683],[-15.8124193,16.5363185],[-15.8184396,16.5209168],[-15.8191404,16.5081693]],[[-14.2397142,16.6007757],[-14.2609219,16.6119248],[-14.2873379,16.5884547],[-14.258334,16.5829168],[-14.2397142,16.6007757]],[[-9.5882657,16.6461818],[-9.5764981,16.6543076],[-9.5799486,16.6697332],[-9.6186367,16.6779852],[-9.645069,16.646369],[-9.5916673,16.6329168],[-9.5882657,16.6461818]],[[-5.7535163,15.6676051],[-5.7707038,15.6773057],[-5.7777188,15.652973],[-5.7500007,15.6495835],[-5.7535163,15.6676051]],[[-5.948959,15.877973],[-5.9617357,15.8634425],[-5.9416674,15.8495835],[-5.948959,15.877973]],[[-12.432569,22.7505437],[-12.4814297,22.7566228],[-12.5037116,22.719957],[-12.4666673,22.7079168],[-12.432569,22.7505437]],[[-13.9507005,17.0316025],[-13.9696621,17.0440496],[-13.9778001,17.0260972],[-13.958334,17.0162501],[-13.9507005,17.0316025]],[[-13.9041511,17.0857529],[-13.9368822,17.0456528],[-13.9000007,17.0412501],[-13.9041511,17.0857529]],[[-11.4416673,16.6412502],[-11.4276862,16.6155259],[-11.4068041,16.6011094],[-11.396127,16.5856349],[-11.3799323,16.5961818],[-11.347071,16.6084743],[-11.3681973,16.6230576],[-11.3830736,16.6446152],[-11.4208666,16.6361435],[-11.4416673,16.6412502]],[[-7.2464525,16.6043605],[-7.2241381,16.6132309],[-7.2485196,16.6281398],[-7.3118822,16.6167588],[-7.2943529,16.6037217],[-7.2500007,16.5995835],[-7.2464525,16.6043605]],[[-17.0353527,20.824543],[-17.0290508,20.8566704],[-17.0475273,20.8733044],[-17.0518284,20.8900928],[-17.042923,20.9079647],[-17.0174618,20.9133472],[-17.0103855,20.9507523],[-17.0029526,20.9663315],[-17.005276,20.9961341],[-17.0376146,21.0033636],[-17.0663731,20.9223565],[-17.0664634,20.8718454],[-17.0588924,20.8055618],[-17.0443586,20.7934862],[-17.0353527,20.824543]],[[-12.1793952,15.1373195],[-12.1548184,15.1486029],[-12.18475,15.2083197],[-12.2048347,15.1858343],[-12.2027188,15.1502345],[-12.1793952,15.1373195]],[[-10.1432136,16.3891302],[-10.1632494,16.4029852],[-10.2034024,16.3702581],[-10.158334,16.3662502],[-10.1432136,16.3891302]]],"bbox":[-17.0664634,15.1373195,-5.7500007,22.7566228]}