{"type":"Topology","objects":{"foo":{"type":"GeometryCollection","geometries":[{"type":"MultiPolygon","arcs":[[[0]],[[1]]],"properties":{"name":"Chichigalpa","gaul_code":22425,"targetarea":25.5284829,"totpop":44030.4774189,"country_id":"NIC","targetpop":23267.3876038,"totalarea":191.873239,"new_mean":0.0338031}},{"type":"Polygon","arcs":[[2,3,4]],"properties":{"name":"Dolores","gaul_code":22419,"targetarea":4.6150443,"totpop":10822.0522575,"country_id":"NIC","targetpop":7914.3041382,"totalarea":44.0774447,"new_mean":0.0327785}},{"type":"MultiPolygon","arcs":[[[5,6,7]],[[8,9,10]]],"properties":{"name":"Ticuantepe","gaul_code":22493,"targetarea":19.8575214,"totpop":32064.1615219,"country_id":"NIC","targetpop":20598.6644592,"totalarea":54.9103553,"new_mean":0.0328226}},{"type":"Polygon","arcs":[[11]],"properties":{"name":"Quilali","gaul_code":22526,"targetarea":2.9564069,"totpop":42436.7325249,"country_id":"NIC","targetpop":3354.8258972,"totalarea":383.0810648,"new_mean":0.0299493}},{"type":"Polygon","arcs":[[12]],"properties":{"name":"Posoltega","gaul_code":22433,"targetarea":7.1913971,"totpop":16930.8861427,"country_id":"NIC","targetpop":5745.6596375,"totalarea":95.4079559,"new_mean":0.0327087}},{"type":"MultiPolygon","arcs":[[[13]],[[14]]],"properties":{"name":"Telica","gaul_code":22479,"targetarea":4.7818551,"totpop":24551.4451675,"country_id":"NIC","targetpop":3825.4949951,"totalarea":397.8724412,"new_mean":0.0331943}},{"type":"MultiPolygon","arcs":[[[15,16]],[[17]]],"properties":{"name":"Chinandega","gaul_code":22426,"targetarea":58.0605527,"totpop":146480.707382,"country_id":"NIC","targetpop":71203.5881958,"totalarea":772.1842491,"new_mean":0.0343054}},{"type":"MultiPolygon","arcs":[[[18,19,20]],[[21]]],"properties":{"name":"Granada","gaul_code":22459,"targetarea":38.0883848,"totpop":95388.0070701,"country_id":"NIC","targetpop":49734.4234619,"totalarea":524.2464289,"new_mean":0.0346477}},{"type":"Polygon","arcs":[[22,23]],"properties":{"name":"Mateare","gaul_code":22490,"targetarea":48.4156041,"totpop":82414.0035038,"country_id":"NIC","targetpop":55084.4234924,"totalarea":577.6849419,"new_mean":0.035068}},{"type":"Polygon","arcs":[[24]],"properties":{"name":"Ciudad Sandino","gaul_code":22519,"targetarea":3.1821024,"totpop":29775.2661819,"country_id":"NIC","targetpop":3417.3481445,"totalarea":362.3945064,"new_mean":0.0312713}},{"type":"Polygon","arcs":[[25]],"properties":{"name":"Corinto","gaul_code":22428,"targetarea":7.9007571,"totpop":9880.5845541,"country_id":"NIC","targetpop":7098.0851498,"totalarea":37.5847149,"new_mean":0.0337113}},{"type":"Polygon","arcs":[[26]],"properties":{"name":"Totolgalpa","gaul_code":22487,"targetarea":4.8839719,"totpop":18323.1945572,"country_id":"NIC","targetpop":4949.2960205,"totalarea":136.6730032,"new_mean":0.033211}},{"type":"MultiPolygon","arcs":[[[27]],[[28]]],"properties":{"name":"Ciudad Dario","gaul_code":22505,"targetarea":9.3731053,"totpop":60543.0579243,"country_id":"NIC","targetpop":10973.204834,"totalarea":918.0389538,"new_mean":0.0333018}},{"type":"Polygon","arcs":[[29]],"properties":{"name":"Nandaime","gaul_code":22463,"targetarea":9.695152,"totpop":37877.7336483,"country_id":"NIC","targetpop":8438.209259,"totalarea":368.1376186,"new_mean":0.033077}},{"type":"Polygon","arcs":[[29]],"properties":{"name":"Nandaime","gaul_code":22463,"targetarea":9.695152,"totpop":37877.7336483,"country_id":"NIC","targetpop":8438.209259,"totalarea":368.1376186,"new_mean":0.0338658}},{"type":"Polygon","arcs":[[30]],"properties":{"name":"San Pedro Del Norte","gaul_code":22435,"targetarea":1.137291,"totpop":14144.4334888,"country_id":"NIC","targetpop":1097.631958,"totalarea":119.3254223,"new_mean":0.0288948}},{"type":"Polygon","arcs":[[30]],"properties":{"name":"San Pedro Del Norte","gaul_code":22435,"targetarea":1.137291,"totpop":14144.4334888,"country_id":"NIC","targetpop":1097.631958,"totalarea":119.3254223,"new_mean":0.0336325}},{"type":"Polygon","arcs":[[31]],"properties":{"name":"Bluefields","gaul_code":22401,"targetarea":10.1379913,"totpop":76735.5203675,"country_id":"NIC","targetpop":4617.6561508,"totalarea":6397.1966815,"new_mean":0.0315059}},{"type":"Polygon","arcs":[[32]],"properties":{"name":"Las Praderas","gaul_code":22467,"targetarea":2.2361685,"totpop":54919.7919731,"country_id":"NIC","targetpop":2837.5319214,"totalarea":556.0961089,"new_mean":0.0272852}},{"type":"Polygon","arcs":[[33,34,35,36,37,38]],"properties":{"name":"Rivas","gaul_code":22548,"targetarea":18.5342115,"totpop":30822.9363575,"country_id":"NIC","targetpop":17072.2240906,"totalarea":159.6902881,"new_mean":0.0336159}},{"type":"Polygon","arcs":[[39]],"properties":{"name":"Matagalpa","gaul_code":22508,"targetarea":74.6497296,"totpop":181345.174086,"country_id":"NIC","targetpop":112852.033966,"totalarea":602.3165089,"new_mean":0.0320467}},{"type":"Polygon","arcs":[[40]],"properties":{"name":"El Cua","gaul_code":22464,"targetarea":1.9282257,"totpop":161575.20052,"country_id":"NIC","targetpop":2098.220398,"totalarea":4826.4340615,"new_mean":0}},{"type":"Polygon","arcs":[[40]],"properties":{"name":"El Cua","gaul_code":22464,"targetarea":1.9282257,"totpop":161575.20052,"country_id":"NIC","targetpop":2098.220398,"totalarea":4826.4340615,"new_mean":0.028935}},{"type":"MultiPolygon","arcs":[[[41]],[[42]]],"properties":{"name":"San Lorenzo","gaul_code":22415,"targetarea":3.5450168,"totpop":33166.5241544,"country_id":"NIC","targetpop":2523.1793213,"totalarea":641.6186616,"new_mean":0.0331706}},{"type":"Polygon","arcs":[[43]],"properties":{"name":"La Trinidad","gaul_code":22453,"targetarea":2.7918266,"totpop":22264.4336147,"country_id":"NIC","targetpop":2573.2099915,"totalarea":259.6323392,"new_mean":0.0332512}},{"type":"Polygon","arcs":[[43]],"properties":{"name":"La Trinidad","gaul_code":22453,"targetarea":2.7918266,"totpop":22264.4336147,"country_id":"NIC","targetpop":2573.2099915,"totalarea":259.6323392,"new_mean":0.0333223}},{"type":"MultiPolygon","arcs":[[[44]],[[45]]],"properties":{"name":"San Rafael Del Sur","gaul_code":22492,"targetarea":25.8328832,"totpop":52740.6591886,"country_id":"NIC","targetpop":17172.7438507,"totalarea":363.684513,"new_mean":0.0333208}},{"type":"MultiPolygon","arcs":[[[46]],[[47]],[[48]]],"properties":{"name":"Jinotega","gaul_code":22465,"targetarea":31.2858112,"totpop":156999.682079,"country_id":"NIC","targetpop":39661.8616638,"totalarea":946.3618135,"new_mean":0.0295576}},{"type":"Polygon","arcs":[[49]],"properties":{"name":"Boaco","gaul_code":22411,"targetarea":6.7015998,"totpop":53485.6476727,"country_id":"NIC","targetpop":8847.0391846,"totalarea":996.1056109,"new_mean":0.0298147}},{"type":"Polygon","arcs":[[50]],"properties":{"name":"Rosita","gaul_code":22396,"targetarea":1.9674107,"totpop":77851.7780886,"country_id":"NIC","targetpop":1798.7461548,"totalarea":4655.4652458,"new_mean":0.0297191}},{"type":"MultiPolygon","arcs":[[[-16,51]],[[52]]],"properties":{"name":"El Viejo","gaul_code":22430,"targetarea":15.9474468,"totpop":81160.1592075,"country_id":"NIC","targetpop":17520.6884766,"totalarea":1337.5397341,"new_mean":0.0346745}},{"type":"Polygon","arcs":[[53]],"properties":{"name":"San Ramon","gaul_code":22515,"targetarea":5.002194,"totpop":57910.735714,"country_id":"NIC","targetpop":3939.7439575,"totalarea":552.7509006,"new_mean":0.0301085}},{"type":"Polygon","arcs":[[-21,54,55,56,57]],"properties":{"name":"Diria","gaul_code":22457,"targetarea":8.440548,"totpop":12935.1340866,"country_id":"NIC","targetpop":10224.1507568,"totalarea":23.5628188,"new_mean":0.0334814}},{"type":"Polygon","arcs":[[58,-8,59,60,61,62]],"properties":{"name":"La Concepcion","gaul_code":22497,"targetarea":25.5828612,"totpop":35567.9896927,"country_id":"NIC","targetpop":26789.8264771,"totalarea":63.3877246,"new_mean":0.032405}},{"type":"Polygon","arcs":[[-39,63,64]],"properties":{"name":"Buenos Aires","gaul_code":22543,"targetarea":8.1786164,"totpop":15792.2531428,"country_id":"NIC","targetpop":8317.388794,"totalarea":73.2634093,"new_mean":0.0341514}},{"type":"Polygon","arcs":[[65]],"properties":{"name":"Camoapa","gaul_code":22412,"targetarea":5.2087694,"totpop":37398.3141837,"country_id":"NIC","targetpop":4795.7106934,"totalarea":1459.7311639,"new_mean":0.0295559}},{"type":"Polygon","arcs":[[66]],"properties":{"name":"San Juan Del Rio Coco","gaul_code":22483,"targetarea":7.0930158,"totpop":33952.8672752,"country_id":"NIC","targetpop":7602.8458557,"totalarea":201.388466,"new_mean":0.0290235}},{"type":"Polygon","arcs":[[67]],"properties":{"name":"Nueva Guinea","gaul_code":22410,"targetarea":4.7389272,"totpop":54271.019093,"country_id":"NIC","targetpop":3336.6229248,"totalarea":2755.0416122,"new_mean":0.0289542}},{"type":"Polygon","arcs":[[67]],"properties":{"name":"Nueva Guinea","gaul_code":22410,"targetarea":4.7389272,"totpop":54271.019093,"country_id":"NIC","targetpop":3336.6229248,"totalarea":2755.0416122,"new_mean":0.0285799}},{"type":"Polygon","arcs":[[68]],"properties":{"name":"Telpaneca","gaul_code":22486,"targetarea":1.9706157,"totpop":22379.717783,"country_id":"NIC","targetpop":2016.6196289,"totalarea":279.9630286,"new_mean":0.0321778}},{"type":"MultiPolygon","arcs":[[[69]],[[70]]],"properties":{"name":"San Isidro","gaul_code":22514,"targetarea":2.7051168,"totpop":11974.7804337,"country_id":"NIC","targetpop":2120.0839233,"totalarea":126.2187181,"new_mean":0.0332433}},{"type":"Polygon","arcs":[[71]],"properties":{"name":"San Sebastian De Yali","gaul_code":22469,"targetarea":4.6465167,"totpop":31945.5409117,"country_id":"NIC","targetpop":5328.217865,"totalarea":322.4758869,"new_mean":0.0289464}},{"type":"Polygon","arcs":[[72]],"properties":{"name":"Somoto","gaul_code":22485,"targetarea":9.9419232,"totpop":44842.8796597,"country_id":"NIC","targetpop":9499.738739,"totalarea":467.4080497,"new_mean":0.0332747}},{"type":"Polygon","arcs":[[73]],"properties":{"name":"El Sauce","gaul_code":22473,"targetarea":5.003006,"totpop":32833.0899086,"country_id":"NIC","targetpop":4332.5876465,"totalarea":717.7500799,"new_mean":0.0328988}},{"type":"Polygon","arcs":[[74,-36,75]],"properties":{"name":"Belen","gaul_code":22542,"targetarea":1.2314738,"totpop":18920.3974781,"country_id":"NIC","targetpop":1018.7496643,"totalarea":281.7759895,"new_mean":0.033493}},{"type":"Polygon","arcs":[[76]],"properties":{"name":"Great Corn Island","gaul_code":22404,"targetarea":5.3127772,"totpop":5596.7458267,"country_id":"NIC","targetpop":0,"totalarea":9.8242271,"new_mean":0.029825}},{"type":"Polygon","arcs":[[77]],"properties":{"name":"Tola","gaul_code":22550,"targetarea":6.0041081,"totpop":53224.4613927,"country_id":"NIC","targetpop":3679.1362915,"totalarea":1108.5639348,"new_mean":0.0332498}},{"type":"Polygon","arcs":[[78]],"properties":{"name":"Rancho Grande","gaul_code":22511,"targetarea":2.2372172,"totpop":51909.0644836,"country_id":"NIC","targetpop":1992.3900147,"totalarea":652.6904665,"new_mean":0.0291999}},{"type":"MultiPolygon","arcs":[[[79,80,81]],[[82]],[[83,84,-4,85,86]]],"properties":{"name":"Diriamba","gaul_code":22418,"targetarea":28.7946427,"totpop":81750.6832628,"country_id":"NIC","targetpop":30801.1075134,"totalarea":609.1329309,"new_mean":0.0327108}},{"type":"Polygon","arcs":[[87]],"properties":{"name":"Siuna","gaul_code":22397,"targetarea":7.4958254,"totpop":140168.388162,"country_id":"NIC","targetpop":7145.0363769,"totalarea":4664.8635821,"new_mean":0.0284654}},{"type":"Polygon","arcs":[[88]],"properties":{"name":"Palacaguina","gaul_code":22481,"targetarea":2.9461105,"totpop":14855.8257828,"country_id":"NIC","targetpop":2111.7103272,"totalarea":164.6211325,"new_mean":0.0331753}},{"type":"MultiPolygon","arcs":[[[89]],[[90]]],"properties":{"name":"Teustepe","gaul_code":22417,"targetarea":6.8571944,"totpop":35820.1633248,"country_id":"NIC","targetpop":6054.2463684,"totalarea":687.7339267,"new_mean":0.0330257}},{"type":"Polygon","arcs":[[91,92,93,94]],"properties":{"name":"Niquinohomo","gaul_code":22502,"targetarea":2.384697,"totpop":6159.0573578,"country_id":"NIC","targetpop":0,"totalarea":20.3494653,"new_mean":0.0330272}},{"type":"Polygon","arcs":[[95]],"properties":{"name":"San Rafael Del Norte","gaul_code":22468,"targetarea":5.7578597,"totpop":38870.2191429,"country_id":"NIC","targetpop":4638.7112427,"totalarea":384.8227419,"new_mean":0.0300538}},{"type":"Polygon","arcs":[[-61,96,-84,97,98,99]],"properties":{"name":"San Marcos","gaul_code":22424,"targetarea":17.1959774,"totpop":25894.2633133,"country_id":"NIC","targetpop":15376.2138062,"totalarea":92.5568724,"new_mean":0.0320537}},{"type":"MultiPolygon","arcs":[[[100,101,102,103]],[[104,-62,-100,105,106,107,108],[109]]],"properties":{"name":"Masatepe","gaul_code":22498,"targetarea":46.1562344,"totpop":50899.7573519,"country_id":"NIC","targetpop":42429.6695862,"totalarea":71.3176133,"new_mean":0.0323832}},{"type":"MultiPolygon","arcs":[[[100,101,102,103]],[[104,-62,-100,105,106,107,108],[109]]],"properties":{"name":"Masatepe","gaul_code":22498,"targetarea":46.1562344,"totpop":50899.7573519,"country_id":"NIC","targetpop":42429.6695862,"totalarea":71.3176133,"new_mean":0.0327713}},{"type":"Polygon","arcs":[[110,-57]],"properties":{"name":"Diriomo","gaul_code":22458,"targetarea":13.2925811,"totpop":18391.1951294,"country_id":"NIC","targetpop":8078.2125855,"totalarea":43.6424578,"new_mean":0.0333162}},{"type":"Polygon","arcs":[[111,112,-95,113,-55,-20]],"properties":{"name":"San Juan De Oriente","gaul_code":22503,"targetarea":3.87456,"totpop":4489.3192444,"country_id":"NIC","targetpop":3781.793457,"totalarea":5.8494889,"new_mean":0}},{"type":"Polygon","arcs":[[114,115]],"properties":{"name":"La Paz De Carazo","gaul_code":22423,"targetarea":2.4891657,"totpop":5783.747963,"country_id":"NIC","targetpop":0,"totalarea":16.8714318,"new_mean":0}},{"type":"Polygon","arcs":[[116,117,-92,-113]],"properties":{"name":"Catarina","gaul_code":22496,"targetarea":8.1159387,"totpop":9897.1163025,"country_id":"NIC","targetpop":0,"totalarea":12.6973653,"new_mean":0}},{"type":"MultiPolygon","arcs":[[[118,119,120,-81,121,-116,122]],[[123]]],"properties":{"name":"El Rosario","gaul_code":22420,"targetarea":12.9538284,"totpop":12584.4921722,"country_id":"NIC","targetpop":10563.2849121,"totalarea":19.9025958,"new_mean":0}},{"type":"Polygon","arcs":[[124,-64,-38]],"properties":{"name":"San Jorge","gaul_code":22549,"targetarea":4.4293148,"totpop":6111.1341782,"country_id":"NIC","targetpop":3469.0648804,"totalarea":22.281,"new_mean":0}},{"type":"Polygon","arcs":[[125]],"properties":{"name":"Terrabona","gaul_code":22517,"targetarea":2.2416083,"totpop":19067.0533476,"country_id":"NIC","targetpop":2160.6828613,"totalarea":298.9696133,"new_mean":0.0327506}},{"type":"Polygon","arcs":[[126]],"properties":{"name":"San Carlos","gaul_code":22539,"targetarea":3.9109592,"totpop":106127.802807,"country_id":"NIC","targetpop":4159.0141907,"totalarea":2954.5214777,"new_mean":0.0310292}},{"type":"MultiPolygon","arcs":[[[127]],[[128]]],"properties":{"name":"Isla","gaul_code":22431,"targetarea":76.2710956,"totpop":192690.358085,"country_id":"NIC","targetpop":108901.937561,"totalarea":849.6516039,"new_mean":0.0338707}},{"type":"MultiPolygon","arcs":[[[127]],[[128]]],"properties":{"name":"Isla","gaul_code":22431,"targetarea":76.2710956,"totpop":192690.358085,"country_id":"NIC","targetpop":108901.937561,"totalarea":849.6516039,"new_mean":0.033974}},{"type":"Polygon","arcs":[[129]],"properties":{"name":"Juigalpa","gaul_code":22444,"targetarea":17.1026067,"totpop":67169.9408356,"country_id":"NIC","targetpop":18420.1622314,"totalarea":1060.5985064,"new_mean":0.0332711}},{"type":"Polygon","arcs":[[-35,130,-76]],"properties":{"name":"Potosi","gaul_code":22547,"targetarea":0.8805245,"totpop":10196.602623,"country_id":"NIC","targetpop":894.4902954,"totalarea":109.7139846,"new_mean":0.0336795}},{"type":"Polygon","arcs":[[131]],"properties":{"name":"La Dalia","gaul_code":22507,"targetarea":12.6117884,"totpop":57455.8452187,"country_id":"NIC","targetpop":14193.5070801,"totalarea":424.5957584,"new_mean":0.02816}},{"type":"Polygon","arcs":[[132]],"properties":{"name":"Yalaguina","gaul_code":22488,"targetarea":4.648494,"totpop":11880.5101395,"country_id":"NIC","targetpop":4234.2292481,"totalarea":60.4027241,"new_mean":0.0331912}},{"type":"Polygon","arcs":[[133]],"properties":{"name":"Rio Blanco","gaul_code":22512,"targetarea":4.6534277,"totpop":101746.806714,"country_id":"NIC","targetpop":4927.715271,"totalarea":2699.0155346,"new_mean":0.0274049}},{"type":"Polygon","arcs":[[134]],"properties":{"name":"Santo Tomas","gaul_code":22449,"targetarea":4.1031634,"totpop":17281.7806745,"country_id":"NIC","targetpop":3507.7380981,"totalarea":565.8453258,"new_mean":0.0287089}},{"type":"Polygon","arcs":[[135]],"properties":{"name":"Plueblo Nuevo","gaul_code":22454,"targetarea":4.0917343,"totpop":24413.281579,"country_id":"NIC","targetpop":3488.0812378,"totalarea":242.9248252,"new_mean":0.0329555}},{"type":"Polygon","arcs":[[135]],"properties":{"name":"Plueblo Nuevo","gaul_code":22454,"targetarea":4.0917343,"totpop":24413.281579,"country_id":"NIC","targetpop":3488.0812378,"totalarea":242.9248252,"new_mean":0.0330898}},{"type":"MultiPolygon","arcs":[[[136,-6,-59]],[[137,138]],[[139,140,-10]]],"properties":{"name":"Nindiri","gaul_code":22501,"targetarea":33.8905247,"totpop":52283.859642,"country_id":"NIC","targetpop":28268.3952332,"totalarea":122.133522,"new_mean":0.033056}},{"type":"MultiPolygon","arcs":[[[-108,141,-93,142,143]],[[144,-102,145]]],"properties":{"name":"Nandasmo","gaul_code":22500,"targetarea":14.1234721,"totpop":17540.2637024,"country_id":"NIC","targetpop":16433.2121582,"totalarea":16.8447549,"new_mean":0.0331408}},{"type":"MultiPolygon","arcs":[[[146,147]],[[148]],[[149]],[[150]]],"properties":{"name":"Tipitapa","gaul_code":22494,"targetarea":86.2127166,"totpop":183508.656139,"country_id":"NIC","targetpop":105104.710541,"totalarea":1051.8948282,"new_mean":0.0345681}},{"type":"Polygon","arcs":[[151,-106,-99,152,-86,-3,153,154,-120]],"properties":{"name":"Jinotepe","gaul_code":22421,"targetarea":28.4762574,"totpop":49041.6632648,"country_id":"NIC","targetpop":35823.7270203,"totalarea":209.307883,"new_mean":0.0324525}},{"type":"Polygon","arcs":[[155]],"properties":{"name":"Santa Rosa Del Penon","gaul_code":22478,"targetarea":1.139003,"totpop":9768.3465834,"country_id":"NIC","targetpop":1126.4576111,"totalarea":193.5463859,"new_mean":0.0329861}},{"type":"Polygon","arcs":[[156]],"properties":{"name":"El  Rama","gaul_code":22403,"targetarea":3.6759302,"totpop":90765.2570937,"country_id":"NIC","targetpop":2851.7463379,"totalarea":4892.5793539,"new_mean":0.0284381}},{"type":"Polygon","arcs":[[157]],"properties":{"name":"Nagarote","gaul_code":22476,"targetarea":9.8704392,"totpop":35264.3893266,"country_id":"NIC","targetpop":6581.2265415,"totalarea":571.4347264,"new_mean":0.0334962}},{"type":"Polygon","arcs":[[158]],"properties":{"name":"Ocotal","gaul_code":22525,"targetarea":26.1875678,"totpop":55994.4174213,"country_id":"NIC","targetpop":42815.0810547,"totalarea":141.3626656,"new_mean":0.03364}},{"type":"Polygon","arcs":[[159]],"properties":{"name":"Esteli","gaul_code":22452,"targetarea":51.6414668,"totpop":141760.577402,"country_id":"NIC","targetpop":76675.1698914,"totalarea":720.2356683,"new_mean":0.0333602}},{"type":"Polygon","arcs":[[-121,-155,160,-82]],"properties":{"name":"La Conquista","gaul_code":22422,"targetarea":1.5323558,"totpop":4906.3227921,"country_id":"NIC","targetpop":690.5703735,"totalarea":83.963252,"new_mean":0.0334057}},{"type":"Polygon","arcs":[[-148,161,-23,162,-11,-141,163]],"properties":{"name":"Managua","gaul_code":22489,"targetarea":316.1930618,"totpop":1219435.67632,"country_id":"NIC","targetpop":1189532.05109,"totalarea":694.9274509,"new_mean":0.0341293}},{"type":"Polygon","arcs":[[164]],"properties":{"name":"San Juan De Limay","gaul_code":22455,"targetarea":1.1373287,"totpop":19479.5223217,"country_id":"NIC","targetpop":989.1184692,"totalarea":532.9044572,"new_mean":0.0333765}},{"type":"Polygon","arcs":[[165]],"properties":{"name":"La Paz Centro","gaul_code":22474,"targetarea":4.9074306,"totpop":31266.5330241,"country_id":"NIC","targetpop":3245.8225708,"totalarea":948.9248889,"new_mean":0.033434}},{"type":"Polygon","arcs":[[166]],"properties":{"name":"Isla Mangles Altos","gaul_code":22432,"targetarea":6.378647,"totpop":40281.2826357,"country_id":"NIC","targetpop":5541.4323425,"totalarea":841.9265251,"new_mean":0.0330883}},{"type":"Polygon","arcs":[[167]],"properties":{"name":"Matiguas","gaul_code":22509,"targetarea":1.6716613,"totpop":49283.1564283,"country_id":"NIC","targetpop":1799.9138794,"totalarea":1484.1334532,"new_mean":0.02986}},{"type":"Polygon","arcs":[[168]],"properties":{"name":"Condega","gaul_code":22451,"targetarea":10.983306,"totpop":34673.3881779,"country_id":"NIC","targetpop":9894.8151856,"totalarea":400.9290356,"new_mean":0.0322992}},{"type":"Polygon","arcs":[[169]],"properties":{"name":"Jalapa","gaul_code":22521,"targetarea":13.3637158,"totpop":75909.0786057,"country_id":"NIC","targetpop":13530.6216125,"totalarea":605.6217851,"new_mean":0.0285275}},{"type":"Polygon","arcs":[[170]],"properties":{"name":"Sebaco","gaul_code":22516,"targetarea":22.2239715,"totpop":46718.0158176,"country_id":"NIC","targetpop":23347.1615295,"totalarea":277.7469662,"new_mean":0.0337898}},{"type":"MultiPolygon","arcs":[[[-138,171,-103,-145,172,-143,-118,173]],[[174]]],"properties":{"name":"Masaya","gaul_code":22499,"targetarea":112.7879301,"totpop":183176.775398,"country_id":"NIC","targetpop":166294.728363,"totalarea":180.9395365,"new_mean":0.0336457}},{"type":"Polygon","arcs":[[175]],"properties":{"name":"Wiwili","gaul_code":22470,"targetarea":3.1731805,"totpop":123061.967278,"country_id":"NIC","targetpop":2238.75177,"totalarea":2652.0917441,"new_mean":0.0291563}},{"type":"Polygon","arcs":[[176]],"properties":{"name":"Santa Lucia","gaul_code":22416,"targetarea":1.5884501,"totpop":7240.3211594,"country_id":"NIC","targetpop":1204.8639526,"totalarea":103.4913061,"new_mean":0.0322845}},{"type":"Polygon","arcs":[[177]],"properties":{"name":"Esquipulas","gaul_code":22506,"targetarea":5.4994015,"totpop":15441.3852282,"country_id":"NIC","targetpop":5365.9889526,"totalarea":182.200984,"new_mean":0.0312039}}]}},"arcs":[[[-87.0333337,12.5162502],[-87.0364587,12.5418036],[-87.0610599,12.5375921],[-87.0516524,12.5198268],[-87.0333337,12.5162502]],[[-87.0089587,12.5710769],[-87.001206,12.5814644],[-86.9987797,12.5847153],[-87.0336756,12.6055886],[-87.0399246,12.5978479],[-87.0475243,12.5777061],[-87.0441573,12.554918],[-87.0250004,12.5495835],[-87.0089587,12.5710769]],[[-86.2144099,11.8340397],[-86.2121201,11.8501205],[-86.2298813,11.8572893]],[[-86.2298813,11.8572893],[-86.2384738,11.8364438]],[[-86.2384738,11.8364438],[-86.2219893,11.8384955],[-86.2144099,11.8340397]],[[-86.1829681,11.9749575],[-86.1807654,11.9789811]],[[-86.1807654,11.9789811],[-86.1955652,11.9879705],[-86.2148278,11.9766506],[-86.2129939,11.9618813]],[[-86.2129939,11.9618813],[-86.1829681,11.9749575]],[[-86.226638,12.0218291],[-86.2205326,12.0010117],[-86.1725947,12.014012]],[[-86.1725947,12.014012],[-86.1991272,12.0409622]],[[-86.1991272,12.0409622],[-86.2087326,12.0374737],[-86.226638,12.0218291]],[[-86.0236495,13.5777655],[-86.0369633,13.5627793],[-86.0083337,13.5579168],[-86.0236495,13.5777655]],[[-86.9634932,12.5464056],[-86.9419437,12.5537502],[-86.9789392,12.56636],[-86.9865075,12.5459255],[-86.966667,12.5412502],[-86.9634932,12.5464056]],[[-86.8750004,12.5245835],[-86.8722009,12.5190496],[-86.852865,12.5134507],[-86.8526045,12.5357163],[-86.8750004,12.5245835]],[[-86.8750004,12.5245835],[-86.8915859,12.537091],[-86.8896204,12.5264281],[-86.8750004,12.5245835]],[[-87.1465225,12.6700786],[-87.1525269,12.6615143],[-87.1735771,12.6484861]],[[-87.1735771,12.6484861],[-87.160889,12.6386948],[-87.1463708,12.5865464],[-87.1331465,12.593952],[-87.0772709,12.603445],[-87.0803389,12.6241725],[-87.1035648,12.6421006],[-87.1129724,12.6650905],[-87.1396325,12.6611517],[-87.1465225,12.6700786]],[[-86.9437585,12.8019313],[-86.9529545,12.7871364],[-86.9333337,12.7829168],[-86.9437585,12.8019313]],[[-86.035346,11.8858026],[-86.0505923,11.9022102]],[[-86.0505923,11.9022102],[-86.0545959,11.8972492]],[[-86.0545959,11.8972492],[-86.035346,11.8858026]],[[-85.9347403,11.9078643],[-85.9374235,11.9236602],[-85.9447107,11.9665594],[-85.9914473,11.9596543],[-85.9862715,11.9245835],[-85.9894128,11.9033066],[-85.9333337,11.8995835],[-85.9347403,11.9078643]],[[-86.3880447,12.1455918],[-86.3631897,12.1558352],[-86.3644257,12.1661835],[-86.3495712,12.1630116],[-86.3336093,12.1700821]],[[-86.3336093,12.1700821],[-86.316667,12.2079168],[-86.3342777,12.214533],[-86.3538985,12.2032985],[-86.3884607,12.2068223],[-86.3865726,12.2253607],[-86.4280684,12.2450303],[-86.4454512,12.2316432],[-86.4204512,12.2208034],[-86.3765792,12.1842189],[-86.3893477,12.1502508],[-86.3880447,12.1455918]],[[-86.1294763,13.7358099],[-86.153101,13.7202297],[-86.1250004,13.7162502],[-86.1294763,13.7358099]],[[-87.1679153,12.4816141],[-87.1716232,12.4956532],[-87.1826019,12.5014372],[-87.1980057,12.5173521],[-87.2119633,12.5213405],[-87.1800297,12.47827],[-87.1679153,12.4816141]],[[-86.4757002,13.5649359],[-86.4946618,13.577383],[-86.5027999,13.5594305],[-86.4833337,13.5495835],[-86.4757002,13.5649359]],[[-86.0866703,12.676854],[-86.0941654,12.6625514],[-86.0833337,12.6579168],[-86.0866703,12.676854]],[[-86.1115645,12.7426499],[-86.129517,12.7523057],[-86.1360599,12.7196397],[-86.1083337,12.7162502],[-86.1115645,12.7426499]],[[-86.0364994,11.7747015],[-86.0527022,11.7857163],[-86.0693119,11.7528835],[-86.0333337,11.7495835],[-86.0364994,11.7747015]],[[-86.9200036,13.1935207],[-86.9274987,13.1792181],[-86.916667,13.1745835],[-86.9200036,13.1935207]],[[-83.7467777,12.0181748],[-83.7703454,12.0362453],[-83.7783288,11.9962388],[-83.7583337,11.9912502],[-83.7467777,12.0181748]],[[-85.9390385,13.3612005],[-85.9537032,13.3470729],[-85.9333337,13.3412502],[-85.9390385,13.3612005]],[[-85.8429384,11.4694678],[-85.8541829,11.4711048]],[[-85.8541829,11.4711048],[-85.8609009,11.4672546]],[[-85.8609009,11.4672546],[-85.8626349,11.4673536]],[[-85.8626349,11.4673536],[-85.8597416,11.44407],[-85.8250004,11.4162502],[-85.8036297,11.4283215]],[[-85.8036297,11.4283215],[-85.818924,11.4483948]],[[-85.818924,11.4483948],[-85.8330917,11.4518948],[-85.8429384,11.4694678]],[[-85.8833581,12.944367],[-85.9220951,12.9695949],[-85.9463952,12.9344061],[-85.966667,12.9389512],[-85.991667,12.9333481],[-86.0130619,12.9381414],[-86.0200687,12.9279852],[-86.0353682,12.9174261],[-86.0417321,12.889057],[-85.9972009,12.9077581],[-85.954932,12.8946519],[-85.9333337,12.8912502],[-85.929932,12.8961818],[-85.8986902,12.9078721],[-85.8833581,12.944367]],[[-85.670671,13.3765122],[-85.6862878,13.3686712],[-85.666667,13.3579168],[-85.670671,13.3765122]],[[-85.8471445,12.1404867],[-85.8333337,12.1329168],[-85.8373376,12.1515122],[-85.8468581,12.1467321],[-85.8471445,12.1404867]],[[-85.6339929,12.2607692],[-85.6536299,12.2504828],[-85.641667,12.2412502],[-85.6339929,12.2607692]],[[-86.2307051,12.9778672],[-86.2453698,12.9637396],[-86.2250004,12.9579168],[-86.2307051,12.9778672]],[[-86.516667,11.8079168],[-86.5230717,11.8024033],[-86.5185089,11.7748318],[-86.5019836,11.7610851],[-86.4878096,11.75716],[-86.516667,11.8079168]],[[-86.4333337,11.8662502],[-86.4465987,11.8545151],[-86.4534021,11.8325832],[-86.4250004,11.8389512],[-86.4123458,11.8361151],[-86.3965987,11.841478],[-86.4151778,11.8543076],[-86.408879,11.8824123],[-86.4333337,11.8662502]],[[-85.9109623,13.042597],[-85.9268233,13.0272772],[-85.9083337,13.0245835],[-85.9109623,13.042597]],[[-85.9751143,13.08393],[-85.9962976,13.119957],[-86.0037032,13.1375433],[-86.0203698,13.1378729],[-86.0111169,13.0634792],[-85.991667,13.0579168],[-85.9751143,13.08393]],[[-86.0222416,13.1521795],[-86.0452234,13.1334255],[-86.0333337,13.1245835],[-86.0222416,13.1521795]],[[-85.641781,12.4774766],[-85.6560632,12.4863185],[-85.6784021,12.4652044],[-85.6500004,12.4579168],[-85.641781,12.4774766]],[[-84.4020919,13.9352646],[-84.4112878,13.9204697],[-84.391667,13.9162502],[-84.4020919,13.9352646]],[[-87.1465225,12.6700786],[-87.1536299,12.6792873],[-87.170378,12.6865464],[-87.1869633,12.6588161],[-87.1735771,12.6484861]],[[-87.217139,12.7070664],[-87.2371504,12.7190496],[-87.2444665,12.6951808],[-87.2250004,12.6912502],[-87.217139,12.7070664]],[[-85.8250004,12.9162502],[-85.8250004,12.9329168],[-85.8500004,12.9329168],[-85.8500004,12.9162502],[-85.8250004,12.9162502]],[[-86.0545959,11.8972492],[-86.0665891,11.8811102]],[[-86.0665891,11.8811102],[-86.0564833,11.8649782]],[[-86.0564833,11.8649782],[-86.0388641,11.8693647],[-86.0267516,11.8766146]],[[-86.0267516,11.8766146],[-86.035346,11.8858026]],[[-86.1702752,11.9726093],[-86.1829681,11.9749575]],[[-86.2129939,11.9618813],[-86.2114668,11.9495835],[-86.2145325,11.9249016]],[[-86.2145325,11.9249016],[-86.1958389,11.9171104]],[[-86.1958389,11.9171104],[-86.1673126,11.9494934],[-86.14719,11.954409]],[[-86.14719,11.954409],[-86.1537032,11.9625433],[-86.1702752,11.9726093]],[[-85.818924,11.4483948],[-85.7919546,11.4525701]],[[-85.7919546,11.4525701],[-85.7918293,11.4528494],[-85.7927065,11.4621554],[-85.8429384,11.4694678]],[[-85.4932458,12.388174],[-85.5191736,12.3940496],[-85.5277999,12.378091],[-85.5000004,12.3745835],[-85.4932458,12.388174]],[[-86.1547042,13.5376206],[-86.1447758,13.5452826],[-86.157349,13.5615464],[-86.1869633,13.540888],[-86.1583337,13.5329168],[-86.1547042,13.5376206]],[[-84.4396325,11.7034735],[-84.4705977,11.6929876],[-84.4500004,11.6745835],[-84.4396325,11.7034735]],[[-86.2854252,13.543598],[-86.2946211,13.5288031],[-86.2750004,13.5245835],[-86.2854252,13.543598]],[[-86.2000004,12.9329168],[-86.1871667,12.9073309],[-86.1805342,12.9289862],[-86.2000004,12.9329168]],[[-86.2000004,12.9329168],[-86.2002887,12.9339425],[-86.2031502,12.9338015],[-86.2000004,12.9329168]],[[-86.1798262,13.3196722],[-86.2036299,13.2992214],[-86.1750004,13.2912502],[-86.1798262,13.3196722]],[[-86.5632735,13.4974635],[-86.5920414,13.4945298],[-86.6037846,13.4746974],[-86.5750004,13.4662502],[-86.5632735,13.4974635]],[[-86.5250004,12.8745835],[-86.5250004,12.8912502],[-86.5500004,12.8912502],[-86.5500004,12.8745835],[-86.5250004,12.8745835]],[[-85.8621742,11.4722681],[-85.8626349,11.4673536]],[[-85.8609009,11.4672546],[-85.8621742,11.4722681]],[[-83.0407497,12.1589813],[-83.0372314,12.1720314],[-83.0485992,12.1772966],[-83.0626831,12.174099],[-83.0688256,12.1614706],[-83.0407497,12.1589813]],[[-85.8583337,11.2662502],[-85.8833337,11.2662502],[-85.8778381,11.2495835],[-85.8583337,11.2495835],[-85.8583337,11.2662502]],[[-85.5557051,13.2445339],[-85.5703698,13.2304063],[-85.5500004,13.2245835],[-85.5557051,13.2445339]],[[-86.1749683,11.8144809],[-86.1629154,11.7948472],[-86.1527022,11.7961167],[-86.1520836,11.8130931]],[[-86.1520836,11.8130931],[-86.1735916,11.8209496]],[[-86.1735916,11.8209496],[-86.1749683,11.8144809]],[[-86.2949304,11.8469956],[-86.3225427,11.8383978],[-86.3194991,11.8286362],[-86.291667,11.8245835],[-86.2949304,11.8469956]],[[-86.2249842,11.8874958],[-86.2402954,11.8867645],[-86.258604,11.8919579]],[[-86.258604,11.8919579],[-86.2534916,11.8786525],[-86.2656823,11.8579168],[-86.2520674,11.834752],[-86.2384738,11.8364438]],[[-86.2298813,11.8572893],[-86.2214863,11.8772944]],[[-86.2214863,11.8772944],[-86.2249842,11.8874958]],[[-84.7697188,13.7422511],[-84.7871911,13.7523057],[-84.7943933,13.7299546],[-84.7777266,13.7218613],[-84.766667,13.7079168],[-84.7697188,13.7422511]],[[-86.4047367,13.4691392],[-86.4202966,13.4569159],[-86.4000004,13.4412502],[-86.4047367,13.4691392]],[[-85.7422204,12.4254868],[-85.7611332,12.4114243],[-85.7333337,12.4079168],[-85.7422204,12.4254868]],[[-85.7854577,12.4204046],[-85.7923181,12.4344468],[-85.8111332,12.4177638],[-85.791667,12.4079168],[-85.7854577,12.4204046]],[[-86.0778885,11.8889198],[-86.0932846,11.9040728]],[[-86.0932846,11.9040728],[-86.1009394,11.8870087]],[[-86.1009394,11.8870087],[-86.0779308,11.8888576]],[[-86.0779308,11.8888576],[-86.0778885,11.8889198]],[[-86.1022953,13.2196722],[-86.1112064,13.2282131],[-86.1202966,13.1921494],[-86.1083337,13.1829168],[-86.1022953,13.2196722]],[[-86.2145325,11.9249016],[-86.2160892,11.9123683],[-86.2632898,11.904153],[-86.258604,11.8919579]],[[-86.2249842,11.8874958],[-86.2218184,11.8980698],[-86.2088596,11.8915156]],[[-86.2088596,11.8915156],[-86.190155,11.8997202]],[[-86.190155,11.8997202],[-86.1958389,11.9171104]],[[-86.116667,11.9412502],[-86.115173,11.9408306]],[[-86.115173,11.9408306],[-86.1118774,11.9428406]],[[-86.1118774,11.9428406],[-86.1137992,11.9490586]],[[-86.1137992,11.9490586],[-86.116667,11.9412502]],[[-86.116667,11.9412502],[-86.1425866,11.9486598],[-86.14719,11.954409]],[[-86.190155,11.8997202],[-86.174515,11.8909931]],[[-86.174515,11.8909931],[-86.1688399,11.8951076],[-86.1588444,11.8835095],[-86.156749,11.8810781],[-86.1377282,11.8874375],[-86.1259535,11.8864912]],[[-86.1259535,11.8864912],[-86.122818,11.9361677],[-86.1163477,11.9401141]],[[-86.1163477,11.9401141],[-86.116667,11.9412502]],[[-86.1858321,11.9196274],[-86.1711918,11.9268296],[-86.166667,11.9162502],[-86.1858321,11.9196274]],[[-86.0564833,11.8649782],[-86.0371911,11.8540594],[-86.0269047,11.8310166],[-85.996143,11.8720648],[-86.0211023,11.8700588],[-86.0267516,11.8766146]],[[-86.0505923,11.9022102],[-86.0545008,11.9084494]],[[-86.0545008,11.9084494],[-86.0654907,11.9033775],[-86.0778885,11.8889198]],[[-86.0779308,11.8888576],[-86.0665891,11.8811102]],[[-86.1364821,11.8164698],[-86.1203698,11.819957],[-86.1129642,11.8312852],[-86.1339082,11.8286793]],[[-86.1339082,11.8286793],[-86.1364821,11.8164698]],[[-86.0545008,11.9084494],[-86.0647654,11.9248349]],[[-86.0647654,11.9248349],[-86.0837631,11.9149504],[-86.0932846,11.9040728]],[[-86.1500004,11.8412502],[-86.1720694,11.8516727]],[[-86.1720694,11.8516727],[-86.1773682,11.8328218]],[[-86.1773682,11.8328218],[-86.1735916,11.8209496]],[[-86.1520836,11.8130931],[-86.1364821,11.8164698]],[[-86.1339082,11.8286793],[-86.1393884,11.8279974],[-86.1500004,11.8412502]],[[-86.1500004,11.8412502],[-86.1328656,11.8461508],[-86.1467483,11.8526211],[-86.1500004,11.8412502]],[[-85.8036297,11.4283215],[-85.8047286,11.4374619],[-85.7919546,11.4525701]],[[-85.9640385,12.7445339],[-85.9787032,12.7304063],[-85.9583337,12.7245835],[-85.9640385,12.7445339]],[[-84.7598962,11.1438299],[-84.7867354,11.1301092],[-84.766667,11.1162502],[-84.7598962,11.1438299]],[[-87.0109704,12.3654608],[-87.0321293,12.3951808],[-87.053931,12.3828802],[-87.0225753,12.3548627],[-87.0109704,12.3654608]],[[-86.8328617,12.4205511],[-86.8384362,12.4454168],[-86.834823,12.461526],[-86.8465987,12.4696519],[-86.85599,12.4832546],[-86.8997237,12.4668931],[-86.9334558,12.4158473],[-86.9125004,12.4111476],[-86.9037927,12.4131008],[-86.8882653,12.4029852],[-86.841667,12.3995835],[-86.8328617,12.4205511]],[[-85.34585,12.1069728],[-85.3758956,12.1282904],[-85.3953698,12.0896348],[-85.341667,12.0829168],[-85.34585,12.1069728]],[[-85.8541829,11.4711048],[-85.8621742,11.4722681]],[[-85.7184167,13.1388169],[-85.7253096,13.169542],[-85.7367354,13.1529852],[-85.7465987,13.1461818],[-85.7534021,13.1214015],[-85.7333337,13.1162502],[-85.7184167,13.1388169]],[[-86.4865726,13.4896551],[-86.5112878,13.5001857],[-86.5024255,13.4786891],[-86.4833337,13.4745835],[-86.4865726,13.4896551]],[[-85.2214929,12.9446722],[-85.2452966,12.9242214],[-85.216667,12.9162502],[-85.2214929,12.9446722]],[[-85.0875736,12.0828965],[-85.1119633,12.065888],[-85.0833337,12.0579168],[-85.0875736,12.0828965]],[[-86.4687911,13.378738],[-86.4756514,13.3927801],[-86.4944665,13.3760972],[-86.4750004,13.3662502],[-86.4687911,13.378738]],[[-86.1702752,11.9726093],[-86.1807654,11.9789811]],[[-86.111819,11.9798944],[-86.1025848,11.9836893],[-86.096405,12.0285931],[-86.1023332,12.0384605]],[[-86.1023332,12.0384605],[-86.1046146,12.0234889],[-86.1426924,12.0064968],[-86.111819,11.9798944]],[[-86.1725947,12.014012],[-86.1445316,12.0202337],[-86.1712162,12.0366969],[-86.1787846,12.0639064],[-86.135767,12.0825628],[-86.1370136,12.0947993]],[[-86.1370136,12.0947993],[-86.1674652,12.0845394],[-86.1840515,12.0589457],[-86.1991272,12.0409622]],[[-86.1259535,11.8864912],[-86.1009394,11.8870087]],[[-86.0932846,11.9040728],[-86.1012878,11.9153032],[-86.1086103,11.936296]],[[-86.1086103,11.936296],[-86.1163477,11.9401141]],[[-86.1099887,11.9393746],[-86.1118774,11.9428406]],[[-86.115173,11.9408306],[-86.1099887,11.9393746]],[[-86.1343607,12.1135183],[-86.1225264,12.1450181],[-86.1086511,12.1533636],[-86.0877852,12.1282456],[-86.0628829,12.1325995],[-86.0803389,12.1630723],[-86.0773848,12.1920925],[-86.0465824,12.2176784],[-86.0712162,12.2283636],[-86.0957605,12.242422],[-86.1178552,12.1671413],[-86.1534748,12.1707706]],[[-86.1534748,12.1707706],[-86.1568375,12.1626987],[-86.1558228,12.1304979],[-86.1451263,12.1175938],[-86.1343607,12.1135183]],[[-86.0384281,12.3052801],[-86.0593591,12.3281398],[-86.0702234,12.2834255],[-86.0583337,12.2745835],[-86.0384281,12.3052801]],[[-85.946143,12.3441432],[-85.9697676,12.328563],[-85.941667,12.3245835],[-85.946143,12.3441432]],[[-86.0373376,12.4515122],[-86.0529545,12.4436712],[-86.0333337,12.4329168],[-86.0373376,12.4515122]],[[-86.1720694,11.8516727],[-86.1884118,11.8632594],[-86.1869063,11.8820094],[-86.174515,11.8909931]],[[-86.2088596,11.8915156],[-86.2027999,11.8884507],[-86.2000004,11.8745835],[-86.2214863,11.8772944]],[[-86.2144099,11.8340397],[-86.1844881,11.818492]],[[-86.1844881,11.818492],[-86.1773682,11.8328218]],[[-86.3700036,12.8101873],[-86.3774987,12.7958848],[-86.366667,12.7912502],[-86.3700036,12.8101873]],[[-84.8109623,12.5092637],[-84.8268233,12.4939439],[-84.8083337,12.4912502],[-84.8109623,12.5092637]],[[-86.5535241,12.2759385],[-86.5707035,12.285639],[-86.5777266,12.2613063],[-86.5500004,12.2579168],[-86.5535241,12.2759385]],[[-86.4531498,13.6200384],[-86.4617924,13.6585801],[-86.4991784,13.6501979],[-86.5117354,13.6232244],[-86.466667,13.5995835],[-86.4531498,13.6200384]],[[-86.3300053,13.0725164],[-86.3256189,13.127033],[-86.3645267,13.1514023],[-86.3871911,13.0922674],[-86.367725,13.0573757],[-86.3250004,13.0495835],[-86.3300053,13.0725164]],[[-86.1844881,11.818492],[-86.1749683,11.8144809]],[[-86.1534748,12.1707706],[-86.1734053,12.1728013],[-86.2593998,12.1609238],[-86.3040206,12.1708563],[-86.3336093,12.1700821]],[[-86.3880447,12.1455918],[-86.378101,12.1100368],[-86.3790357,12.0816203],[-86.3703942,12.0732854],[-86.340837,12.0604681],[-86.3205652,12.0625352],[-86.3045495,12.0533636],[-86.2466312,12.0282456],[-86.229045,12.030036],[-86.226638,12.0218291]],[[-86.1370136,12.0947993],[-86.1343607,12.1135183]],[[-86.6116703,13.1851873],[-86.6191654,13.1708848],[-86.6083337,13.1662502],[-86.6116703,13.1851873]],[[-86.6590336,12.3399359],[-86.6779952,12.352383],[-86.6861332,12.3344305],[-86.666667,12.3245835],[-86.6590336,12.3399359]],[[-86.896265,13.0613307],[-86.9203698,13.0408148],[-86.891667,13.0245835],[-86.896265,13.0613307]],[[-85.4556482,12.8436387],[-85.4778731,12.8365383],[-85.4500004,12.8329168],[-85.4556482,12.8436387]],[[-86.4083337,13.3829168],[-86.4155277,13.3536159],[-86.3887862,13.3461818],[-86.379932,13.3756292],[-86.4083337,13.3829168]],[[-86.1210697,13.9039862],[-86.1057621,13.9176621],[-86.1140954,13.9535142],[-86.1455977,13.9179876],[-86.1250004,13.8995835],[-86.1210697,13.9039862]],[[-86.0963708,12.8376206],[-86.0771325,12.8524684],[-86.0798344,12.8707424],[-86.0701664,12.886758],[-86.0723392,12.9014146],[-86.1128666,12.8713649],[-86.1232751,12.8459458],[-86.1000004,12.8329168],[-86.0963708,12.8376206]],[[-86.111819,11.9798944],[-86.1047204,11.9737778],[-86.1137992,11.9490586]],[[-86.1099887,11.9393746],[-86.1086103,11.936296]],[[-86.0647654,11.9248349],[-86.0678145,11.9297023],[-86.0098962,11.9630967],[-85.9949629,11.9804307],[-85.9962732,11.9967596],[-86.0549808,12.0144354],[-86.0548702,12.0361176],[-86.0589747,12.0418425],[-86.0801436,12.0207261],[-86.0782312,12.044599],[-86.0959883,12.080097],[-86.1023332,12.0384605]],[[-86.0866703,12.1185207],[-86.0941654,12.1042181],[-86.0833337,12.0995835],[-86.0866703,12.1185207]],[[-85.8171228,13.6363674],[-85.828931,13.6142767],[-85.8083337,13.6079168],[-85.8171228,13.6363674]],[[-85.7154728,12.5354771],[-85.7196211,12.5288031],[-85.7000004,12.5245835],[-85.706788,12.5369638],[-85.7154728,12.5354771]],[[-85.7733646,12.6696356],[-85.7893477,12.677383],[-85.8027999,12.6535142],[-85.7833337,12.6495835],[-85.7733646,12.6696356]]],"bbox":[-87.2444665,11.1162502,-83.0372314,13.9535142]}