{"type":"Topology","objects":{"foo":{"type":"GeometryCollection","geometries":[{"type":"Polygon","arcs":[[0]],"properties":{"name":"Administrative unit not available","gaul_code":22349,"targetarea":8.7325718,"totpop":6970.2383499,"country_id":"NRU","targetpop":5270.8613357,"new_mean":0.0948002,"totalarea":18.2613306}}]}},"arcs":[[[166.919953,-0.53624],[166.9212877,-0.5197036],[166.9434756,-0.5098002],[166.9320374,-0.5042971],[166.9244995,-0.50497],[166.9135622,-0.5153059],[166.9058974,-0.54698],[166.9129333,-0.551389],[166.9303284,-0.548439],[166.919953,-0.53624]]],"bbox":[166.9058974,-0.551389,166.9434756,-0.5042971]}