{"type":"Topology","objects":{"foo":{"type":"GeometryCollection","geometries":[{"type":"MultiPolygon","arcs":[[[0,1]],[[2,3]]],"properties":{"name":"Saham","gaul_code":23588,"targetarea":90.5956967,"totpop":128930.906909,"country_id":"OMN","targetpop":44741.7556152,"new_mean":0,"totalarea":1469.9764527}},{"type":"Polygon","arcs":[[4,5,6]],"properties":{"name":"Nakhal","gaul_code":23587,"targetarea":1.5823958,"totpop":23920.8072791,"country_id":"OMN","targetpop":654.0229797,"new_mean":7.8074262e-7,"totalarea":679.085068}},{"type":"Polygon","arcs":[[7,8,9,-4]],"properties":{"name":"Sohar","gaul_code":23590,"targetarea":155.1093689,"totpop":154123.162825,"country_id":"OMN","targetpop":91703.3689575,"new_mean":0,"totalarea":1048.6385034}},{"type":"Polygon","arcs":[[10,11,12,13]],"properties":{"name":"As Suwaiq","gaul_code":23584,"targetarea":103.3322227,"totpop":107296.09555,"country_id":"OMN","targetpop":51485.2939148,"new_mean":0,"totalarea":664.7797018}},{"type":"Polygon","arcs":[[14]],"properties":{"name":"Al Buraimi","gaul_code":23591,"targetarea":49.5486394,"totpop":110728.04414,"country_id":"OMN","targetpop":47717.2192001,"new_mean":0,"totalarea":1907.8247809}},{"type":"Polygon","arcs":[[15]],"properties":{"name":"Al Hamra","gaul_code":23565,"targetarea":8.9484379,"totpop":73939.0989947,"country_id":"OMN","targetpop":3536.0122986,"new_mean":0.0000149,"totalarea":3710.2269578}},{"type":"MultiPolygon","arcs":[[[16]],[[17,-9]]],"properties":{"name":"Liwa","gaul_code":23586,"targetarea":36.7912012,"totpop":55363.2383835,"country_id":"OMN","targetpop":16134.2563629,"new_mean":0,"totalarea":1051.7760093}},{"type":"MultiPolygon","arcs":[[[18,19]],[[20]]],"properties":{"name":"Manah","gaul_code":23569,"targetarea":4.8594939,"totpop":62098.3852571,"country_id":"OMN","targetpop":2474.3701477,"new_mean":0,"totalarea":1774.4111711}},{"type":"MultiPolygon","arcs":[[[21,22,23]],[[24,25,26]]],"properties":{"name":"Bid Bid","gaul_code":23567,"targetarea":25.2576493,"totpop":62388.7934437,"country_id":"OMN","targetpop":19669.7183228,"new_mean":0.000084,"totalarea":1450.715136}},{"type":"MultiPolygon","arcs":[[[27,28]],[[29]]],"properties":{"name":"Barka","gaul_code":23585,"targetarea":153.4996697,"totpop":169916.846844,"country_id":"OMN","targetpop":106314.308533,"new_mean":0,"totalarea":445.688032}},{"type":"Polygon","arcs":[[30]],"properties":{"name":"Jalan Bani","gaul_code":23577,"targetarea":25.8071402,"totpop":84609.8920643,"country_id":"OMN","targetpop":13405.9811401,"new_mean":0.0030547,"totalarea":4481.9233836}},{"type":"MultiPolygon","arcs":[[[31]],[[32]],[[-23,33,-6,34]]],"properties":{"name":"Samail","gaul_code":23571,"targetarea":11.3419977,"totpop":79282.3963385,"country_id":"OMN","targetpop":5289.8835144,"new_mean":0.0000144,"totalarea":1726.8817526}},{"type":"Polygon","arcs":[[35]],"properties":{"name":"Sur","gaul_code":23579,"targetarea":13.4590809,"totpop":44426.1511457,"country_id":"OMN","targetpop":4261.2461548,"new_mean":0.0082747,"totalarea":1206.786433}},{"type":"MultiPolygon","arcs":[[[36]],[[37,38]]],"properties":{"name":"Muscat","gaul_code":23610,"targetarea":59.7788061,"totpop":96305.2891355,"country_id":"OMN","targetpop":68417.0522003,"new_mean":0.0047103,"totalarea":434.3174437}},{"type":"Polygon","arcs":[[39,40]],"properties":{"name":"Taqah","gaul_code":23602,"targetarea":15.6505733,"totpop":53410.5702506,"country_id":"OMN","targetpop":6921.1391907,"new_mean":0.0287865,"totalarea":2740.2432804}},{"type":"MultiPolygon","arcs":[[[41,-13]],[[42]],[[-1,43]]],"properties":{"name":"Al Khabourah","gaul_code":23582,"targetarea":67.8852558,"totpop":159078.664388,"country_id":"OMN","targetpop":32496.6077576,"new_mean":0,"totalarea":2653.7406039}},{"type":"MultiPolygon","arcs":[[[44]],[[45,-19]]],"properties":{"name":"Nizwa (Nazwa)","gaul_code":23570,"targetarea":47.1097751,"totpop":79271.3233576,"country_id":"OMN","targetpop":20984.2566986,"new_mean":0.0006996,"totalarea":1004.7196927}},{"type":"MultiPolygon","arcs":[[[46]],[[47,-11]]],"properties":{"name":"Al Masnaah","gaul_code":23583,"targetarea":28.621078,"totpop":48213.4626884,"country_id":"OMN","targetpop":13979.9786224,"new_mean":0,"totalarea":347.9583348}},{"type":"Polygon","arcs":[[-41,48]],"properties":{"name":"Salalah","gaul_code":23600,"targetarea":182.0733718,"totpop":180006.99814,"country_id":"OMN","targetpop":84100.3958511,"new_mean":0.0327004,"totalarea":7429.4434133}},{"type":"Polygon","arcs":[[49]],"properties":{"name":"Izki","gaul_code":23568,"targetarea":7.5084592,"totpop":78342.3582826,"country_id":"OMN","targetpop":3240.7072144,"new_mean":0.0001651,"totalarea":1804.1853958}},{"type":"MultiPolygon","arcs":[[[50]],[[51]],[[52]],[[53]],[[54]]],"properties":{"name":"A Rustaq","gaul_code":23580,"targetarea":19.8654664,"totpop":91015.8967981,"country_id":"OMN","targetpop":8518.5714111,"new_mean":0,"totalarea":1655.4390915}},{"type":"MultiPolygon","arcs":[[[55]],[[56]],[[57]],[[58,59]],[[60,61,62,-25,63]]],"properties":{"name":"Bausher","gaul_code":23609,"targetarea":147.5256377,"totpop":189124.92803,"country_id":"OMN","targetpop":141234.674271,"new_mean":0.0003502,"totalarea":536.5497835}},{"type":"MultiPolygon","arcs":[[[64,-7,-34,-22]],[[65,-29,66,-26,-63],[67],[68]]],"properties":{"name":"A Seeb","gaul_code":23608,"targetarea":393.7088496,"totpop":464673.662823,"country_id":"OMN","targetpop":446923.314056,"new_mean":0.0013488,"totalarea":494.3801612}},{"type":"MultiPolygon","arcs":[[[69]],[[70,-39,71,-61,72,-59,73]]],"properties":{"name":"Muttrah","gaul_code":23611,"targetarea":73.2196936,"totpop":116427.305328,"country_id":"OMN","targetpop":115021.424194,"new_mean":0.0008387,"totalarea":79.8161419}},{"type":"Polygon","arcs":[[74]],"properties":{"name":"Bahla","gaul_code":23566,"targetarea":2.4077178,"totpop":54140.0573651,"country_id":"OMN","targetpop":1194.0006714,"new_mean":0,"totalarea":3772.9809948}}]}},"arcs":[[[56.9633002,24.0534883],[56.9735193,24.0646538]],[[56.9735193,24.0646538],[56.963264,24.0795151],[56.9415843,24.0876206],[56.9255362,24.1108709],[56.9370859,24.1188438],[56.9291167,24.1296734],[56.9201488,24.1276637],[56.9149768,24.1478353],[56.8923904,24.1714439],[56.8847071,24.1857497],[56.8583324,24.1995835],[56.8629711,24.1524236],[56.8378083,24.1271022],[56.8893871,24.1312444],[56.9359528,24.0771998],[56.9633002,24.0534883]],[[56.7263102,24.3169291],[56.7506989,24.3111191],[56.8200349,24.23629],[56.829003,24.2452581],[56.8207092,24.2714634],[56.759901,24.3481202]],[[56.759901,24.3481202],[56.7263102,24.3169291]],[[58.1146647,23.4763792],[58.1076922,23.4541227]],[[58.1076922,23.4541227],[58.1183185,23.4622206]],[[58.1183185,23.4622206],[58.1146647,23.4763792]],[[56.759901,24.3481202],[56.7147267,24.4075942],[56.6731152,24.4364856],[56.6118974,24.4945089]],[[56.6118974,24.4945089],[56.5859292,24.4717865]],[[56.5859292,24.4717865],[56.5928701,24.464297],[56.5456534,24.4205633],[56.5460114,24.4115952],[56.5713532,24.4126002],[56.5705394,24.3921779],[56.6040355,24.403921],[56.6463207,24.403567],[56.6452953,24.3779038],[56.685904,24.379511],[56.6956696,24.3761541],[56.666975,24.3219142],[56.688557,24.3122421],[56.7041657,24.3290797],[56.7123363,24.3202581],[56.7263102,24.3169291]],[[57.6430983,23.732661],[57.6542941,23.775205]],[[57.6542941,23.775205],[57.6313665,23.7836696],[57.5879705,23.7938916],[57.5222053,23.8222787],[57.4952437,23.8303977],[57.497167,23.8115219],[57.4615388,23.8151556],[57.4605052,23.8416196],[57.420375,23.8552268],[57.3869514,23.8635152]],[[57.3869514,23.8635152],[57.3845391,23.8571717],[57.3825169,23.8518542],[57.3768029,23.8368284]],[[57.3768029,23.8368284],[57.4153148,23.8093979],[57.4460602,23.812531],[57.513557,23.7861354],[57.5583324,23.7579168],[57.554003,23.772667],[57.5312816,23.791539],[57.5791657,23.7866603],[57.5937165,23.7881414],[57.6121084,23.7728541],[57.5877432,23.7616318],[57.5583324,23.7579168],[57.5741527,23.7302028],[57.5927399,23.7525701],[57.6204418,23.7366969],[57.6430983,23.732661]],[[55.8875804,24.2371648],[55.854182,24.2533717],[55.8407543,24.2947535],[55.8130036,24.2953195],[55.79077,24.2719732],[55.7792471,24.2383082],[55.8411449,24.2284002],[55.8625642,24.2288356],[55.8916657,24.2245835],[55.8875804,24.2371648]],[[57.3043936,23.1039861],[57.2942862,23.1285141],[57.2631175,23.0972967],[57.3083324,23.0912501],[57.3043936,23.1039861]],[[56.5603994,24.4823593],[56.538264,24.4733546],[56.5666657,24.4579168],[56.5603994,24.4823593]],[[56.6118974,24.4945089],[56.5743953,24.5494809],[56.5543377,24.573903],[56.5549958,24.5371364],[56.5285961,24.5287827],[56.5629711,24.511587],[56.5623037,24.4946803],[56.5859292,24.4717865]],[[57.5431927,22.8512903],[57.5406605,22.849771]],[[57.5406605,22.849771],[57.5416657,22.8495835],[57.5431927,22.8512903]],[[57.669525,22.9270877],[57.6667827,22.9254424],[57.6546214,22.9137395],[57.674999,22.9079168],[57.669525,22.9270877]],[[58.1230718,23.4624785],[58.1188151,23.4619522]],[[58.1188151,23.4619522],[58.1209523,23.4582121]],[[58.1209523,23.4582121],[58.1230718,23.4624785]],[[58.3507346,23.4737996],[58.3350106,23.4886837]],[[58.3350106,23.4886837],[58.2117597,23.4734443]],[[58.2117597,23.4734443],[58.2606599,23.4597723],[58.287499,23.4625066],[58.3058747,23.4606349],[58.3507346,23.4737996]],[[58.1248053,23.7034467],[58.0692849,23.7110763],[58.0621735,23.7025091],[58.041975,23.704568],[57.9861156,23.6860337],[57.9883744,23.7081844],[57.9724847,23.7073944],[57.9697907,23.6643133],[57.9960602,23.6616359],[58.0287751,23.6739324],[58.021223,23.6366969],[57.996223,23.6258571],[58.0359365,23.6187526],[58.046516,23.6372218],[58.0295563,23.6513128],[58.043277,23.6866969],[58.0645987,23.6784775],[58.0608063,23.6412501],[58.0629222,23.6204168],[58.0595694,23.5874456],[58.0897451,23.5785874],[58.0953161,23.5718825]],[[58.0953161,23.5718825],[58.1248053,23.7034467]],[[57.8666657,23.6162501],[57.8970531,23.6285996],[57.8796214,23.6485703],[57.9572744,23.6620835],[57.9051423,23.6711574],[57.913736,23.6844956],[57.9396371,23.7045875],[57.8873288,23.7059045],[57.8523868,23.7183006],[57.8462881,23.7064113],[57.8712881,23.6958766],[57.87871,23.6842229],[57.8614574,23.6704168],[57.8723461,23.661701],[57.8666657,23.6162501]],[[59.3869619,22.0179835],[59.3498526,22.0331731],[59.3141592,22.059638],[59.2963695,22.0652492],[59.3151358,22.0341294],[59.3108063,22.0048243],[59.3416657,21.9995835],[59.3528799,22.014118],[59.3710928,22.0114284],[59.3869619,22.0179835]],[[57.9532543,23.287999],[57.9644684,23.2951767],[57.9516592,23.3195013],[57.9384105,23.2903346],[57.9532543,23.287999]],[[58.1161123,23.3421534],[58.0971996,23.3280909],[58.124999,23.3245835],[58.1161123,23.3421534]],[[58.1188151,23.4619522],[58.1183185,23.4622206]],[[58.1076922,23.4541227],[58.1166657,23.4495835],[58.1209523,23.4582121]],[[59.5249105,22.5727203],[59.4949893,22.5911842],[59.4951325,22.567719],[59.4724437,22.5488795],[59.4916657,22.5329168],[59.5087718,22.5628891],[59.5294565,22.5607796],[59.5249105,22.5727203]],[[58.6737295,23.5160426],[58.6311026,23.5279119],[58.6466787,23.504568],[58.6666657,23.4995835],[58.6737295,23.5160426]],[[58.5313968,23.5649025],[58.587027,23.5440008],[58.5954418,23.5541367],[58.6168393,23.5663098],[58.6064732,23.5805001],[58.6059657,23.6020704],[58.5889236,23.6182219],[58.5636338,23.6214535],[58.5485676,23.6278584]],[[58.5485676,23.6278584],[58.5313968,23.5649025]],[[54.1970868,17.0315305],[54.2297028,17.0448797],[54.236962,17.0570176],[54.2177888,17.0718125],[54.2037426,17.0697373],[54.1877149,17.0897716]],[[54.1877149,17.0897716],[54.1970868,17.0315305]],[[57.3869514,23.8635152],[57.2921449,23.8909547],[57.2786494,23.8966392],[57.2622224,23.8949651],[57.246223,23.9041367],[57.2103832,23.9120835],[57.1994753,23.9252125],[57.1891823,23.9300372],[57.1628897,23.9185939],[57.2269847,23.8907903],[57.2795563,23.8791367],[57.3204418,23.8533636],[57.3768029,23.8368284]],[[57.1128246,23.9846746],[57.0940095,23.9941269],[57.0804515,23.9696681],[57.1166657,23.9662501],[57.1128246,23.9846746]],[[56.9633002,24.0534883],[56.9783519,24.0360133],[57.0071931,24.0383326],[56.9999991,24.0579168],[56.9735193,24.0646538]],[[57.4874665,22.8595851],[57.463264,22.8525294],[57.4916657,22.8329168],[57.4874665,22.8595851]],[[57.5431927,22.8512903],[57.5545726,22.8620021],[57.545572,22.878563],[57.542447,22.9481715],[57.5619945,22.9841538],[57.5492015,23.0035141],[57.5377269,22.9785141],[57.5110342,22.9402898],[57.5223623,22.9086899],[57.5210928,22.8702052],[57.5055492,22.8563217],[57.5406605,22.849771]],[[57.7916657,23.7079168],[57.779182,23.7141261],[57.7651358,23.7072657],[57.7818187,23.6884506],[57.7916657,23.7079168]],[[57.6430983,23.732661],[57.6747386,23.7270249],[57.7044912,23.7282903],[57.7169424,23.7432765],[57.7100576,23.7616969],[57.6959626,23.7447332],[57.6621084,23.7616969],[57.6542941,23.775205]],[[54.1877149,17.0897716],[54.1655915,17.1068426],[54.1499991,17.1245835],[54.1463695,17.1115464],[54.1284984,17.0874416],[54.1345368,17.0465928],[54.1092276,17.0376206],[54.0927399,17.058991],[54.0773754,17.0708441],[54.0798493,17.0874904],[54.0717601,17.0948797],[54.0547028,17.053213],[54.0427888,17.0440211],[54.0149242,17.0439276],[53.9901195,17.0117905],[54.0071442,16.9835638],[53.9759268,16.988178],[53.9797842,16.9620835],[53.9768871,16.942536],[53.997233,16.9304384],[53.9999297,16.9496483],[53.9955783,16.9588062],[54.0123913,16.9745288],[54.0368625,16.9866204],[54.1637614,17.006775],[54.1840811,17.014765],[54.1970868,17.0315305]],[[57.774999,22.9412501],[57.7659984,22.9513291],[57.7460602,22.9209905],[57.7872712,22.9302923],[57.774999,22.9412501]],[[57.524999,23.3079168],[57.5332673,23.2967921],[57.5535472,23.3193955],[57.524999,23.3079168]],[[57.4263988,23.4101914],[57.4047028,23.3891953],[57.4416657,23.3829168],[57.4263988,23.4101914]],[[57.4333324,23.4495835],[57.4130524,23.4307928],[57.4411449,23.4122421],[57.4333324,23.4495835]],[[57.4669261,23.4941635],[57.4375804,23.4781805],[57.4499991,23.4662501],[57.4669261,23.4941635]],[[57.474999,23.5412501],[57.500585,23.5540797],[57.4789216,23.5607163],[57.474999,23.5412501]],[[58.6171079,23.3502102],[58.6162492,23.3518494],[58.5875804,23.3313177],[58.6083324,23.3245835],[58.6171079,23.3502102]],[[58.5083324,23.4329168],[58.496223,23.4254542],[58.4860993,23.3957464],[58.4941722,23.3698431],[58.499999,23.3662501],[58.499999,23.3579168],[58.5333324,23.3579168],[58.5215974,23.4045151],[58.5083324,23.4329168]],[[58.5083324,23.4329168],[58.5199535,23.4412501],[58.5083324,23.4495835],[58.5083324,23.4329168]],[[58.5207298,23.5324018],[58.4970938,23.549285]],[[58.4970938,23.549285],[58.4838858,23.5290024],[58.4666657,23.5245835],[58.4803213,23.4794378],[58.5230296,23.4884791],[58.5191885,23.5079168],[58.5207298,23.5324018]],[[58.4715763,23.5675122],[58.417474,23.6061576]],[[58.417474,23.6061576],[58.3841354,23.6033112]],[[58.3841354,23.6033112],[58.3350106,23.4886837]],[[58.3507346,23.4737996],[58.3598949,23.4764878],[58.3704418,23.51247],[58.4045563,23.5200302],[58.4204418,23.5291367],[58.4583324,23.5329168],[58.4548493,23.5465032],[58.4452139,23.5443466],[58.438264,23.5589625],[58.4715763,23.5675122]],[[58.1230718,23.4624785],[58.1146647,23.4763792]],[[58.3841354,23.6033112],[58.3439363,23.6032262],[58.2967914,23.6077249],[58.2953769,23.6114182],[58.2611126,23.6260047],[58.2436743,23.6366228],[58.2077205,23.6668206],[58.1838812,23.6809814],[58.1248053,23.7034467]],[[58.0953161,23.5718825],[58.1134756,23.550027],[58.1612132,23.5548935],[58.1788076,23.494957],[58.1878571,23.4958766],[58.1956208,23.4779567],[58.2117597,23.4734443]],[[58.237613,23.5146591],[58.2212881,23.5396266],[58.3147777,23.5279485],[58.3083324,23.4995835],[58.2794587,23.5126409],[58.2666657,23.5110459],[58.237613,23.5146591]],[[58.2333324,23.4829168],[58.2083324,23.4829168],[58.2083324,23.5079168],[58.2333324,23.5079168],[58.2333324,23.4829168]],[[58.524999,23.5579168],[58.5272761,23.5497941],[58.5291719,23.5567448],[58.524999,23.5579168]],[[58.524999,23.5579168],[58.5313968,23.5649025]],[[58.5485676,23.6278584],[58.5269696,23.6276483],[58.5027079,23.6439242],[58.4887501,23.6425786],[58.4759153,23.6240074],[58.4479079,23.6112185],[58.417474,23.6061576]],[[58.4715763,23.5675122],[58.4908682,23.5724635],[58.5094717,23.5682928],[58.4970938,23.549285]],[[58.5207298,23.5324018],[58.5184724,23.5532334],[58.524999,23.5579168]],[[57.2979157,22.9769313],[57.2887198,22.9621364],[57.3083324,22.9579168],[57.2979157,22.9769313]]],"bbox":[53.9759268,16.9304384,59.5294565,24.573903]}