{"type":"Topology","objects":{"foo":{"type":"GeometryCollection","geometries":[{"type":"Polygon","arcs":[[0]],"properties":{"name":"Nieuw Nickerie","gaul_code":25902,"targetarea":9.223444,"totpop":11087.9281578,"country_id":"SUR","targetpop":5441.4124451,"totalarea":28.9429259,"new_mean":0.0178462}},{"type":"Polygon","arcs":[[1,2,3,4]],"properties":{"name":"Meerzorg","gaul_code":25889,"targetarea":0.9109219,"totpop":19577.117022,"country_id":"SUR","targetpop":358.5877686,"totalarea":1159.0433422,"new_mean":0.0173802}},{"type":"Polygon","arcs":[[5,6,7,8,9,10,11,12,13]],"properties":{"name":"De Nieuwe Grond","gaul_code":25935,"targetarea":33.6229483,"totpop":37299.423645,"country_id":"SUR","targetpop":36575.5193481,"totalarea":36.5439259,"new_mean":0.0177447}},{"type":"Polygon","arcs":[[14,15,16,-13,17,18]],"properties":{"name":"Livorno","gaul_code":25916,"targetarea":8.6252255,"totpop":9922.5359192,"country_id":"SUR","targetpop":0,"totalarea":9.0023143,"new_mean":0.0176815}},{"type":"MultiPolygon","arcs":[[[-10,19]],[[-8,20]]],"properties":{"name":"Lelydorp","gaul_code":25940,"targetarea":0.4019108,"totpop":22754.8565931,"country_id":"SUR","targetpop":0,"totalarea":151.2948065,"new_mean":0.0176125}},{"type":"Polygon","arcs":[[21,22,23]],"properties":{"name":"Margaretha","gaul_code":25888,"targetarea":0.1754688,"totpop":1267.5975961,"country_id":"SUR","targetpop":129.0686493,"totalarea":193.1430682,"new_mean":0.0174464}},{"type":"Polygon","arcs":[[24,25,26,27,-23]],"properties":{"name":"Blauwgrond","gaul_code":25912,"targetarea":24.0559883,"totpop":33972.7939148,"country_id":"SUR","targetpop":27561.3117676,"totalarea":46.8792296,"new_mean":0.0175373}},{"type":"Polygon","arcs":[[28]],"properties":{"name":"Westelijke Polders","gaul_code":25905,"targetarea":0.5819852,"totpop":11476.263057,"country_id":"SUR","targetpop":564.1599121,"totalarea":1209.7307052,"new_mean":0.0173095}},{"type":"Polygon","arcs":[[29,-18,-12,30,31]],"properties":{"name":"Houttuin","gaul_code":25937,"targetarea":15.7422725,"totpop":24092.2745147,"country_id":"SUR","targetpop":11166.7134094,"totalarea":56.7446882,"new_mean":0.0175773}},{"type":"MultiPolygon","arcs":[[[32,33,34,35,36,37,38,39]],[[40,41,42]]],"properties":{"name":"Kwatta","gaul_code":25939,"targetarea":13.3912703,"totpop":18113.8008385,"country_id":"SUR","targetpop":11500.9621887,"totalarea":54.5845442,"new_mean":0.0176287}},{"type":"Polygon","arcs":[[43,44,-14,-17]],"properties":{"name":"Pontbuiten","gaul_code":25918,"targetarea":6.6261661,"totpop":27548.6014404,"country_id":"SUR","targetpop":0,"totalarea":6.6261662,"new_mean":0}},{"type":"Polygon","arcs":[[-35,45,46,47,48,49]],"properties":{"name":"Tammenga","gaul_code":25920,"targetarea":5.406179,"totpop":14703.8116455,"country_id":"SUR","targetpop":0,"totalarea":5.4061789,"new_mean":0}},{"type":"MultiPolygon","arcs":[[[-46,-34,50,51]],[[-42,52]]],"properties":{"name":"Saramacca Polder","gaul_code":25941,"targetarea":14.5612433,"totpop":16817.4385986,"country_id":"SUR","targetpop":0,"totalarea":23.1155549,"new_mean":0}},{"type":"Polygon","arcs":[[-48,53,-44,-16,54,55]],"properties":{"name":"Latour","gaul_code":25915,"targetarea":6.360474,"totpop":28079.5239258,"country_id":"SUR","targetpop":28079.5239258,"totalarea":6.3604739,"new_mean":0}},{"type":"MultiPolygon","arcs":[[[56,57]],[[58,-36,-50,59]],[[60,61,62,63]],[[64,-38,65]]],"properties":{"name":"Welgelegen","gaul_code":25922,"targetarea":2.2212526,"totpop":4682.3657379,"country_id":"SUR","targetpop":0,"totalarea":5.7285421,"new_mean":0}},{"type":"Polygon","arcs":[[66,-60,-49,-56,67,68,-64,69,-58]],"properties":{"name":"Flora","gaul_code":25914,"targetarea":3.8609842,"totpop":21071.4797363,"country_id":"SUR","targetpop":0,"totalarea":3.9260954,"new_mean":0}},{"type":"Polygon","arcs":[[70,71,72,73]],"properties":{"name":"Munder","gaul_code":25917,"targetarea":9.5448959,"totpop":17729.5712891,"country_id":"SUR","targetpop":17729.5712891,"totalarea":9.7115368,"new_mean":0}},{"type":"Polygon","arcs":[[-73,74,-39,-65,75,-62],[76]],"properties":{"name":"Weg Naar Zee","gaul_code":25921,"targetarea":19.8440992,"totpop":17688.3657303,"country_id":"SUR","targetpop":14370.289032,"totalarea":30.1140032,"new_mean":0.0176621}},{"type":"Polygon","arcs":[[77,-71,78,-5,79,-26]],"properties":{"name":"Rainville","gaul_code":25919,"targetarea":15.8072678,"totpop":17913.5377407,"country_id":"SUR","targetpop":0,"totalarea":21.996293,"new_mean":0.0176446}},{"type":"Polygon","arcs":[[80,-24,-28]],"properties":{"name":"Nieuw Amsterdam","gaul_code":25890,"targetarea":0.0001363,"totpop":5479.4507179,"country_id":"SUR","targetpop":0,"totalarea":39.0026733,"new_mean":0.0173364}},{"type":"Polygon","arcs":[[-52,81,-6,-45,-54,-47]],"properties":{"name":"Koewarasan","gaul_code":25938,"targetarea":49.5242718,"totpop":47456.4053421,"country_id":"SUR","targetpop":42921.46698,"totalarea":64.8191464,"new_mean":0.0176969}},{"type":"Polygon","arcs":[[-52,81,-6,-45,-54,-47]],"properties":{"name":"Koewarasan","gaul_code":25938,"targetarea":49.5242718,"totpop":47456.4053421,"country_id":"SUR","targetpop":42921.46698,"totalarea":64.8191464,"new_mean":0.0176553}},{"type":"Polygon","arcs":[[82,-32]],"properties":{"name":"Domburg","gaul_code":25936,"targetarea":0.0106337,"totpop":5683.9740562,"country_id":"SUR","targetpop":0,"totalarea":36.4938582,"new_mean":0.0174793}},{"type":"Polygon","arcs":[[-68,-55,-15,83,-3,84]],"properties":{"name":"Beekhuizen","gaul_code":25911,"targetarea":6.1519823,"totpop":17279.4337158,"country_id":"SUR","targetpop":0,"totalarea":6.2269008,"new_mean":0}},{"type":"Polygon","arcs":[[-74,-61,-69,-85,-2,-79]],"properties":{"name":"Centrum","gaul_code":25913,"targetarea":9.2764297,"totpop":13024.6199646,"country_id":"SUR","targetpop":0,"totalarea":9.2764297,"new_mean":0}}]}},"arcs":[[[-56.9716639,5.9389675],[-56.9866541,5.9533636],[-57.0037847,5.9249009],[-56.9833338,5.9079169],[-56.9716639,5.9389675]],[[-55.1585884,5.8250518],[-55.1593323,5.8251686],[-55.1604156,5.8252249],[-55.1626091,5.8251686],[-55.1632004,5.8249617],[-55.1646194,5.8248839],[-55.1662521,5.8250065],[-55.167408,5.8247905],[-55.1686134,5.8244824],[-55.169838,5.8239303],[-55.1705246,5.8232765],[-55.1709404,5.822432],[-55.1714401,5.8203688],[-55.1713676,5.8190918],[-55.1713753,5.8176079],[-55.1706696,5.8158698],[-55.1699219,5.8144927],[-55.1696281,5.8138394]],[[-55.1696281,5.8138394],[-55.1687965,5.8121319],[-55.167923,5.8097925],[-55.1674974,5.8090604]],[[-55.1674974,5.8090604],[-55.1704676,5.817536],[-55.1539052,5.8239858]],[[-55.1539052,5.8239858],[-55.1556587,5.8243418],[-55.1570358,5.8247299],[-55.1585884,5.8250518]],[[-55.2384987,5.7890034],[-55.2424278,5.7895131],[-55.2449875,5.7839923],[-55.2511597,5.7704639],[-55.2520943,5.7603478],[-55.253281,5.7449569]],[[-55.253281,5.7449569],[-55.237354,5.7455878],[-55.2293169,5.7369128]],[[-55.2293169,5.7369128],[-55.2201157,5.7353983],[-55.2205001,5.7287438]],[[-55.2205001,5.7287438],[-55.2174011,5.7258725]],[[-55.2174011,5.7258725],[-55.2145853,5.7255133]],[[-55.2145853,5.7255133],[-55.1959966,5.7455756],[-55.1862351,5.7501816]],[[-55.1862351,5.7501816],[-55.182518,5.7536178],[-55.1864967,5.7559905],[-55.1868973,5.7539802],[-55.1934166,5.755208],[-55.1923676,5.7574835],[-55.1998863,5.762063],[-55.1931419,5.7790437]],[[-55.1931419,5.7790437],[-55.1927681,5.7802444]],[[-55.1927681,5.7802444],[-55.1989479,5.7826781],[-55.2053871,5.7853417],[-55.2048912,5.7860422],[-55.2069283,5.7862992],[-55.2327347,5.7883592],[-55.2384987,5.7890034]],[[-55.1651955,5.8024921],[-55.1677246,5.8029594],[-55.170311,5.8033428],[-55.1729317,5.8038282],[-55.1754532,5.8043351],[-55.1768799,5.8046889],[-55.1778946,5.8048697],[-55.1800385,5.8050284],[-55.1812973,5.8053241],[-55.1833458,5.8058596],[-55.1841927,5.806128],[-55.1853371,5.8063774],[-55.1885567,5.8068924],[-55.1897621,5.807189]],[[-55.1897621,5.807189],[-55.1898003,5.8063035],[-55.1897736,5.8040786],[-55.1899185,5.8023858],[-55.1899223,5.7985168],[-55.1899681,5.7955551],[-55.1898689,5.7919097]],[[-55.1898689,5.7919097],[-55.1898384,5.7914205],[-55.1894531,5.7892141],[-55.1893082,5.7886777],[-55.1887474,5.7870831],[-55.1881218,5.7859392],[-55.1880341,5.7855721],[-55.1882362,5.784493],[-55.1911583,5.7854829],[-55.1912994,5.7847357],[-55.191906,5.7829347],[-55.1927681,5.7802444]],[[-55.1931419,5.7790437],[-55.1922455,5.7786603],[-55.1880608,5.7770348],[-55.1845932,5.7756667],[-55.1793175,5.7738056],[-55.1739349,5.7785416],[-55.1728668,5.7782521],[-55.169323,5.7820067],[-55.1611104,5.7908351]],[[-55.1611104,5.7908351],[-55.1651955,5.8024921]],[[-55.2174011,5.7258725],[-55.2157069,5.7243028],[-55.2145853,5.7255133]],[[-55.2293169,5.7369128],[-55.2205001,5.7287438]],[[-55.1074951,5.865067],[-55.1043299,5.8725572],[-55.108112,5.8724072]],[[-55.108112,5.8724072],[-55.107872,5.870707],[-55.107811,5.8693023],[-55.1079407,5.867559],[-55.1077423,5.8663068],[-55.107605,5.8650355]],[[-55.107605,5.8650355],[-55.1074951,5.865067]],[[-55.108112,5.8724072],[-55.1718674,5.8698798],[-55.1752218,5.8735001]],[[-55.1752218,5.8735001],[-55.1767197,5.8551555],[-55.1702271,5.8514967],[-55.155262,5.842999],[-55.1349606,5.8313634]],[[-55.1349606,5.8313634],[-55.119133,5.837527],[-55.1075925,5.8648365]],[[-55.1075925,5.8648365],[-55.107605,5.8650355]],[[-57.1528569,5.8514105],[-57.1601567,5.8441026],[-57.1500005,5.8412502],[-57.1528569,5.8514105]],[[-55.1464022,5.7488651],[-55.1611104,5.7908351]],[[-55.1862351,5.7501816],[-55.1730067,5.7564235],[-55.1607508,5.7431993],[-55.1472524,5.747324]],[[-55.1472524,5.747324],[-55.1468353,5.7482123],[-55.1464022,5.7488651]],[[-55.2666672,5.8495835],[-55.2689034,5.8425135]],[[-55.2689034,5.8425135],[-55.2669334,5.8422832],[-55.2614021,5.8419499],[-55.2585831,5.8417363],[-55.2576141,5.8417311],[-55.2575226,5.8378458],[-55.2573929,5.8367567],[-55.256321,5.8366342],[-55.2484665,5.8364291],[-55.2481346,5.8363457],[-55.2478447,5.831079],[-55.246563,5.8310723],[-55.2418251,5.8309774],[-55.2383766,5.8309507]],[[-55.2383766,5.8309507],[-55.2390442,5.8324823],[-55.2401733,5.8327169],[-55.2423286,5.8327737],[-55.2430344,5.8375745],[-55.2398987,5.8373556]],[[-55.2398987,5.8373556],[-55.239853,5.8421667]],[[-55.239853,5.8421667],[-55.2454513,5.8438096],[-55.2398233,5.8452934]],[[-55.2398233,5.8452934],[-55.239769,5.8510089]],[[-55.239769,5.8510089],[-55.2396584,5.8628683],[-55.2432671,5.8632731],[-55.2506895,5.8640657]],[[-55.2506895,5.8640657],[-55.2540044,5.8535915],[-55.2666672,5.8495835]],[[-55.2666672,5.8495835],[-55.2718185,5.8696519],[-55.3034022,5.8609768],[-55.2982971,5.8487358]],[[-55.2982971,5.8487358],[-55.2938538,5.8482919],[-55.2904282,5.8478703],[-55.2841377,5.8456492],[-55.2807045,5.8486619],[-55.2783775,5.8507442],[-55.270916,5.8502021],[-55.2703514,5.8495321],[-55.2701927,5.8487177]],[[-55.2701927,5.8487177],[-55.2666672,5.8495835]],[[-55.1898689,5.7919097],[-55.194458,5.7941079],[-55.2006035,5.7969861],[-55.200737,5.7973986],[-55.2011108,5.7975774],[-55.2035332,5.7977228],[-55.2126923,5.7981629],[-55.2222862,5.7985802],[-55.2298927,5.7995167]],[[-55.2298927,5.7995167],[-55.2313271,5.7983594],[-55.2332687,5.7981844],[-55.2346802,5.7962604],[-55.2353592,5.79633],[-55.2366982,5.7932587],[-55.2384987,5.7890034]],[[-55.2383766,5.8309507],[-55.237587,5.8291678],[-55.2368698,5.8269196],[-55.2366142,5.8258014],[-55.2361679,5.8246255],[-55.2358589,5.8242507],[-55.2350731,5.8238163],[-55.2339058,5.8233447],[-55.2325974,5.815793],[-55.2326431,5.8154664],[-55.2324257,5.813971],[-55.2349663,5.8079104]],[[-55.2349663,5.8079104],[-55.2317085,5.8107705],[-55.2308617,5.811563]],[[-55.2308617,5.811563],[-55.230381,5.8119774],[-55.2295456,5.81212],[-55.2282906,5.8116498],[-55.2273865,5.811409],[-55.2270393,5.8114276],[-55.2257576,5.8117962],[-55.2242928,5.8121119],[-55.2237167,5.8123198],[-55.2231255,5.8124032],[-55.2223358,5.8126812],[-55.2215347,5.8128076],[-55.2208824,5.812789],[-55.2199478,5.8124914],[-55.2184677,5.8121653],[-55.2171249,5.8116632]],[[-55.2171249,5.8116632],[-55.2169991,5.8130326],[-55.2167511,5.8145733],[-55.2173615,5.816793],[-55.2176056,5.8180685],[-55.2179565,5.8189902],[-55.219223,5.821178],[-55.2203064,5.8231502],[-55.218277,5.8304815],[-55.2188568,5.8336082],[-55.218895,5.8349743]],[[-55.218895,5.8349743],[-55.219326,5.8350825],[-55.2220917,5.8359413],[-55.2231598,5.836235],[-55.2237663,5.8365064],[-55.2242088,5.8365116],[-55.2299995,5.836813],[-55.2333221,5.8369679],[-55.2384834,5.8372569],[-55.2398987,5.8373556]],[[-55.2689034,5.8425135],[-55.2706711,5.8369248],[-55.2876633,5.8289089],[-55.2956711,5.8202582],[-55.3004839,5.8158023]],[[-55.3004839,5.8158023],[-55.2867813,5.8091106],[-55.2863121,5.8088503],[-55.2877655,5.8222437],[-55.2871971,5.8224044],[-55.2868919,5.8223677],[-55.2859497,5.8219767],[-55.2848015,5.8213739],[-55.2841644,5.8208323],[-55.2836037,5.8205018],[-55.2830429,5.8205457],[-55.282547,5.820859],[-55.2815704,5.82131],[-55.281044,5.8214126],[-55.280098,5.8213959],[-55.2776527,5.820611],[-55.2746773,5.8194723],[-55.2738838,5.819047],[-55.271862,5.8185682],[-55.2710724,5.8183417],[-55.2702179,5.8182321],[-55.2689781,5.8181787],[-55.2662201,5.8183751],[-55.2650871,5.8182635],[-55.2644157,5.8180728],[-55.2619629,5.8178496],[-55.2609978,5.8176336],[-55.2599297,5.8173242],[-55.2586555,5.8168378],[-55.2572174,5.8165026],[-55.255619,5.8159676],[-55.2528381,5.8152623],[-55.2517738,5.8150463],[-55.2506294,5.8147359],[-55.2478065,5.81423],[-55.2448196,5.8135238],[-55.2435455,5.8130255],[-55.2415543,5.8124652],[-55.2404556,5.8122253],[-55.239357,5.8121495],[-55.2382202,5.8119798],[-55.2356911,5.8113465],[-55.2345352,5.8109779],[-55.2349663,5.8079104]],[[-55.2982971,5.8487358],[-55.2956792,5.8424587],[-55.2701927,5.8487177]],[[-55.2308617,5.811563],[-55.230835,5.8108873],[-55.2302818,5.8109207],[-55.2296944,5.7996783],[-55.2298927,5.7995167]],[[-55.1897621,5.807189],[-55.1919975,5.8078036],[-55.1926575,5.8079462],[-55.1946945,5.8082109],[-55.1965599,5.8087611],[-55.1974716,5.808918],[-55.1982498,5.8089714],[-55.1991005,5.8091273],[-55.2002907,5.809186],[-55.2015877,5.8094258],[-55.2031784,5.8095899],[-55.2037506,5.809557],[-55.2060661,5.8096447],[-55.2073746,5.8095918]],[[-55.2073746,5.8095918],[-55.2089233,5.809598],[-55.2102203,5.8097529],[-55.2117805,5.8097367],[-55.2133522,5.8103909],[-55.2153168,5.8111048],[-55.2171249,5.8116632]],[[-55.2149069,5.8348458],[-55.2185371,5.8359112]],[[-55.2185371,5.8359112],[-55.2159157,5.8334455],[-55.2149069,5.8348458]],[[-55.2189256,5.8360252],[-55.239853,5.8421667]],[[-55.218895,5.8349743],[-55.2189256,5.8360252]],[[-55.2025986,5.8342767],[-55.2025414,5.8345442],[-55.2026443,5.8354425],[-55.2032318,5.8355279],[-55.2034302,5.836803],[-55.2038345,5.8402653],[-55.2042618,5.8433051],[-55.2046242,5.8461137],[-55.2046852,5.8468843]],[[-55.2046852,5.8468843],[-55.2061234,5.8472567],[-55.2107239,5.8480797],[-55.2121353,5.8482585],[-55.2128458,5.8482947]],[[-55.2128458,5.8482947],[-55.2087776,5.8344293]],[[-55.2087776,5.8344293],[-55.2074394,5.8348765],[-55.2027588,5.8342614],[-55.2025986,5.8342767]],[[-55.2259843,5.8489418],[-55.2277298,5.8490696],[-55.2290993,5.8492479],[-55.231926,5.849443],[-55.2328949,5.849606],[-55.233551,5.8497992],[-55.234642,5.8499861],[-55.2365646,5.8504634],[-55.239769,5.8510089]],[[-55.2398233,5.8452934],[-55.2259843,5.8489418]],[[-55.2185371,5.8359112],[-55.2189256,5.8360252]],[[-55.2073746,5.8095918],[-55.2074814,5.8112259],[-55.208065,5.8179169],[-55.2087898,5.8179531],[-55.2090874,5.8224106],[-55.2035294,5.8220863]],[[-55.2035294,5.8220863],[-55.2026596,5.8261228],[-55.2017364,5.829999],[-55.2019882,5.8315458],[-55.2025986,5.8342767]],[[-55.2087776,5.8344293],[-55.2083338,5.8329169],[-55.2149069,5.8348458]],[[-55.1876755,5.8418045],[-55.1932907,5.8749709],[-55.1971652,5.8968496]],[[-55.1971652,5.8968496],[-55.2110841,5.8962986]],[[-55.2110841,5.8962986],[-55.2100105,5.8889833],[-55.207756,5.8728862],[-55.2051888,5.8544769],[-55.2055626,5.8544698],[-55.2056999,5.8541222],[-55.2046852,5.8468843]],[[-55.2046852,5.8468843],[-55.2027512,5.846487],[-55.1997795,5.8455806],[-55.1989212,5.8453798],[-55.1970139,5.8447671],[-55.1925125,5.8434119],[-55.1876755,5.8418045]],[[-55.2110841,5.8962986],[-55.2408615,5.8951198],[-55.2506895,5.8640657]],[[-55.2259843,5.8489418],[-55.2139653,5.8521104],[-55.2128458,5.8482947]],[[-55.2083338,5.8579169],[-55.2184901,5.8607692],[-55.2111903,5.8680772],[-55.2083338,5.8579169]],[[-55.1752218,5.8735001],[-55.1968674,5.8968614],[-55.1971652,5.8968496]],[[-55.1876755,5.8418045],[-55.1864738,5.8413835],[-55.1855812,5.841013],[-55.1843681,5.8403797],[-55.1831894,5.8399668],[-55.1817322,5.8392801],[-55.1792297,5.837985],[-55.1760635,5.8362827],[-55.1732597,5.8348436],[-55.1724091,5.8343611],[-55.1667595,5.8304687],[-55.1616287,5.8268876],[-55.1585884,5.8250518]],[[-55.1539052,5.8239858],[-55.1349606,5.8313634]],[[-55.1075925,5.8648365],[-55.1074951,5.865067]],[[-55.3004839,5.8158023],[-55.304395,5.8121812],[-55.295606,5.7786525],[-55.3044113,5.7704982],[-55.2948817,5.7433091],[-55.253281,5.7449569]],[[-55.1472524,5.747324],[-55.1459966,5.7477077],[-55.1464022,5.7488651]],[[-55.1651955,5.8024921],[-55.1674974,5.8090604]],[[-55.1696281,5.8138394],[-55.1752129,5.8153758],[-55.1759262,5.8155413],[-55.1779861,5.816381],[-55.1793976,5.8167744],[-55.1800957,5.8170242],[-55.1813011,5.817595],[-55.1830063,5.8181491],[-55.1839905,5.8185706],[-55.1852112,5.8189616],[-55.1864929,5.8194604],[-55.1875839,5.8199625],[-55.1891441,5.8203688],[-55.1910324,5.8211613],[-55.1919785,5.8216677],[-55.1927452,5.8219352],[-55.1934471,5.8219204],[-55.1941681,5.8215513],[-55.1977081,5.8216357],[-55.2012978,5.8219519],[-55.2035294,5.8220863]]],"bbox":[-57.1601567,5.7243028,-55.1043299,5.9533636]}