{"type":"Topology","objects":{"foo":{"type":"GeometryCollection","geometries":[{"type":"Polygon","arcs":[[0,1,2,3]],"properties":{"name":"Ludzeludze","gaul_code":25970,"targetarea":22.2464883,"totpop":34049.0777092,"country_id":"SWZ","targetpop":16475.997406,"new_mean":0.030577,"totalarea":174.6221554}},{"type":"MultiPolygon","arcs":[[[4,5,6]],[[7]],[[8]]],"properties":{"name":"Motjane","gaul_code":25950,"targetarea":7.6566262,"totpop":32966.0040216,"country_id":"SWZ","targetpop":4696.1029358,"new_mean":0.022727,"totalarea":321.6414337}},{"type":"MultiPolygon","arcs":[[[9,10]],[[11,12]]],"properties":{"name":"Mthongwaneni","gaul_code":25978,"targetarea":2.9943171,"totpop":17767.1735353,"country_id":"SWZ","targetpop":1652.2927551,"new_mean":0.0356405,"totalarea":272.1368709}},{"type":"MultiPolygon","arcs":[[[13,14]],[[15,16]]],"properties":{"name":"Maseyisini","gaul_code":25986,"targetarea":1.7333385,"totpop":21448.695591,"country_id":"SWZ","targetpop":794.0061951,"new_mean":0.0233547,"totalarea":201.0271604}},{"type":"Polygon","arcs":[[17,-7,18]],"properties":{"name":"Nkaba","gaul_code":25952,"targetarea":0.4592557,"totpop":16248.8679299,"country_id":"SWZ","targetpop":850.7567444,"new_mean":0.0287385,"totalarea":409.7880411}},{"type":"Polygon","arcs":[[19,20]],"properties":{"name":"Hhukwini","gaul_code":25943,"targetarea":0.3438926,"totpop":10450.9883862,"country_id":"SWZ","targetpop":488.3603821,"new_mean":0.0301376,"totalarea":161.6578975}},{"type":"Polygon","arcs":[[21,-3,22,23]],"properties":{"name":"Kwaluseni","gaul_code":25968,"targetarea":20.66999,"totpop":38147.4804764,"country_id":"SWZ","targetpop":36463.3141022,"new_mean":0.0268573,"totalarea":27.2676606}},{"type":"Polygon","arcs":[[24,-4,25]],"properties":{"name":"Kukhanyeni","gaul_code":25967,"targetarea":9.9634426,"totpop":37387.4625416,"country_id":"SWZ","targetpop":10624.3358459,"new_mean":0.0275751,"totalarea":236.4750713}},{"type":"Polygon","arcs":[[-26,-22,26,-10,27,-13,28]],"properties":{"name":"Manzini","gaul_code":25975,"targetarea":34.874067,"totpop":56837.8064957,"country_id":"SWZ","targetpop":53731.3315735,"new_mean":0.0263694,"totalarea":42.8698054}},{"type":"Polygon","arcs":[[29]],"properties":{"name":"Lomahasha","gaul_code":25958,"targetarea":3.6498049,"totpop":22743.4225788,"country_id":"SWZ","targetpop":3157.8947449,"new_mean":0.0430762,"totalarea":325.2576591}},{"type":"Polygon","arcs":[[-23,-2,30]],"properties":{"name":"Mahlanya","gaul_code":25973,"targetarea":1.6898472,"totpop":19177.840189,"country_id":"SWZ","targetpop":442.5080566,"new_mean":0.0291128,"totalarea":151.782098}},{"type":"MultiPolygon","arcs":[[[-14,31]],[[-16,32]]],"properties":{"name":"Mbangweni","gaul_code":25988,"targetarea":8.1417435,"totpop":26768.8015499,"country_id":"SWZ","targetpop":5618.3145752,"new_mean":0.0317022,"totalarea":271.7781743}},{"type":"MultiPolygon","arcs":[[[33]],[[34]]],"properties":{"name":"Lobamba","gaul_code":25944,"targetarea":19.5849968,"totpop":28798.9903297,"country_id":"SWZ","targetpop":10261.8436279,"new_mean":0.0309977,"totalarea":126.6797449}},{"type":"Polygon","arcs":[[-6,35,-20,36,-19]],"properties":{"name":"Mbabane","gaul_code":25948,"targetarea":52.0833797,"totpop":67742.9893513,"country_id":"SWZ","targetpop":57283.7088318,"new_mean":0.0360582,"totalarea":102.9302391}}]}},"arcs":[[[31.3400302,-26.4646725],[31.3206046,-26.4631523],[31.2934236,-26.4483818],[31.2572088,-26.4650017],[31.2548641,-26.4671013],[31.2622713,-26.479819],[31.271317,-26.4839721],[31.2754448,-26.4858673],[31.2793937,-26.4876803],[31.2853027,-26.4978276]],[[31.2853027,-26.4978276],[31.297163,-26.4893284]],[[31.297163,-26.4893284],[31.2969036,-26.4813499],[31.3033905,-26.4794655],[31.3354702,-26.4787846]],[[31.3354702,-26.4787846],[31.3400302,-26.4646725]],[[31.1289043,-26.2801338],[31.1178702,-26.2815036],[31.0629549,-26.2492201],[31.0711092,-26.2739678],[31.0831344,-26.2835995]],[[31.0831344,-26.2835995],[31.0853596,-26.2719746],[31.098423,-26.2729702],[31.1122723,-26.2786026],[31.1151142,-26.2897949],[31.1248169,-26.2909889],[31.1299095,-26.2817554]],[[31.1299095,-26.2817554],[31.1289043,-26.2801338]],[[31.0554842,-26.2402601],[31.0481762,-26.2475599],[31.0583325,-26.2504163],[31.0554842,-26.2402601]],[[30.9973145,-26.2075102],[30.9935399,-26.2152663],[30.9999992,-26.217083],[30.9973145,-26.2075102]],[[31.3870218,-26.5291296],[31.3864284,-26.5404654]],[[31.3864284,-26.5404654],[31.3916658,-26.542083],[31.3870218,-26.5291296]],[[31.3897047,-26.5153857],[31.412727,-26.504819],[31.4206046,-26.4960137],[31.4341892,-26.4897786]],[[31.4341892,-26.4897786],[31.4271889,-26.490181],[31.4120502,-26.4957886],[31.3970642,-26.5041485],[31.3893375,-26.5128441],[31.3897047,-26.5153857]],[[31.2109876,-27.1269952],[31.2035254,-27.130039]],[[31.2035254,-27.130039],[31.2083325,-27.1337497],[31.2109876,-27.1269952]],[[31.1661924,-27.0982178],[31.1594639,-27.0880108],[31.1634809,-27.0856244]],[[31.1634809,-27.0856244],[31.1626619,-27.081821],[31.1470532,-27.089666],[31.1661924,-27.0982178]],[[31.1479762,-26.279333],[31.1416658,-26.2785495],[31.1289043,-26.2801338]],[[31.1299095,-26.2817554],[31.1479762,-26.279333]],[[31.1669632,-26.3496433],[31.1634808,-26.3443909],[31.1563701,-26.3491289]],[[31.1563701,-26.3491289],[31.1669632,-26.3496433]],[[31.3454625,-26.5069539],[31.3350792,-26.4921799],[31.3354702,-26.4787846]],[[31.297163,-26.4893284],[31.3025723,-26.4973545],[31.2899131,-26.5057447]],[[31.2899131,-26.5057447],[31.3050958,-26.5318172],[31.3072021,-26.5336826],[31.3238462,-26.522055],[31.326816,-26.5199803],[31.3454625,-26.5069539]],[[31.4313919,-26.476707],[31.4210604,-26.4710137],[31.3400302,-26.4646725]],[[31.3354702,-26.4787846],[31.3526192,-26.4783001],[31.3838558,-26.4849358],[31.3909359,-26.4817734],[31.3952694,-26.4762058],[31.4024849,-26.4713173],[31.4156837,-26.4725971],[31.4313919,-26.476707]],[[31.3454625,-26.5069539],[31.3483553,-26.5049329],[31.377701,-26.5377699],[31.3864284,-26.5404654]],[[31.3870218,-26.5291296],[31.3831697,-26.5183851],[31.3897047,-26.5153857]],[[31.4341892,-26.4897786],[31.4456046,-26.4845391],[31.4313919,-26.476707]],[[32.0265035,-25.9973931],[32.0041084,-25.9903049],[31.9945304,-25.977988],[31.9888663,-25.9971042],[32.0249992,-26.0004163],[32.0265035,-25.9973931]],[[31.2853027,-26.4978276],[31.2899131,-26.5057447]],[[31.2109876,-27.1269952],[31.2131502,-27.1214938],[31.2098299,-27.0990085],[31.1724435,-27.1050444],[31.1782975,-27.1105654],[31.2035254,-27.130039]],[[31.1661924,-27.0982178],[31.1634809,-27.0856244]],[[31.2166658,-26.442083],[31.2268221,-26.4392266],[31.2195141,-26.4319268],[31.2166658,-26.442083]],[[31.2166658,-26.442083],[31.1948397,-26.4294935],[31.1981437,-26.3883558],[31.1755688,-26.3798923],[31.1628084,-26.3993991],[31.181949,-26.4337171],[31.1961417,-26.4459404],[31.2104972,-26.4625908],[31.2166658,-26.442083]],[[31.0831344,-26.2835995],[31.0949048,-26.293027],[31.0963533,-26.304583],[31.0950192,-26.3152426],[31.094896,-26.3162266],[31.1075024,-26.347389],[31.1250154,-26.345208],[31.1563701,-26.3491289]],[[31.1669632,-26.3496433],[31.1735018,-26.3326429],[31.1586417,-26.2806572],[31.1479762,-26.279333]]],"bbox":[30.9935399,-27.1337497,32.0265035,-25.977988]}