{"type":"Topology","objects":{"foo":{"type":"GeometryCollection","geometries":[{"type":"Polygon","arcs":[[0,1,2]],"properties":{"name":"Afrouk","gaul_code":65354,"targetarea":0.121703,"totpop":28395.10709,"country_id":"TCD","targetpop":0,"new_mean":0.0286517,"totalarea":626.8768654}},{"type":"Polygon","arcs":[[3]],"properties":{"name":"Lere-tchad","gaul_code":65557,"targetarea":1.7143867,"totpop":103821.930562,"country_id":"TCD","targetpop":1281.2953796,"new_mean":0.022035,"totalarea":927.5435143}},{"type":"Polygon","arcs":[[-2,4,5,6]],"properties":{"name":"Ndjamena","gaul_code":65629,"targetarea":347.0143323,"totpop":1401734.32407,"country_id":"TCD","targetpop":1394920.20224,"new_mean":0.0243643,"totalarea":393.5684046}},{"type":"Polygon","arcs":[[7]],"properties":{"name":"Bongor","gaul_code":65416,"targetarea":3.9808056,"totpop":43847.4541206,"country_id":"TCD","targetpop":2143.3291321,"new_mean":0.0238845,"totalarea":939.171221}},{"type":"Polygon","arcs":[[8]],"properties":{"name":"Guergne","gaul_code":65492,"targetarea":9.4336421,"totpop":82910.4800968,"country_id":"TCD","targetpop":5677.8849792,"new_mean":0.0226501,"totalarea":1000.0666944}},{"type":"MultiPolygon","arcs":[[[9,10,11,12]],[[13,14,15,16,17,-13]]],"properties":{"name":"Mbaikoro","gaul_code":65585,"targetarea":15.935674,"totpop":35211.3687344,"country_id":"TCD","targetpop":8262.8250427,"new_mean":0.0249579,"totalarea":313.5170641}},{"type":"Polygon","arcs":[[18,19,-15]],"properties":{"name":"Mballa","gaul_code":65588,"targetarea":7.3860175,"totpop":101590.552956,"country_id":"TCD","targetpop":4234.1533508,"new_mean":0.022227,"totalarea":789.4878389}},{"type":"Polygon","arcs":[[20,-3,-7,21]],"properties":{"name":"Kadada","gaul_code":65502,"targetarea":12.2701919,"totpop":67061.9181709,"country_id":"TCD","targetpop":16074.45961,"new_mean":0.0220326,"totalarea":889.6016422}},{"type":"Polygon","arcs":[[-20,22,23,-16]],"properties":{"name":"Moundou/koutou","gaul_code":65616,"targetarea":13.7576605,"totpop":41168.4277115,"country_id":"TCD","targetpop":8475.6824646,"new_mean":0.022697,"totalarea":195.4052823}},{"type":"MultiPolygon","arcs":[[[24,25]],[[26,-11,27,28]],[[29,-17,-24,30,31]]],"properties":{"name":"Boro","gaul_code":65418,"targetarea":14.580105,"totpop":45713.7703743,"country_id":"TCD","targetpop":8475.6615295,"new_mean":0.0238488,"totalarea":476.8333982}},{"type":"Polygon","arcs":[[-22,-6,32]],"properties":{"name":"El-fass","gaul_code":65463,"targetarea":5.3588941,"totpop":58411.6164656,"country_id":"TCD","targetpop":2914.4255066,"new_mean":0.0262037,"totalarea":879.4565396}}]}},"arcs":[[[15.0528744,12.2255775],[15.0446295,12.2253018]],[[15.0446295,12.2253018],[15.0489998,12.2250004]],[[15.0489998,12.2250004],[15.0528744,12.2255775]],[[14.2454745,9.6684963],[14.2308423,9.6612941],[14.2499992,9.6579168],[14.2454745,9.6684963]],[[15.0446295,12.2253018],[14.9710604,12.2035142],[14.9269035,12.1952744],[14.9083219,12.1851737],[14.9051065,12.1760654],[14.8924434,12.1676622],[14.9032106,12.150527],[14.929596,12.1186995],[14.9464312,12.1081305],[14.9571753,12.0975285],[14.9672241,12.0919914],[14.9805517,12.0903597],[14.9889755,12.0954065],[14.994606,12.1073637],[15.009346,12.112401],[15.0268745,12.1050072],[15.0380859,12.0962439],[15.0347719,12.0690985],[15.049963,12.0646992],[15.0611038,12.0415907],[15.0530643,12.0275002],[15.0397081,12.0241661],[15.0582275,12.0037508],[15.0778484,12.0017347],[15.0885083,11.9928371],[15.137028,11.9837824]],[[15.137028,11.9837824],[15.1379995,12.0109997],[15.1470003,12.0439997],[15.1599998,12.0690002]],[[15.1599998,12.0690002],[15.1309996,12.0979996],[15.0900002,12.1520004],[15.0559998,12.1920004],[15.0489998,12.2250004]],[[15.4038566,10.2630641],[15.3766445,10.2608762],[15.3934517,10.2510748],[15.3994557,10.2432977],[15.4038566,10.2630641]],[[22.1999992,13.4662502],[22.2035474,13.4531398],[22.2174797,13.4460272],[22.212369,13.4948065],[22.1797843,13.4812933],[22.1999992,13.4662502]],[[16.0916659,8.5579169],[16.0916659,8.5530452]],[[16.0916659,8.5530452],[16.1013173,8.5425456]],[[16.1013173,8.5425456],[16.1221997,8.5440497],[16.1277987,8.5647365],[16.1083325,8.5745835]],[[16.1083325,8.5745835],[16.0999992,8.5662502],[16.0916659,8.5579169]],[[16.1083325,8.5745835],[16.1141756,8.587645],[16.1031499,8.5944959]],[[16.1031499,8.5944959],[16.094141,8.5857124]],[[16.094141,8.5857124],[16.0769997,8.5690002]],[[16.0769997,8.5690002],[16.0871877,8.5579169]],[[16.0871877,8.5579169],[16.0916659,8.5579169]],[[16.1031499,8.5944959],[16.0924634,8.6258571],[16.0727527,8.6197167]],[[16.0727527,8.6197167],[16.094141,8.5857124]],[[15.1620408,12.0682349],[15.1628573,12.0705104],[15.1206047,12.1201808],[15.062369,12.1948309],[15.0528744,12.2255775]],[[15.1599998,12.0690002],[15.1620408,12.0682349]],[[16.0727527,8.6197167],[16.0652824,8.6173895],[16.0747225,8.5870835],[16.053173,8.579739],[16.0425611,8.5625026],[16.0475011,8.5594562]],[[16.0475011,8.5594562],[16.0769997,8.5690002]],[[16.0749992,8.5412502],[16.0721184,8.5357936],[16.0555331,8.5270493],[16.079703,8.5133734],[16.0833325,8.5412502]],[[16.0833325,8.5412502],[16.0749992,8.5412502]],[[16.0833325,8.5412502],[16.1013173,8.5425456]],[[16.0916659,8.5530452],[16.0833325,8.5495835]],[[16.0833325,8.5495835],[16.0833325,8.5412502]],[[16.0833325,8.5495835],[16.0871877,8.5579169]],[[16.0475011,8.5594562],[16.0567538,8.5537502],[16.0421053,8.544717],[16.0749992,8.5412502]],[[16.0749992,8.5412502],[16.0749992,8.5495835],[16.0833325,8.5495835]],[[15.137028,11.9837824],[15.1416659,11.9829168],[15.1458651,12.0231512],[15.1620408,12.0682349]]],"bbox":[14.2308423,8.5133734,22.2174797,13.4948065]}