{"type":"Topology","objects":{"foo":{"type":"GeometryCollection","geometries":[{"type":"MultiPolygon","arcs":[[[0]],[[1,2,3,4,5]]],"properties":{"name":"Gissarskiy","gaul_code":37620,"targetarea":104.1080118,"totpop":209112.330439,"country_id":"TJK","targetpop":121170.644424,"totalarea":666.7075085,"new_mean":0}},{"type":"MultiPolygon","arcs":[[[6]],[[7,8]],[[9,10]],[[11,12]]],"properties":{"name":"Moskovskiy","gaul_code":37593,"targetarea":26.7474824,"totpop":101507.28654,"country_id":"TJK","targetpop":22822.4070892,"totalarea":754.2582532,"new_mean":0}},{"type":"MultiPolygon","arcs":[[[13]],[[14]],[[15]],[[16]],[[17]],[[18]],[[19,20]]],"properties":{"name":"Ura-Tubinskiy","gaul_code":37615,"targetarea":115.2548795,"totpop":212180.854313,"country_id":"TJK","targetpop":90053.0908051,"totalarea":665.0832379,"new_mean":1.8702102e-7}},{"type":"Polygon","arcs":[[21]],"properties":{"name":"Shugnanskiy","gaul_code":37580,"targetarea":18.7356878,"totpop":66385.1553453,"country_id":"TJK","targetpop":28395.9178314,"totalarea":4675.9512986,"new_mean":0}},{"type":"MultiPolygon","arcs":[[[22]],[[23]],[[24]],[[25]],[[26]],[[27]]],"properties":{"name":"Isfarinskiy","gaul_code":37607,"targetarea":111.0860829,"totpop":260560.805599,"country_id":"TJK","targetpop":132469.050522,"totalarea":955.5436796,"new_mean":0.0000098195747}},{"type":"MultiPolygon","arcs":[[[28]],[[29]]],"properties":{"name":"Piynjskiy","gaul_code":37596,"targetarea":21.2057733,"totpop":72226.8957005,"country_id":"TJK","targetpop":18383.0610504,"totalarea":298.1791116,"new_mean":0}},{"type":"Polygon","arcs":[[30]],"properties":{"name":"Nurek","gaul_code":37624,"targetarea":25.9072008,"totpop":51848.0707313,"country_id":"TJK","targetpop":24523.8899841,"totalarea":434.2086722,"new_mean":0}},{"type":"Polygon","arcs":[[30]],"properties":{"name":"Nurek","gaul_code":37624,"targetarea":25.9072008,"totpop":51848.0707313,"country_id":"TJK","targetpop":24523.8899841,"totalarea":434.2086722,"new_mean":0.0000104}},{"type":"MultiPolygon","arcs":[[[31,-4,32]],[[33,34]]],"properties":{"name":"Varzob","gaul_code":37630,"targetarea":13.2394396,"totpop":85128.7198611,"country_id":"TJK","targetpop":9109.561615,"totalarea":1637.7873086,"new_mean":0}},{"type":"MultiPolygon","arcs":[[[35,36]],[[37,38]],[[39,40]]],"properties":{"name":"Kofarnohon","gaul_code":37622,"targetarea":163.5323008,"totpop":421276.721092,"country_id":"TJK","targetpop":194940.225021,"totalarea":3877.1685575,"new_mean":0}},{"type":"MultiPolygon","arcs":[[[41,42,43,44]],[[45,46]]],"properties":{"name":"Vahshskiy","gaul_code":37600,"targetarea":190.0627592,"totpop":378029.772475,"country_id":"TJK","targetpop":182411.774292,"totalarea":1163.4621754,"new_mean":0}},{"type":"MultiPolygon","arcs":[[[47]],[[48]],[[49]],[[50]]],"properties":{"name":"Matchinskiy","gaul_code":37610,"targetarea":28.8150758,"totpop":116642.996887,"country_id":"TJK","targetpop":24554.4205475,"totalarea":980.2995287,"new_mean":0}},{"type":"MultiPolygon","arcs":[[[51]],[[-9,52]]],"properties":{"name":"Parharskiy","gaul_code":37595,"targetarea":21.7596309,"totpop":132396.160275,"country_id":"TJK","targetpop":19776.8058167,"totalarea":1349.6550859,"new_mean":0}},{"type":"Polygon","arcs":[[53]],"properties":{"name":"Dangara","gaul_code":37584,"targetarea":24.2532149,"totpop":204224.911352,"country_id":"TJK","targetpop":21167.8076782,"totalarea":2231.0274857,"new_mean":0}},{"type":"MultiPolygon","arcs":[[[54]],[[55]],[[56]],[[57,58,59,60]],[[61,62]],[[63,64]]],"properties":{"name":"Nauskiy","gaul_code":37611,"targetarea":78.9425889,"totpop":129046.890972,"country_id":"TJK","targetpop":65317.3287201,"totalarea":478.5152458,"new_mean":0}},{"type":"MultiPolygon","arcs":[[[65]],[[66]]],"properties":{"name":"Kabodien","gaul_code":37588,"targetarea":52.5146749,"totpop":229309.916847,"country_id":"TJK","targetpop":54088.5344238,"totalarea":1784.7397808,"new_mean":0}},{"type":"MultiPolygon","arcs":[[[67]],[[68]],[[69,-37]]],"properties":{"name":"Yvanskiy","gaul_code":37602,"targetarea":72.338441,"totpop":264734.748907,"country_id":"TJK","targetpop":76882.019043,"totalarea":956.6382988,"new_mean":0}},{"type":"MultiPolygon","arcs":[[[70,-42]],[[71,72,-44,73]]],"properties":{"name":"Kurgan-Tjube","gaul_code":37592,"targetarea":104.8438335,"totpop":141416.711218,"country_id":"TJK","targetpop":91565.5570068,"totalarea":355.3933422,"new_mean":0}},{"type":"MultiPolygon","arcs":[[[74]],[[75]],[[76]],[[77]],[[78]]],"properties":{"name":"Kanibadamskiy","gaul_code":37608,"targetarea":116.5249265,"totpop":212644.707468,"country_id":"TJK","targetpop":113357.329727,"totalarea":797.7941476,"new_mean":0.0000015084376}},{"type":"Polygon","arcs":[[79]],"properties":{"name":"Faysabadskiy","gaul_code":37618,"targetarea":11.0889303,"totpop":101663.264481,"country_id":"TJK","targetpop":9004.7817383,"totalarea":1051.6910181,"new_mean":0}},{"type":"MultiPolygon","arcs":[[[80,81]],[[82]]],"properties":{"name":"Sovetskiy","gaul_code":37599,"targetarea":21.6360382,"totpop":71847.5718441,"country_id":"TJK","targetpop":17036.3460236,"totalarea":555.3034776,"new_mean":0}},{"type":"MultiPolygon","arcs":[[[83]],[[84,85]],[[86]],[[87]]],"properties":{"name":"Kolhosobadskiy","gaul_code":37589,"targetarea":51.9716809,"totpop":156025.023826,"country_id":"TJK","targetpop":36967.0547791,"totalarea":839.7004735,"new_mean":0}},{"type":"MultiPolygon","arcs":[[[88]],[[-72,89,-46,90],[91]],[[92]],[[93]]],"properties":{"name":"Bokhtar","gaul_code":37583,"targetarea":268.4221145,"totpop":441965.152748,"country_id":"TJK","targetpop":295187.741058,"totalarea":898.9537875,"new_mean":0}},{"type":"MultiPolygon","arcs":[[[-11,94]],[[-13,95]],[[96]],[[97]],[[98,-81,99,100]],[[101]]],"properties":{"name":"Voseysky","gaul_code":37601,"targetarea":101.4058338,"totpop":204730.812773,"country_id":"TJK","targetpop":84488.6259308,"totalarea":759.4618462,"new_mean":0}},{"type":"MultiPolygon","arcs":[[[102]],[[103]],[[104]],[[105]],[[106]],[[107]],[[108,109]],[[110]],[[111]]],"properties":{"name":"Penjikenskiy","gaul_code":37612,"targetarea":97.2158801,"totpop":289758.416256,"country_id":"TJK","targetpop":88082.7842865,"totalarea":3498.1069938,"new_mean":2.3708099e-7}},{"type":"MultiPolygon","arcs":[[[102]],[[103]],[[104]],[[105]],[[106]],[[107]],[[108,109]],[[110]],[[111]]],"properties":{"name":"Penjikenskiy","gaul_code":37612,"targetarea":97.2158801,"totpop":289758.416256,"country_id":"TJK","targetpop":88082.7842865,"totalarea":3498.1069938,"new_mean":0}},{"type":"MultiPolygon","arcs":[[[112,113,114]],[[115]]],"properties":{"name":"Hovaling","gaul_code":37586,"targetarea":7.8994632,"totpop":112207.191915,"country_id":"TJK","targetpop":5889.6025391,"totalarea":2908.8377216,"new_mean":0}},{"type":"MultiPolygon","arcs":[[[116]],[[117]],[[118,-20]]],"properties":{"name":"Ganchinskiy","gaul_code":37605,"targetarea":33.7999751,"totpop":197612.54406,"country_id":"TJK","targetpop":31972.0256195,"totalarea":1857.3813017,"new_mean":0}},{"type":"MultiPolygon","arcs":[[[119,120]],[[121,-114,122]],[[123]]],"properties":{"name":"Muminobod","gaul_code":37594,"targetarea":27.3344666,"totpop":130696.114372,"country_id":"TJK","targetpop":26950.5144043,"totalarea":1309.3343187,"new_mean":0.0000685}},{"type":"MultiPolygon","arcs":[[[-38,124]],[[125,-35,126,-6,127,-41]],[[-33,-3,128]]],"properties":{"name":"Leninskiy","gaul_code":37623,"targetarea":422.3707199,"totpop":1586121.2624,"country_id":"TJK","targetpop":1430122.88754,"totalarea":2060.3888223,"new_mean":0}},{"type":"Polygon","arcs":[[129]],"properties":{"name":"Ashtskiy","gaul_code":37604,"targetarea":5.8399506,"totpop":166657.265569,"country_id":"TJK","targetpop":5442.4302978,"totalarea":2871.12619,"new_mean":0.0000010005536}},{"type":"MultiPolygon","arcs":[[[130]],[[131]],[[132,133,134]],[[135]],[[136,137]],[[138]],[[139,-64,140]],[[141]],[[142]],[[143]]],"properties":{"name":"Hojenskiy","gaul_code":37606,"targetarea":275.8983389,"totpop":676244.472205,"country_id":"TJK","targetpop":438727.495651,"totalarea":2651.6834974,"new_mean":6.2021563e-7}},{"type":"MultiPolygon","arcs":[[[144,145]],[[146]]],"properties":{"name":"Shahrinav","gaul_code":37626,"targetarea":21.7015007,"totpop":71119.9539227,"country_id":"TJK","targetpop":23573.5237732,"totalarea":763.4855562,"new_mean":0}},{"type":"Polygon","arcs":[[147,148]],"properties":{"name":"Shurabad","gaul_code":37598,"targetarea":6.3044037,"totpop":68630.6415634,"country_id":"TJK","targetpop":6020.6508179,"totalarea":1312.7081022,"new_mean":0}},{"type":"Polygon","arcs":[[147,148]],"properties":{"name":"Shurabad","gaul_code":37598,"targetarea":6.3044037,"totpop":68630.6415634,"country_id":"TJK","targetpop":6020.6508179,"totalarea":1312.7081022,"new_mean":0.0000012713912}},{"type":"MultiPolygon","arcs":[[[149]],[[-101,150,-149,151,-120,152]],[[-123,-113,153]]],"properties":{"name":"Kulyab","gaul_code":37590,"targetarea":143.8322793,"totpop":227904.968197,"country_id":"TJK","targetpop":176551.562912,"totalarea":337.4174388,"new_mean":0}},{"type":"MultiPolygon","arcs":[[[154]],[[155]],[[156,-62]],[[157,-138,158,-60,159,-58,160,-133]]],"properties":{"name":"Rasulov","gaul_code":37613,"targetarea":86.5886111,"totpop":146930.213797,"country_id":"TJK","targetpop":87235.6813354,"totalarea":379.3862906,"new_mean":0.0000308}},{"type":"MultiPolygon","arcs":[[[161]],[[162,-146],[163]]],"properties":{"name":"Tursunzade","gaul_code":37629,"targetarea":167.8066366,"totpop":299125.129298,"country_id":"TJK","targetpop":161341.662262,"totalarea":1046.0475139,"new_mean":0}},{"type":"Polygon","arcs":[[-86,164]],"properties":{"name":"Kumsangirskiy","gaul_code":37591,"targetarea":40.2989025,"totpop":109671.451405,"country_id":"TJK","targetpop":37708.8506165,"totalarea":791.6940374,"new_mean":0}},{"type":"MultiPolygon","arcs":[[[165]],[[166]],[[167]]],"properties":{"name":"Zafarobskiy","gaul_code":37616,"targetarea":17.1263391,"totpop":95047.7232857,"country_id":"TJK","targetpop":13873.4612427,"totalarea":423.1346952,"new_mean":0}},{"type":"MultiPolygon","arcs":[[[165]],[[166]],[[167]]],"properties":{"name":"Zafarobskiy","gaul_code":37616,"targetarea":17.1263391,"totpop":95047.7232857,"country_id":"TJK","targetpop":13873.4612427,"totalarea":423.1346952,"new_mean":0}}]}},"arcs":[[[68.575943,38.4179],[68.5410472,38.4100753],[68.5299306,38.395726],[68.5583323,38.3912501],[68.575943,38.4179]],[[68.6114761,38.5628927],[68.5627269,38.5738103],[68.5810046,38.6329691]],[[68.5810046,38.6329691],[68.5789642,38.6423721]],[[68.5789642,38.6423721],[68.5706981,38.6456786]],[[68.5706981,38.6456786],[68.5671051,38.6446477],[68.5494619,38.5875493],[68.5210439,38.5878158],[68.5058096,38.5707626],[68.495637,38.5701563],[68.4649241,38.5868494],[68.4622223,38.5618555],[68.5289378,38.5529322],[68.5202952,38.5352727],[68.4990062,38.5162501],[68.5206208,38.4951563],[68.5616201,38.4975998],[68.5631663,38.4717839],[68.5499827,38.4225794],[68.5734691,38.4488713],[68.5845668,38.4428421]],[[68.5845668,38.4428421],[68.5868988,38.4803009],[68.5737991,38.4856987],[68.5854034,38.5256004],[68.6062012,38.5256004],[68.6114761,38.5628927]],[[69.4686342,37.5158696],[69.4765127,37.5313603],[69.4664378,37.5446538],[69.4435862,37.5115544],[69.4686342,37.5158696]],[[69.3717389,37.583575],[69.3849599,37.6029688],[69.3748666,37.6078613]],[[69.3748666,37.6078613],[69.3717389,37.583575]],[[69.4439827,37.630053],[69.4635569,37.627684],[69.4651431,37.6552124]],[[69.4651431,37.6552124],[69.4439827,37.630053]],[[69.6175268,37.6409771],[69.6364736,37.6205327],[69.6415192,37.6404342],[69.6706696,37.6693507],[69.6543732,37.6718395]],[[69.6543732,37.6718395],[69.6490021,37.6587982],[69.6175268,37.6409771]],[[68.9645715,39.8081786],[68.9690696,39.8271674],[68.9726553,39.8558822],[68.9374665,39.8301742],[68.9296214,39.8125493],[68.9645715,39.8081786]],[[68.963264,39.879513],[68.9381012,39.9181625],[68.9299306,39.8862147],[68.963264,39.879513]],[[69.0166657,39.8745834],[69.0229482,39.9001551],[69.009374,39.943956],[69.0145661,39.9671513],[68.9838857,39.974028],[68.9972809,39.9534612],[68.9864411,39.9459762],[68.9917959,39.9220932],[68.9715973,39.9081466],[68.9821116,39.8744267],[69.0043935,39.86943],[69.0166657,39.8745834]],[[68.9083323,40.0162501],[68.90218,40.0012842],[68.9058096,39.9829167],[68.8972158,39.9393865],[68.9457835,39.9294377],[68.9534821,40.0026026],[68.9083323,40.0162501]],[[68.9083323,40.0162501],[68.9204905,40.0501185],[68.8893545,40.0332036],[68.9083323,40.0162501]],[[68.8310049,40.0568567],[68.8161611,40.0782882],[68.8046214,40.0575648],[68.824999,40.0412501],[68.8310049,40.0568567]],[[69.0755728,40.0134501],[69.0643005,40.021801],[69.0718994,40.0395012],[69.0729153,40.0619867]],[[69.0729153,40.0619867],[69.0536286,40.0698796],[69.0400543,40.1030319],[69.0130361,40.0665959],[69.0547028,40.0376205],[69.0618072,40.003946],[69.0704223,40.0054317],[69.0755728,40.0134501]],[[71.524999,37.4912501],[71.5404775,37.4711878],[71.598762,37.4797978],[71.5949697,37.5054692],[71.574999,37.5025192],[71.5486155,37.5064173],[71.524999,37.4912501]],[[70.5908193,39.8531499],[70.5501129,39.8698084],[70.5380361,39.8517766],[70.599999,39.8412501],[70.5908193,39.8531499]],[[70.5261383,39.9603642],[70.4796298,39.9686898],[70.4937815,39.9368596],[70.5083323,39.9329167],[70.5261383,39.9603642]],[[70.5530263,40.005516],[70.5545237,39.9868128],[70.5378082,39.9691146],[70.574999,39.9579167],[70.6139964,40.0048751],[70.587499,40.002745],[70.5530263,40.005516]],[[70.637499,40.1645533],[70.6009918,40.1573389],[70.6055329,40.1343429],[70.5760895,40.1401616],[70.5832347,40.1040064],[70.6131826,40.0961044],[70.6205719,40.0503931],[70.6383779,40.05351],[70.6299795,40.0959335],[70.6631826,40.1197291],[70.6701487,40.1477503],[70.6458323,40.1429468],[70.637499,40.1645533]],[[70.7123362,40.1372421],[70.7376618,40.1535914],[70.7407542,40.170258],[70.6709951,40.1380193],[70.7123362,40.1372421]],[[70.822668,40.1541094],[70.8305817,40.1710637],[70.7911123,40.1779871],[70.763264,40.1630681],[70.7965973,40.154513],[70.8166657,40.1412501],[70.822668,40.1541094]],[[69.193548,37.1875062],[69.1833323,37.1852157],[69.1520823,37.1922226],[69.1558421,37.175442],[69.1916657,37.1662501],[69.1957715,37.1760335],[69.193548,37.1875062]],[[69.0659658,37.2699264],[69.092626,37.2221542],[69.1211416,37.220726],[69.1183747,37.2552271],[69.0956045,37.2533961],[69.0659658,37.2699264]],[[69.2383291,38.4077621],[69.2363597,38.3883448],[69.2627106,38.3732508],[69.3341624,38.3805343],[69.349999,38.3745834],[69.3575348,38.3946172],[69.2383291,38.4077621]],[[68.5836989,38.6404781],[68.5872711,38.6504338],[68.5706981,38.6456786]],[[68.5789642,38.6423721],[68.5836989,38.6404781]],[[68.7916809,38.6403457],[68.7750641,38.6551966],[68.7956045,38.6929875],[68.7534821,38.6693974],[68.7554835,38.6358201]],[[68.7554835,38.6358201],[68.7916809,38.6403457]],[[69.0088877,38.3433165],[68.9913401,38.3533655],[68.9707465,38.3358823]],[[68.9707465,38.3358823],[68.9849014,38.3241005],[69.0088877,38.3433165]],[[68.936712,38.5966608],[68.9180081,38.5995362]],[[68.9180081,38.5995362],[68.913264,38.5880681],[68.9333323,38.5829167],[68.936712,38.5966608]],[[68.9220523,38.4953871],[68.9540192,38.486827],[68.9709788,38.486827],[69.0040192,38.4956731],[69.02329,38.4945256],[69.0802724,38.5121159],[69.0451813,38.5202784],[69.068456,38.5442449],[69.1270335,38.5636886],[69.1294261,38.6039617],[69.1215322,38.6279708],[69.028303,38.5891911],[68.9947907,38.6087387],[68.9975576,38.5624333],[68.9711253,38.5628117],[68.9571442,38.5465276],[68.9443024,38.5744796],[68.9131075,38.5575236]],[[68.9131075,38.5575236],[68.9246979,38.519001],[68.9220523,38.4953871]],[[68.6740998,37.6997604],[68.6865082,37.7155991],[68.6865082,37.7369509]],[[68.6865082,37.7369509],[68.6526151,37.7286472]],[[68.6526151,37.7286472],[68.6205219,37.7020358]],[[68.6205219,37.7020358],[68.6239411,37.6745366],[68.6166657,37.6162501],[68.6042145,37.6290227],[68.581674,37.617094],[68.5728199,37.5919929],[68.5709951,37.5860173],[68.5920895,37.5657942],[68.606582,37.5631202],[68.6422028,37.5785914],[68.6573395,37.5465296],[68.6918122,37.5837326],[68.6786937,37.6211369],[68.679361,37.6379175],[68.6378896,37.6362737],[68.6293284,37.6464828],[68.6460114,37.6619349],[68.6453441,37.6786646],[68.6740998,37.6997604]],[[68.8667797,37.7155991],[68.821228,37.7245789],[68.7853012,37.7245789],[68.7853012,37.7813204]],[[68.7853012,37.7813204],[68.7626618,37.745258],[68.7456207,37.7372177],[68.7539866,37.6782618],[68.7283715,37.6735972],[68.7209191,37.660707],[68.7558421,37.6455754],[68.7833323,37.6745834],[68.7950674,37.6529871],[68.8258616,37.635409],[68.8458974,37.6398992],[68.8653148,37.6680282],[68.8529124,37.6870834],[68.8667797,37.7155991]],[[69.3228017,40.3852462],[69.313264,40.3652064],[69.3416657,40.3579167],[69.3228017,40.3852462]],[[69.3332672,40.4328679],[69.3250967,40.4495834],[69.2861969,40.4302495],[69.2914305,40.4186676],[69.324999,40.4162501],[69.3332672,40.4328679]],[[69.324999,40.4912501],[69.3093903,40.4972478],[69.2879547,40.4824142],[69.3086904,40.4708786],[69.324999,40.4912501]],[[69.324999,40.4912501],[69.3536611,40.525914],[69.3619619,40.5441716],[69.3168447,40.5264348],[69.324999,40.4912501]],[[69.4170858,37.5137341],[69.3789215,37.5032882],[69.3715159,37.4828211],[69.4166657,37.4745834],[69.4331045,37.5009282],[69.4280893,37.5052511],[69.4170858,37.5137341]],[[69.3748666,37.6078613],[69.3555329,37.5868474],[69.3717389,37.583575]],[[69.3333323,38.0745834],[69.3462555,38.0691533],[69.3717425,38.1056693],[69.3780352,38.1213158],[69.3391429,38.1172449],[69.308251,38.1185307],[69.3146312,38.0900762],[69.3333323,38.0745834]],[[69.3312165,40.0641301],[69.2978831,40.0644271],[69.310139,40.0517318],[69.3333323,40.0495834],[69.3312165,40.0641301]],[[69.1879242,40.118343],[69.2083323,40.1162501],[69.2039215,40.1355351],[69.1802236,40.1443506],[69.1742511,40.1268894],[69.1879242,40.118343]],[[69.2804515,40.1383997],[69.2522614,40.1524581],[69.2387848,40.1278854],[69.2833323,40.1245834],[69.2804515,40.1383997]],[[69.433826,40.1652655],[69.4493175,40.1737412]],[[69.4493175,40.1737412],[69.452814,40.1787731]],[[69.452814,40.1787731],[69.4510086,40.1942455]],[[69.4510086,40.1942455],[69.3986481,40.1826339],[69.4202986,40.1618844],[69.424807,40.1630449],[69.4333323,40.1662501],[69.433826,40.1652655]],[[69.3644112,40.1333616],[69.3881254,40.1473834]],[[69.3881254,40.1473834],[69.3883291,40.1800399],[69.320165,40.1800318],[69.3056881,40.1948798],[69.281541,40.2051607],[69.2390912,40.2057566],[69.2566722,40.1829228],[69.2815908,40.1975733],[69.299999,40.1745834],[69.3166657,40.1662501],[69.299999,40.1662501],[69.3127269,40.1456507],[69.3224111,40.1040329],[69.3444814,40.1287236],[69.3644112,40.1333616]],[[69.304675,40.2414746],[69.2537728,40.2526897]],[[69.2537728,40.2526897],[69.2592536,40.2481999],[69.304675,40.2414746]],[[68.1531728,37.2547388],[68.1746898,37.2792811],[68.1320954,37.2860946],[68.1218252,37.269428],[68.0971019,37.2541936],[68.1301585,37.2464055],[68.1416657,37.2329167],[68.1531728,37.2547388]],[[68.2203603,37.4250635],[68.1950836,37.4373235],[68.1732737,37.4368779],[68.1625804,37.4028529],[68.1792959,37.3704167],[68.1706859,37.3537053],[68.1916657,37.3412501],[68.2203603,37.4250635]],[[68.9026357,38.2111984],[68.8879547,38.1970749],[68.9083323,38.1912501],[68.9026357,38.2111984]],[[68.9531566,38.3002283],[68.9379059,38.3110946],[68.9218252,38.2868108],[68.9416657,38.2745834],[68.9531566,38.3002283]],[[68.9707465,38.3358823],[68.9583161,38.314183],[68.9890615,38.3026352],[69.017805,38.3055648],[69.030012,38.2954167],[69.0191071,38.286351],[69.028775,38.2533655],[69.049999,38.2495834],[69.0621084,38.2958013],[69.078775,38.3291346],[69.0954417,38.3429794],[69.0830068,38.3613286],[69.0302236,38.3310979],[69.0088877,38.3433165]],[[68.6740998,37.6997604],[68.6840973,37.7070948],[68.7040029,37.7430832],[68.6865082,37.7369509]],[[68.7635239,37.80378],[68.7044678,37.8503189],[68.6676667,37.8441837]],[[68.6676667,37.8441837],[68.6370433,37.8208786],[68.6180329,37.7971379],[68.6244619,37.7454167],[68.6205219,37.7020358]],[[68.6526151,37.7286472],[68.645637,37.7545842],[68.6713369,37.7535649],[68.6705231,37.7741989],[68.693456,37.7869247],[68.7040029,37.7535792],[68.7354157,37.7548243],[68.7403946,37.7705652],[68.7433643,37.7799539],[68.7635239,37.80378]],[[70.2565094,40.2372706],[70.1806305,40.2483139],[70.1712881,40.2365117],[70.2666657,40.2245834],[70.2565094,40.2372706]],[[70.137792,40.261056],[70.1134918,40.2450973],[70.149999,40.2412501],[70.137792,40.261056]],[[70.0754547,40.2614852],[70.0462881,40.2456792],[70.0916657,40.2412501],[70.0754547,40.2614852]],[[70.5745535,40.2819498],[70.5664449,40.3349927],[70.5314606,40.3261805],[70.555012,40.2962549],[70.560695,40.2805572],[70.5745535,40.2819498]],[[70.4626618,40.3369247],[70.4710276,40.3633427],[70.4514049,40.3734024],[70.4363271,40.3414454],[70.4030589,40.3199651],[70.3726715,40.3211695],[70.3543284,40.3157068],[70.3952627,40.2963831],[70.3786774,40.2868982],[70.3796051,40.2635686],[70.3290029,40.2539087],[70.3126618,40.2414779],[70.3391754,40.2205754],[70.3706696,40.2372421],[70.4543284,40.270258],[70.4788076,40.296674],[70.4536774,40.3199508],[70.4626618,40.3369247]],[[69.3205231,38.5290593],[69.3441722,38.5494349],[69.3340159,38.5701075],[69.2961416,38.5422653],[69.3205231,38.5290593]],[[69.5460406,37.8378235],[69.5697157,37.8427064]],[[69.5697157,37.8427064],[69.5860993,37.8779485],[69.6039378,37.8966435],[69.5654938,37.8943527],[69.5452952,37.8503362],[69.5460406,37.8378235]],[[69.601415,38.0525416],[69.5880198,38.0607162],[69.5805329,38.0385482],[69.5916657,38.0329167],[69.601415,38.0525416]],[[68.6119619,37.3709538],[68.6282379,37.3835128],[68.6092275,37.3948796],[68.5910146,37.3712814],[68.6119619,37.3709538]],[[68.7025909,37.3723507],[68.6877757,37.3874394],[68.6719879,37.3861719],[68.6544749,37.4170435],[68.6211416,37.4100855],[68.6479319,37.3839828],[68.6457415,37.3567094]],[[68.6457415,37.3567094],[68.6780624,37.3682632],[68.7025909,37.3723507]],[[68.6547028,37.4876205],[68.6152659,37.4948796],[68.6308258,37.4691024],[68.6276846,37.4478724],[68.6666657,37.4412501],[68.6547028,37.4876205]],[[68.6538402,37.5335027],[68.6471995,37.5118474],[68.6666657,37.5079167],[68.6538402,37.5335027]],[[68.9289378,37.853984],[68.9535797,37.8760096],[68.9261872,37.8868494],[68.8877269,37.8651291],[68.924999,37.8495834],[68.9289378,37.853984]],[[68.7635239,37.80378],[68.8016917,37.8026921],[68.7853012,37.7813204]],[[68.8667797,37.7155991],[68.8700674,37.7273931],[68.8447744,37.7448572],[68.8479645,37.7590906],[68.863264,37.7696538],[68.8763662,37.7886439],[68.9002757,37.783287],[68.930305,37.8028447],[68.926887,37.8181096],[68.8805654,37.8077255],[68.863264,37.8273931],[68.8801911,37.8533778],[68.8758942,37.8724858],[68.8622386,37.8694239],[68.8215973,37.8878463],[68.753889,37.9048345],[68.738264,37.8946538],[68.6718089,37.8878463],[68.6666657,37.9079167],[68.6514033,37.8992881],[68.6462985,37.8897431],[68.6840485,37.8738367],[68.6953766,37.8652715],[68.6676667,37.8441837]],[[68.824999,37.7995834],[68.8049306,37.8047348],[68.8364248,37.8268051],[68.824999,37.7995834]],[[68.8520396,37.9753779],[68.831418,37.9736223],[68.8041657,37.9694829],[68.7899501,37.9726707],[68.7652982,37.9612133],[68.7465973,37.950678],[68.7965973,37.9378463],[68.8200674,37.9279871],[68.849999,37.9245834],[68.886262,37.9418075],[68.8609365,37.95929],[68.8520396,37.9753779]],[[68.7078115,37.9994817],[68.6799306,37.9785934],[68.724999,37.9745834],[68.7078115,37.9994817]],[[69.4651431,37.6552124],[69.4654775,37.6610173],[69.4052236,37.6541041],[69.4385569,37.6464828],[69.4439827,37.630053]],[[69.6543732,37.6718395],[69.61857,37.6773076],[69.5862295,37.6445399],[69.6175268,37.6409771]],[[69.5034146,37.6564555],[69.5103668,37.6704432],[69.4853343,37.6773829],[69.4750077,37.6582829],[69.5034146,37.6564555]],[[69.5124176,37.7541631],[69.479247,37.7528529],[69.4959625,37.7204167],[69.4836579,37.69655],[69.5834951,37.7296046],[69.5249176,37.7284083],[69.5124176,37.7541631]],[[69.6466854,37.8272995],[69.637499,37.8375798],[69.6214671,37.8196334],[69.5960439,37.8211492],[69.5814118,37.8047673],[69.5534332,37.7873174],[69.5551422,37.8158655],[69.5697157,37.8427064]],[[69.5460406,37.8378235],[69.5285797,37.820492],[69.5414215,37.8090296],[69.5116526,37.7953699],[69.5377269,37.7873174],[69.5490224,37.7627304],[69.579247,37.7791549],[69.5872874,37.7701563],[69.6062816,37.7712875],[69.6287568,37.7845601]],[[69.6287568,37.7845601],[69.6466854,37.8272995]],[[69.6587949,37.8674904],[69.6633546,37.8872302],[69.6622386,37.8943018],[69.6274842,37.9032225],[69.6199445,37.8921613],[69.6450674,37.8696538],[69.6587949,37.8674904]],[[67.7634918,39.4297388],[67.7470042,39.4360946],[67.7360179,39.4038518],[67.7470693,39.3791997],[67.7666657,39.3745834],[67.7634918,39.4297388]],[[67.9333323,39.4579167],[67.9048818,39.4491317],[67.9269684,39.4373174],[67.9333323,39.4579167]],[[67.8602529,39.4745834],[67.8350251,39.4689295],[67.8383616,39.454043],[67.8666657,39.4495834],[67.8602529,39.4745834]],[[68.0401195,39.4715723],[68.0057607,39.4773829],[67.9971995,39.4612289],[68.0333323,39.4579167],[68.0401195,39.4715723]],[[67.7666657,39.4912501],[67.7819814,39.4714035],[67.7952952,39.4863856],[67.7666657,39.4912501]],[[67.7583323,39.4912501],[67.694514,39.4992233],[67.6796214,39.4925582],[67.699527,39.4766179],[67.7518219,39.4831242],[67.7583323,39.4912501]],[[67.7666657,39.4912501],[67.7583323,39.4995834],[67.7583323,39.4912501]],[[67.7583323,39.4912501],[67.7666657,39.4912501]],[[67.5833323,39.5079167],[67.5428701,39.5257817],[67.5472484,39.5117192],[67.5833323,39.5079167]],[[67.5833323,39.5079167],[67.5741527,39.4789088],[67.5417471,39.4880294],[67.4836904,39.5187505],[67.4265377,39.520147],[67.425611,39.5040786],[67.4960602,39.5026392],[67.495637,39.4814193],[67.6283519,39.4705001],[67.6624176,39.5025049],[67.6040843,39.512],[67.5833323,39.5079167]],[[69.8531065,38.0600843],[69.8621979,38.0640984]],[[69.8621979,38.0640984],[69.8642875,38.0653373]],[[69.8642875,38.0653373],[69.8531065,38.0600843]],[[69.9895335,38.3454045],[69.9785635,38.3678919],[69.9583649,38.3580327],[69.9692536,38.3357589],[69.9895335,38.3454045]],[[69.0331349,39.9549442],[69.0583323,39.9412501],[69.0718577,39.961707],[69.0671702,39.9825993],[69.0316649,39.9746415],[69.0331349,39.9549442]],[[69.1463694,39.9709538],[69.1356924,39.9886622],[69.1109528,39.9850082],[69.1153636,39.9552007],[69.149999,39.9412501],[69.1463694,39.9709538]],[[69.0755728,40.0134501],[69.0869619,40.0562383],[69.0729153,40.0619867]],[[69.8192574,37.9926756],[69.8097076,37.9817009],[69.8454393,37.9678248]],[[69.8454393,37.9678248],[69.849999,38.0245834],[69.8423252,38.0186601],[69.8341104,38.0056489],[69.8192574,37.9926756]],[[69.8602029,38.045549],[69.8642875,38.0653373]],[[69.8621979,38.0640984],[69.8602029,38.045549]],[[70.0498362,38.1078801],[70.0341624,38.1319341],[69.9994619,38.1173609],[70.0196116,38.0864405],[70.0333323,38.0829167],[70.0498362,38.1078801]],[[68.936712,38.5966608],[68.9380949,38.6022848],[68.919832,38.6039449],[68.9180081,38.5995362]],[[68.9131075,38.5575236],[68.8785309,38.5711247],[68.8472158,38.5692571],[68.7916809,38.6403457]],[[68.7554835,38.6358201],[68.7461904,38.6101791],[68.6825348,38.5873377],[68.6289378,38.578984],[68.6114761,38.5628927]],[[68.5845668,38.4428421],[68.5872983,38.4413581],[68.6040986,38.440152],[68.602945,38.4700953],[68.6956045,38.475619],[68.6877269,38.4618494],[68.6612132,38.4536565],[68.727831,38.4447453],[68.6953603,38.3785405],[68.7333323,38.3745834],[68.727652,38.4119227],[68.8028799,38.4351547],[68.8145669,38.4477035],[68.8215854,38.4619685],[68.8197907,38.4921269],[68.9133942,38.4977055],[68.9220523,38.4953871]],[[68.5810046,38.6329691],[68.5836989,38.6404781]],[[70.3425283,40.685938],[70.3294749,40.6691146],[70.3666657,40.6579167],[70.3425283,40.685938]],[[69.5833323,40.1412501],[69.58599,40.129636],[69.6011779,40.1305044],[69.5833323,40.1412501]],[[69.6991038,40.131224],[69.6809235,40.1440495],[69.6485504,40.1282394],[69.6916657,40.1162501],[69.6991038,40.131224]],[[69.5705564,40.1541463],[69.5694097,40.1352831]],[[69.5694097,40.1352831],[69.5833323,40.1412501]],[[69.5833323,40.1412501],[69.5833323,40.1495834],[69.5705564,40.1541463]],[[69.899999,40.1912501],[69.899999,40.2079167],[69.874999,40.2079167],[69.874999,40.1912501],[69.899999,40.1912501]],[[69.5376154,40.2067316],[69.5465973,40.2290166],[69.5226227,40.2366989],[69.5146071,40.2309304]],[[69.5146071,40.2309304],[69.523201,40.2304001],[69.5376154,40.2067316]],[[69.2916657,40.2579167],[69.3204743,40.274854],[69.2969134,40.2854249],[69.2916657,40.2579167]],[[69.2916657,40.2579167],[69.2703766,40.2616216],[69.2537728,40.2526897]],[[69.304675,40.2414746],[69.2916657,40.2579167]],[[69.7518545,40.3207341],[69.7224111,40.3273829],[69.7138662,40.311119],[69.7583323,40.3079167],[69.7518545,40.3207341]],[[69.8083323,40.2495834],[69.8260081,40.2951075],[69.7823558,40.2707504],[69.7075348,40.2540593],[69.7236318,40.2829167],[69.6958323,40.3380884],[69.661734,40.335348],[69.5760081,40.302096],[69.5378245,40.2640914],[69.5825511,40.2506251],[69.5697418,40.2276575],[69.6083323,40.2307581],[69.6377269,40.2283961],[69.6718089,40.2451075],[69.6699697,40.2222641],[69.6371898,40.2123926],[69.6211416,40.1974146],[69.7044424,40.2041061],[69.7127757,40.1944341],[69.7439606,40.1969406],[69.8060211,40.1663192],[69.8589671,40.1924972],[69.8204743,40.22014],[69.8219066,40.2378931],[69.8083323,40.2495834],[69.7945628,40.2287562],[69.8084137,40.2075037],[69.763264,40.1973821],[69.7700674,40.2461797],[69.8083323,40.2495834]],[[69.6452138,40.5543624],[69.6547842,40.561471],[69.6567047,40.6031377],[69.6381175,40.5781377],[69.6055166,40.5538986],[69.6452138,40.5543624]],[[68.3003082,38.521789],[68.3224599,38.5571538],[68.381721,38.5706181],[68.3208742,38.5977722]],[[68.3208742,38.5977722],[68.3003082,38.5418739],[68.3003082,38.521789]],[[68.3259961,38.6105792],[68.3416657,38.6079167],[68.331141,38.6331581],[68.3259961,38.6105792]],[[69.8028027,37.8858371],[69.8289378,37.903984],[69.8543935,37.9118494],[69.8622711,37.9253748],[69.8464268,37.9326462]],[[69.8464268,37.9326462],[69.8364029,37.9122009],[69.8090973,37.899601],[69.8028027,37.8858371]],[[69.70454,37.9017034],[69.6727529,37.886178],[69.7083323,37.8829167],[69.70454,37.9017034]],[[69.6287568,37.7845601],[69.6458323,37.7784306],[69.6960602,37.7951828],[69.7539378,37.8456507],[69.7710602,37.8535161],[69.7789378,37.8706507],[69.8028027,37.8858371]],[[69.8464268,37.9326462],[69.8371572,37.9369003],[69.8454393,37.9678248]],[[69.8192574,37.9926756],[69.7845205,37.9853459],[69.7740062,38.003213],[69.749999,37.9745834],[69.7325999,37.948263],[69.7264964,37.9209762],[69.738264,37.9128463],[69.7416657,37.8829167],[69.7539378,37.8640915],[69.6956045,37.8373174],[69.6643056,37.807581],[69.6466854,37.8272995]],[[69.8531065,38.0600843],[69.8602029,38.045549]],[[69.4618317,40.0863388],[69.4380361,40.06589],[69.4666657,40.0579167],[69.4618317,40.0863388]],[[69.4166657,40.1079167],[69.4166657,40.1245834],[69.3916657,40.1245834],[69.3916657,40.1079167],[69.4166657,40.1079167]],[[69.3644112,40.1333616],[69.388622,40.1389958],[69.3881254,40.1473834]],[[69.5705564,40.1541463],[69.5371409,40.1532882],[69.5295563,40.1791346],[69.5132477,40.1926783],[69.5376154,40.2067316]],[[69.5146071,40.2309304],[69.4692536,40.1982915],[69.4510086,40.1942455]],[[69.452814,40.1787731],[69.4963694,40.1950322],[69.496109,40.1807764],[69.4621084,40.1708012],[69.4493175,40.1737412]],[[69.433826,40.1652655],[69.4444651,40.1440495],[69.4724599,40.1299891],[69.4812002,40.1120834],[69.4971995,40.1023829],[69.5056305,40.1190495],[69.5233388,40.113064],[69.5361318,40.1301172],[69.5694097,40.1352831]],[[68.2121084,38.4374679],[68.2247223,38.4479497],[68.206721,38.4700322],[68.196223,38.4429794],[68.2121084,38.4374679]],[[68.3208742,38.5977722],[68.3146637,38.6005437],[68.254361,38.5784001],[68.2400218,38.5795517],[68.2294749,38.6373926],[68.2014476,38.565007],[68.2388336,38.5537501],[68.2106273,38.545258],[68.194221,38.5262151],[68.1608551,38.5123926],[68.1634593,38.5449508],[68.0990387,38.5178166],[68.1207947,38.4860487],[68.1424102,38.4722517],[68.1244855,38.4392251],[68.1554678,38.4278508],[68.193456,38.4272669],[68.1786286,38.4538579],[68.1946605,38.4676722],[68.1705231,38.4784408],[68.1568349,38.4943303],[68.1918122,38.5034408],[68.2537425,38.480693],[68.26232,38.4614975],[68.2880687,38.4758651],[68.2864248,38.4963343],[68.2552236,38.4938278],[68.2461416,38.5023076],[68.2950674,38.5134221],[68.3003082,38.521789]],[[68.2465973,38.531873],[68.2561351,38.5519129],[68.274999,38.5245834],[68.2465973,38.531873]],[[68.6457415,37.3567094],[68.6441885,37.3373723],[68.6628083,37.3290593],[68.6666657,37.3079167],[68.7151357,37.3167587],[68.7442536,37.3329981],[68.7025909,37.3723507]],[[68.7086904,40.1519048],[68.6552236,40.1457707],[68.699999,40.1329167],[68.7086904,40.1519048]],[[68.8666657,40.1662501],[68.8615381,40.1948748],[68.8385569,40.1876469],[68.8345856,40.1698979],[68.8666657,40.1662501]],[[68.9733551,40.2047164],[68.955956,40.2107162],[68.9471995,40.1951807],[68.9666657,40.1912501],[68.9733551,40.2047164]]],"bbox":[67.425611,37.1662501,71.598762,40.685938]}