{"type":"Topology","objects":{"foo":{"type":"GeometryCollection","geometries":[{"type":"Polygon","arcs":[[0,1,2,3,4,5]],"properties":{"name":"Administrative unit not available","gaul_code":27417,"targetarea":30.6588137,"totpop":54552.9888916,"country_id":"TTO","targetpop":54552.9888916,"new_mean":0.0773078,"totalarea":30.7414997}},{"type":"MultiPolygon","arcs":[[[6,7]],[[-1,8,9]],[[10]],[[11,12,13]],[[14,15]]],"properties":{"name":"Administrative unit not available","gaul_code":27410,"targetarea":119.9396792,"totpop":181174.201128,"country_id":"TTO","targetpop":86152.9750671,"new_mean":0.0753311,"totalarea":749.0732921}},{"type":"Polygon","arcs":[[16,17,-13,18]],"properties":{"name":"Administrative unit not available","gaul_code":27409,"targetarea":55.9192013,"totpop":102668.561951,"country_id":"TTO","targetpop":97736.9889526,"new_mean":0.0822523,"totalarea":64.5476161}},{"type":"MultiPolygon","arcs":[[[19]],[[20]],[[21]]],"properties":{"name":"Administrative unit not available","gaul_code":27420,"targetarea":31.7741714,"totpop":78669.7310646,"country_id":"TTO","targetpop":20041.6923218,"new_mean":0.0689243,"totalarea":493.1414909}},{"type":"Polygon","arcs":[[22,23]],"properties":{"name":"Administrative unit not available","gaul_code":27408,"targetarea":17.616955,"totpop":39592.6887207,"country_id":"TTO","targetpop":39592.6887207,"new_mean":0.0745941,"totalarea":17.7075803}},{"type":"Polygon","arcs":[[24]],"properties":{"name":"Administrative unit not available","gaul_code":27416,"targetarea":3.0167522,"totpop":37359.708788,"country_id":"TTO","targetpop":2264.333374,"new_mean":0.0633471,"totalarea":781.079664}},{"type":"Polygon","arcs":[[25,26,27]],"properties":{"name":"Administrative unit not available","gaul_code":27414,"targetarea":15.1558987,"totpop":30479.6219482,"country_id":"TTO","targetpop":30479.6219482,"new_mean":0.0803635,"totalarea":15.1558989}},{"type":"MultiPolygon","arcs":[[[28,-17,29]],[[30,31,-28,32,33],[34]],[[35]]],"properties":{"name":"Administrative unit not available","gaul_code":27418,"targetarea":86.8166544,"totpop":145553.630388,"country_id":"TTO","targetpop":126791.942505,"new_mean":0.0768048,"totalarea":202.7086627}},{"type":"Polygon","arcs":[[36,-26,-32]],"properties":{"name":"Administrative unit not available","gaul_code":27411,"targetarea":64.2281452,"totpop":91036.2341413,"country_id":"TTO","targetpop":79194.8971558,"new_mean":0.0683423,"totalarea":128.8231549}},{"type":"Polygon","arcs":[[37,-3,38]],"properties":{"name":"Administrative unit not available","gaul_code":27412,"targetarea":55.5860512,"totpop":97355.7701032,"country_id":"TTO","targetpop":45585.2659607,"new_mean":0.0723262,"totalarea":282.0051824}},{"type":"MultiPolygon","arcs":[[[39]],[[40]],[[41]]],"properties":{"name":"Administrative unit not available","gaul_code":27421,"targetarea":42.1829224,"totpop":62177.5745904,"country_id":"TTO","targetpop":28397.4151611,"new_mean":0.0673976,"totalarea":313.3054182}},{"type":"Polygon","arcs":[[42]],"properties":{"name":"Administrative unit not available","gaul_code":27413,"targetarea":15.1537663,"totpop":15471.5233459,"country_id":"TTO","targetpop":10947.3208618,"new_mean":0.069779,"totalarea":28.4397237}},{"type":"MultiPolygon","arcs":[[[43]],[[44,45]]],"properties":{"name":"Administrative unit not available","gaul_code":27419,"targetarea":22.0825296,"totpop":83383.7824688,"country_id":"TTO","targetpop":18436.6300354,"new_mean":0.0630534,"totalarea":894.0597543}},{"type":"Polygon","arcs":[[46,-34,47,-30,-19,-12,48,-15,49,-46,50,-23],[51],[52],[53]],"properties":{"name":"Administrative unit not available","gaul_code":27422,"targetarea":174.9523872,"totpop":228958.464143,"country_id":"TTO","targetpop":186338.288071,"new_mean":0.0767232,"totalarea":540.4180834}},{"type":"MultiPolygon","arcs":[[[54,-9,-6]],[[-8,55,-4,-38,56]]],"properties":{"name":"Administrative unit not available","gaul_code":27415,"targetarea":41.2247564,"totpop":89288.4491007,"country_id":"TTO","targetpop":29671.847229,"new_mean":0.0723782,"totalarea":639.9630797}}]}},"arcs":[[[-61.4168701,10.3119926],[-61.4596634,10.3153458]],[[-61.4596634,10.3153458],[-61.4558411,10.2966995],[-61.465271,10.2749271],[-61.4760475,10.2593737],[-61.4892334,10.248644]],[[-61.4892334,10.248644],[-61.4618988,10.2508974],[-61.4304314,10.260746]],[[-61.4304314,10.260746],[-61.4213638,10.2741232],[-61.4191084,10.2931305]],[[-61.4191084,10.2931305],[-61.4186409,10.29707]],[[-61.4186409,10.29707],[-61.4168701,10.3119926]],[[-61.3645199,10.3242349],[-61.3740972,10.3365464],[-61.3886795,10.3158839]],[[-61.3886795,10.3158839],[-61.3775597,10.3275852],[-61.3645199,10.3242349]],[[-61.4168701,10.3119926],[-61.4035259,10.3119024]],[[-61.4035259,10.3119024],[-61.4051356,10.347785],[-61.4333338,10.3412502],[-61.419841,10.3708766],[-61.4631922,10.3782415],[-61.4588628,10.4075221],[-61.428744,10.4030707],[-61.421257,10.412763],[-61.4041346,10.4102321],[-61.3963709,10.4305161],[-61.4375005,10.4269028],[-61.4455083,10.4464707],[-61.462175,10.4364203],[-61.478744,10.4388657],[-61.4899337,10.4243679],[-61.4874268,10.3985319],[-61.4786949,10.3851357],[-61.484359,10.377595],[-61.4632492,10.342597],[-61.4596634,10.3153458]],[[-61.4640386,10.4945339],[-61.4738374,10.4790153],[-61.4583338,10.4745835],[-61.4640386,10.4945339]],[[-61.3588788,10.571854],[-61.3705559,10.5632963]],[[-61.3705559,10.5632963],[-61.3610878,10.5445099],[-61.368084,10.5310478],[-61.3765564,10.5275202],[-61.3680878,10.5093231],[-61.3788795,10.4971685],[-61.4022446,10.4993687],[-61.4135752,10.4955856]],[[-61.4135752,10.4955856],[-61.4462163,10.4788031],[-61.4373377,10.4705755],[-61.4276291,10.4499985],[-61.4000005,10.4412502],[-61.3956629,10.4619736],[-61.3966557,10.4870835],[-61.3616785,10.4954168],[-61.3633224,10.5370306],[-61.3373377,10.5452582],[-61.3543218,10.5535793],[-61.3588788,10.571854]],[[-61.3130898,10.5811468],[-61.3326759,10.5708389],[-61.3484086,10.5691097]],[[-61.3484086,10.5691097],[-61.3122401,10.5596299],[-61.3130898,10.5811468]],[[-61.4211273,10.5656948],[-61.4333098,10.5662727]],[[-61.4333098,10.5662727],[-61.4466639,10.5538967],[-61.4456222,10.5276393],[-61.431258,10.5143302],[-61.4269641,10.5100396],[-61.4135752,10.4955856]],[[-61.3705559,10.5632963],[-61.4211273,10.5656948]],[[-61.5166671,10.1579168],[-61.5248865,10.1383571],[-61.5106043,10.1295152],[-61.4882654,10.1506292],[-61.5166671,10.1579168]],[[-61.5166671,10.1579168],[-61.5205978,10.1789862],[-61.5378504,10.1869004],[-61.5266674,10.2286475],[-61.5575042,10.2281774],[-61.5789311,10.22261],[-61.5415044,10.2110541],[-61.558228,10.180272],[-61.5166671,10.1579168]],[[-61.6101243,10.2428778],[-61.6274376,10.2417936],[-61.63377,10.2308016],[-61.6299399,10.2196558],[-61.6166671,10.2162502],[-61.6101243,10.2428778]],[[-61.2975667,10.6515517],[-61.2982063,10.6246471],[-61.3077087,10.6107492],[-61.2935104,10.6011381],[-61.2620888,10.6053705],[-61.2757454,10.6301317],[-61.2748222,10.6464472],[-61.2833023,10.6537752],[-61.2958794,10.6533722]],[[-61.2958794,10.6533722],[-61.2975667,10.6515517]],[[-60.9979669,10.2874564],[-60.9934646,10.3003847],[-61.019841,10.2951442],[-60.9979669,10.2874564]],[[-61.5241318,10.6784916],[-61.5303154,10.6753483],[-61.5434608,10.6839151],[-61.5619777,10.674609]],[[-61.5619777,10.674609],[-61.5415497,10.6678581],[-61.5231743,10.6502914],[-61.4986725,10.6412996]],[[-61.4986725,10.6412996],[-61.494236,10.6501064],[-61.4980583,10.6626673],[-61.5127563,10.6775808],[-61.5241318,10.6784916]],[[-61.4232948,10.5755542],[-61.4333098,10.5662727]],[[-61.4211273,10.5656948],[-61.4232948,10.5755542]],[[-61.4323428,10.6735112],[-61.4437423,10.685818],[-61.4540044,10.7289089],[-61.4636723,10.7378648],[-61.5001997,10.7367605]],[[-61.5001997,10.7367605],[-61.4971886,10.7204113],[-61.5047874,10.7048197],[-61.5231056,10.6881619],[-61.5241318,10.6784916]],[[-61.4986725,10.6412996],[-61.4935071,10.6343473],[-61.470671,10.6289089],[-61.4362472,10.6117254],[-61.4264284,10.5898086]],[[-61.4264284,10.5898086],[-61.4319801,10.6150627],[-61.4330864,10.6480932],[-61.4265404,10.6528788],[-61.4323428,10.6735112]],[[-61.4833338,10.6995835],[-61.4629643,10.6937608],[-61.4776291,10.6796332],[-61.4833338,10.6995835]],[[-61.4250005,10.7495835],[-61.4250005,10.7558105],[-61.4500005,10.765057],[-61.4500005,10.7495835],[-61.4250005,10.7495835]],[[-61.5001997,10.7367605],[-61.5126307,10.7372544],[-61.5376144,10.7284938],[-61.545671,10.7455755],[-61.5567093,10.747776],[-61.5695041,10.743485],[-61.5790044,10.7035915],[-61.6618901,10.6855983],[-61.6539304,10.6782238],[-61.6412582,10.6814365],[-61.6189041,10.6792297],[-61.6035843,10.6855555],[-61.5619777,10.674609]],[[-61.4049791,10.2502721],[-61.4304314,10.260746]],[[-61.4892334,10.248644],[-61.5024287,10.2411144],[-61.4933354,10.2260402],[-61.4703618,10.2294378],[-61.4585373,10.200556],[-61.4777755,10.1686631],[-61.4573328,10.145954],[-61.4215418,10.1675401],[-61.4391525,10.1967311],[-61.4346196,10.2273911],[-61.4049791,10.2502721]],[[-60.8000005,11.1662502],[-60.8386449,11.1610823],[-60.8401149,11.1556451],[-60.8230799,11.1404201],[-60.8000005,11.1662502]],[[-60.8000005,11.1662502],[-60.7739914,11.1497015],[-60.739872,11.1723499],[-60.718159,11.1685293],[-60.7089908,11.1740182],[-60.725562,11.202208],[-60.7403569,11.2116237],[-60.7537033,11.194957],[-60.7962977,11.17921],[-60.8000005,11.1662502]],[[-60.5862503,11.2391033],[-60.5636805,11.24796],[-60.5752772,11.2610174],[-60.5862503,11.2391033]],[[-61.7076961,10.1452482],[-61.6883387,10.1462551],[-61.6562912,10.1642645],[-61.646672,10.1815252],[-61.6642828,10.1863564],[-61.6832771,10.1754951],[-61.6928558,10.1638327],[-61.7071762,10.1545746],[-61.7076961,10.1452482]],[[-61.1028081,10.5957505],[-61.1323166,10.6113958],[-61.1618169,10.5913845],[-61.1446945,10.5791164],[-61.1166671,10.5745835],[-61.1028081,10.5957505]],[[-61.2030469,10.6296276],[-61.187061,10.6468817],[-61.1878667,10.6672145],[-61.2237742,10.6452306]],[[-61.2237742,10.6452306],[-61.2093658,10.6437559],[-61.2030469,10.6296276]],[[-61.2975667,10.6515517],[-61.2991948,10.6497951],[-61.3858322,10.664883],[-61.4125005,10.6789943],[-61.4323428,10.6735112]],[[-61.4264284,10.5898086],[-61.4232948,10.5755542]],[[-61.3588788,10.571854],[-61.3484086,10.5691097]],[[-61.3130898,10.5811468],[-61.3133387,10.5874497],[-61.2666997,10.5776922],[-61.2526291,10.6075018],[-61.2114751,10.6205308],[-61.2030469,10.6296276]],[[-61.2237742,10.6452306],[-61.2428634,10.6335435],[-61.2612554,10.6533962],[-61.2853276,10.6647568],[-61.2958794,10.6533722]],[[-61.3867355,10.6152044],[-61.3721847,10.6279771],[-61.3583338,10.6079168],[-61.3867355,10.6152044]],[[-61.3833338,10.5829168],[-61.3952967,10.5921494],[-61.3756597,10.6024359],[-61.3833338,10.5829168]],[[-61.4000005,10.5829168],[-61.4205978,10.5892767],[-61.4087895,10.6113674],[-61.4000005,10.5829168]],[[-61.4186409,10.29707],[-61.4023198,10.3037502],[-61.4035259,10.3119024]],[[-61.3886795,10.3158839],[-61.3868332,10.3034247],[-61.3965011,10.287409],[-61.3936691,10.2682481],[-61.4142176,10.2712876],[-61.411825,10.2875108],[-61.4191084,10.2931305]],[[-61.4049791,10.2502721],[-61.3950444,10.2579413],[-61.3622238,10.2530951],[-61.3297043,10.2679836],[-61.3547043,10.2782131],[-61.3649337,10.2914658],[-61.3607996,10.3194525],[-61.3645199,10.3242349]]],"bbox":[-61.7076961,10.1295152,-60.5636805,11.2610174]}