{"type":"Topology","objects":{"foo":{"type":"GeometryCollection","geometries":[{"type":"Polygon","arcs":[[0]],"properties":{"name":"Andres Ibanez","gaul_code":40523,"targetarea":315.0458158,"totpop":1496139.625,"country_id":"BOL","targetpop":560873,"totalarea":4936.459325,"new_mean":0.019534}}]}},"arcs":[[[-62.7956009,-17.5251102],[-63.0236664,-17.598238],[-63.1653595,-17.6315556],[-63.1845665,-17.6420612],[-63.2843056,-17.6459713],[-63.3009262,-17.6283722],[-63.3410187,-17.6459713],[-63.3478622,-17.5882816],[-63.3899078,-17.5706806],[-63.4221764,-17.5961037],[-63.4534416,-17.6459675],[-63.5163116,-17.8171177],[-63.6209259,-17.8675804],[-63.6187286,-17.9048901],[-63.5954971,-18.0509186],[-63.6010017,-18.0969639],[-63.5520439,-18.15695],[-63.4918633,-18.2886524],[-63.1286049,-18.1943455],[-63.1622658,-18.0819607],[-63.0342979,-18.0336742],[-62.9085541,-18.0406609],[-62.8213425,-17.9660759],[-62.7841911,-17.9764633],[-62.7834778,-17.8894768],[-62.7633705,-17.826889],[-62.7663269,-17.7670116],[-62.7456131,-17.7091827],[-62.7762413,-17.6692944],[-62.7707939,-17.6117859],[-62.7956009,-17.5251102]]],"bbox":[-63.6209259,-18.2886524,-62.7456131,-17.5251102]}