{"type":"Topology","objects":{"foo":{"type":"GeometryCollection","geometries":[{"type":"Polygon","arcs":[[0,1,2]],"properties":{"name":"Escazu","gaul_code":14537,"targetarea":4.7486757,"totpop":88508.07031,"country_id":"CRI","targetpop":34794.34766,"new_mean":0.0873681,"totalarea":31.1566562}},{"type":"Polygon","arcs":[[3,-3,4,5,6]],"properties":{"name":"San Jose","gaul_code":14545,"targetarea":32.3504224,"totpop":264010.9063,"country_id":"CRI","targetpop":248536.1719,"new_mean":0.1091832,"totalarea":38.368052}},{"type":"Polygon","arcs":[[-7,7,8,9]],"properties":{"name":"Curridabat","gaul_code":14534,"targetarea":12.7520554,"totpop":67235,"country_id":"CRI","targetpop":55976.9375,"new_mean":0.0929693,"totalarea":17.2736013}},{"type":"Polygon","arcs":[[-2,10,-5]],"properties":{"name":"Alajuelita","gaul_code":14532,"targetarea":3.2522064,"totpop":81378.17188,"country_id":"CRI","targetpop":23827.53516,"new_mean":0.0938055,"totalarea":27.2037812}},{"type":"Polygon","arcs":[[-9,11]],"properties":{"name":"La Union","gaul_code":14489,"targetarea":0.6879722,"totpop":96694.25,"country_id":"CRI","targetpop":2961.984619,"new_mean":0.0625405,"totalarea":43.3384357}}]}},"arcs":[[[-84.1526108,9.9625483],[-84.1701584,9.9647741],[-84.1612854,9.9485188],[-84.1585999,9.9377947],[-84.159996,9.9224606],[-84.1592484,9.9050865],[-84.1451111,9.8718805]],[[-84.1451111,9.8718805],[-84.1340714,9.8760786],[-84.132988,9.8926029],[-84.1227722,9.9051743],[-84.1221313,9.9381828]],[[-84.1221313,9.9381828],[-84.12957,9.9460783],[-84.1526108,9.9625483]],[[-84.047493,9.9318047],[-84.0565491,9.9324598],[-84.0653687,9.9469156],[-84.0778427,9.950778],[-84.0913773,9.9615068],[-84.0958099,9.9694853],[-84.1146622,9.9638758],[-84.1343918,9.9687405],[-84.1526108,9.9625483]],[[-84.1221313,9.9381828],[-84.1043167,9.9260674],[-84.0891418,9.9105835]],[[-84.0891418,9.9105835],[-84.0664062,9.9174976],[-84.049942,9.9104452]],[[-84.049942,9.9104452],[-84.0466385,9.9225302],[-84.047493,9.9318047]],[[-84.049942,9.9104452],[-84.0260162,9.9062939]],[[-84.0260162,9.9062939],[-84.0112076,9.9165926],[-83.9986267,9.9313278],[-83.9975281,9.9469528]],[[-83.9975281,9.9469528],[-84.0311356,9.9406443],[-84.047493,9.9318047]],[[-84.1451111,9.8718805],[-84.1460724,9.8625574],[-84.1337357,9.8523951],[-84.1108093,9.874608],[-84.0918503,9.8874178],[-84.0891418,9.9105835]],[[-84.0260162,9.9062939],[-84.0274429,9.8915606],[-84.000946,9.8934765],[-83.9959869,9.8879128],[-83.9608841,9.8948612],[-83.9505844,9.9158344],[-83.9451828,9.9399719],[-83.9474182,9.9564056],[-83.9906845,9.950737],[-83.9975281,9.9469528]]],"bbox":[-84.1701584,9.8523951,-83.9451828,9.9694853]}