{"type":"Topology","objects":{"foo":{"type":"GeometryCollection","geometries":[{"type":"Polygon","arcs":[[0,1,2]],"properties":{"name":"District #1","gaul_code":39187,"targetarea":9.2601804,"totpop":48962.3125,"country_id":"LBR","targetpop":16177.38086,"totalarea":1301.11738,"new_mean":0.0165701}},{"type":"Polygon","arcs":[[3,4,-2]],"properties":{"name":"Firestone","gaul_code":39209,"targetarea":40.385864,"totpop":117074.7813,"country_id":"LBR","targetpop":64093.14063,"totalarea":492.4257855,"new_mean":0.0168222}},{"type":"Polygon","arcs":[[5,6,7]],"properties":{"name":"Greater Monrovia","gaul_code":39216,"targetarea":72.9420345,"totpop":227039.0938,"country_id":"LBR","targetpop":211534.75,"totalarea":142.249039,"new_mean":0.0194575}},{"type":"Polygon","arcs":[[8,9]],"properties":{"name":"Klay","gaul_code":39172,"targetarea":9.1913316,"totpop":66821.21094,"country_id":"LBR","targetpop":23398.20898,"totalarea":1837.156352,"new_mean":0.018021}},{"type":"Polygon","arcs":[[10,11,-8,12,-3,-5]],"properties":{"name":"Mambah-Kaba","gaul_code":39212,"targetarea":0.9139295,"totpop":22235.70898,"country_id":"LBR","targetpop":1596.745361,"totalarea":564.1637591,"new_mean":0.019035}},{"type":"Polygon","arcs":[[10,11,-8,12,-3,-5]],"properties":{"name":"Mambah-Kaba","gaul_code":39212,"targetarea":0.9139295,"totpop":22235.70898,"country_id":"LBR","targetpop":1596.745361,"totalarea":564.1637591,"new_mean":0.0191343}},{"type":"Polygon","arcs":[[-12,13,-10,14,-6]],"properties":{"name":"St Paul River","gaul_code":39217,"targetarea":21.6160772,"totpop":109338.2031,"country_id":"LBR","targetpop":63463.11328,"totalarea":310.7605604,"new_mean":0.018032}}]}},"arcs":[[[-10.3710301,6.1271007],[-10.3535986,6.10465],[-10.2606659,6.0673771],[-10.23246,6.050745],[-10.2109346,6.0281568],[-10.196106,5.9954758],[-10.1784639,5.9807129],[-10.1449661,5.9684281],[-10.1318996,5.9564157],[-10.099802,6.003613],[-10.091547,6.0211992],[-10.1017942,6.0540152],[-10.105382,6.080554],[-10.0869093,6.096632],[-10.0640049,6.1261549],[-10.0519447,6.1502872],[-10.0749664,6.1835861],[-10.081048,6.220614],[-10.0507154,6.271317],[-10.0390177,6.309309],[-10.036437,6.33358],[-10.0382261,6.365633],[-10.05124,6.3672509],[-10.0718241,6.3597221],[-10.114769,6.359045],[-10.1180477,6.3779621],[-10.1401424,6.4125962],[-10.1474009,6.429769],[-10.1199713,6.455143],[-10.1280928,6.4779401],[-10.1436434,6.4944019],[-10.1584606,6.5285101],[-10.1691856,6.529654],[-10.2028379,6.5010309],[-10.2285748,6.468461]],[[-10.2285748,6.468461],[-10.233613,6.444766],[-10.2514572,6.426084],[-10.2693005,6.4145241],[-10.265729,6.380722],[-10.2719774,6.361155],[-10.2890596,6.3430219],[-10.3148022,6.3344679],[-10.3067722,6.325573],[-10.3148022,6.2988911],[-10.3067722,6.292665],[-10.323101,6.2777891],[-10.3433523,6.2517481],[-10.3395252,6.2269759]],[[-10.3395252,6.2269759],[-10.3552504,6.1676311],[-10.3710301,6.1271007]],[[-10.2285748,6.468461],[-10.243165,6.4901662],[-10.288208,6.4966159],[-10.3084154,6.4914451],[-10.3287592,6.492312],[-10.3499689,6.5102611],[-10.378808,6.5079579],[-10.381217,6.4777241],[-10.3980799,6.4517479],[-10.425395,6.4202189],[-10.4289999,6.4082971],[-10.4174032,6.3816099],[-10.4414921,6.3816099],[-10.454874,6.374495],[-10.4807491,6.376276],[-10.5119638,6.369184]],[[-10.5119638,6.369184],[-10.5101204,6.335443],[-10.4981232,6.321352],[-10.4662409,6.29704],[-10.437685,6.2811389],[-10.3777981,6.2559199],[-10.3395252,6.2269759]],[[-10.6872988,6.306529],[-10.729867,6.3217201],[-10.7482862,6.3525681],[-10.7325697,6.3912382],[-10.7308042,6.4194463]],[[-10.7308042,6.4194463],[-10.7402077,6.404851],[-10.7668905,6.3952651],[-10.7986574,6.3742008],[-10.7883615,6.3551059],[-10.7904549,6.344542],[-10.8114185,6.322072],[-10.8116817,6.3089762],[-10.7545614,6.2681699],[-10.7226362,6.2616601],[-10.7063456,6.252429],[-10.6926003,6.23562],[-10.6456752,6.2228107]],[[-10.6456752,6.2228107],[-10.6513567,6.239264],[-10.6872988,6.306529]],[[-10.6479988,6.490088],[-10.6134033,6.4915271],[-10.5960417,6.5010099],[-10.5894318,6.5233679],[-10.611536,6.5455132],[-10.6359167,6.5642152],[-10.647542,6.606544],[-10.6506948,6.631299],[-10.6706839,6.6920891],[-10.6685724,6.699542],[-10.671504,6.74933],[-10.7063942,6.803421],[-10.7399588,6.8201451],[-10.7522488,6.838758],[-10.7978802,6.8987732],[-10.8999767,6.9611301],[-10.951786,6.981709],[-10.981926,6.961103],[-10.992197,6.928709],[-10.9971399,6.900106],[-10.99757,6.8474112],[-10.988224,6.793684],[-11.019187,6.7645402],[-11.048542,6.719666],[-11.07195,6.6785512],[-11.0916557,6.6495242],[-11.0943746,6.5955295],[-11.0643854,6.5811357],[-11.0567951,6.5707369],[-11.0423203,6.5672631],[-10.9789429,6.5361171],[-10.9155836,6.4992218],[-10.8451405,6.4471421],[-10.8284159,6.4238982],[-10.8107595,6.4066262],[-10.7995044,6.3868222]],[[-10.7995044,6.3868222],[-10.7833681,6.399507],[-10.7819204,6.4228382],[-10.79638,6.4362712],[-10.8076954,6.464191],[-10.828289,6.472949],[-10.827425,6.494235],[-10.8103361,6.5161819],[-10.799798,6.5412059],[-10.7809582,6.563211],[-10.7620821,6.563982],[-10.726552,6.528285],[-10.681035,6.497344],[-10.6479988,6.490088]],[[-10.5119638,6.369184],[-10.5464869,6.3749819],[-10.5907106,6.3779259],[-10.6134081,6.376471]],[[-10.6134081,6.376471],[-10.636034,6.3755741],[-10.6689863,6.3653231],[-10.6873055,6.345418],[-10.6912527,6.3305092],[-10.6872988,6.306529]],[[-10.6456752,6.2228107],[-10.5961561,6.2114787],[-10.5832834,6.2135139],[-10.5649357,6.2005982],[-10.4560976,6.1745682],[-10.4492245,6.1681151],[-10.3962088,6.1470551],[-10.3710301,6.1271007]],[[-10.6134081,6.376471],[-10.6669712,6.4206872],[-10.67838,6.4400001],[-10.6494513,6.441566],[-10.6276684,6.4499512],[-10.6646957,6.468513],[-10.6679144,6.4823442],[-10.6479988,6.490088]],[[-10.7995044,6.3868222],[-10.7912807,6.3833742],[-10.7703228,6.4017062],[-10.7496328,6.403955],[-10.7308042,6.4194463]]],"bbox":[-11.0943746,5.9564157,-10.036437,6.981709]}