{"type":"Topology","objects":{"foo":{"type":"GeometryCollection","geometries":[{"type":"Polygon","arcs":[[0,1,2]],"properties":{"name":"Administrative unit not available","gaul_code":19541,"targetarea":33.4739247,"totpop":263329.5313,"country_id":"MUS","targetpop":98205.3125,"new_mean":0.0831671,"totalarea":184.3593626}},{"type":"Polygon","arcs":[[3,-3,4,5]],"properties":{"name":"Administrative unit not available","gaul_code":19542,"targetarea":11.5222822,"totpop":82111.84375,"country_id":"MUS","targetpop":33857.74219,"new_mean":0.0871856,"totalarea":39.4011425}},{"type":"Polygon","arcs":[[-2,6,7,-5]],"properties":{"name":"Administrative unit not available","gaul_code":19539,"targetarea":14.3048583,"totpop":167157.7188,"country_id":"MUS","targetpop":26825.67188,"new_mean":0.0821602,"totalarea":228.5371917}},{"type":"Polygon","arcs":[[8,-6,-8]],"properties":{"name":"Administrative unit not available","gaul_code":19540,"targetarea":12.3917207,"totpop":135052.375,"country_id":"MUS","targetpop":36398.98047,"new_mean":0.096004,"totalarea":180.5712226}}]}},"arcs":[[[57.4599342,-20.1899509],[57.4399338,-20.2199726],[57.4500008,-20.2299786],[57.4500008,-20.2799511],[57.4399338,-20.3099728],[57.4500008,-20.3199787],[57.4500008,-20.3399925],[57.4599342,-20.3500004],[57.4399338,-20.3699512],[57.4399338,-20.3999729],[57.4699326,-20.4199867],[57.489933,-20.3999729],[57.5099335,-20.4099789],[57.5599327,-20.3699512],[57.5900002,-20.3399925]],[[57.5900002,-20.3399925],[57.5499992,-20.3399925],[57.5200005,-20.2999649],[57.5200005,-20.2799511],[57.5,-20.2600002],[57.4799995,-20.2499924],[57.4699326,-20.2299786],[57.4699326,-20.1899509]],[[57.4699326,-20.1899509],[57.4599342,-20.1899509]],[[57.4959553,-20.1499863],[57.4902534,-20.1602402],[57.4599342,-20.1700001],[57.4599342,-20.1899509]],[[57.4699326,-20.1899509],[57.489933,-20.1899509],[57.5,-20.1999588],[57.5400009,-20.1999588],[57.5499992,-20.1899509]],[[57.5499992,-20.1899509],[57.5400009,-20.1599922],[57.5200005,-20.1399784],[57.4959553,-20.1499863]],[[57.5900002,-20.3399925],[57.6300011,-20.3299866],[57.6599998,-20.3399925],[57.6599998,-20.2799511],[57.6100006,-20.2499924],[57.6399994,-20.2199726],[57.6100006,-20.1899509]],[[57.6100006,-20.1899509],[57.5900002,-20.1899509],[57.5799332,-20.1999588],[57.5499992,-20.1899509]],[[57.6100006,-20.1899509],[57.6100006,-20.1700001],[57.6300011,-20.1700001],[57.6399994,-20.1599922],[57.6199341,-20.1299725],[57.6199341,-20.1099586],[57.5999336,-20.0899448],[57.5999336,-20.0599861],[57.5599327,-20.0199585],[57.5492897,-20.0210056],[57.5184555,-20.0570431],[57.5053291,-20.0801525],[57.5098686,-20.1061668],[57.4917336,-20.1156483],[57.4959553,-20.1499863]]],"bbox":[57.4399338,-20.4199867,57.6599998,-20.0199585]}